{"type": "FeatureCollection", "features": [{"type": "Feature", "geometry": null, "properties": {"id": "1Qw8", "status": "validé", "pieces": [{"kind": "country"}]}}, {"type": "Feature", "geometry": {"type": "Polygon", "coordinates": [[[1.54452, 42.50141], [1.54452, 42.51166], [1.51397, 42.51166], [1.51397, 42.50141], [1.54452, 42.50141]]]}, "properties": {"id": "3F4R", "status": "validé", "pieces": [{"kind": "rect", "bounds": [1.51397, 42.50141, 1.54452, 42.51166]}]}}, {"type": "Feature", "geometry": null, "properties": {"id": "4Dnj", "status": "validé", "pieces": [{"kind": "country"}]}}, {"type": "Feature", "geometry": null, "properties": {"id": "JMBH", "status": "validé", "pieces": [{"kind": "country"}]}}, {"type": "Feature", "geometry": null, "properties": {"id": "LHX7", "status": "validé", "pieces": [{"kind": "country"}]}}, {"type": "Feature", "geometry": null, "properties": {"id": "NHCC", "status": "validé", "pieces": [{"kind": "country"}]}}, {"type": "Feature", "geometry": {"type": "Polygon", "coordinates": [[[1.54118, 42.50343], [1.54118, 42.51077], [1.51345, 42.51077], [1.51345, 42.50343], [1.54118, 42.50343]]]}, "properties": {"id": "OMfo", "status": "validé", "pieces": [{"kind": "rect", "bounds": [1.51345, 42.50343, 1.54118, 42.51077]}]}}, {"type": "Feature", "geometry": null, "properties": {"id": "PGfc", "status": "rejeté", "pieces": []}}, {"type": "Feature", "geometry": null, "properties": {"id": "QX0k", "status": "validé", "pieces": [{"kind": "country"}]}}, {"type": "Feature", "geometry": null, "properties": {"id": "TBFy", "status": "validé", "pieces": [{"kind": "country"}]}}, {"type": "Feature", "geometry": null, "properties": {"id": "ZYyW", "status": "validé", "pieces": [{"kind": "country"}]}}, {"type": "Feature", "geometry": null, "properties": {"id": "kLb3", "status": "validé", "pieces": [{"kind": "country"}]}}, {"type": "Feature", "geometry": null, "properties": {"id": "oy4W", "status": "validé", "pieces": [{"kind": "country"}]}}, {"type": "Feature", "geometry": {"type": "Polygon", "coordinates": [[[1.73824, 42.53844], [1.73824, 42.55058], [1.72691, 42.55058], [1.72691, 42.53844], [1.73824, 42.53844]]]}, "properties": {"id": "vpA3", "status": "validé", "pieces": [{"kind": "rect", "bounds": [1.72691, 42.53844, 1.73824, 42.55058]}]}}, {"type": "Feature", "geometry": null, "properties": {"id": "yQEn", "status": "validé", "pieces": [{"kind": "country"}]}}, {"type": "Feature", "geometry": null, "properties": {"id": "zsXQ", "status": "validé", "pieces": [{"kind": "country"}]}}]}