{"type": "FeatureCollection", "features": [{"type": "Feature", "geometry": null, "properties": {"id": "1rPJ", "status": "validé", "pieces": [{"kind": "country"}]}}, {"type": "Feature", "geometry": null, "properties": {"id": "28Pr", "status": "rejeté", "pieces": []}}, {"type": "Feature", "geometry": null, "properties": {"id": "43f2", "status": "validé", "pieces": [{"kind": "country"}]}}, {"type": "Feature", "geometry": {"type": "Polygon", "coordinates": [[[52.58717, 24.3605], [52.61109, 24.37324], [52.63446, 24.3666], [52.64538, 24.35072], [52.65085, 24.3249], [52.64877, 24.30952], [52.62721, 24.2836], [52.60865, 24.26826], [52.59215, 24.25337], [52.57906, 24.26626], [52.56814, 24.28313], [52.5561, 24.30695], [52.55824, 24.32681], [52.57447, 24.34394], [52.58717, 24.3605]]]}, "properties": {"id": "9WlQ", "status": "validé", "pieces": [{"kind": "rect", "bounds": [52.49954, 24.23096, 52.68906, 24.38858]}, {"kind": "clip"}]}}, {"type": "Feature", "geometry": null, "properties": {"id": "A3rG", "status": "rejeté", "pieces": []}}, {"type": "Feature", "geometry": null, "properties": {"id": "AD1q", "status": "validé", "pieces": [{"kind": "country"}]}}, {"type": "Feature", "geometry": null, "properties": {"id": "GHHD", "status": "rejeté", "pieces": []}}, {"type": "Feature", "geometry": null, "properties": {"id": "HIpw", "status": "validé", "pieces": [{"kind": "country"}]}}, {"type": "Feature", "geometry": null, "properties": {"id": "Lxlq", "status": "validé", "pieces": [{"kind": "country"}]}}, {"type": "Feature", "geometry": {"type": "Polygon", "coordinates": [[[55.82742, 25.71012], [55.84246, 25.71381], [55.8781, 25.74006], [55.93247, 25.80256], [55.95973, 25.82368], [55.95379, 25.8146], [55.94744, 25.79409], [55.93718, 25.77668], [55.94125, 25.7707], [55.9485, 25.76895], [55.95232, 25.77212], [55.95444, 25.7871], [55.96372, 25.81537], [55.96599, 25.83422], [55.97234, 25.84284], [56.01441, 25.87885], [56.0232, 25.88923], [56.03077, 25.90086], [56.03688, 25.91511], [56.04103, 25.93354], [56.03419, 25.93354], [56.03061, 25.92426], [56.02467, 25.91645], [56.01694, 25.91047], [56.00758, 25.90689], [56.0337, 25.94644], [56.05535, 25.98876], [56.07325, 26.05231], [56.0774, 26.06105], [56.10059, 26.06285], [56.15133, 26.07479], [56.1627, 26.07355], [56.17841, 26.035], [56.18348, 26.01454], [56.1813, 25.99624], [56.17469, 25.96653], [56.17056, 25.87682], [56.16384, 25.86245], [56.14451, 25.83791], [56.13965, 25.82297], [56.1441, 25.80592], [56.16735, 25.7777], [56.172, 25.76525], [56.16487, 25.75218], [56.15195, 25.74313], [56.1412, 25.73269], [56.14038, 25.71554], [56.14513, 25.67084], [56.15082, 25.65885], [56.1525, 25.65796], [56.1564, 25.6559], [56.17986, 25.65208], [56.18885, 25.64541], [56.18952, 25.64405], [55.82742, 25.71012]]]}, "properties": {"id": "M22T", "status": "validé", "pieces": [{"kind": "polygon", "ring": [[55.78033, 25.71871], [56.21429, 25.63953], [56.34888, 26.12613], [56.01379, 26.13845]]}, {"kind": "clip"}]}}, {"type": "Feature", "geometry": null, "properties": {"id": "RONH", "status": "validé", "pieces": [{"kind": "country"}]}}, {"type": "Feature", "geometry": {"type": "MultiPolygon", "coordinates": [[[[56.23627, 25.59969], [56.2884, 25.62248], [56.3003, 25.61616], [56.32325, 25.60781], [56.34002, 25.60456], [56.34799, 25.59308], [56.36997, 25.5257], [56.36378, 25.43325], [56.365, 25.42316], [56.36834, 25.39631], [56.36695, 25.38886], [56.35922, 25.37641], [56.3602, 25.36726], [56.36997, 25.3513], [56.37468, 25.34121], [56.37916, 25.33462], [56.3825, 25.32685], [56.38299, 25.32127], [56.38364, 25.31346], [56.38266, 25.30223], [56.37843, 25.28262], [56.37526, 25.25275], [56.36598, 25.20922], [56.36223, 25.06826], [56.36199, 25.05728], [56.38331, 24.97822], [56.32899, 24.97269], [56.32445, 24.96794], [56.31928, 24.96253], [56.31605, 24.92991], [56.31428, 24.91196], [56.3136, 24.90507], [56.30833, 24.89517], [56.28032, 24.87698], [56.27468, 24.87195], [56.24166, 24.84244], [56.22368, 24.83448], [56.21652, 24.83367], [56.2088, 24.83717], [56.2224, 25.21463], [56.23577, 25.21118], [56.2522, 25.21764], [56.28176, 25.23691], [56.29315, 25.24585], [56.31643, 25.25335], [56.34437, 25.26653], [56.34912, 25.29403], [56.30937, 25.30133], [56.29069, 25.32754], [56.26062, 25.33107], [56.23363, 25.31253], [56.23567, 25.29629], [56.23888, 25.28625], [56.24489, 25.27799], [56.23513, 25.26748], [56.22412, 25.2625], [56.23627, 25.59969]]], [[[56.25958, 25.27598], [56.26508, 25.28118], [56.27381, 25.28129], [56.28833, 25.27193], [56.28298, 25.25548], [56.26303, 25.24922], [56.25958, 25.27598]]]]}, "properties": {"id": "SEgX", "status": "validé", "pieces": [{"kind": "polygon", "ring": [[56.23627, 25.59969], [56.2088, 24.83717], [56.40106, 24.74994], [56.6098, 24.88201], [56.51093, 25.46095], [56.42303, 25.68136]]}, {"kind": "clip"}]}}, {"type": "Feature", "geometry": {"type": "Polygon", "coordinates": [[[55.31136, 25.15659], [55.31136, 25.20939], [55.23651, 25.20939], [55.23651, 25.15659], [55.31136, 25.15659]]]}, "properties": {"id": "YjWs", "status": "validé", "pieces": [{"kind": "rect", "bounds": [55.23651, 25.15659, 55.31136, 25.20939]}]}}, {"type": "Feature", "geometry": {"type": "Polygon", "coordinates": [[[55.49126, 25.33352], [55.49126, 25.10253], [55.20355, 25.10253], [55.20355, 25.15088], [55.25904, 25.21528], [55.26417, 25.23119], [55.26336, 25.24494], [55.2824, 25.26069], [55.29835, 25.25849], [55.31332, 25.23892], [55.31837, 25.22529], [55.31422, 25.21206], [55.30112, 25.19367], [55.32887, 25.20148], [55.33424, 25.21922], [55.32651, 25.2412], [55.30641, 25.27505], [55.30372, 25.28303], [55.30926, 25.29173], [55.33937, 25.32144], [55.34815, 25.32477], [55.36329, 25.32404], [55.35978, 25.33352], [55.49126, 25.33352]]]}, "properties": {"id": "b44v", "status": "validé", "pieces": [{"kind": "rect", "bounds": [55.20355, 25.10253, 55.49126, 25.33352]}, {"kind": "clip"}]}}, {"type": "Feature", "geometry": null, "properties": {"id": "eQKo", "status": "rejeté", "pieces": []}}, {"type": "Feature", "geometry": {"type": "MultiPolygon", "coordinates": [[[[55.94513, 25.29732], [55.85177, 25.72067], [55.8781, 25.74006], [55.93247, 25.80256], [55.95973, 25.82368], [55.95379, 25.8146], [55.94744, 25.79409], [55.93718, 25.77668], [55.94125, 25.7707], [55.9485, 25.76895], [55.95232, 25.77212], [55.95444, 25.7871], [55.96372, 25.81537], [55.96599, 25.83422], [55.97234, 25.84284], [56.01441, 25.87885], [56.0232, 25.88923], [56.03077, 25.90086], [56.03688, 25.91511], [56.04103, 25.93354], [56.03419, 25.93354], [56.03061, 25.92426], [56.02467, 25.91645], [56.01694, 25.91047], [56.00758, 25.90689], [56.0337, 25.94644], [56.05535, 25.98876], [56.07325, 26.05231], [56.0774, 26.06105], [56.10059, 26.06285], [56.15133, 26.07479], [56.1627, 26.07355], [56.17841, 26.035], [56.18348, 26.01454], [56.1813, 25.99624], [56.17469, 25.96653], [56.17056, 25.87682], [56.16384, 25.86245], [56.14451, 25.83791], [56.13965, 25.82297], [56.1441, 25.80592], [56.16735, 25.7777], [56.172, 25.76525], [56.16487, 25.75218], [56.15195, 25.74313], [56.1412, 25.73269], [56.14038, 25.71554], [56.14513, 25.67084], [56.15082, 25.65885], [56.1525, 25.65796], [56.1564, 25.6559], [56.17986, 25.65208], [56.18885, 25.64541], [56.19877, 25.62526], [56.2058, 25.61777], [56.22151, 25.61384], [56.23753, 25.61658], [56.27905, 25.62745], [56.3003, 25.61616], [56.32325, 25.60781], [56.34002, 25.60456], [56.34799, 25.59308], [56.36997, 25.5257], [56.36378, 25.43325], [56.365, 25.42316], [56.36834, 25.39631], [56.36695, 25.38886], [56.35922, 25.37641], [56.3602, 25.36726], [56.36997, 25.3513], [56.37468, 25.34121], [56.37916, 25.33462], [56.3825, 25.32685], [56.38299, 25.32127], [56.38364, 25.31346], [56.38266, 25.30223], [56.37843, 25.28262], [56.37526, 25.25275], [56.36598, 25.20922], [56.36223, 25.06826], [56.36199, 25.05728], [56.38331, 24.97822], [56.32899, 24.97269], [56.32445, 24.96794], [56.31928, 24.96253], [56.31605, 24.92991], [56.31428, 24.91196], [56.3136, 24.90507], [56.30833, 24.89517], [56.28032, 24.87698], [56.27468, 24.87195], [56.24166, 24.84244], [56.22368, 24.83448], [56.18626, 24.83024], [56.17137, 24.82407], [56.17118, 24.82399], [56.15485, 24.78671], [56.13335, 24.76283], [56.12725, 24.7457], [56.11826, 24.73542], [56.09914, 24.73051], [56.07795, 24.72976], [56.07627, 24.72997], [56.06214, 24.73177], [56.03155, 24.75415], [56.00209, 24.82301], [55.96478, 24.85386], [55.95765, 24.86866], [55.96085, 24.88125], [55.97842, 24.88611], [55.99238, 24.883], [56.00529, 24.87698], [56.02927, 24.86117], [56.02525, 24.88256], [56.01697, 24.92662], [56.0056, 24.95618], [55.97842, 24.97176], [55.97587, 24.97211], [55.93543, 24.97773], [55.91782, 24.97355], [55.94513, 25.29732]], [[56.23363, 25.31253], [56.23567, 25.29629], [56.23888, 25.28625], [56.24489, 25.27799], [56.23513, 25.26748], [56.20837, 25.25537], [56.20612, 25.2306], [56.20763, 25.22084], [56.21996, 25.21526], [56.23577, 25.21118], [56.2522, 25.21764], [56.28176, 25.23691], [56.29315, 25.24585], [56.31643, 25.25335], [56.34437, 25.26653], [56.34912, 25.29403], [56.30937, 25.30133], [56.29069, 25.32754], [56.26062, 25.33107], [56.23363, 25.31253]]], [[[56.25958, 25.27598], [56.26508, 25.28118], [56.27381, 25.28129], [56.28833, 25.27193], [56.28298, 25.25548], [56.26303, 25.24922], [56.25958, 25.27598]]]]}, "properties": {"id": "hV8q", "status": "validé", "pieces": [{"kind": "polygon", "ring": [[55.84351, 25.75813], [55.94513, 25.29732], [55.91766, 24.97172], [55.9671, 24.64526], [56.65649, 24.69765], [56.44501, 25.79027], [56.28571, 26.11365], [56.02478, 26.12598]]}, {"kind": "clip"}]}}, {"type": "Feature", "geometry": null, "properties": {"id": "jc6S", "status": "validé", "pieces": [{"kind": "country"}]}}, {"type": "Feature", "geometry": null, "properties": {"id": "k0FZ", "status": "rejeté", "pieces": []}}, {"type": "Feature", "geometry": null, "properties": {"id": "lRZb", "status": "validé", "pieces": [{"kind": "country"}]}}, {"type": "Feature", "geometry": null, "properties": {"id": "nA0w", "status": "validé", "pieces": [{"kind": "country"}]}}, {"type": "Feature", "geometry": null, "properties": {"id": "oJYL", "status": "validé", "pieces": [{"kind": "country"}]}}, {"type": "Feature", "geometry": null, "properties": {"id": "r48B", "status": "rejeté", "pieces": []}}, {"type": "Feature", "geometry": null, "properties": {"id": "uy32", "status": "validé", "pieces": [{"kind": "country"}]}}, {"type": "Feature", "geometry": null, "properties": {"id": "z1O8", "status": "validé", "pieces": [{"kind": "country"}]}}]}