{"type": "FeatureCollection", "features": [{"type": "Feature", "geometry": {"type": "Polygon", "coordinates": [[[-169.58187, -14.2134], [-169.58187, -14.15085], [-169.69757, -14.15085], [-169.69757, -14.2134], [-169.58187, -14.2134]]]}, "properties": {"id": "0C0S", "status": "validé", "pieces": [{"kind": "rect", "bounds": [-169.69757, -14.2134, -169.58187, -14.15085]}]}}, {"type": "Feature", "geometry": {"type": "Polygon", "coordinates": [[[-169.67294, -14.18218], [-169.67418, -14.18567], [-169.66457, -14.18758], [-169.6659, -14.18147], [-169.67294, -14.18218]]]}, "properties": {"id": "H73S", "status": "validé", "pieces": [{"kind": "polygon", "ring": [[-169.67294, -14.18218], [-169.67418, -14.18567], [-169.66457, -14.18758], [-169.6659, -14.18147]]}]}}, {"type": "Feature", "geometry": null, "properties": {"id": "OwzU", "status": "validé", "pieces": [{"kind": "country"}]}}, {"type": "Feature", "geometry": {"type": "Polygon", "coordinates": [[[-169.36798, -14.30671], [-169.36798, -14.18298], [-169.53003, -14.18298], [-169.53003, -14.30671], [-169.36798, -14.30671]]]}, "properties": {"id": "UnVR", "status": "validé", "pieces": [{"kind": "rect", "bounds": [-169.53003, -14.30671, -169.36798, -14.18298]}]}}, {"type": "Feature", "geometry": null, "properties": {"id": "Ve3W", "status": "rejeté", "pieces": []}}, {"type": "Feature", "geometry": {"type": "Polygon", "coordinates": [[[-169.63287, -14.16794], [-169.63338, -14.16871], [-169.63144, -14.16947], [-169.63132, -14.16857], [-169.63287, -14.16794]]]}, "properties": {"id": "W6tU", "status": "validé", "pieces": [{"kind": "polygon", "ring": [[-169.63287, -14.16794], [-169.63338, -14.16871], [-169.63144, -14.16947], [-169.63132, -14.16857]]}]}}, {"type": "Feature", "geometry": {"type": "Polygon", "coordinates": [[[-170.45563, -14.44236], [-170.45563, -14.16568], [-170.88135, -14.16568], [-170.88135, -14.44236], [-170.45563, -14.44236]]]}, "properties": {"id": "pQyl", "status": "validé", "pieces": [{"kind": "rect", "bounds": [-170.88135, -14.44236, -170.45563, -14.16568]}]}}]}