{"type": "FeatureCollection", "features": [{"type": "Feature", "geometry": null, "properties": {"id": "0Ecv", "status": "validé", "pieces": [{"kind": "country"}]}}, {"type": "Feature", "geometry": {"type": "Polygon", "coordinates": [[[10.00854, 47.40644], [10.047, 47.32462], [10.16785, 47.25013], [10.33264, 47.25013], [10.41504, 47.22031], [10.40405, 47.1606], [10.30518, 47.09336], [10.11292, 47.06718], [9.92615, 47.07466], [9.71741, 47.20539], [9.58557, 47.28367], [9.55937, 47.30483], [9.5874, 47.32781], [9.59123, 47.33468], [9.5964, 47.35231], [9.60105, 47.36127], [9.6398, 47.39452], [9.64952, 47.40972], [9.65035, 47.45209], [9.62172, 47.4692], [9.58451, 47.48072], [9.55495, 47.5109], [9.55306, 47.51689], [9.54748, 47.53455], [9.54989, 47.53353], [9.55414, 47.53274], [9.61262, 47.52188], [9.6767, 47.52263], [9.70399, 47.53142], [9.71846, 47.54671], [9.73086, 47.5649], [9.75267, 47.58206], [9.76713, 47.58728], [9.78212, 47.58841], [9.79628, 47.58495], [9.80796, 47.57632], [9.81127, 47.56449], [9.8093, 47.55232], [9.81313, 47.54175], [9.83349, 47.53462], [9.84155, 47.53503], [9.85385, 47.54041], [9.85891, 47.54134], [9.88899, 47.53379], [9.91875, 47.53219], [9.93384, 47.53421], [9.94594, 47.54077], [9.94873, 47.52423], [9.95916, 47.51488], [9.96311, 47.51221], [10.00854, 47.40644]]]}, "properties": {"id": "0jT0", "status": "validé", "pieces": [{"kind": "polygon", "ring": [[9.95911, 47.52152], [10.00854, 47.40644], [10.047, 47.32462], [10.16785, 47.25013], [10.33264, 47.25013], [10.41504, 47.22031], [10.40405, 47.1606], [10.30518, 47.09336], [10.11292, 47.06718], [9.92615, 47.07466], [9.71741, 47.20539], [9.58557, 47.28367], [9.44275, 47.39901], [9.50317, 47.7029], [9.95361, 47.7583]]}, {"kind": "clip"}]}}, {"type": "Feature", "geometry": null, "properties": {"id": "3bP3", "status": "validé", "pieces": [{"kind": "country"}]}}, {"type": "Feature", "geometry": null, "properties": {"id": "3ouy", "status": "validé", "pieces": [{"kind": "country"}]}}, {"type": "Feature", "geometry": null, "properties": {"id": "6K4Z", "status": "validé", "pieces": [{"kind": "admin1", "code": "AUT-2320"}]}}, {"type": "Feature", "geometry": null, "properties": {"id": "9j96", "status": "rejeté", "pieces": []}}, {"type": "Feature", "geometry": {"type": "MultiPolygon", "coordinates": [[[[11.29944, 47.1994], [11.29944, 47.29911], [11.51779, 47.29911], [11.51779, 47.1994], [11.29944, 47.1994]]], [[[16.24191, 48.11311], [16.24191, 48.26594], [16.51245, 48.26594], [16.51245, 48.11311], [16.24191, 48.11311]]]]}, "properties": {"id": "AH8p", "status": "validé", "pieces": [{"kind": "rect", "bounds": [16.24191, 48.11311, 16.51245, 48.26594]}, {"kind": "rect", "bounds": [11.29944, 47.1994, 11.51779, 47.29911]}]}}, {"type": "Feature", "geometry": null, "properties": {"id": "Aj8O", "status": "validé", "pieces": [{"kind": "country"}]}}, {"type": "Feature", "geometry": null, "properties": {"id": "FhCj", "status": "validé", "pieces": [{"kind": "admin1", "code": "AUT-2326"}]}}, {"type": "Feature", "geometry": null, "properties": {"id": "KsHC", "status": "validé", "pieces": [{"kind": "country"}]}}, {"type": "Feature", "geometry": null, "properties": {"id": "Lxtx", "status": "validé", "pieces": [{"kind": "country"}]}}, {"type": "Feature", "geometry": null, "properties": {"id": "N5fI", "status": "rejeté", "pieces": []}}, {"type": "Feature", "geometry": null, "properties": {"id": "NQvW", "status": "validé", "pieces": [{"kind": "country"}]}}, {"type": "Feature", "geometry": null, "properties": {"id": "PGTR", "status": "validé", "pieces": [{"kind": "country"}]}}, {"type": "Feature", "geometry": null, "properties": {"id": "UnOK", "status": "validé", "pieces": [{"kind": "admin1", "code": "AUT-2327"}]}}, {"type": "Feature", "geometry": null, "properties": {"id": "W0XX", "status": "validé", "pieces": [{"kind": "country"}]}}, {"type": "Feature", "geometry": {"type": "MultiPolygon", "coordinates": [[[[9.85633, 47.00408], [9.85798, 47.01548], [9.66905, 47.0562], [9.65231, 47.05793], [9.59991, 47.05349], [9.5812, 47.05687], [9.58825, 47.06298], [9.60513, 47.07759], [9.6088, 47.08077], [9.61572, 47.10676], [9.61416, 47.1107], [9.60951, 47.12241], [9.60559, 47.13227], [9.58182, 47.1549], [9.56711, 47.16083], [9.55206, 47.16689], [9.55195, 47.17557], [9.56188, 47.19061], [9.56291, 47.19774], [9.55433, 47.21162], [9.54482, 47.22032], [9.54038, 47.22911], [9.54313, 47.23482], [9.5471, 47.24303], [9.53418, 47.25118], [9.53025, 47.25365], [9.52116, 47.2628], [9.5533, 47.29985], [9.5874, 47.32781], [9.59123, 47.33468], [9.5964, 47.35231], [9.60105, 47.36127], [9.6398, 47.39452], [9.64952, 47.40972], [9.65035, 47.45209], [9.62172, 47.4692], [9.58451, 47.48072], [9.55495, 47.5109], [9.55306, 47.51689], [9.54748, 47.53455], [9.54989, 47.53353], [9.55414, 47.53274], [9.61262, 47.52188], [9.6767, 47.52263], [9.70399, 47.53142], [9.71846, 47.54671], [9.73086, 47.5649], [9.75267, 47.58206], [9.76713, 47.58728], [9.78212, 47.58841], [9.79628, 47.58495], [9.80796, 47.57632], [9.81127, 47.56449], [9.8093, 47.55232], [9.81313, 47.54175], [9.83349, 47.53462], [9.84155, 47.53503], [9.85385, 47.54041], [9.85891, 47.54134], [9.88899, 47.53379], [9.91875, 47.53219], [9.93384, 47.53421], [9.94594, 47.54077], [9.94873, 47.52423], [9.95916, 47.51488], [9.97167, 47.5064], [9.98076, 47.49294], [9.98076, 47.48992], [9.98108, 47.48687], [9.98263, 47.48103], [9.99358, 47.47659], [10.00237, 47.47917], [10.01125, 47.48444], [10.02262, 47.48795], [10.07182, 47.43912], [10.0806, 47.42739], [10.07595, 47.41687], [10.05321, 47.40486], [10.06417, 47.39618], [10.06686, 47.38579], [10.06779, 47.37504], [10.07316, 47.36548], [10.08288, 47.35907], [10.0896, 47.35928], [10.09724, 47.36313], [10.11037, 47.36739], [10.11533, 47.36695], [10.12567, 47.36269], [10.13083, 47.36267], [10.13507, 47.36489], [10.14696, 47.3738], [10.19088, 47.37923], [10.20928, 47.37248], [10.20856, 47.35448], [10.19047, 47.31748], [10.19274, 47.31091], [10.19326, 47.30492], [10.19078, 47.29825], [10.18592, 47.295], [10.17269, 47.29231], [10.16866, 47.29042], [10.15946, 47.27913], [10.15543, 47.27288], [10.15988, 47.27112], [10.17495, 47.27238], [10.19145, 47.24363], [10.20339, 47.19872], [10.20416, 47.18885], [10.20215, 47.161], [10.18727, 47.13617], [10.14846, 47.09602], [10.13822, 47.07733], [10.1266, 47.03744], [10.12474, 47.02178], [10.12582, 47.00966], [10.12892, 46.99574], [10.12939, 46.98499], [10.12675, 46.96757], [10.1204, 46.95517], [10.10949, 46.94494], [10.09724, 46.93739], [10.08438, 46.92634], [10.08112, 46.91783], [10.08345, 46.90799], [10.10608, 46.88251], [10.12412, 46.84991], [10.12505, 46.84717], [10.12519, 46.84675], [10.1113, 46.84712], [10.0681, 46.85662], [10.04557, 46.86556], [10.00691, 46.89076], [9.89994, 46.9144], [9.87514, 46.92742], [9.86243, 46.93977], [9.86077, 46.94915], [9.86398, 46.95992], [9.86646, 46.98339], [9.87059, 46.99295], [9.87059, 46.99884], [9.86677, 47.00194], [9.86057, 47.0016], [9.85633, 47.00408]]], [[[12.63359, 47.46525], [12.68303, 47.45179], [12.71908, 47.4432], [12.8056, 47.44297], [12.808, 47.43763], [12.7747, 47.43693], [12.71873, 47.43786], [12.65488, 47.4497], [12.63084, 47.46037], [12.63359, 47.46525]]]]}, "properties": {"id": "Wz4z", "status": "validé", "pieces": [{"kind": "admin1", "code": "AUT-2320"}, {"kind": "polygon", "ring": [[12.63084, 47.46037], [12.65488, 47.4497], [12.71873, 47.43786], [12.7747, 47.43693], [12.808, 47.43763], [12.8056, 47.44297], [12.71908, 47.4432], [12.68303, 47.45179], [12.63359, 47.46525]]}]}}, {"type": "Feature", "geometry": null, "properties": {"id": "XNJA", "status": "validé", "pieces": [{"kind": "country"}]}}, {"type": "Feature", "geometry": null, "properties": {"id": "Z6SF", "status": "validé", "pieces": [{"kind": "country"}]}}, {"type": "Feature", "geometry": {"type": "Polygon", "coordinates": [[[16.52893, 48.08644], [16.52893, 48.28093], [16.20209, 48.28093], [16.20209, 48.08644], [16.52893, 48.08644]]]}, "properties": {"id": "auEK", "status": "validé", "pieces": [{"kind": "rect", "bounds": [16.20209, 48.08644, 16.52893, 48.28093]}]}}, {"type": "Feature", "geometry": null, "properties": {"id": "aurF", "status": "validé", "pieces": [{"kind": "country"}]}}, {"type": "Feature", "geometry": null, "properties": {"id": "brez", "status": "validé", "pieces": [{"kind": "country"}]}}, {"type": "Feature", "geometry": null, "properties": {"id": "byhm", "status": "validé", "pieces": [{"kind": "admin1", "code": "AUT-2330"}]}}, {"type": "Feature", "geometry": {"type": "Polygon", "coordinates": [[[9.66905, 47.0562], [9.65231, 47.05793], [9.59991, 47.05349], [9.5812, 47.05687], [9.59599, 47.06968], [9.60513, 47.07759], [9.6088, 47.08077], [9.61572, 47.10676], [9.60559, 47.13227], [9.58182, 47.1549], [9.55206, 47.16689], [9.55195, 47.17557], [9.56188, 47.19061], [9.56291, 47.19774], [9.55433, 47.21162], [9.54482, 47.22032], [9.54038, 47.22911], [9.54313, 47.23482], [9.5471, 47.24303], [9.53418, 47.25118], [9.53025, 47.25365], [9.52116, 47.2628], [9.5533, 47.29985], [9.5874, 47.32781], [9.59123, 47.33468], [9.5964, 47.35231], [9.60105, 47.36127], [9.6398, 47.39452], [9.64952, 47.40972], [9.65035, 47.45209], [9.62172, 47.4692], [9.58451, 47.48072], [9.55495, 47.5109], [9.55306, 47.51689], [9.54748, 47.53455], [9.54989, 47.53353], [9.55414, 47.53274], [9.61262, 47.52188], [9.6767, 47.52263], [9.70399, 47.53142], [9.71846, 47.54671], [9.73086, 47.5649], [9.75267, 47.58206], [9.76713, 47.58728], [9.78212, 47.58841], [9.79628, 47.58495], [9.80796, 47.57632], [9.81127, 47.56449], [9.8093, 47.55232], [9.81313, 47.54175], [9.83349, 47.53462], [9.84155, 47.53503], [9.85385, 47.54041], [9.85891, 47.54134], [9.88899, 47.53379], [9.91875, 47.53219], [9.93384, 47.53421], [9.94594, 47.54077], [9.94873, 47.52423], [9.95916, 47.51488], [9.97167, 47.5064], [9.98076, 47.49294], [9.98076, 47.48992], [9.98108, 47.48687], [9.98263, 47.48103], [9.99358, 47.47659], [10.00237, 47.47917], [10.01125, 47.48444], [10.02262, 47.48795], [10.07182, 47.43912], [10.0806, 47.42739], [10.07595, 47.41687], [10.05321, 47.40486], [10.06417, 47.39618], [10.06686, 47.38579], [10.06779, 47.37504], [10.07316, 47.36548], [10.08288, 47.35907], [10.0896, 47.35928], [10.09724, 47.36313], [10.11037, 47.36739], [10.11533, 47.36695], [10.12567, 47.36269], [10.13083, 47.36267], [10.13507, 47.36489], [10.14696, 47.3738], [10.19088, 47.37923], [10.20928, 47.37248], [10.20856, 47.35448], [10.19047, 47.31748], [10.19274, 47.31091], [10.19326, 47.30492], [10.19078, 47.29825], [10.18592, 47.295], [10.17269, 47.29231], [10.16866, 47.29042], [10.15946, 47.27913], [10.15543, 47.27288], [10.15988, 47.27112], [10.17495, 47.27238], [10.23935, 47.27773], [10.26116, 47.2835], [10.30591, 47.30218], [10.32545, 47.31432], [10.34343, 47.33076], [10.36565, 47.36111], [10.37165, 47.36739], [10.38198, 47.37212], [10.40306, 47.37711], [10.41164, 47.38104], [10.42828, 47.39605], [10.44286, 47.41628], [10.45195, 47.43876], [10.45174, 47.46021], [10.44761, 47.47258], [10.44224, 47.48139], [10.43366, 47.48785], [10.4196, 47.49305], [10.42973, 47.53291], [10.43097, 47.54216], [10.42436, 47.55335], [10.41567, 47.56439], [10.41423, 47.57301], [10.42921, 47.57702], [10.44596, 47.57906], [10.4536, 47.5811], [10.45712, 47.57924], [10.46156, 47.56991], [10.46032, 47.56599], [10.45547, 47.56118], [10.45174, 47.55483], [10.4535, 47.54625], [10.45877, 47.54165], [10.46694, 47.53772], [10.48254, 47.53286], [10.52512, 47.52847], [10.53691, 47.52987], [10.54962, 47.53679], [10.56988, 47.55594], [10.58373, 47.56247], [10.60791, 47.56227], [10.73989, 47.52847], [10.74392, 47.52532], [10.74723, 47.52015], [10.75219, 47.51539], [10.76077, 47.51364], [10.79033, 47.51607], [10.83064, 47.52857], [10.84479, 47.53131], [10.85864, 47.53067], [10.86929, 47.52658], [10.89223, 47.51488], [10.88386, 47.50801], [10.85162, 47.4931], [10.85844, 47.48517], [10.90991, 47.46899], [10.95983, 47.43251], [10.96282, 47.42796], [10.96313, 47.42124], [10.96086, 47.41432], [10.95766, 47.40972], [10.95528, 47.40961], [10.96551, 47.39608], [10.97946, 47.39055], [11.08375, 47.38951], [11.10328, 47.39357], [11.1686, 47.42426], [11.19382, 47.42894], [11.21521, 47.423], [11.21304, 47.39582], [11.23702, 47.39396], [11.25883, 47.40073], [11.27309, 47.41111], [11.28632, 47.42321], [11.30565, 47.4354], [11.32425, 47.43943], [11.36766, 47.44013], [11.38388, 47.44486], [11.39246, 47.45478], [11.38864, 47.46222], [11.37779, 47.46705], [11.36549, 47.46933], [11.41262, 47.50609], [11.43535, 47.50971], [11.45995, 47.50744], [11.48259, 47.50258], [11.52951, 47.50785], [11.55121, 47.51369], [11.5694, 47.52738], [11.57447, 47.53663], [11.58232, 47.55978], [11.58914, 47.57038], [11.61705, 47.58676], [11.62046, 47.58965], [11.63896, 47.58924], [11.68257, 47.58335], [11.76402, 47.58312], [11.82034, 47.57529], [11.83068, 47.57761], [11.8407, 47.59461], [11.85197, 47.59916], [11.93589, 47.61074], [11.9476, 47.61039], [12.16564, 47.60397], [12.1736, 47.60508], [12.20213, 47.62983], [12.20575, 47.63621], [12.20678, 47.64557], [12.20513, 47.67229], [12.20233, 47.67779], [12.19727, 47.68009], [12.18911, 47.68557], [12.18177, 47.69213], [12.17856, 47.69766], [12.1766, 47.70582], [12.19241, 47.71016], [12.21649, 47.7237], [12.22518, 47.72737], [12.23975, 47.73169], [12.24223, 47.73202], [12.23913, 47.72745], [12.23654, 47.71678], [12.23303, 47.70887], [12.22662, 47.70288], [12.22331, 47.6959], [12.22879, 47.68487], [12.23871, 47.6789], [12.24957, 47.68001], [12.27189, 47.68789], [12.2937, 47.69001], [12.35147, 47.68169], [12.36842, 47.68355], [12.4077, 47.69373], [12.42413, 47.69156], [12.42878, 47.6858], [12.43922, 47.66448], [12.4447, 47.65629], [12.45276, 47.64975], [12.48252, 47.63358], [12.49658, 47.6289], [12.51715, 47.62854], [12.53823, 47.63133], [12.55384, 47.63601], [12.56338, 47.64176], [12.59838, 47.66288], [12.6174, 47.66934], [12.65306, 47.67513], [12.68871, 47.67513], [12.74483, 47.66536], [12.76199, 47.66686], [12.75165, 47.64939], [12.76736, 47.63637], [12.79331, 47.62479], [12.81315, 47.61182], [12.78586, 47.60268], [12.77367, 47.5795], [12.77894, 47.55483], [12.80364, 47.54134], [12.81904, 47.53953], [12.82845, 47.53726], [12.83692, 47.53265], [12.8826, 47.49858], [12.93159, 47.47351], [12.94255, 47.47049], [12.95102, 47.47248], [12.95929, 47.47553], [12.96973, 47.47573], [12.97934, 47.47225], [12.98492, 47.46827], [12.99112, 47.46568], [13.00187, 47.46602], [13.0088, 47.4701], [13.03732, 47.49305], [13.03701, 47.50136], [13.03443, 47.50744], [13.03122, 47.51255], [13.02895, 47.51803], [13.02812, 47.52423], [13.02812, 47.54165], [13.0306, 47.54426], [13.04011, 47.56046], [13.04125, 47.5619], [13.03908, 47.56134], [13.03825, 47.58402], [13.04094, 47.58335], [13.05706, 47.59766], [13.05768, 47.60043], [13.06957, 47.62025], [13.07205, 47.62242], [13.07422, 47.63451], [13.07484, 47.64665], [13.07461, 47.64771], [13.11218, 47.65104], [13.63403, 47.72866], [14.08997, 47.76928], [14.56787, 47.71758], [14.73816, 47.65844], [15.04578, 47.67323], [15.25452, 47.71389], [15.23804, 47.62515], [15.11719, 47.55478], [14.97437, 47.36545], [14.83704, 47.15677], [14.31519, 46.8835], [13.84277, 46.81215], [13.1012, 46.69553], [12.81626, 46.616], [12.77357, 46.63519], [12.7485, 46.641], [12.73987, 46.64299], [12.73202, 46.64227], [12.716, 46.63795], [12.70659, 46.63775], [12.6974, 46.64054], [12.6792, 46.65002], [12.67137, 46.65247], [12.66959, 46.65302], [12.62019, 46.65648], [12.562, 46.65121], [12.54733, 46.65219], [12.53079, 46.65767], [12.49989, 46.67214], [12.46963, 46.6758], [12.44563, 46.6787], [12.40501, 46.69012], [12.37039, 46.71115], [12.35147, 46.74325], [12.34269, 46.76513], [12.32605, 46.77249], [12.30527, 46.77446], [12.2844, 46.77999], [12.27478, 46.78464], [12.2691, 46.78857], [12.26672, 46.79534], [12.26693, 46.80826], [12.26962, 46.81983], [12.27334, 46.82675], [12.27613, 46.83399], [12.27582, 46.84629], [12.26662, 46.86815], [12.25081, 46.87562], [12.20874, 46.87662], [12.1951, 46.88009], [12.189, 46.88494], [12.18352, 46.89122], [12.17216, 46.89918], [12.16099, 46.90303], [12.13743, 46.90592], [12.12689, 46.90887], [12.14156, 46.91884], [12.14167, 46.92799], [12.13474, 46.93745], [12.12823, 46.94858], [12.12213, 46.97166], [12.11779, 46.98308], [12.11118, 46.993], [12.12172, 47.01052], [12.18228, 47.03362], [12.20358, 47.05333], [12.2039, 47.06701], [12.2042, 47.07969], [12.18063, 47.08521], [12.13315, 47.07883], [12.11624, 47.07656], [12.01496, 47.04049], [11.94364, 47.03816], [11.89951, 47.02772], [11.85703, 47.01201], [11.82251, 46.99326], [11.77714, 46.9883], [11.76608, 46.98344], [11.74644, 46.97246], [11.73487, 46.97062], [11.71616, 46.97548], [11.68381, 46.99191], [11.6648, 46.99326], [11.65725, 46.99253], [11.64971, 46.993], [11.64847, 46.99326], [11.64795, 46.99326], [11.59648, 47.00044], [11.57271, 46.99891], [11.54367, 46.9931], [11.54356, 46.9931], [11.54336, 46.993], [11.54325, 46.993], [11.53385, 46.98954], [11.52444, 46.98835], [11.51535, 46.98948], [11.50698, 46.993], [11.50171, 46.99786], [11.49592, 47.0016], [11.48941, 47.00421], [11.47184, 47.00708], [11.46181, 47.0055], [11.45292, 47.00088], [11.44528, 46.9931], [11.44517, 46.993], [11.41117, 46.97049], [11.38058, 46.97155], [11.34947, 46.98194], [11.31381, 46.98726], [11.24374, 46.97925], [11.17449, 46.96385], [11.15661, 46.95652], [11.09191, 46.91244], [11.08364, 46.90014], [11.0731, 46.86497], [11.05429, 46.83414], [11.05346, 46.83032], [11.0546, 46.81993], [11.05284, 46.81492], [11.0485, 46.81169], [11.03744, 46.80826], [11.03331, 46.80557], [11.01088, 46.77921], [10.99693, 46.76911], [10.98267, 46.76774], [10.96572, 46.77164], [10.93089, 46.77399], [10.91373, 46.77234], [10.88035, 46.76459], [10.87043, 46.76407], [10.86019, 46.76699], [10.84314, 46.77704], [10.83415, 46.78025], [10.82392, 46.78035], [10.8049, 46.77663], [10.79508, 46.77689], [10.76635, 46.7881], [10.75478, 46.79076], [10.73369, 46.78619], [10.72294, 46.78645], [10.71695, 46.79521], [10.7216, 46.80014], [10.74382, 46.81252], [10.74868, 46.81944], [10.73896, 46.82955], [10.66248, 46.86097], [10.64708, 46.86376], [10.62941, 46.86241], [10.52771, 46.84321], [10.48626, 46.84637], [10.45381, 46.86443], [10.45143, 46.88577], [10.46384, 46.91975], [10.45846, 46.93662], [10.44957, 46.94391], [10.41557, 46.96241], [10.39469, 46.9854], [10.38436, 46.993], [10.38436, 46.99315], [10.38425, 46.99315], [10.37898, 46.99551], [10.3734, 46.99625], [10.36792, 46.99551], [10.33888, 46.98411], [10.31367, 46.96432], [10.2962, 46.94137], [10.29568, 46.92269], [10.27077, 46.92189], [10.25134, 46.92538], [10.23512, 46.92331], [10.21992, 46.90577], [10.21517, 46.89311], [10.21434, 46.88468], [10.21166, 46.87704], [10.20142, 46.86683], [10.15781, 46.85161], [10.13197, 46.84657], [10.12519, 46.84675], [10.1113, 46.84712], [10.0681, 46.85662], [10.04557, 46.86556], [10.00691, 46.89076], [9.89994, 46.9144], [9.87514, 46.92742], [9.86243, 46.93977], [9.86077, 46.94915], [9.86398, 46.95992], [9.86646, 46.98339], [9.87059, 46.99295], [9.87059, 46.99884], [9.86677, 47.00194], [9.86057, 47.0016], [9.85633, 47.00408], [9.85798, 47.01548], [9.66905, 47.0562]]]}, "properties": {"id": "ctpi", "status": "validé", "pieces": [{"kind": "admin1", "code": "AUT-2320"}, {"kind": "admin1", "code": "AUT-2329"}, {"kind": "polygon", "ring": [[13.11218, 47.65104], [13.63403, 47.72866], [14.08997, 47.76928], [14.56787, 47.71758], [14.73816, 47.65844], [15.04578, 47.67323], [15.25452, 47.71389], [15.23804, 47.62515], [15.11719, 47.55478], [14.97437, 47.36545], [14.83704, 47.15677], [14.31519, 46.8835], [13.84277, 46.81215], [13.1012, 46.69553], [12.7771, 46.60507], [11.78833, 46.75575], [11.95862, 47.66954], [12.09595, 47.97921], [12.90344, 47.63255]]}, {"kind": "clip"}]}}, {"type": "Feature", "geometry": null, "properties": {"id": "jkM9", "status": "validé", "pieces": [{"kind": "country"}]}}, {"type": "Feature", "geometry": null, "properties": {"id": "jtGs", "status": "validé", "pieces": [{"kind": "country"}]}}, {"type": "Feature", "geometry": null, "properties": {"id": "mNtb", "status": "validé", "pieces": [{"kind": "admin1", "code": "AUT-2320"}]}}, {"type": "Feature", "geometry": null, "properties": {"id": "nkbT", "status": "validé", "pieces": [{"kind": "country"}]}}, {"type": "Feature", "geometry": {"type": "Polygon", "coordinates": [[[9.7744, 47.52561], [9.7641, 47.48991], [9.71603, 47.48156], [9.63432, 47.47228], [9.60726, 47.47367], [9.58451, 47.48072], [9.55495, 47.5109], [9.55306, 47.51689], [9.54748, 47.53455], [9.54989, 47.53353], [9.55414, 47.53274], [9.61262, 47.52188], [9.6767, 47.52263], [9.70399, 47.53142], [9.71846, 47.54671], [9.72126, 47.55082], [9.74007, 47.54924], [9.7744, 47.52561]]]}, "properties": {"id": "pHCf", "status": "validé", "pieces": [{"kind": "polygon", "ring": [[9.74007, 47.54924], [9.7744, 47.52561], [9.7641, 47.48991], [9.71603, 47.48156], [9.63432, 47.47228], [9.57115, 47.47553], [9.53957, 47.50846], [9.54918, 47.546], [9.62402, 47.55897]]}, {"kind": "clip"}]}}, {"type": "Feature", "geometry": null, "properties": {"id": "pdDS", "status": "validé", "pieces": [{"kind": "country"}]}}, {"type": "Feature", "geometry": null, "properties": {"id": "qDvc", "status": "validé", "pieces": [{"kind": "country"}]}}, {"type": "Feature", "geometry": {"type": "Polygon", "coordinates": [[[15.11719, 47.00481], [15.24902, 47.19916], [15.52368, 47.30352], [16.13892, 47.39281], [16.23779, 47.58575], [16.21582, 47.7706], [16.13892, 48.11634], [16.13892, 48.24083], [15.68848, 48.15299], [15.26001, 48.29931], [15.24902, 48.53982], [15.56763, 48.64877], [15.73463, 48.85658], [15.74367, 48.85847], [15.77922, 48.87087], [15.7879, 48.87226], [15.8185, 48.87232], [15.82428, 48.86942], [15.82831, 48.85712], [15.83328, 48.85201], [15.8401, 48.85009], [15.85922, 48.84916], [15.87017, 48.84389], [15.87761, 48.84167], [15.88599, 48.84203], [15.87575, 48.83309], [15.88836, 48.83506], [15.89963, 48.83475], [15.90707, 48.83025], [15.9081, 48.81971], [15.92505, 48.8226], [15.93032, 48.81831], [15.93032, 48.81139], [15.93177, 48.80643], [16.03233, 48.75806], [16.08535, 48.74287], [16.17775, 48.74654], [16.31759, 48.73284], [16.31872, 48.73351], [16.3395, 48.73558], [16.35273, 48.72845], [16.35831, 48.72726], [16.37402, 48.73031], [16.38497, 48.73708], [16.43572, 48.79454], [16.45308, 48.80219], [16.48192, 48.7994], [16.49225, 48.79971], [16.51034, 48.80477], [16.51954, 48.8056], [16.52874, 48.80353], [16.54579, 48.7963], [16.60553, 48.78483], [16.62403, 48.78338], [16.64315, 48.77826], [16.651, 48.76622], [16.65472, 48.75186], [16.66196, 48.74002], [16.67508, 48.73393], [16.691, 48.73206], [16.72903, 48.7331], [16.74433, 48.72964], [16.78051, 48.71377], [16.7989, 48.70922], [16.81812, 48.71077], [16.85657, 48.71982], [16.87301, 48.71899], [16.89667, 48.69698], [16.91052, 48.63078], [16.94504, 48.60417], [16.95434, 48.5574], [16.94906, 48.54484], [16.9469, 48.53973], [16.93047, 48.5282], [16.91393, 48.51934], [16.90649, 48.50991], [16.90122, 48.4966], [16.87507, 48.47154], [16.86494, 48.45808], [16.86081, 48.44379], [16.85192, 48.39041], [16.84934, 48.3841], [16.84686, 48.38113], [16.8451, 48.37658], [16.84448, 48.3656], [16.84758, 48.35958], [16.85533, 48.35645], [16.87549, 48.35503], [16.88117, 48.35281], [16.89171, 48.34702], [16.90195, 48.3394], [16.90649, 48.33147], [16.90422, 48.32702], [16.90029, 48.32124], [16.89843, 48.31617], [16.90277, 48.31411], [16.90546, 48.31199], [16.90887, 48.30698], [16.91207, 48.30124], [16.91331, 48.29669], [16.91662, 48.2908], [16.92427, 48.28752], [16.93336, 48.28473], [16.94442, 48.27801], [16.95062, 48.27659], [16.95434, 48.27313], [16.95528, 48.26879], [16.95393, 48.25734], [16.95434, 48.25256], [16.96995, 48.21664], [16.97471, 48.19856], [16.97481, 48.17688], [16.98194, 48.1613], [17.00716, 48.1428], [17.0209, 48.13717], [17.03692, 48.13551], [17.04746, 48.13099], [17.06245, 48.11272], [17.06721, 48.10694], [17.08023, 48.09761], [17.07, 48.08916], [17.06483, 48.07903], [17.05914, 48.06043], [17.06307, 48.05877], [17.07506, 48.05208], [17.06969, 48.03567], [17.09263, 48.02725], [17.12498, 48.01953], [17.14834, 48.00544], [17.0856, 47.97015], [17.09614, 47.96193], [17.09573, 47.95573], [17.09087, 47.94948], [17.08808, 47.9409], [17.08612, 47.93922], [17.07682, 47.93496], [17.07413, 47.93211], [17.07516, 47.92777], [17.08012, 47.92576], [17.0854, 47.92462], [17.08746, 47.92263], [17.08333, 47.90483], [17.07754, 47.89173], [17.06762, 47.88163], [17.05119, 47.87289], [17.01656, 47.8677], [17.00406, 47.86328], [17.00437, 47.85238], [17.01067, 47.84788], [17.03165, 47.84134], [17.03951, 47.83736], [17.04912, 47.81868], [17.05563, 47.81235], [17.04064, 47.80111], [17.04199, 47.78391], [17.04871, 47.76365], [17.05057, 47.73099], [17.05553, 47.72091], [17.064, 47.71329], [17.07537, 47.70848], [17.0548, 47.70202], [16.98194, 47.69544], [16.90267, 47.68203], [16.86474, 47.68673], [16.85017, 47.71293], [16.83694, 47.70536], [16.8173, 47.68425], [16.80624, 47.67688], [16.79745, 47.67546], [16.74113, 47.68146], [16.73038, 47.6859], [16.71922, 47.69373], [16.71157, 47.70407], [16.70785, 47.71461], [16.70247, 47.7236], [16.68987, 47.72957], [16.60977, 47.75063], [16.5678, 47.75419], [16.53111, 47.74298], [16.52512, 47.73331], [16.52688, 47.72014], [16.5214, 47.71153], [16.51292, 47.706], [16.47303, 47.69177], [16.46114, 47.68453], [16.45453, 47.68177], [16.44988, 47.68241], [16.44492, 47.68554], [16.43913, 47.69047], [16.43179, 47.68546], [16.4166, 47.66882], [16.40781, 47.66133], [16.4259, 47.65428], [16.48192, 47.63895], [16.50962, 47.64314], [16.57545, 47.62495], [16.60842, 47.62877], [16.63023, 47.622], [16.6477, 47.60614], [16.65617, 47.58593], [16.65059, 47.56656], [16.66754, 47.5601], [16.68139, 47.55056], [16.68914, 47.53803], [16.688, 47.52263], [16.67736, 47.50987], [16.64821, 47.50155], [16.63685, 47.4932], [16.64088, 47.45292], [16.62697, 47.44555], [16.58941, 47.42563], [16.48192, 47.3923], [16.46993, 47.40553], [16.4566, 47.41184], [16.44409, 47.40951], [16.43396, 47.39685], [16.43644, 47.35851], [16.43427, 47.35556], [16.42931, 47.3538], [16.42497, 47.35112], [16.42435, 47.3452], [16.42714, 47.34137], [16.43169, 47.33972], [16.43613, 47.33856], [16.43882, 47.33657], [16.46921, 47.29324], [16.47324, 47.27681], [16.46662, 47.26342], [16.45246, 47.25458], [16.42135, 47.24314], [16.42135, 47.24303], [16.42466, 47.22559], [16.40926, 47.20368], [16.41278, 47.18717], [16.41877, 47.18366], [16.42673, 47.18412], [16.4351, 47.18358], [16.44182, 47.17712], [16.44213, 47.16834], [16.43396, 47.15128], [16.43365, 47.14575], [16.44709, 47.13971], [16.48089, 47.15077], [16.49732, 47.14968], [16.50951, 47.13754], [16.50476, 47.12583], [16.48192, 47.10524], [16.46083, 47.0963], [16.45432, 47.0817], [16.46176, 47.0685], [16.48192, 47.0639], [16.4937, 47.05982], [16.49722, 47.05462], [16.49318, 47.04915], [16.48192, 47.04421], [16.43717, 47.03178], [16.42466, 47.02408], [16.45329, 47.02168], [16.46755, 47.01842], [16.48192, 47.00938], [16.48636, 46.99855], [16.46745, 46.99543], [16.4414, 46.99522], [16.42476, 46.9931], [16.42476, 46.993], [16.42042, 46.99026], [16.41557, 46.98943], [16.4104, 46.99041], [16.40502, 46.99315], [16.38776, 47.00204], [16.36658, 47.00382], [16.32586, 47.00044], [16.28854, 47.00558], [16.2749, 47.00431], [16.26539, 46.99326], [16.26105, 46.97809], [16.25299, 46.97352], [16.24307, 46.97202], [16.23294, 46.96607], [16.23036, 46.95998], [16.23118, 46.95442], [16.23067, 46.94835], [16.22395, 46.94106], [16.21702, 46.9374], [16.19615, 46.9313], [16.17072, 46.91853], [16.15915, 46.91032], [16.12287, 46.87636], [16.11005, 46.86792], [16.09404, 46.86277], [16.05294, 46.84606], [16.03202, 46.83756], [16.02844, 46.83695], [15.98758, 46.83001], [15.98169, 46.82769], [15.97198, 46.82063], [15.97291, 46.81844], [15.97735, 46.81621], [15.97818, 46.80913], [15.97125, 46.77808], [15.97099, 46.77505], [15.9697, 46.76053], [15.97053, 46.74301], [15.982, 46.71854], [16.00329, 46.70919], [16.01456, 46.69371], [16.01672, 46.67069], [16.01659, 46.67076], [15.99792, 46.68692], [15.98696, 46.69219], [15.94634, 46.69715], [15.87855, 46.72071], [15.85074, 46.72449], [15.82294, 46.72283], [15.78461, 46.7122], [15.75514, 46.70402], [15.72868, 46.70299], [15.6521, 46.71082], [15.63598, 46.71756], [15.63288, 46.70247], [15.63298, 46.68963], [15.62698, 46.68087], [15.62175, 46.67818], [15.61665, 46.67555], [15.60373, 46.67302], [15.58864, 46.67596], [15.56735, 46.67576], [15.54595, 46.67188], [15.53066, 46.66385], [15.52084, 46.64961], [15.52031, 46.64772], [15.51764, 46.63824], [15.51394, 46.63255], [15.51123, 46.62837], [15.49263, 46.61829], [15.46265, 46.61465], [15.44002, 46.62439], [15.43538, 46.6272], [15.41759, 46.63795], [15.38814, 46.64558], [15.33278, 46.64358], [15.28736, 46.64194], [15.20508, 46.66674], [15.11719, 47.00481]]]}, "properties": {"id": "scuj", "status": "validé", "pieces": [{"kind": "polygon", "ring": [[15.20508, 46.66674], [15.11719, 47.00481], [15.24902, 47.19916], [15.52368, 47.30352], [16.13892, 47.39281], [16.23779, 47.58575], [16.21582, 47.7706], [16.13892, 48.11634], [16.13892, 48.24083], [15.68848, 48.15299], [15.26001, 48.29931], [15.24902, 48.53982], [15.56763, 48.64877], [15.76538, 48.89485], [16.29272, 49.41913], [17.98462, 49.06063], [17.98462, 47.21408], [16.86401, 46.82477], [16.18286, 46.37203]]}, {"kind": "clip"}]}}, {"type": "Feature", "geometry": null, "properties": {"id": "wOk9", "status": "rejeté", "pieces": []}}, {"type": "Feature", "geometry": null, "properties": {"id": "whoL", "status": "validé", "pieces": [{"kind": "country"}]}}, {"type": "Feature", "geometry": null, "properties": {"id": "wkwt", "status": "validé", "pieces": [{"kind": "country"}]}}, {"type": "Feature", "geometry": null, "properties": {"id": "xfLD", "status": "validé", "pieces": [{"kind": "country"}]}}, {"type": "Feature", "geometry": null, "properties": {"id": "yHR2", "status": "validé", "pieces": [{"kind": "admin1", "code": "AUT-2322"}]}}, {"type": "Feature", "geometry": null, "properties": {"id": "zEpW", "status": "validé", "pieces": [{"kind": "country"}]}}, {"type": "Feature", "geometry": null, "properties": {"id": "zryZ", "status": "validé", "pieces": [{"kind": "country"}]}}]}