{"type": "FeatureCollection", "features": [{"type": "Feature", "geometry": {"type": "Polygon", "coordinates": [[[16.40259, 45.01062], [16.01201, 44.62936], [15.99161, 44.63144], [15.97911, 44.63438], [15.96898, 44.63924], [15.95565, 44.65319], [15.9481, 44.6781], [15.93735, 44.68895], [15.92981, 44.68947], [15.92154, 44.68611], [15.91306, 44.68451], [15.90542, 44.69014], [15.90201, 44.69882], [15.89932, 44.70921], [15.8956, 44.71856], [15.88878, 44.72425], [15.87627, 44.72482], [15.86924, 44.71856], [15.86387, 44.70999], [15.85643, 44.70358], [15.84785, 44.70151], [15.82997, 44.70053], [15.82036, 44.69826], [15.80568, 44.69665], [15.797, 44.70327], [15.79049, 44.7134], [15.78284, 44.72259], [15.75928, 44.73417], [15.75369, 44.73929], [15.72848, 44.7691], [15.71731, 44.78647], [15.71607, 44.80321], [15.73065, 44.81701], [15.75121, 44.82155], [15.76868, 44.82734], [15.77343, 44.84502], [15.76403, 44.86403], [15.74801, 44.88202], [15.73426, 44.90212], [15.73085, 44.92723], [15.73411, 44.93444], [15.73881, 44.94485], [15.76362, 44.97555], [15.76744, 44.99322], [15.75555, 45.02356], [15.75597, 45.04221], [15.77943, 45.08536], [15.78377, 45.10092], [15.78005, 45.16029], [15.78098, 45.16799], [15.79235, 45.1898], [15.80257, 45.19647], [15.8248, 45.21099], [15.87885, 45.21724], [15.97456, 45.21538], [15.9975, 45.21853], [16.00846, 45.21817], [16.02045, 45.21393], [16.02923, 45.20504], [16.02872, 45.19626], [16.025, 45.18892], [16.02437, 45.18432], [16.03306, 45.17972], [16.05497, 45.17642], [16.06747, 45.1696], [16.08277, 45.15161], [16.10406, 45.11254], [16.12153, 45.09616], [16.21299, 45.03146], [16.24121, 45.01896], [16.27935, 45.00718], [16.31624, 45.00123], [16.34063, 45.00594], [16.34602, 45.02001], [16.35696, 45.04862], [16.37732, 45.0756], [16.38158, 45.08303], [16.40259, 45.01062]]]}, "properties": {"id": "man-0cb3", "status": "validé", "pieces": [{"kind": "polygon", "ring": [[15.96313, 44.58166], [16.40259, 45.01062], [16.30371, 45.35149], [15.1062, 45.35922], [15.39185, 44.60514]]}, {"kind": "clip"}]}}, {"type": "Feature", "geometry": {"type": "Polygon", "coordinates": [[[17.16246, 43.88874], [17.66602, 44.18135], [17.90771, 44.58979], [18.06251, 45.12576], [18.0903, 45.108], [18.11241, 45.10061], [18.13184, 45.09787], [18.1437, 45.0977], [18.15365, 45.09756], [18.17494, 45.10076], [18.19251, 45.10851], [18.19933, 45.119], [18.20006, 45.13161], [18.20233, 45.14407], [18.21329, 45.15378], [18.23788, 45.15745], [18.26197, 45.15068], [18.30744, 45.12753], [18.32232, 45.12288], [18.39291, 45.11864], [18.41203, 45.11244], [18.42929, 45.10221], [18.45183, 45.08496], [18.46609, 45.07405], [18.48171, 45.06692], [18.49079, 45.06278], [18.51704, 45.05586], [18.54112, 45.05529], [18.53926, 45.06934], [18.5344, 45.08154], [18.5348, 45.08841], [18.53492, 45.09043], [18.5496, 45.09477], [18.55766, 45.09441], [18.57378, 45.09156], [18.58184, 45.09136], [18.58856, 45.09322], [18.60251, 45.09926], [18.60913, 45.10009], [18.61667, 45.09766], [18.62112, 45.09311], [18.62794, 45.08004], [18.63362, 45.07198], [18.64055, 45.06536], [18.64871, 45.06268], [18.65812, 45.06629], [18.66122, 45.0711], [18.66328, 45.07715], [18.66607, 45.08299], [18.67135, 45.08686], [18.67817, 45.08738], [18.68406, 45.08479], [18.68902, 45.08025], [18.72633, 45.02614], [18.73832, 45.01591], [18.7501, 45.01224], [18.77801, 45.01033], [18.78493, 45.00847], [18.78896, 45.00573], [18.79175, 45.00154], [18.79465, 44.99545], [18.79516, 44.99333], [18.79516, 44.988], [18.79578, 44.98506], [18.79795, 44.98222], [18.80302, 44.97731], [18.80457, 44.97384], [18.80157, 44.96397], [18.77987, 44.95224], [18.77263, 44.94248], [18.78338, 44.91374], [18.8178, 44.88755], [18.84213, 44.87624], [18.85872, 44.86853], [18.88963, 44.86119], [18.97492, 44.86276], [18.99958, 44.86321], [18.9624, 44.51146], [18.48999, 43.84145], [17.94271, 43.47548], [18.10547, 43.3719], [18.1604, 42.96307], [17.95971, 42.76509], [17.92886, 42.7908], [17.90447, 42.80455], [17.86943, 42.81181], [17.85847, 42.81697], [17.82716, 42.85312], [17.82509, 42.86454], [17.82623, 42.88865], [17.82334, 42.89836], [17.81176, 42.90986], [17.80267, 42.90963], [17.79471, 42.90459], [17.78675, 42.90139], [17.76546, 42.90413], [17.7236, 42.91625], [17.70159, 42.9195], [17.67947, 42.91568], [17.66593, 42.90516], [17.65333, 42.89094], [17.65284, 42.89118], [17.55649, 42.93476], [17.57399, 42.93427], [17.60109, 42.92524], [17.61793, 42.92178], [17.60304, 42.93256], [17.58066, 42.94208], [17.63451, 42.9504], [17.66272, 42.9657], [17.65931, 42.9934], [17.65921, 42.99345], [17.65911, 42.99363], [17.659, 42.99366], [17.62841, 43.04657], [17.59803, 43.0729], [17.58738, 43.08213], [17.45091, 43.14815], [17.44207, 43.15243], [17.42677, 43.16571], [17.4152, 43.18496], [17.40682, 43.20543], [17.40021, 43.21605], [17.38967, 43.2231], [17.36941, 43.23256], [17.32869, 43.26036], [17.28993, 43.30343], [17.26761, 43.35332], [17.28642, 43.43738], [17.2705, 43.46321], [17.2395, 43.47841], [17.14276, 43.48934], [17.08457, 43.51324], [17.06231, 43.52775], [17.03052, 43.54848], [16.98194, 43.58969], [16.82381, 43.70731], [16.7126, 43.77152], [16.69824, 43.78808], [16.68976, 43.80932], [16.68614, 43.82614], [16.6786, 43.84068], [16.64365, 43.86418], [16.77612, 44.0551], [17.16246, 43.88874]]]}, "properties": {"id": "man-1931", "status": "validé", "pieces": [{"kind": "polygon", "ring": [[16.58936, 43.78593], [16.77612, 44.0551], [17.56714, 43.71448], [18.10547, 43.3719], [18.1604, 42.96307], [17.80884, 42.61625]]}, {"kind": "clip"}, {"kind": "polygon", "ring": [[17.09473, 43.84938], [17.66602, 44.18135], [17.90771, 44.58979], [18.10547, 45.2745], [19.02832, 45.13511], [18.9624, 44.51146], [18.48999, 43.84145], [17.77588, 43.36391]]}]}}, {"type": "Feature", "geometry": null, "properties": {"id": "man-1ed4", "status": "validé", "pieces": [{"kind": "country"}]}}, {"type": "Feature", "geometry": null, "properties": {"id": "man-4753", "status": "rejeté", "pieces": []}}, {"type": "Feature", "geometry": {"type": "MultiPolygon", "coordinates": [[[[18.34717, 44.7852], [18.85254, 44.48017], [18.77563, 44.08675], [18.4021, 43.59526], [17.94067, 43.55545], [17.50122, 43.65095], [17.18262, 43.96821], [17.10571, 44.4174], [17.64404, 44.66025], [17.86377, 44.7852], [18.34717, 44.7852]]], [[[16.33667, 44.94879], [15.94938, 44.67387], [15.9481, 44.6781], [15.93735, 44.68895], [15.92981, 44.68947], [15.92154, 44.68611], [15.91306, 44.68451], [15.90542, 44.69014], [15.90201, 44.69882], [15.89932, 44.70921], [15.8956, 44.71856], [15.88878, 44.72425], [15.87627, 44.72482], [15.86924, 44.71856], [15.86387, 44.70999], [15.85643, 44.70358], [15.84785, 44.70151], [15.82997, 44.70053], [15.82036, 44.69826], [15.80568, 44.69665], [15.797, 44.70327], [15.79049, 44.7134], [15.78284, 44.72259], [15.75928, 44.73417], [15.75369, 44.73929], [15.72848, 44.7691], [15.71731, 44.78647], [15.71607, 44.80321], [15.73065, 44.81701], [15.75121, 44.82155], [15.76868, 44.82734], [15.77343, 44.84502], [15.76403, 44.86403], [15.74801, 44.88202], [15.73426, 44.90212], [15.73085, 44.92723], [15.73411, 44.93444], [15.73881, 44.94485], [15.76362, 44.97555], [15.76744, 44.99322], [15.75555, 45.02356], [15.75597, 45.04221], [15.77943, 45.08536], [15.78377, 45.10092], [15.78005, 45.16029], [15.78098, 45.16799], [15.79235, 45.1898], [15.80257, 45.19647], [15.8248, 45.21099], [15.87885, 45.21724], [15.97456, 45.21538], [15.9975, 45.21853], [16.00846, 45.21817], [16.02045, 45.21393], [16.02923, 45.20504], [16.02872, 45.19626], [16.025, 45.18892], [16.02437, 45.18432], [16.03306, 45.17972], [16.05497, 45.17642], [16.06747, 45.1696], [16.08277, 45.15161], [16.10406, 45.11254], [16.12153, 45.09616], [16.21299, 45.03146], [16.24121, 45.01896], [16.27935, 45.00718], [16.31624, 45.00123], [16.31932, 45.00183], [16.33667, 44.94879]]]]}, "properties": {"id": "man-489b", "status": "validé", "pieces": [{"kind": "polygon", "ring": [[17.64404, 44.66025], [17.10571, 44.4174], [17.18262, 43.96821], [17.50122, 43.65095], [17.94067, 43.55545], [18.4021, 43.59526], [18.77563, 44.08675], [18.85254, 44.48017], [18.34717, 44.7852], [17.86377, 44.7852]]}, {"kind": "polygon", "ring": [[15.91919, 44.65243], [16.33667, 44.94879], [16.20483, 45.35185], [15.46875, 45.38274], [15.43579, 44.8008]]}, {"kind": "clip"}]}}, {"type": "Feature", "geometry": {"type": "Polygon", "coordinates": [[[18.66783, 44.55254], [18.64792, 44.5496], [18.65067, 44.52977], [18.68671, 44.52463], [18.69942, 44.53149], [18.69633, 44.5474], [18.66783, 44.55254]]]}, "properties": {"id": "man-4b8a", "status": "validé", "pieces": [{"kind": "polygon", "ring": [[18.66783, 44.55254], [18.64792, 44.5496], [18.65067, 44.52977], [18.68671, 44.52463], [18.69942, 44.53149], [18.69633, 44.5474]]}]}}, {"type": "Feature", "geometry": {"type": "Polygon", "coordinates": [[[17.36698, 44.63225], [17.35291, 44.62638], [17.36183, 44.60951], [17.38174, 44.60658], [17.39204, 44.61171], [17.39136, 44.62809], [17.37865, 44.63518], [17.36698, 44.63225]]]}, "properties": {"id": "man-4caa", "status": "validé", "pieces": [{"kind": "polygon", "ring": [[17.36698, 44.63225], [17.35291, 44.62638], [17.36183, 44.60951], [17.38174, 44.60658], [17.39204, 44.61171], [17.39136, 44.62809], [17.37865, 44.63518]]}]}}, {"type": "Feature", "geometry": {"type": "MultiPolygon", "coordinates": [[[[18.0835, 44.03109], [18.38013, 43.99948], [18.42407, 43.80942], [18.14941, 43.30764], [17.73193, 43.09132], [17.62087, 43.05311], [17.59803, 43.0729], [17.58738, 43.08213], [17.45091, 43.14815], [17.44207, 43.15243], [17.42677, 43.16571], [17.4152, 43.18496], [17.40682, 43.20543], [17.40021, 43.21605], [17.38967, 43.2231], [17.36941, 43.23256], [17.32869, 43.26036], [17.32158, 43.26825], [17.72095, 43.63467], [18.0835, 44.03109]]], [[[18.98438, 44.59731], [18.83057, 44.29129], [18.55591, 44.20468], [18.30322, 44.25194], [18.13843, 44.40918], [18.19336, 44.73801], [18.24829, 44.88616], [18.56689, 44.90173], [18.85254, 44.81603], [18.98438, 44.59731]]]]}, "properties": {"id": "man-4dc4", "status": "validé", "pieces": [{"kind": "polygon", "ring": [[17.30347, 43.25163], [17.72095, 43.63467], [18.0835, 44.03109], [18.38013, 43.99948], [18.42407, 43.80942], [18.14941, 43.30764], [17.73193, 43.09132], [17.54517, 43.02707]]}, {"kind": "clip"}, {"kind": "polygon", "ring": [[18.56689, 44.90173], [18.24829, 44.88616], [18.19336, 44.73801], [18.13843, 44.40918], [18.30322, 44.25194], [18.55591, 44.20468], [18.83057, 44.29129], [18.98438, 44.59731], [18.85254, 44.81603]]}]}}, {"type": "Feature", "geometry": {"type": "Polygon", "coordinates": [[[18.39111, 44.55817], [18.2373, 44.79264], [18.40172, 45.11579], [18.41203, 45.11244], [18.42929, 45.10221], [18.45183, 45.08496], [18.46609, 45.07405], [18.48171, 45.06692], [18.49079, 45.06278], [18.51704, 45.05586], [18.54112, 45.05529], [18.53926, 45.06934], [18.5344, 45.08154], [18.5348, 45.08841], [18.53492, 45.09043], [18.5496, 45.09477], [18.55766, 45.09441], [18.57378, 45.09156], [18.58184, 45.09136], [18.58856, 45.09322], [18.60251, 45.09926], [18.60913, 45.10009], [18.61667, 45.09766], [18.62112, 45.09311], [18.62794, 45.08004], [18.63362, 45.07198], [18.64055, 45.06536], [18.64871, 45.06268], [18.65812, 45.06629], [18.66122, 45.0711], [18.66328, 45.07715], [18.66607, 45.08299], [18.67135, 45.08686], [18.67817, 45.08738], [18.68406, 45.08479], [18.68902, 45.08025], [18.72633, 45.02614], [18.73832, 45.01591], [18.7501, 45.01224], [18.77801, 45.01033], [18.78493, 45.00847], [18.78896, 45.00573], [18.79175, 45.00154], [18.79465, 44.99545], [18.79516, 44.99333], [18.79516, 44.988], [18.79578, 44.98506], [18.79795, 44.98222], [18.80302, 44.97731], [18.80457, 44.97384], [18.80157, 44.96397], [18.77987, 44.95224], [18.77263, 44.94248], [18.78338, 44.91374], [18.8178, 44.88755], [18.84213, 44.87624], [18.85872, 44.86853], [18.88963, 44.86119], [18.97492, 44.86276], [19.00497, 44.86331], [19.01582, 44.86563], [19.04776, 44.87271], [19.06843, 44.87483], [19.08455, 44.87897], [19.17426, 44.92542], [19.18687, 44.92754], [19.19317, 44.92155], [19.1969, 44.91318], [19.20186, 44.90837], [19.21188, 44.90837], [19.22955, 44.91374], [19.23948, 44.91514], [19.28382, 44.90837], [19.29301, 44.9094], [19.30128, 44.91235], [19.31017, 44.91235], [19.33022, 44.89871], [19.34014, 44.89623], [19.35027, 44.897], [19.35296, 44.89809], [19.35317, 44.89902], [19.35698, 44.89588], [19.36278, 44.89111], [19.36867, 44.88713], [19.3728, 44.88145], [19.3757, 44.87313], [19.37663, 44.863], [19.37311, 44.86026], [19.36784, 44.85928], [19.36371, 44.85463], [19.32836, 44.73396], [19.31802, 44.71546], [19.30841, 44.70513], [19.28826, 44.69304], [19.27761, 44.68487], [19.27007, 44.67562], [19.2557, 44.64565], [19.20868, 44.58839], [19.20413, 44.58514], [19.19328, 44.58059], [19.18832, 44.57604], [19.18625, 44.56932], [19.18728, 44.5533], [19.18532, 44.54622], [19.17964, 44.53826], [19.17312, 44.53144], [19.16527, 44.52669], [19.12992, 44.51832], [19.12734, 44.50256], [19.14336, 44.45822], [19.14139, 44.43083], [19.12961, 44.41615], [19.12692, 44.41371], [18.39111, 44.55817]]]}, "properties": {"id": "man-5409", "status": "validé", "pieces": [{"kind": "polygon", "ring": [[18.43506, 45.18131], [18.2373, 44.79264], [18.39111, 44.55817], [19.27002, 44.38562], [19.56665, 44.44842], [19.62158, 45.15806]]}, {"kind": "clip"}]}}, {"type": "Feature", "geometry": {"type": "MultiPolygon", "coordinates": [[[[18.43506, 44.65243], [18.84815, 44.87344], [18.85872, 44.86853], [18.88963, 44.86119], [18.97492, 44.86276], [19.00497, 44.86331], [19.01582, 44.86563], [19.04776, 44.87271], [19.06843, 44.87483], [19.08455, 44.87897], [19.17426, 44.92542], [19.18687, 44.92754], [19.19317, 44.92155], [19.1969, 44.91318], [19.20186, 44.90837], [19.21188, 44.90837], [19.22955, 44.91374], [19.23948, 44.91514], [19.28382, 44.90837], [19.29301, 44.9094], [19.30128, 44.91235], [19.31017, 44.91235], [19.33022, 44.89871], [19.34014, 44.89623], [19.35027, 44.897], [19.35296, 44.89809], [19.35317, 44.89902], [19.35698, 44.89588], [19.36278, 44.89111], [19.36867, 44.88713], [19.3728, 44.88145], [19.3757, 44.87313], [19.37663, 44.863], [19.37311, 44.86026], [19.36784, 44.85928], [19.36371, 44.85463], [19.32836, 44.73396], [19.31802, 44.71546], [19.30841, 44.70513], [19.28826, 44.69304], [19.27761, 44.68487], [19.27007, 44.67562], [19.2557, 44.64565], [19.20868, 44.58839], [19.20413, 44.58514], [19.19328, 44.58059], [19.18832, 44.57604], [19.18625, 44.56932], [19.18728, 44.5533], [19.18532, 44.54622], [19.17964, 44.53826], [19.17312, 44.53144], [19.16527, 44.52669], [19.12992, 44.51832], [19.12734, 44.50256], [19.14336, 44.45822], [19.14139, 44.43083], [19.12961, 44.41615], [19.11576, 44.4036], [19.10719, 44.38272], [19.10894, 44.36365], [19.11669, 44.3437], [19.13891, 44.30934], [19.157, 44.29358], [19.17715, 44.28696], [19.22005, 44.28024], [19.24072, 44.2727], [19.2495, 44.27074], [19.26366, 44.27017], [19.29591, 44.2758], [19.30738, 44.2742], [19.32433, 44.26397], [19.34159, 44.24583], [19.35399, 44.22433], [19.35606, 44.20402], [19.36236, 44.19121], [19.38117, 44.1771], [19.42489, 44.15379], [19.43554, 44.14609], [19.44256, 44.1432], [19.44846, 44.14444], [19.45972, 44.15271], [19.46572, 44.15281], [19.47419, 44.1449], [19.47636, 44.12702], [19.48267, 44.12067], [19.49817, 44.11023], [19.51619, 44.09119], [19.52204, 44.08501], [19.5546, 44.07126], [19.57093, 44.0569], [19.58023, 44.05152], [19.58385, 44.05432], [19.58995, 44.06031], [19.59894, 44.06258], [19.61144, 44.05452], [19.61888, 44.03571], [19.61041, 44.01928], [19.59336, 44.00558], [19.55222, 43.98342], [19.52855, 43.97721], [19.50406, 43.97566], [19.44711, 43.9798], [19.39399, 43.97706], [19.37911, 43.97385], [19.36464, 43.97329], [19.35172, 43.97913], [19.32588, 43.99659], [19.30056, 44.00951], [19.28733, 44.01302], [19.27276, 44.01241], [19.25209, 44.0075], [19.24351, 44.00202], [19.23803, 43.99251], [19.23813, 43.98538], [19.24289, 43.97282], [19.24072, 43.96574], [19.22935, 43.95768], [19.24103, 43.95236], [19.27544, 43.93326], [19.30593, 43.90474], [19.35947, 43.84221], [19.46168, 43.76214], [19.48174, 43.72922], [19.50571, 43.67364], [19.50737, 43.64718], [19.48174, 43.62891], [19.4775, 43.61698], [19.47564, 43.60256], [19.47688, 43.58868], [19.48174, 43.57812], [19.48897, 43.57318], [19.49176, 43.56861], [19.48959, 43.56445], [19.48174, 43.56083], [19.44391, 43.57186], [19.43182, 43.57114], [19.41931, 43.54926], [19.41073, 43.54075], [19.40288, 43.54964], [19.39461, 43.56646], [19.38045, 43.58558], [19.3634, 43.60158], [19.34655, 43.60884], [19.3358, 43.60651], [19.31265, 43.59315], [19.30087, 43.5883], [19.28919, 43.58794], [19.26366, 43.59096], [19.25271, 43.58863], [19.23886, 43.57212], [19.22945, 43.54975], [19.21746, 43.5328], [19.19534, 43.5328], [19.1477, 43.53815], [19.12279, 43.53595], [19.09602, 43.5129], [19.07639, 43.50724], [19.05499, 43.5067], [19.03815, 43.51102], [19.02502, 43.52303], [19.01427, 43.53778], [19.00021, 43.54789], [18.97748, 43.54623], [18.9627, 43.5383], [18.93893, 43.51895], [18.92053, 43.5122], [18.91102, 43.50727], [18.90513, 43.49905], [18.90565, 43.49063], [18.91526, 43.48538], [18.93066, 43.48228], [18.93789, 43.47895], [18.95123, 43.46381], [18.95071, 43.4573], [18.94637, 43.44908], [18.94626, 43.44394], [18.96828, 43.4481], [18.97531, 43.44427], [19.00993, 43.41099], [19.03959, 43.35071], [19.06967, 43.30883], [19.06254, 43.30439], [19.03628, 43.30333], [19.02471, 43.29873], [19.02254, 43.29655], [19.01716, 43.29116], [19.01086, 43.28232], [19.0029, 43.27395], [18.99246, 43.2671], [18.98951, 43.27202], [18.98895, 43.27294], [18.96859, 43.29222], [18.95949, 43.30346], [18.95712, 43.31183], [18.95794, 43.31898], [18.95732, 43.32586], [18.9503, 43.33307], [18.92342, 43.34684], [18.89914, 43.3519], [18.8396, 43.34782], [18.82121, 43.34139], [18.82462, 43.33741], [18.8303, 43.32816], [18.83351, 43.32415], [18.80715, 43.31803], [18.67951, 43.24948], [18.66432, 43.23318], [18.6884, 43.22447], [18.6453, 43.18018], [18.62907, 43.15489], [18.62113, 43.12458], [18.6206, 43.12256], [18.62112, 43.09644], [18.639, 43.02024], [18.59838, 43.02446], [18.53895, 43.02389], [18.48304, 43.01464], [18.45275, 42.9934], [18.43353, 42.9542], [18.43405, 42.93689], [18.44397, 42.91687], [18.46764, 42.8817], [18.47332, 42.86255], [18.46598, 42.85281], [18.45348, 42.84566], [18.44366, 42.83447], [18.44459, 42.81708], [18.45389, 42.79315], [18.46743, 42.7692], [18.50216, 42.72745], [18.52252, 42.71189], [18.53967, 42.69546], [18.55001, 42.66807], [18.5496, 42.63892], [18.54283, 42.62643], [18.53843, 42.6183], [18.51725, 42.60298], [18.5068, 42.59849], [18.48665, 42.58983], [18.49368, 42.57983], [18.49585, 42.57086], [18.49213, 42.56477], [18.4818, 42.56368], [18.47053, 42.56906], [18.45896, 42.56973], [18.44769, 42.56621], [18.43736, 42.55921], [18.42103, 42.56363], [18.38527, 42.56652], [18.37048, 42.57363], [18.36978, 42.57439], [18.34961, 42.59629], [18.33865, 42.60252], [18.31157, 42.60122], [18.25711, 42.61489], [18.22414, 42.62807], [18.04937, 42.71476], [17.99532, 42.74044], [17.97185, 42.75496], [17.92886, 42.7908], [17.90447, 42.80455], [17.86943, 42.81181], [17.85847, 42.81697], [17.82716, 42.85312], [17.82509, 42.86454], [17.82623, 42.88865], [17.82334, 42.89836], [17.81176, 42.90986], [17.80267, 42.90963], [17.79471, 42.90459], [17.78675, 42.90139], [17.78494, 42.90162], [17.88574, 43.35599], [18.43506, 44.65243]]], [[[16.62016, 45.21387], [16.78629, 45.17885], [16.81172, 45.18122], [16.82422, 45.18908], [16.82577, 45.19636], [16.82505, 45.20504], [16.83073, 45.21698], [16.84076, 45.22401], [16.85192, 45.22742], [16.86174, 45.23223], [16.86732, 45.24339], [16.87538, 45.24695], [16.88582, 45.25522], [16.89399, 45.26354], [16.89698, 45.26814], [16.92437, 45.28452], [16.93264, 45.27879], [16.9407, 45.25776], [16.94215, 45.24985], [16.94153, 45.24122], [16.94732, 45.23569], [16.96799, 45.23729], [16.9653, 45.24422], [16.96117, 45.25093], [16.97594, 45.24716], [16.98814, 45.23652], [16.99868, 45.2314], [17.0083, 45.24417], [17.01202, 45.23647], [17.01357, 45.23057], [17.01253, 45.22448], [17.0083, 45.21616], [17.01439, 45.21977], [17.03021, 45.22696], [17.0363, 45.23047], [17.05573, 45.20045], [17.09842, 45.17766], [17.12463, 45.16906], [17.18709, 45.14856], [17.19784, 45.15296], [17.24549, 45.15538], [17.24973, 45.15988], [17.26895, 45.18954], [17.30781, 45.1714], [17.32652, 45.16593], [17.35938, 45.15068], [17.36858, 45.1451], [17.38243, 45.13962], [17.40083, 45.14102], [17.43411, 45.14856], [17.43618, 45.15192], [17.43876, 45.15812], [17.44331, 45.16205], [17.45116, 45.15848], [17.45695, 45.15182], [17.45809, 45.14613], [17.45499, 45.14061], [17.44775, 45.1343], [17.46036, 45.13125], [17.47235, 45.13275], [17.49622, 45.14169], [17.48702, 45.12087], [17.48186, 45.1144], [17.4893, 45.11626], [17.53953, 45.12097], [17.56144, 45.11937], [17.5724, 45.1204], [17.59306, 45.1296], [17.62996, 45.15735], [17.65156, 45.16536], [17.68474, 45.16396], [17.7145, 45.15203], [17.74138, 45.13327], [17.7975, 45.08195], [17.81558, 45.07017], [17.83574, 45.06443], [17.84566, 45.06526], [17.859, 45.0692], [17.8418, 44.87874], [17.53418, 44.29952], [16.68775, 43.81867], [16.68614, 43.82614], [16.6786, 43.84068], [16.63736, 43.86841], [16.6048, 43.90107], [16.55582, 43.93747], [16.52745, 43.96786], [16.51654, 43.97954], [16.50104, 43.99272], [16.48347, 44.00254], [16.43965, 44.01401], [16.43148, 44.02579], [16.42694, 44.04052], [16.41402, 44.05581], [16.40399, 44.05876], [16.37795, 44.05736], [16.3672, 44.05814], [16.35738, 44.06217], [16.34611, 44.06847], [16.32689, 44.08237], [16.31221, 44.1], [16.28999, 44.13912], [16.27552, 44.15736], [16.23212, 44.191], [16.21579, 44.20815], [16.19708, 44.25115], [16.18757, 44.28241], [16.18664, 44.29761], [16.18953, 44.30851], [16.19966, 44.32469], [16.20318, 44.33306], [16.20586, 44.3498], [16.20564, 44.35053], [16.20287, 44.35977], [16.19212, 44.36742], [16.17134, 44.37709], [16.15315, 44.38045], [16.14199, 44.38076], [16.13827, 44.3776], [16.13879, 44.38541], [16.1454, 44.38959], [16.15388, 44.39357], [16.15987, 44.4007], [16.15966, 44.4161], [16.15295, 44.43507], [16.12835, 44.48431], [16.12308, 44.5039], [16.11646, 44.52147], [16.10489, 44.53237], [16.0837, 44.53491], [16.04732, 44.52333], [16.02665, 44.52519], [16.00608, 44.541], [16.01394, 44.55702], [16.03047, 44.57222], [16.03492, 44.58539], [16.04319, 44.58844], [16.04474, 44.58937], [16.04112, 44.60281], [16.03616, 44.61531], [16.0283, 44.62472], [16.016, 44.62896], [16.0101, 44.62956], [16.40259, 45.05759], [16.62016, 45.21387]]]]}, "properties": {"id": "man-58fc", "status": "validé", "pieces": [{"kind": "polygon", "ring": [[15.95215, 44.56636], [16.40259, 45.05759], [16.9519, 45.45218], [17.87476, 45.24362], [17.8418, 44.87874], [17.53418, 44.29952], [16.49048, 43.7066]]}, {"kind": "clip"}, {"kind": "polygon", "ring": [[17.75391, 42.76173], [17.88574, 43.35599], [18.43506, 44.65243], [19.10522, 45.01098], [19.94019, 44.86316], [19.87427, 42.93096], [18.87451, 42.32446]]}]}}, {"type": "Feature", "geometry": null, "properties": {"id": "man-5a45", "status": "validé", "pieces": [{"kind": "country"}]}}, {"type": "Feature", "geometry": null, "properties": {"id": "man-5c4e", "status": "validé", "pieces": [{"kind": "country"}]}}, {"type": "Feature", "geometry": null, "properties": {"id": "man-6488", "status": "rejeté", "pieces": []}}, {"type": "Feature", "geometry": {"type": "Polygon", "coordinates": [[[17.12769, 44.04727], [17.27823, 43.94694], [17.49023, 44.1341], [17.88574, 44.6368], [17.9813, 45.13768], [17.98849, 45.14381], [18.00348, 45.14934], [18.01909, 45.14944], [18.035, 45.14334], [18.0903, 45.108], [18.11241, 45.10061], [18.13184, 45.09787], [18.1437, 45.0977], [18.15365, 45.09756], [18.17494, 45.10076], [18.19251, 45.10851], [18.19933, 45.119], [18.20006, 45.13161], [18.20233, 45.14407], [18.21329, 45.15378], [18.23788, 45.15745], [18.26197, 45.15068], [18.30744, 45.12753], [18.32232, 45.12288], [18.39291, 45.11864], [18.41203, 45.11244], [18.42929, 45.10221], [18.45183, 45.08496], [18.46609, 45.07405], [18.48171, 45.06692], [18.49079, 45.06278], [18.51704, 45.05586], [18.54112, 45.05529], [18.53926, 45.06934], [18.5344, 45.08154], [18.5348, 45.08841], [18.53492, 45.09043], [18.5496, 45.09477], [18.55766, 45.09441], [18.57378, 45.09156], [18.58184, 45.09136], [18.58856, 45.09322], [18.60251, 45.09926], [18.60913, 45.10009], [18.61667, 45.09766], [18.62112, 45.09311], [18.62794, 45.08004], [18.63362, 45.07198], [18.64055, 45.06536], [18.64871, 45.06268], [18.65812, 45.06629], [18.66122, 45.0711], [18.66328, 45.07715], [18.66607, 45.08299], [18.67135, 45.08686], [18.67817, 45.08738], [18.68406, 45.08479], [18.68902, 45.08025], [18.72633, 45.02614], [18.73832, 45.01591], [18.7501, 45.01224], [18.77801, 45.01033], [18.78493, 45.00847], [18.78896, 45.00573], [18.79175, 45.00154], [18.79465, 44.99545], [18.79516, 44.99333], [18.79516, 44.988], [18.79578, 44.98506], [18.79795, 44.98222], [18.80302, 44.97731], [18.80457, 44.97384], [18.80157, 44.96397], [18.77987, 44.95224], [18.77263, 44.94248], [18.78338, 44.91374], [18.8178, 44.88755], [18.84213, 44.87624], [18.85872, 44.86853], [18.88963, 44.86119], [18.89917, 44.86137], [18.84155, 44.6368], [18.61084, 44.16565], [18.29224, 43.84151], [17.88801, 43.48294], [18.05054, 43.1719], [18.07149, 42.70379], [18.04937, 42.71476], [17.99532, 42.74044], [17.97185, 42.75496], [17.92886, 42.7908], [17.90447, 42.80455], [17.86943, 42.81181], [17.85847, 42.81697], [17.82716, 42.85312], [17.82509, 42.86454], [17.82623, 42.88865], [17.82334, 42.89836], [17.81176, 42.90986], [17.80267, 42.90963], [17.79471, 42.90459], [17.78675, 42.90139], [17.76546, 42.90413], [17.7236, 42.91625], [17.70159, 42.9195], [17.67947, 42.91568], [17.66593, 42.90516], [17.65333, 42.89094], [17.65284, 42.89118], [17.55649, 42.93476], [17.57399, 42.93427], [17.60109, 42.92524], [17.61793, 42.92178], [17.60304, 42.93256], [17.58066, 42.94208], [17.63451, 42.9504], [17.66272, 42.9657], [17.65931, 42.9934], [17.65921, 42.99345], [17.65911, 42.99363], [17.659, 42.99366], [17.62841, 43.04657], [17.59803, 43.0729], [17.58738, 43.08213], [17.45091, 43.14815], [17.44207, 43.15243], [17.42677, 43.16571], [17.4152, 43.18496], [17.40682, 43.20543], [17.40021, 43.21605], [17.38967, 43.2231], [17.36941, 43.23256], [17.32869, 43.26036], [17.28993, 43.30343], [17.26761, 43.35332], [17.28642, 43.43738], [17.2705, 43.46321], [17.2395, 43.47841], [17.14276, 43.48934], [17.08457, 43.51324], [17.06231, 43.52775], [17.03052, 43.54848], [16.98194, 43.58969], [16.82381, 43.70731], [16.7126, 43.77152], [16.69824, 43.78808], [16.68976, 43.80932], [16.68614, 43.82614], [16.6786, 43.84068], [16.66282, 43.8513], [16.84204, 43.99985], [17.12769, 44.04727]]]}, "properties": {"id": "man-6d8f", "status": "validé", "pieces": [{"kind": "polygon", "ring": [[16.62231, 43.81773], [16.84204, 43.99985], [17.12769, 44.04727], [17.8418, 43.57137], [18.05054, 43.1719], [18.07251, 42.68099], [17.1167, 42.89071]]}, {"kind": "clip"}, {"kind": "polygon", "ring": [[17.24854, 43.92073], [17.49023, 44.1341], [17.88574, 44.6368], [17.99561, 45.21265], [18.97339, 45.15068], [18.84155, 44.6368], [18.61084, 44.16565], [18.29224, 43.84151], [17.75391, 43.36398]]}]}}, {"type": "Feature", "geometry": null, "properties": {"id": "man-6e59", "status": "validé", "pieces": [{"kind": "country"}]}}, {"type": "Feature", "geometry": null, "properties": {"id": "man-7915", "status": "validé", "pieces": [{"kind": "country"}]}}, {"type": "Feature", "geometry": null, "properties": {"id": "man-7eca", "status": "rejeté", "pieces": []}}, {"type": "Feature", "geometry": {"type": "Polygon", "coordinates": [[[17.29248, 43.7066], [17.53418, 43.74679], [17.8418, 43.63155], [18.09998, 43.49616], [18.65092, 43.18596], [18.6453, 43.18018], [18.62907, 43.15489], [18.62113, 43.12458], [18.6206, 43.12256], [18.62112, 43.09644], [18.639, 43.02024], [18.59838, 43.02446], [18.53895, 43.02389], [18.48304, 43.01464], [18.45275, 42.9934], [18.43353, 42.9542], [18.43405, 42.93689], [18.44397, 42.91687], [18.46764, 42.8817], [18.47332, 42.86255], [18.46598, 42.85281], [18.45348, 42.84566], [18.44366, 42.83447], [18.44459, 42.81708], [18.45389, 42.79315], [18.46743, 42.7692], [18.50216, 42.72745], [18.52252, 42.71189], [18.53967, 42.69546], [18.55001, 42.66807], [18.5496, 42.63892], [18.54283, 42.62643], [18.53843, 42.6183], [18.51725, 42.60298], [18.5068, 42.59849], [18.48665, 42.58983], [18.49368, 42.57983], [18.49585, 42.57086], [18.49213, 42.56477], [18.4818, 42.56368], [18.47053, 42.56906], [18.45896, 42.56973], [18.44769, 42.56621], [18.43736, 42.55921], [18.42103, 42.56363], [18.38527, 42.56652], [18.37048, 42.57363], [18.36978, 42.57439], [18.34961, 42.59629], [18.33865, 42.60252], [18.31157, 42.60122], [18.25711, 42.61489], [18.22414, 42.62807], [18.04937, 42.71476], [17.99532, 42.74044], [17.97185, 42.75496], [17.92886, 42.7908], [17.90447, 42.80455], [17.86943, 42.81181], [17.85847, 42.81697], [17.82716, 42.85312], [17.82509, 42.86454], [17.82623, 42.88865], [17.82334, 42.89836], [17.81176, 42.90986], [17.80267, 42.90963], [17.79471, 42.90459], [17.78675, 42.90139], [17.76546, 42.90413], [17.7236, 42.91625], [17.70159, 42.9195], [17.67947, 42.91568], [17.66593, 42.90516], [17.65333, 42.89094], [17.65284, 42.89118], [17.55649, 42.93476], [17.57399, 42.93427], [17.60109, 42.92524], [17.61793, 42.92178], [17.60304, 42.93256], [17.58066, 42.94208], [17.63451, 42.9504], [17.66272, 42.9657], [17.65931, 42.9934], [17.65921, 42.99345], [17.65911, 42.99363], [17.659, 42.99366], [17.62841, 43.04657], [17.59803, 43.0729], [17.58738, 43.08213], [17.45091, 43.14815], [17.44207, 43.15243], [17.42677, 43.16571], [17.4152, 43.18496], [17.40682, 43.20543], [17.40021, 43.21605], [17.38967, 43.2231], [17.36941, 43.23256], [17.32869, 43.26036], [17.28993, 43.30343], [17.26761, 43.35332], [17.28642, 43.43738], [17.2705, 43.46321], [17.2395, 43.47841], [17.14276, 43.48934], [17.08457, 43.51324], [17.08227, 43.51473], [17.29248, 43.7066]]]}, "properties": {"id": "man-802d", "status": "validé", "pieces": [{"kind": "polygon", "ring": [[16.99585, 43.43585], [17.29248, 43.7066], [17.53418, 43.74679], [17.8418, 43.63155], [18.09998, 43.49616], [18.87451, 43.06007], [18.63281, 42.38181], [17.70996, 42.41021]]}, {"kind": "clip"}]}}, {"type": "Feature", "geometry": null, "properties": {"id": "man-8492", "status": "rejeté", "pieces": []}}, {"type": "Feature", "geometry": null, "properties": {"id": "man-8813", "status": "validé", "pieces": [{"kind": "country"}]}}, {"type": "Feature", "geometry": null, "properties": {"id": "man-8926", "status": "validé", "pieces": [{"kind": "country"}]}}, {"type": "Feature", "geometry": {"type": "Polygon", "coordinates": [[[17.60473, 42.93015], [17.6207, 42.92939], [17.62808, 42.9216], [17.62104, 42.91443], [17.60851, 42.91682], [17.60473, 42.93015]]]}, "properties": {"id": "man-8b61", "status": "validé", "pieces": [{"kind": "polygon", "ring": [[17.60473, 42.93015], [17.6207, 42.92939], [17.62808, 42.9216], [17.62104, 42.91443], [17.60851, 42.91682]]}]}}, {"type": "Feature", "geometry": null, "properties": {"id": "man-8d08", "status": "rejeté", "pieces": []}}, {"type": "Feature", "geometry": null, "properties": {"id": "man-9260", "status": "validé", "pieces": [{"kind": "country"}]}}, {"type": "Feature", "geometry": {"type": "Polygon", "coordinates": [[[18.33481, 43.92846], [18.23593, 43.90273], [18.2579, 43.81159], [18.35815, 43.77489], [18.48175, 43.78581], [18.50647, 43.89184], [18.39935, 43.94231], [18.33481, 43.92846]]]}, "properties": {"id": "man-938a", "status": "validé", "pieces": [{"kind": "polygon", "ring": [[18.33481, 43.92846], [18.23593, 43.90273], [18.2579, 43.81159], [18.35815, 43.77489], [18.48175, 43.78581], [18.50647, 43.89184], [18.39935, 43.94231]]}]}}, {"type": "Feature", "geometry": {"type": "Polygon", "coordinates": [[[17.88506, 44.24122], [17.87476, 44.20971], [17.883, 44.18903], [17.93175, 44.1708], [17.96539, 44.19691], [17.94891, 44.23137], [17.90428, 44.24811], [17.88506, 44.24122]]]}, "properties": {"id": "man-95e3", "status": "validé", "pieces": [{"kind": "polygon", "ring": [[17.88506, 44.24122], [17.87476, 44.20971], [17.883, 44.18903], [17.93175, 44.1708], [17.96539, 44.19691], [17.94891, 44.23137], [17.90428, 44.24811]]}]}}, {"type": "Feature", "geometry": {"type": "MultiPolygon", "coordinates": [[[[18.87256, 44.86524], [18.88963, 44.86119], [18.97492, 44.86276], [19.00497, 44.86331], [19.01582, 44.86563], [19.04776, 44.87271], [19.06843, 44.87483], [19.08455, 44.87897], [19.17426, 44.92542], [19.18687, 44.92754], [19.19317, 44.92155], [19.1969, 44.91318], [19.20186, 44.90837], [19.21188, 44.90837], [19.22955, 44.91374], [19.23948, 44.91514], [19.28382, 44.90837], [19.29301, 44.9094], [19.30128, 44.91235], [19.31017, 44.91235], [19.33022, 44.89871], [19.34014, 44.89623], [19.35027, 44.897], [19.35296, 44.89809], [19.35317, 44.89902], [19.35698, 44.89588], [19.36278, 44.89111], [19.36867, 44.88713], [19.3728, 44.88145], [19.3757, 44.87313], [19.37663, 44.863], [19.37311, 44.86026], [19.36784, 44.85928], [19.36371, 44.85463], [19.32836, 44.73396], [19.31802, 44.71546], [19.30841, 44.70513], [19.28826, 44.69304], [19.27761, 44.68487], [19.27007, 44.67562], [19.2557, 44.64565], [19.20868, 44.58839], [19.20413, 44.58514], [19.19328, 44.58059], [19.18832, 44.57604], [19.18625, 44.56932], [19.18728, 44.5533], [19.18532, 44.54622], [19.17964, 44.53826], [19.17312, 44.53144], [19.16527, 44.52669], [19.12992, 44.51832], [19.12734, 44.50256], [19.14336, 44.45822], [19.14139, 44.43083], [19.12961, 44.41615], [19.11576, 44.4036], [19.10719, 44.38272], [19.10894, 44.36365], [19.11669, 44.3437], [19.13891, 44.30934], [19.157, 44.29358], [19.17715, 44.28696], [19.22005, 44.28024], [19.24072, 44.2727], [19.2495, 44.27074], [19.26366, 44.27017], [19.29591, 44.2758], [19.30738, 44.2742], [19.32433, 44.26397], [19.34159, 44.24583], [19.35399, 44.22433], [19.35606, 44.20402], [19.36236, 44.19121], [19.38117, 44.1771], [19.42489, 44.15379], [19.43554, 44.14609], [19.44256, 44.1432], [19.44846, 44.14444], [19.45972, 44.15271], [19.46572, 44.15281], [19.47419, 44.1449], [19.47636, 44.12702], [19.48267, 44.12067], [19.49817, 44.11023], [19.51619, 44.09119], [19.52204, 44.08501], [19.5546, 44.07126], [19.57093, 44.0569], [19.58023, 44.05152], [19.58385, 44.05432], [19.58995, 44.06031], [19.59894, 44.06258], [19.61144, 44.05452], [19.61888, 44.03571], [19.61041, 44.01928], [19.59336, 44.00558], [19.55222, 43.98342], [19.52855, 43.97721], [19.50406, 43.97566], [19.44711, 43.9798], [19.39399, 43.97706], [19.37911, 43.97385], [19.36464, 43.97329], [19.35172, 43.97913], [19.32588, 43.99659], [19.30056, 44.00951], [19.28733, 44.01302], [19.27276, 44.01241], [19.25209, 44.0075], [19.24351, 44.00202], [19.23803, 43.99251], [19.23813, 43.98538], [19.24289, 43.97282], [19.24072, 43.96574], [19.22935, 43.95768], [19.24103, 43.95236], [19.27544, 43.93326], [19.30593, 43.90474], [19.35947, 43.84221], [19.46168, 43.76214], [19.48174, 43.72922], [19.50571, 43.67364], [19.50737, 43.64718], [19.48174, 43.62891], [19.4775, 43.61698], [19.47564, 43.60256], [19.47688, 43.58868], [19.48174, 43.57812], [19.48897, 43.57318], [19.49176, 43.56861], [19.48959, 43.56445], [19.48174, 43.56083], [19.44391, 43.57186], [19.43182, 43.57114], [19.41931, 43.54926], [19.41073, 43.54075], [19.40288, 43.54964], [19.39461, 43.56646], [19.38045, 43.58558], [19.3634, 43.60158], [19.34655, 43.60884], [19.3358, 43.60651], [19.31265, 43.59315], [19.30087, 43.5883], [19.28919, 43.58794], [19.26366, 43.59096], [19.25271, 43.58863], [19.23886, 43.57212], [19.22945, 43.54975], [19.21746, 43.5328], [19.19534, 43.5328], [19.1477, 43.53815], [19.12279, 43.53595], [19.09602, 43.5129], [19.07639, 43.50724], [19.05499, 43.5067], [19.03815, 43.51102], [19.02502, 43.52303], [19.01427, 43.53778], [19.00021, 43.54789], [18.97748, 43.54623], [18.9627, 43.5383], [18.93893, 43.51895], [18.92053, 43.5122], [18.91102, 43.50727], [18.90513, 43.49905], [18.90565, 43.49063], [18.91526, 43.48538], [18.93066, 43.48228], [18.93789, 43.47895], [18.95123, 43.46381], [18.95071, 43.4573], [18.94637, 43.44908], [18.94626, 43.44394], [18.96828, 43.4481], [18.97531, 43.44427], [19.00993, 43.41099], [19.03959, 43.35071], [19.06967, 43.30883], [19.06254, 43.30439], [19.03628, 43.30333], [19.02471, 43.29873], [19.02254, 43.29655], [19.01716, 43.29116], [19.01086, 43.28232], [19.0029, 43.27395], [18.99246, 43.2671], [18.98951, 43.27202], [18.98895, 43.27294], [18.96859, 43.29222], [18.95949, 43.30346], [18.95712, 43.31183], [18.95794, 43.31898], [18.95732, 43.32586], [18.9503, 43.33307], [18.92342, 43.34684], [18.89914, 43.3519], [18.8396, 43.34782], [18.82121, 43.34139], [18.82462, 43.33741], [18.8303, 43.32816], [18.83351, 43.32415], [18.80715, 43.31803], [18.67951, 43.24948], [18.66432, 43.23318], [18.6884, 43.22447], [18.6453, 43.18018], [18.62907, 43.15489], [18.62113, 43.12458], [18.6206, 43.12256], [18.62112, 43.09644], [18.639, 43.02024], [18.59838, 43.02446], [18.53895, 43.02389], [18.48304, 43.01464], [18.45275, 42.9934], [18.43353, 42.9542], [18.43405, 42.93689], [18.44397, 42.91687], [18.46764, 42.8817], [18.47332, 42.86255], [18.46598, 42.85281], [18.45348, 42.84566], [18.44366, 42.83447], [18.44459, 42.81708], [18.45389, 42.79315], [18.46743, 42.7692], [18.50216, 42.72745], [18.52252, 42.71189], [18.53967, 42.69546], [18.55001, 42.66807], [18.5496, 42.63892], [18.54283, 42.62643], [18.53843, 42.6183], [18.51725, 42.60298], [18.5068, 42.59849], [18.48665, 42.58983], [18.49368, 42.57983], [18.49585, 42.57086], [18.49213, 42.56477], [18.4818, 42.56368], [18.47053, 42.56906], [18.45896, 42.56973], [18.44769, 42.56621], [18.43736, 42.55921], [18.42103, 42.56363], [18.38527, 42.56652], [18.37048, 42.57363], [18.36978, 42.57439], [18.34961, 42.59629], [18.33865, 42.60252], [18.31157, 42.60122], [18.25711, 42.61489], [18.22414, 42.62807], [18.04937, 42.71476], [17.99532, 42.74044], [17.97185, 42.75496], [17.92886, 42.7908], [17.90447, 42.80455], [17.86943, 42.81181], [17.85847, 42.81697], [17.82716, 42.85312], [17.82509, 42.86454], [17.82623, 42.88865], [17.82334, 42.89836], [17.81176, 42.90986], [17.80267, 42.90963], [17.79471, 42.90459], [17.78675, 42.90139], [17.76546, 42.90413], [17.7236, 42.91625], [17.70159, 42.9195], [17.67947, 42.91568], [17.66593, 42.90516], [17.65333, 42.89094], [17.65284, 42.89118], [17.58751, 42.92073], [17.59353, 42.92776], [17.60109, 42.92524], [17.61793, 42.92178], [17.60304, 42.93256], [17.59909, 42.93424], [17.60965, 42.94656], [17.63451, 42.9504], [17.66272, 42.9657], [17.65931, 42.9934], [17.65921, 42.99345], [17.65911, 42.99363], [17.659, 42.99366], [17.65538, 42.99993], [18.42407, 43.89698], [18.87256, 44.86524]]], [[[16.71955, 45.19292], [16.78629, 45.17885], [16.81172, 45.18122], [16.82422, 45.18908], [16.82577, 45.19636], [16.82543, 45.20053], [17.04544, 45.21635], [17.05573, 45.20045], [17.09842, 45.17766], [17.12463, 45.16906], [17.18709, 45.14856], [17.19784, 45.15296], [17.24549, 45.15538], [17.24973, 45.15988], [17.26895, 45.18954], [17.30781, 45.1714], [17.32652, 45.16593], [17.35938, 45.15068], [17.36858, 45.1451], [17.38243, 45.13962], [17.40083, 45.14102], [17.43411, 45.14856], [17.43618, 45.15192], [17.43876, 45.15812], [17.44331, 45.16205], [17.45116, 45.15848], [17.45695, 45.15182], [17.45809, 45.14613], [17.45499, 45.14061], [17.44775, 45.1343], [17.46036, 45.13125], [17.47235, 45.13275], [17.49622, 45.14169], [17.48702, 45.12087], [17.48186, 45.1144], [17.4893, 45.11626], [17.53953, 45.12097], [17.56144, 45.11937], [17.5724, 45.1204], [17.59306, 45.1296], [17.62996, 45.15735], [17.65156, 45.16536], [17.68474, 45.16396], [17.7145, 45.15203], [17.74138, 45.13327], [17.7975, 45.08195], [17.81558, 45.07017], [17.83221, 45.06544], [17.28149, 44.14988], [16.73217, 43.76021], [16.7126, 43.77152], [16.69824, 43.78808], [16.68976, 43.80932], [16.68614, 43.82614], [16.6786, 43.84068], [16.63736, 43.86841], [16.6048, 43.90107], [16.55582, 43.93747], [16.52745, 43.96786], [16.51654, 43.97954], [16.50104, 43.99272], [16.48347, 44.00254], [16.43965, 44.01401], [16.43148, 44.02579], [16.42694, 44.04052], [16.41402, 44.05581], [16.40399, 44.05876], [16.37795, 44.05736], [16.3672, 44.05814], [16.35738, 44.06217], [16.34611, 44.06847], [16.32689, 44.08237], [16.31221, 44.1], [16.28999, 44.13912], [16.27552, 44.15736], [16.23212, 44.191], [16.21579, 44.20815], [16.19708, 44.25115], [16.18757, 44.28241], [16.18664, 44.29761], [16.18953, 44.30851], [16.19966, 44.32469], [16.20318, 44.33306], [16.20586, 44.3498], [16.20564, 44.35053], [16.20287, 44.35977], [16.19212, 44.36742], [16.17134, 44.37709], [16.15315, 44.38045], [16.14199, 44.38076], [16.13827, 44.3776], [16.13879, 44.38541], [16.1454, 44.38959], [16.15388, 44.39357], [16.15987, 44.4007], [16.15966, 44.4161], [16.15295, 44.43507], [16.12835, 44.48431], [16.12308, 44.5039], [16.11646, 44.52147], [16.10489, 44.53237], [16.0837, 44.53491], [16.04732, 44.52333], [16.02665, 44.52519], [16.00963, 44.53828], [16.02538, 44.56753], [16.03047, 44.57222], [16.03479, 44.58502], [16.03501, 44.58543], [16.04319, 44.58844], [16.04474, 44.58937], [16.0422, 44.59879], [16.26452, 45.01176], [16.27935, 45.00718], [16.31624, 45.00123], [16.34063, 45.00594], [16.34602, 45.02001], [16.35696, 45.04862], [16.37732, 45.0756], [16.38198, 45.08371], [16.38404, 45.09544], [16.38198, 45.10195], [16.38177, 45.10758], [16.38921, 45.11683], [16.39851, 45.12143], [16.42476, 45.12727], [16.43551, 45.13285], [16.44916, 45.1481], [16.4661, 45.17469], [16.71955, 45.19292]]]]}, "properties": {"id": "man-9bf2", "status": "validé", "pieces": [{"kind": "polygon", "ring": [[15.97412, 44.47232], [16.34766, 45.16618], [17.96265, 45.2823], [17.28149, 44.14988], [16.58936, 43.65891]]}, {"kind": "clip"}, {"kind": "polygon", "ring": [[17.53418, 42.85849], [18.42407, 43.89698], [18.91846, 44.96434], [19.91821, 44.89431], [19.52271, 43.32401], [18.86353, 42.26755], [18.03955, 42.15358]]}]}}, {"type": "Feature", "geometry": {"type": "Polygon", "coordinates": [[[17.07344, 44.43205], [17.0676, 44.41708], [17.08374, 44.4031], [17.09507, 44.4031], [17.10125, 44.41978], [17.08511, 44.43573], [17.07344, 44.43205]]]}, "properties": {"id": "man-9f1f", "status": "validé", "pieces": [{"kind": "polygon", "ring": [[17.07344, 44.43205], [17.0676, 44.41708], [17.08374, 44.4031], [17.09507, 44.4031], [17.10125, 44.41978], [17.08511, 44.43573]]}]}}, {"type": "Feature", "geometry": null, "properties": {"id": "man-9f53", "status": "validé", "pieces": [{"kind": "country"}]}}, {"type": "Feature", "geometry": null, "properties": {"id": "man-a014", "status": "validé", "pieces": [{"kind": "country"}]}}, {"type": "Feature", "geometry": {"type": "Polygon", "coordinates": [[[17.54517, 43.35647], [17.90222, 43.44032], [18.479, 43.18841], [18.6364, 43.03132], [18.639, 43.02024], [18.59838, 43.02446], [18.53895, 43.02389], [18.48304, 43.01464], [18.45275, 42.9934], [18.43353, 42.9542], [18.43405, 42.93689], [18.44397, 42.91687], [18.46764, 42.8817], [18.47332, 42.86255], [18.46598, 42.85281], [18.45348, 42.84566], [18.44366, 42.83447], [18.44459, 42.81708], [18.45389, 42.79315], [18.46743, 42.7692], [18.50216, 42.72745], [18.52252, 42.71189], [18.53967, 42.69546], [18.55001, 42.66807], [18.5496, 42.63892], [18.54283, 42.62643], [18.53843, 42.6183], [18.51725, 42.60298], [18.5068, 42.59849], [18.48665, 42.58983], [18.49368, 42.57983], [18.49585, 42.57086], [18.49213, 42.56477], [18.4818, 42.56368], [18.47053, 42.56906], [18.45896, 42.56973], [18.44769, 42.56621], [18.43736, 42.55921], [18.42103, 42.56363], [18.38527, 42.56652], [18.37048, 42.57363], [18.36978, 42.57439], [18.34961, 42.59629], [18.33865, 42.60252], [18.31157, 42.60122], [18.25711, 42.61489], [18.22414, 42.62807], [18.04937, 42.71476], [17.99532, 42.74044], [17.97185, 42.75496], [17.92886, 42.7908], [17.90447, 42.80455], [17.86943, 42.81181], [17.85847, 42.81697], [17.82716, 42.85312], [17.82509, 42.86454], [17.82623, 42.88865], [17.82334, 42.89836], [17.81176, 42.90986], [17.80267, 42.90963], [17.79471, 42.90459], [17.78675, 42.90139], [17.76546, 42.90413], [17.7236, 42.91625], [17.70159, 42.9195], [17.67947, 42.91568], [17.66593, 42.90516], [17.65333, 42.89094], [17.65284, 42.89118], [17.55649, 42.93476], [17.57399, 42.93427], [17.60109, 42.92524], [17.61793, 42.92178], [17.60304, 42.93256], [17.58066, 42.94208], [17.63451, 42.9504], [17.66272, 42.9657], [17.65931, 42.9934], [17.65921, 42.99345], [17.65911, 42.99363], [17.659, 42.99366], [17.62841, 43.04657], [17.59803, 43.0729], [17.58738, 43.08213], [17.46261, 43.14249], [17.54517, 43.35647]]]}, "properties": {"id": "man-a1bc", "status": "validé", "pieces": [{"kind": "polygon", "ring": [[17.44629, 43.1002], [17.54517, 43.35647], [17.90222, 43.44032], [18.479, 43.18841], [18.90198, 42.76625], [18.55042, 42.47104], [17.4408, 42.42238]]}, {"kind": "clip"}]}}, {"type": "Feature", "geometry": {"type": "MultiPolygon", "coordinates": [[[[18.07251, 43.44383], [18.99157, 44.86306], [19.00497, 44.86331], [19.01582, 44.86563], [19.04776, 44.87271], [19.06843, 44.87483], [19.08455, 44.87897], [19.17426, 44.92542], [19.18687, 44.92754], [19.19317, 44.92155], [19.1969, 44.91318], [19.20186, 44.90837], [19.21188, 44.90837], [19.22955, 44.91374], [19.23948, 44.91514], [19.25952, 44.91208], [19.37645, 44.86488], [19.37663, 44.863], [19.37311, 44.86026], [19.36784, 44.85928], [19.36371, 44.85463], [19.32836, 44.73396], [19.31802, 44.71546], [19.30841, 44.70513], [19.28826, 44.69304], [19.27761, 44.68487], [19.27007, 44.67562], [19.2557, 44.64565], [19.20868, 44.58839], [19.20413, 44.58514], [19.19328, 44.58059], [19.18832, 44.57604], [19.18625, 44.56932], [19.18728, 44.5533], [19.18532, 44.54622], [19.17964, 44.53826], [19.17312, 44.53144], [19.16527, 44.52669], [19.12992, 44.51832], [19.12734, 44.50256], [19.14336, 44.45822], [19.14139, 44.43083], [19.12961, 44.41615], [19.11576, 44.4036], [19.10719, 44.38272], [19.10894, 44.36365], [19.11669, 44.3437], [19.13891, 44.30934], [19.157, 44.29358], [19.17715, 44.28696], [19.22005, 44.28024], [19.24072, 44.2727], [19.2495, 44.27074], [19.26366, 44.27017], [19.29591, 44.2758], [19.30738, 44.2742], [19.32433, 44.26397], [19.34159, 44.24583], [19.35399, 44.22433], [19.35606, 44.20402], [19.36236, 44.19121], [19.38117, 44.1771], [19.42489, 44.15379], [19.43554, 44.14609], [19.44256, 44.1432], [19.44846, 44.14444], [19.45972, 44.15271], [19.46572, 44.15281], [19.47419, 44.1449], [19.47636, 44.12702], [19.48267, 44.12067], [19.49817, 44.11023], [19.51619, 44.09119], [19.52204, 44.08501], [19.5546, 44.07126], [19.57093, 44.0569], [19.58023, 44.05152], [19.58385, 44.05432], [19.58995, 44.06031], [19.59894, 44.06258], [19.61144, 44.05452], [19.61888, 44.03571], [19.61041, 44.01928], [19.59336, 44.00558], [19.55222, 43.98342], [19.52855, 43.97721], [19.50406, 43.97566], [19.44711, 43.9798], [19.39399, 43.97706], [19.37911, 43.97385], [19.36464, 43.97329], [19.35172, 43.97913], [19.32588, 43.99659], [19.30056, 44.00951], [19.28733, 44.01302], [19.27276, 44.01241], [19.25209, 44.0075], [19.24351, 44.00202], [19.23803, 43.99251], [19.23813, 43.98538], [19.24289, 43.97282], [19.24072, 43.96574], [19.22935, 43.95768], [19.24103, 43.95236], [19.27544, 43.93326], [19.30593, 43.90474], [19.35947, 43.84221], [19.46168, 43.76214], [19.48174, 43.72922], [19.50571, 43.67364], [19.50737, 43.64718], [19.48174, 43.62891], [19.4775, 43.61698], [19.47564, 43.60256], [19.47688, 43.58868], [19.48174, 43.57812], [19.48897, 43.57318], [19.49176, 43.56861], [19.48959, 43.56445], [19.48174, 43.56083], [19.44391, 43.57186], [19.43182, 43.57114], [19.41931, 43.54926], [19.41073, 43.54075], [19.40288, 43.54964], [19.39461, 43.56646], [19.38045, 43.58558], [19.3634, 43.60158], [19.34655, 43.60884], [19.3358, 43.60651], [19.31265, 43.59315], [19.30087, 43.5883], [19.28919, 43.58794], [19.26366, 43.59096], [19.25271, 43.58863], [19.23886, 43.57212], [19.22945, 43.54975], [19.21746, 43.5328], [19.19534, 43.5328], [19.1477, 43.53815], [19.12279, 43.53595], [19.09602, 43.5129], [19.07639, 43.50724], [19.05499, 43.5067], [19.03815, 43.51102], [19.02502, 43.52303], [19.01427, 43.53778], [19.00021, 43.54789], [18.97748, 43.54623], [18.9627, 43.5383], [18.93893, 43.51895], [18.92053, 43.5122], [18.91102, 43.50727], [18.90513, 43.49905], [18.90565, 43.49063], [18.91526, 43.48538], [18.93066, 43.48228], [18.93789, 43.47895], [18.95123, 43.46381], [18.95071, 43.4573], [18.94637, 43.44908], [18.94626, 43.44394], [18.96828, 43.4481], [18.97531, 43.44427], [19.00993, 43.41099], [19.03959, 43.35071], [19.06967, 43.30883], [19.06254, 43.30439], [19.03628, 43.30333], [19.02471, 43.29873], [19.02254, 43.29655], [19.01716, 43.29116], [19.01086, 43.28232], [19.0029, 43.27395], [18.99246, 43.2671], [18.98951, 43.27202], [18.98895, 43.27294], [18.96859, 43.29222], [18.95949, 43.30346], [18.95712, 43.31183], [18.95794, 43.31898], [18.95732, 43.32586], [18.9503, 43.33307], [18.92342, 43.34684], [18.89914, 43.3519], [18.8396, 43.34782], [18.82121, 43.34139], [18.82462, 43.33741], [18.8303, 43.32816], [18.83351, 43.32415], [18.80715, 43.31803], [18.67951, 43.24948], [18.66432, 43.23318], [18.6884, 43.22447], [18.6453, 43.18018], [18.62907, 43.15489], [18.62113, 43.12458], [18.6206, 43.12256], [18.62112, 43.09644], [18.639, 43.02024], [18.59838, 43.02446], [18.53895, 43.02389], [18.48304, 43.01464], [18.45275, 42.9934], [18.43353, 42.9542], [18.43405, 42.93689], [18.44397, 42.91687], [18.46764, 42.8817], [18.47332, 42.86255], [18.46598, 42.85281], [18.45348, 42.84566], [18.44366, 42.83447], [18.44459, 42.81708], [18.45389, 42.79315], [18.46743, 42.7692], [18.50216, 42.72745], [18.52252, 42.71189], [18.53967, 42.69546], [18.55001, 42.66807], [18.5496, 42.63892], [18.54283, 42.62643], [18.53843, 42.6183], [18.51725, 42.60298], [18.5068, 42.59849], [18.48665, 42.58983], [18.49368, 42.57983], [18.49585, 42.57086], [18.49213, 42.56477], [18.4818, 42.56368], [18.47053, 42.56906], [18.45896, 42.56973], [18.44769, 42.56621], [18.43736, 42.55921], [18.42103, 42.56363], [18.38527, 42.56652], [18.37048, 42.57363], [18.36978, 42.57439], [18.34961, 42.59629], [18.33865, 42.60252], [18.31157, 42.60122], [18.25711, 42.61489], [18.22414, 42.62807], [18.04937, 42.71476], [17.99532, 42.74044], [17.97185, 42.75496], [17.92886, 42.7908], [17.90447, 42.80455], [17.86943, 42.81181], [17.85847, 42.81697], [17.82716, 42.85312], [17.82509, 42.86454], [17.82623, 42.88865], [17.82334, 42.89836], [17.82163, 42.90006], [18.07251, 43.44383]]], [[[17.55615, 44.42525], [17.29248, 43.9603], [16.83435, 43.69947], [16.82381, 43.70731], [16.7126, 43.77152], [16.69824, 43.78808], [16.68976, 43.80932], [16.68614, 43.82614], [16.6786, 43.84068], [16.63736, 43.86841], [16.6048, 43.90107], [16.55582, 43.93747], [16.52745, 43.96786], [16.51654, 43.97954], [16.50104, 43.99272], [16.48347, 44.00254], [16.43965, 44.01401], [16.43148, 44.02579], [16.42694, 44.04052], [16.41402, 44.05581], [16.40399, 44.05876], [16.37795, 44.05736], [16.3672, 44.05814], [16.35738, 44.06217], [16.34611, 44.06847], [16.32689, 44.08237], [16.31221, 44.1], [16.28999, 44.13912], [16.27552, 44.15736], [16.23212, 44.191], [16.21579, 44.20815], [16.19708, 44.25115], [16.18757, 44.28241], [16.18664, 44.29761], [16.18953, 44.30851], [16.19966, 44.32469], [16.20318, 44.33306], [16.20586, 44.3498], [16.20564, 44.35053], [16.20287, 44.35977], [16.19212, 44.36742], [16.17134, 44.37709], [16.15315, 44.38045], [16.14199, 44.38076], [16.13827, 44.3776], [16.13879, 44.38541], [16.1454, 44.38959], [16.15388, 44.39357], [16.15987, 44.4007], [16.15966, 44.4161], [16.15295, 44.43507], [16.12835, 44.48431], [16.12308, 44.5039], [16.11646, 44.52147], [16.10489, 44.53237], [16.0837, 44.53491], [16.04732, 44.52333], [16.02665, 44.52519], [16.00608, 44.541], [16.01394, 44.55702], [16.03047, 44.57222], [16.03492, 44.58539], [16.04319, 44.58844], [16.04474, 44.58937], [16.04112, 44.60281], [16.03616, 44.61531], [16.0283, 44.62472], [16.016, 44.62896], [15.99161, 44.63144], [15.97911, 44.63438], [15.97607, 44.63584], [16.31108, 45.00207], [16.31624, 45.00123], [16.34063, 45.00594], [16.34602, 45.02001], [16.35696, 45.04862], [16.37732, 45.0756], [16.38198, 45.08371], [16.38404, 45.09544], [16.38198, 45.10195], [16.38177, 45.10758], [16.38921, 45.11683], [16.39851, 45.12143], [16.42476, 45.12727], [16.43551, 45.13285], [16.44916, 45.1481], [16.48192, 45.19952], [16.52894, 45.22225], [16.58703, 45.22086], [16.78629, 45.17885], [16.81172, 45.18122], [16.82422, 45.18908], [16.82577, 45.19636], [16.82505, 45.20504], [16.83073, 45.21698], [16.84076, 45.22401], [16.85192, 45.22742], [16.86174, 45.23223], [16.86732, 45.24339], [16.87538, 45.24695], [16.88582, 45.25522], [16.89399, 45.26354], [16.89698, 45.26814], [16.92437, 45.28452], [16.93264, 45.27879], [16.9407, 45.25776], [16.94215, 45.24985], [16.94153, 45.24122], [16.94732, 45.23569], [16.96799, 45.23729], [16.9653, 45.24422], [16.96117, 45.25093], [16.97594, 45.24716], [16.98814, 45.23652], [16.99868, 45.2314], [17.0083, 45.24417], [17.01202, 45.23647], [17.01357, 45.23057], [17.01253, 45.22448], [17.0083, 45.21616], [17.01439, 45.21977], [17.03021, 45.22696], [17.0363, 45.23047], [17.05573, 45.20045], [17.09842, 45.17766], [17.12463, 45.16906], [17.18709, 45.14856], [17.19784, 45.15296], [17.24549, 45.15538], [17.24973, 45.15988], [17.26895, 45.18954], [17.30781, 45.1714], [17.32652, 45.16593], [17.35938, 45.15068], [17.36858, 45.1451], [17.38243, 45.13962], [17.40083, 45.14102], [17.43411, 45.14856], [17.43618, 45.15192], [17.43876, 45.15812], [17.44331, 45.16205], [17.45116, 45.15848], [17.45695, 45.15182], [17.45809, 45.14613], [17.45499, 45.14061], [17.44775, 45.1343], [17.46036, 45.13125], [17.47235, 45.13275], [17.49622, 45.14169], [17.48702, 45.12087], [17.48186, 45.1144], [17.4893, 45.11626], [17.53953, 45.12097], [17.56144, 45.11937], [17.5724, 45.1204], [17.59306, 45.1296], [17.62996, 45.15735], [17.65156, 45.16536], [17.68474, 45.16396], [17.7145, 45.15203], [17.74138, 45.13327], [17.7975, 45.08195], [17.81558, 45.07017], [17.81808, 45.06946], [17.55615, 44.42525]]]]}, "properties": {"id": "man-ac31", "status": "validé", "pieces": [{"kind": "polygon", "ring": [[15.94116, 44.59768], [16.34766, 45.04206], [16.44653, 45.3673], [17.88574, 45.23588], [17.55615, 44.42525], [17.29248, 43.9603], [16.56738, 43.54748], [16.01807, 43.93656]]}, {"kind": "clip"}, {"kind": "polygon", "ring": [[19.07227, 44.98767], [18.07251, 43.44383], [17.74292, 42.72945], [18.81958, 42.0394], [20.06104, 43.05958], [20.11597, 44.56636]]}]}}, {"type": "Feature", "geometry": {"type": "MultiPolygon", "coordinates": [[[[19.04487, 44.87207], [19.04776, 44.87271], [19.06843, 44.87483], [19.08455, 44.87897], [19.17426, 44.92542], [19.18687, 44.92754], [19.19317, 44.92155], [19.1969, 44.91318], [19.20186, 44.90837], [19.21188, 44.90837], [19.22955, 44.91374], [19.23948, 44.91514], [19.28382, 44.90837], [19.29301, 44.9094], [19.30128, 44.91235], [19.31017, 44.91235], [19.33022, 44.89871], [19.34014, 44.89623], [19.35027, 44.897], [19.35296, 44.89809], [19.35317, 44.89902], [19.35698, 44.89588], [19.36278, 44.89111], [19.36867, 44.88713], [19.3728, 44.88145], [19.3757, 44.87313], [19.37663, 44.863], [19.37311, 44.86026], [19.36784, 44.85928], [19.36371, 44.85463], [19.32836, 44.73396], [19.31802, 44.71546], [19.30841, 44.70513], [19.28826, 44.69304], [19.27761, 44.68487], [19.27007, 44.67562], [19.2557, 44.64565], [19.20868, 44.58839], [19.20413, 44.58514], [19.19328, 44.58059], [19.18832, 44.57604], [19.18625, 44.56932], [19.18728, 44.5533], [19.18532, 44.54622], [19.17964, 44.53826], [19.17312, 44.53144], [19.16527, 44.52669], [19.12992, 44.51832], [19.12734, 44.50256], [19.14336, 44.45822], [19.14139, 44.43083], [19.12961, 44.41615], [19.11576, 44.4036], [19.10719, 44.38272], [19.10894, 44.36365], [19.11669, 44.3437], [19.13891, 44.30934], [19.157, 44.29358], [19.17715, 44.28696], [19.22005, 44.28024], [19.24072, 44.2727], [19.2495, 44.27074], [19.26366, 44.27017], [19.29591, 44.2758], [19.30738, 44.2742], [19.32433, 44.26397], [19.34159, 44.24583], [19.35399, 44.22433], [19.35606, 44.20402], [19.36236, 44.19121], [19.38117, 44.1771], [19.42489, 44.15379], [19.43554, 44.14609], [19.44256, 44.1432], [19.44846, 44.14444], [19.45972, 44.15271], [19.46572, 44.15281], [19.47419, 44.1449], [19.47636, 44.12702], [19.48267, 44.12067], [19.49817, 44.11023], [19.51619, 44.09119], [19.52204, 44.08501], [19.5546, 44.07126], [19.57093, 44.0569], [19.58023, 44.05152], [19.58385, 44.05432], [19.58995, 44.06031], [19.59894, 44.06258], [19.61144, 44.05452], [19.61888, 44.03571], [19.61041, 44.01928], [19.59336, 44.00558], [19.55222, 43.98342], [19.52855, 43.97721], [19.50406, 43.97566], [19.44711, 43.9798], [19.39399, 43.97706], [19.37911, 43.97385], [19.36464, 43.97329], [19.35172, 43.97913], [19.32588, 43.99659], [19.30056, 44.00951], [19.28733, 44.01302], [19.27276, 44.01241], [19.25209, 44.0075], [19.24351, 44.00202], [19.23803, 43.99251], [19.23813, 43.98538], [19.24289, 43.97282], [19.24072, 43.96574], [19.22935, 43.95768], [19.24103, 43.95236], [19.27544, 43.93326], [19.30593, 43.90474], [19.35947, 43.84221], [19.46168, 43.76214], [19.48174, 43.72922], [19.50571, 43.67364], [19.50737, 43.64718], [19.48174, 43.62891], [19.4775, 43.61698], [19.47564, 43.60256], [19.47688, 43.58868], [19.48174, 43.57812], [19.48897, 43.57318], [19.49176, 43.56861], [19.48959, 43.56445], [19.48174, 43.56083], [19.44391, 43.57186], [19.43182, 43.57114], [19.41931, 43.54926], [19.41073, 43.54075], [19.40288, 43.54964], [19.39461, 43.56646], [19.38045, 43.58558], [19.3634, 43.60158], [19.34655, 43.60884], [19.3358, 43.60651], [19.31265, 43.59315], [19.30087, 43.5883], [19.28919, 43.58794], [19.26366, 43.59096], [19.25271, 43.58863], [19.23886, 43.57212], [19.22945, 43.54975], [19.21746, 43.5328], [19.19534, 43.5328], [19.1477, 43.53815], [19.12279, 43.53595], [19.09602, 43.5129], [19.07639, 43.50724], [19.05499, 43.5067], [19.03815, 43.51102], [19.02502, 43.52303], [19.01427, 43.53778], [19.00021, 43.54789], [18.97748, 43.54623], [18.9627, 43.5383], [18.93893, 43.51895], [18.92053, 43.5122], [18.91102, 43.50727], [18.90513, 43.49905], [18.90565, 43.49063], [18.91526, 43.48538], [18.93066, 43.48228], [18.93789, 43.47895], [18.95123, 43.46381], [18.95071, 43.4573], [18.94637, 43.44908], [18.94626, 43.44394], [18.96828, 43.4481], [18.97531, 43.44427], [19.00993, 43.41099], [19.03959, 43.35071], [19.06967, 43.30883], [19.06254, 43.30439], [19.03628, 43.30333], [19.02471, 43.29873], [19.02254, 43.29655], [19.01716, 43.29116], [19.01086, 43.28232], [19.0029, 43.27395], [18.99246, 43.2671], [18.98951, 43.27202], [18.98895, 43.27294], [18.96859, 43.29222], [18.95949, 43.30346], [18.95712, 43.31183], [18.95794, 43.31898], [18.95732, 43.32586], [18.9503, 43.33307], [18.92342, 43.34684], [18.89914, 43.3519], [18.8396, 43.34782], [18.82121, 43.34139], [18.82462, 43.33741], [18.8303, 43.32816], [18.83351, 43.32415], [18.80715, 43.31803], [18.67951, 43.24948], [18.66432, 43.23318], [18.6884, 43.22447], [18.6453, 43.18018], [18.62907, 43.15489], [18.62113, 43.12458], [18.6206, 43.12256], [18.62112, 43.09644], [18.639, 43.02024], [18.59838, 43.02446], [18.53895, 43.02389], [18.48304, 43.01464], [18.45275, 42.9934], [18.43353, 42.9542], [18.43405, 42.93689], [18.44397, 42.91687], [18.46764, 42.8817], [18.47332, 42.86255], [18.46598, 42.85281], [18.45348, 42.84566], [18.44366, 42.83447], [18.44459, 42.81708], [18.45389, 42.79315], [18.46743, 42.7692], [18.50216, 42.72745], [18.52252, 42.71189], [18.53967, 42.69546], [18.55001, 42.66807], [18.5496, 42.63892], [18.54283, 42.62643], [18.53843, 42.6183], [18.51725, 42.60298], [18.5068, 42.59849], [18.48665, 42.58983], [18.49368, 42.57983], [18.49585, 42.57086], [18.49213, 42.56477], [18.4818, 42.56368], [18.47053, 42.56906], [18.45896, 42.56973], [18.44769, 42.56621], [18.43736, 42.55921], [18.42103, 42.56363], [18.38527, 42.56652], [18.37048, 42.57363], [18.36978, 42.57439], [18.34961, 42.59629], [18.33865, 42.60252], [18.31157, 42.60122], [18.25711, 42.61489], [18.22414, 42.62807], [18.04937, 42.71476], [17.99532, 42.74044], [17.97185, 42.75496], [17.92886, 42.7908], [17.90447, 42.80455], [17.86943, 42.81181], [17.85847, 42.81697], [17.82716, 42.85312], [17.82509, 42.86454], [17.82623, 42.88865], [17.82334, 42.89836], [17.81176, 42.90986], [17.80267, 42.90963], [17.79471, 42.90459], [17.78675, 42.90139], [17.76546, 42.90413], [17.7236, 42.91625], [17.70159, 42.9195], [17.67947, 42.91568], [17.66593, 42.90516], [17.65333, 42.89094], [17.65284, 42.89118], [17.62896, 42.90198], [18.19336, 43.74631], [19.04487, 44.87207]]], [[[17.20459, 44.21293], [16.60385, 43.90177], [16.55582, 43.93747], [16.52745, 43.96786], [16.51654, 43.97954], [16.50104, 43.99272], [16.48347, 44.00254], [16.43965, 44.01401], [16.43148, 44.02579], [16.42694, 44.04052], [16.41402, 44.05581], [16.40399, 44.05876], [16.37795, 44.05736], [16.3672, 44.05814], [16.35738, 44.06217], [16.34611, 44.06847], [16.32689, 44.08237], [16.31221, 44.1], [16.28999, 44.13912], [16.27552, 44.15736], [16.23212, 44.191], [16.21579, 44.20815], [16.19708, 44.25115], [16.18757, 44.28241], [16.18664, 44.29761], [16.18953, 44.30851], [16.19966, 44.32469], [16.20318, 44.33306], [16.20586, 44.3498], [16.20564, 44.35053], [16.20287, 44.35977], [16.19212, 44.36742], [16.17134, 44.37709], [16.15315, 44.38045], [16.14199, 44.38076], [16.13827, 44.3776], [16.13879, 44.38541], [16.1454, 44.38959], [16.15388, 44.39357], [16.15987, 44.4007], [16.15966, 44.4161], [16.15295, 44.43507], [16.12835, 44.48431], [16.12308, 44.5039], [16.11646, 44.52147], [16.10489, 44.53237], [16.0837, 44.53491], [16.04732, 44.52333], [16.03642, 44.52431], [16.2931, 45.00496], [16.31624, 45.00123], [16.34063, 45.00594], [16.34602, 45.02001], [16.35696, 45.04862], [16.37732, 45.0756], [16.38198, 45.08371], [16.38404, 45.09544], [16.38198, 45.10195], [16.38177, 45.10758], [16.38921, 45.11683], [16.39851, 45.12143], [16.42476, 45.12727], [16.43551, 45.13285], [16.44916, 45.1481], [16.48192, 45.19952], [16.52894, 45.22225], [16.58703, 45.22086], [16.78629, 45.17885], [16.81172, 45.18122], [16.82422, 45.18908], [16.82577, 45.19636], [16.82505, 45.20504], [16.83073, 45.21698], [16.84076, 45.22401], [16.85192, 45.22742], [16.86174, 45.23223], [16.86732, 45.24339], [16.87538, 45.24695], [16.88582, 45.25522], [16.89399, 45.26354], [16.89698, 45.26814], [16.92437, 45.28452], [16.93264, 45.27879], [16.9407, 45.25776], [16.94215, 45.24985], [16.94153, 45.24122], [16.94732, 45.23569], [16.96799, 45.23729], [16.9653, 45.24422], [16.96117, 45.25093], [16.97594, 45.24716], [16.98814, 45.23652], [16.99868, 45.2314], [17.0083, 45.24417], [17.01202, 45.23647], [17.01357, 45.23057], [17.01253, 45.22448], [17.0083, 45.21616], [17.01439, 45.21977], [17.03021, 45.22696], [17.0363, 45.23047], [17.05573, 45.20045], [17.09842, 45.17766], [17.12463, 45.16906], [17.18709, 45.14856], [17.19784, 45.15296], [17.24549, 45.15538], [17.24973, 45.15988], [17.26895, 45.18954], [17.30781, 45.1714], [17.32652, 45.16593], [17.35938, 45.15068], [17.36858, 45.1451], [17.38243, 45.13962], [17.40083, 45.14102], [17.43411, 45.14856], [17.43618, 45.15192], [17.43876, 45.15812], [17.44331, 45.16205], [17.45116, 45.15848], [17.45695, 45.15182], [17.45809, 45.14613], [17.45499, 45.14061], [17.44775, 45.1343], [17.46036, 45.13125], [17.47235, 45.13275], [17.49622, 45.14169], [17.48702, 45.12087], [17.48186, 45.1144], [17.4893, 45.11626], [17.53953, 45.12097], [17.56144, 45.11937], [17.5724, 45.1204], [17.59306, 45.1296], [17.62996, 45.15735], [17.65156, 45.16536], [17.68474, 45.16396], [17.7145, 45.15203], [17.74138, 45.13327], [17.78864, 45.09005], [17.20459, 44.21293]]]]}, "properties": {"id": "man-af7b", "status": "validé", "pieces": [{"kind": "polygon", "ring": [[15.99609, 44.44879], [16.3916, 45.18942], [17.44629, 45.57541], [17.88574, 45.23588], [17.20459, 44.21293], [16.30371, 43.74631]]}, {"kind": "clip"}, {"kind": "polygon", "ring": [[17.58911, 42.84238], [18.19336, 43.74631], [19.13818, 44.99544], [20.15991, 44.73057], [19.55566, 43.05958], [18.94043, 42.26755]]}]}}, {"type": "Feature", "geometry": {"type": "Polygon", "coordinates": [[[16.42456, 44.96435], [17.29248, 44.29953], [17.74292, 43.76219], [18.6257, 43.14202], [18.62113, 43.12458], [18.6206, 43.12256], [18.62112, 43.09644], [18.639, 43.02024], [18.59838, 43.02446], [18.53895, 43.02389], [18.48304, 43.01464], [18.45275, 42.9934], [18.43353, 42.9542], [18.43405, 42.93689], [18.44397, 42.91687], [18.46764, 42.8817], [18.47332, 42.86255], [18.46598, 42.85281], [18.45348, 42.84566], [18.44366, 42.83447], [18.44459, 42.81708], [18.45389, 42.79315], [18.46743, 42.7692], [18.50216, 42.72745], [18.52252, 42.71189], [18.53967, 42.69546], [18.55001, 42.66807], [18.5496, 42.63892], [18.54283, 42.62643], [18.53843, 42.6183], [18.51725, 42.60298], [18.5068, 42.59849], [18.48665, 42.58983], [18.49368, 42.57983], [18.49585, 42.57086], [18.49213, 42.56477], [18.4818, 42.56368], [18.47053, 42.56906], [18.45896, 42.56973], [18.44769, 42.56621], [18.43736, 42.55921], [18.42103, 42.56363], [18.38527, 42.56652], [18.37048, 42.57363], [18.36978, 42.57439], [18.34961, 42.59629], [18.33865, 42.60252], [18.31157, 42.60122], [18.25711, 42.61489], [18.22414, 42.62807], [18.04937, 42.71476], [17.99532, 42.74044], [17.97185, 42.75496], [17.92886, 42.7908], [17.90447, 42.80455], [17.86943, 42.81181], [17.85847, 42.81697], [17.82716, 42.85312], [17.82509, 42.86454], [17.82623, 42.88865], [17.82334, 42.89836], [17.81176, 42.90986], [17.80267, 42.90963], [17.79471, 42.90459], [17.78675, 42.90139], [17.76546, 42.90413], [17.7236, 42.91625], [17.70159, 42.9195], [17.67947, 42.91568], [17.66593, 42.90516], [17.65333, 42.89094], [17.65284, 42.89118], [17.55649, 42.93476], [17.57399, 42.93427], [17.60109, 42.92524], [17.61793, 42.92178], [17.60304, 42.93256], [17.58066, 42.94208], [17.63451, 42.9504], [17.66272, 42.9657], [17.65931, 42.9934], [17.65921, 42.99345], [17.65911, 42.99363], [17.659, 42.99366], [17.62841, 43.04657], [17.59803, 43.0729], [17.58738, 43.08213], [17.45091, 43.14815], [17.44207, 43.15243], [17.42677, 43.16571], [17.4152, 43.18496], [17.40682, 43.20543], [17.40021, 43.21605], [17.38967, 43.2231], [17.36941, 43.23256], [17.32869, 43.26036], [17.28993, 43.30343], [17.26761, 43.35332], [17.28642, 43.43738], [17.2705, 43.46321], [17.2395, 43.47841], [17.14276, 43.48934], [17.08457, 43.51324], [17.06231, 43.52775], [17.03052, 43.54848], [16.98194, 43.58969], [16.82381, 43.70731], [16.7126, 43.77152], [16.69824, 43.78808], [16.68976, 43.80932], [16.68614, 43.82614], [16.6786, 43.84068], [16.63736, 43.86841], [16.6048, 43.90107], [16.55582, 43.93747], [16.52745, 43.96786], [16.51654, 43.97954], [16.50104, 43.99272], [16.48347, 44.00254], [16.43965, 44.01401], [16.43148, 44.02579], [16.42694, 44.04052], [16.41402, 44.05581], [16.40399, 44.05876], [16.37795, 44.05736], [16.3672, 44.05814], [16.35738, 44.06217], [16.34611, 44.06847], [16.32689, 44.08237], [16.31221, 44.1], [16.28999, 44.13912], [16.27552, 44.15736], [16.23212, 44.191], [16.21579, 44.20815], [16.19708, 44.25115], [16.18757, 44.28241], [16.18664, 44.29761], [16.18953, 44.30851], [16.19966, 44.32469], [16.20318, 44.33306], [16.20586, 44.3498], [16.20564, 44.35053], [16.20287, 44.35977], [16.19212, 44.36742], [16.17134, 44.37709], [16.15315, 44.38045], [16.14199, 44.38076], [16.13827, 44.3776], [16.13879, 44.38541], [16.1454, 44.38959], [16.15388, 44.39357], [16.15987, 44.4007], [16.15966, 44.4161], [16.15295, 44.43507], [16.12835, 44.48431], [16.12308, 44.5039], [16.11646, 44.52147], [16.10489, 44.53237], [16.0837, 44.53491], [16.04732, 44.52333], [16.02665, 44.52519], [16.00608, 44.541], [16.01394, 44.55702], [16.03047, 44.57222], [16.03492, 44.58539], [16.04319, 44.58844], [16.04474, 44.58937], [16.04112, 44.60281], [16.03616, 44.61531], [16.0283, 44.62472], [16.016, 44.62896], [15.99161, 44.63144], [15.97911, 44.63438], [15.96898, 44.63924], [15.95565, 44.65319], [15.9481, 44.6781], [15.93735, 44.68895], [15.92981, 44.68947], [15.92154, 44.68611], [15.91306, 44.68451], [15.90542, 44.69014], [15.90201, 44.69882], [15.89932, 44.70921], [15.8956, 44.71856], [15.88878, 44.72425], [15.87627, 44.72482], [15.86924, 44.71856], [15.86387, 44.70999], [15.85643, 44.70358], [15.84785, 44.70151], [15.82997, 44.70053], [15.82036, 44.69826], [15.80568, 44.69665], [15.797, 44.70327], [15.79049, 44.7134], [15.78284, 44.72259], [15.75928, 44.73417], [15.75369, 44.73929], [15.72848, 44.7691], [15.71731, 44.78647], [15.71607, 44.80321], [15.73065, 44.81701], [15.75121, 44.82155], [15.76868, 44.82734], [15.77343, 44.84502], [15.76403, 44.86403], [15.74801, 44.88202], [15.73426, 44.90212], [15.73085, 44.92723], [15.73411, 44.93444], [15.73881, 44.94485], [15.76362, 44.97555], [15.76744, 44.99322], [15.75555, 45.02356], [15.75597, 45.04221], [15.77943, 45.08536], [15.78377, 45.10092], [15.78005, 45.16029], [15.78098, 45.16799], [15.79235, 45.1898], [15.80257, 45.19647], [15.8248, 45.21099], [15.87885, 45.21724], [15.97456, 45.21538], [15.9975, 45.21853], [16.00846, 45.21817], [16.02045, 45.21393], [16.02923, 45.20504], [16.02872, 45.19626], [16.025, 45.18892], [16.02437, 45.18432], [16.03306, 45.17972], [16.05497, 45.17642], [16.06747, 45.1696], [16.08277, 45.15161], [16.10406, 45.11254], [16.12153, 45.09616], [16.21299, 45.03146], [16.24121, 45.01896], [16.27935, 45.00718], [16.31624, 45.00123], [16.34063, 45.00594], [16.34464, 45.0164], [16.42456, 44.96435]]]}, "properties": {"id": "man-b1a0", "status": "validé", "pieces": [{"kind": "polygon", "ring": [[15.39185, 44.83978], [15.85327, 45.33641], [16.42456, 44.96435], [17.29248, 44.29953], [17.74292, 43.76219], [19.00635, 42.8746], [18.45703, 42.10467], [15.5127, 43.26002]]}, {"kind": "clip"}]}}, {"type": "Feature", "geometry": {"type": "Polygon", "coordinates": [[[17.69073, 43.12127], [17.67975, 43.11262], [17.69949, 43.0962], [17.71545, 43.09796], [17.71528, 43.11939], [17.70636, 43.12416], [17.69073, 43.12127]]]}, "properties": {"id": "man-b35e", "status": "validé", "pieces": [{"kind": "polygon", "ring": [[17.69073, 43.12127], [17.67975, 43.11262], [17.69949, 43.0962], [17.71545, 43.09796], [17.71528, 43.11939], [17.70636, 43.12416]]}]}}, {"type": "Feature", "geometry": null, "properties": {"id": "man-b8cc", "status": "rejeté", "pieces": []}}, {"type": "Feature", "geometry": null, "properties": {"id": "man-b9d6", "status": "validé", "pieces": [{"kind": "country"}]}}, {"type": "Feature", "geometry": {"type": "MultiPolygon", "coordinates": [[[[19.01733, 44.55853], [18.97339, 44.33098], [18.69873, 43.81773], [18.34717, 43.48372], [17.58911, 43.65095], [17.28149, 43.98403], [17.25952, 44.29166], [17.72095, 44.66025], [18.20435, 44.793], [19.01733, 44.55853]]], [[[16.33667, 44.7696], [15.99422, 44.63117], [15.99161, 44.63144], [15.97911, 44.63438], [15.96898, 44.63924], [15.95565, 44.65319], [15.9481, 44.6781], [15.93735, 44.68895], [15.92981, 44.68947], [15.92154, 44.68611], [15.91306, 44.68451], [15.90542, 44.69014], [15.90201, 44.69882], [15.89932, 44.70921], [15.8956, 44.71856], [15.88878, 44.72425], [15.87627, 44.72482], [15.86924, 44.71856], [15.86387, 44.70999], [15.85643, 44.70358], [15.84785, 44.70151], [15.82997, 44.70053], [15.82036, 44.69826], [15.80568, 44.69665], [15.797, 44.70327], [15.79049, 44.7134], [15.78284, 44.72259], [15.75928, 44.73417], [15.75369, 44.73929], [15.72848, 44.7691], [15.71731, 44.78647], [15.71607, 44.80321], [15.73065, 44.81701], [15.75121, 44.82155], [15.76868, 44.82734], [15.77343, 44.84502], [15.76403, 44.86403], [15.74801, 44.88202], [15.73426, 44.90212], [15.73085, 44.92723], [15.73411, 44.93444], [15.73881, 44.94485], [15.76362, 44.97555], [15.76744, 44.99322], [15.75555, 45.02356], [15.75597, 45.04221], [15.77943, 45.08536], [15.78377, 45.10092], [15.78005, 45.16029], [15.78098, 45.16799], [15.79235, 45.1898], [15.80257, 45.19647], [15.8248, 45.21099], [15.87885, 45.21724], [15.97456, 45.21538], [15.9975, 45.21853], [16.00846, 45.21817], [16.02045, 45.21393], [16.02923, 45.20504], [16.02872, 45.19626], [16.025, 45.18892], [16.02437, 45.18432], [16.03306, 45.17972], [16.05497, 45.17642], [16.06747, 45.1696], [16.08277, 45.15161], [16.10406, 45.11254], [16.12153, 45.09616], [16.21299, 45.03146], [16.24121, 45.01896], [16.27935, 45.00718], [16.31624, 45.00123], [16.34063, 45.00594], [16.34602, 45.02001], [16.35696, 45.04862], [16.37732, 45.0756], [16.38198, 45.08371], [16.38404, 45.09544], [16.38198, 45.10195], [16.38177, 45.10758], [16.38921, 45.11683], [16.39851, 45.12143], [16.4241, 45.12712], [16.33667, 44.7696]]]]}, "properties": {"id": "man-bb82", "status": "validé", "pieces": [{"kind": "polygon", "ring": [[15.85327, 44.57419], [16.33667, 44.7696], [16.43555, 45.17393], [16.00708, 45.42904], [15.19409, 45.12742]]}, {"kind": "clip"}, {"kind": "polygon", "ring": [[17.72095, 44.66025], [17.25952, 44.29166], [17.28149, 43.98403], [17.58911, 43.65095], [18.34717, 43.48372], [18.69873, 43.81773], [18.97339, 44.33098], [19.01733, 44.55853], [18.20435, 44.793]]}]}}, {"type": "Feature", "geometry": null, "properties": {"id": "man-c18c", "status": "validé", "pieces": [{"kind": "country"}]}}, {"type": "Feature", "geometry": {"type": "Polygon", "coordinates": [[[17.89124, 44.24714], [17.87201, 44.20628], [17.89124, 44.17821], [17.94548, 44.17821], [17.96333, 44.20825], [17.91252, 44.2432], [17.89124, 44.24714]]]}, "properties": {"id": "man-c335", "status": "validé", "pieces": [{"kind": "polygon", "ring": [[17.89124, 44.24714], [17.87201, 44.20628], [17.89124, 44.17821], [17.94548, 44.17821], [17.96333, 44.20825], [17.91252, 44.2432]]}]}}, {"type": "Feature", "geometry": {"type": "Polygon", "coordinates": [[[18.19336, 44.58948], [16.94092, 44.7302], [15.96191, 44.64664], [15.95565, 44.65319], [15.9481, 44.6781], [15.93735, 44.68895], [15.92981, 44.68947], [15.92154, 44.68611], [15.91306, 44.68451], [15.90542, 44.69014], [15.90201, 44.69882], [15.89932, 44.70921], [15.8956, 44.71856], [15.88878, 44.72425], [15.87627, 44.72482], [15.86924, 44.71856], [15.86387, 44.70999], [15.85643, 44.70358], [15.84785, 44.70151], [15.82997, 44.70053], [15.82036, 44.69826], [15.80568, 44.69665], [15.797, 44.70327], [15.79049, 44.7134], [15.78284, 44.72259], [15.75928, 44.73417], [15.75369, 44.73929], [15.72848, 44.7691], [15.71731, 44.78647], [15.71607, 44.80321], [15.73065, 44.81701], [15.75121, 44.82155], [15.76868, 44.82734], [15.77343, 44.84502], [15.76403, 44.86403], [15.74801, 44.88202], [15.73426, 44.90212], [15.73085, 44.92723], [15.73411, 44.93444], [15.73881, 44.94485], [15.76362, 44.97555], [15.76744, 44.99322], [15.75555, 45.02356], [15.75597, 45.04221], [15.77943, 45.08536], [15.78377, 45.10092], [15.78005, 45.16029], [15.78098, 45.16799], [15.79235, 45.1898], [15.80257, 45.19647], [15.8248, 45.21099], [15.87885, 45.21724], [15.97456, 45.21538], [15.9975, 45.21853], [16.00846, 45.21817], [16.02045, 45.21393], [16.02923, 45.20504], [16.02872, 45.19626], [16.025, 45.18892], [16.02437, 45.18432], [16.03306, 45.17972], [16.05497, 45.17642], [16.06747, 45.1696], [16.08277, 45.15161], [16.10406, 45.11254], [16.12153, 45.09616], [16.21299, 45.03146], [16.24121, 45.01896], [16.27935, 45.00718], [16.31624, 45.00123], [16.34063, 45.00594], [16.34602, 45.02001], [16.35696, 45.04862], [16.37732, 45.0756], [16.38198, 45.08371], [16.38404, 45.09544], [16.38198, 45.10195], [16.38177, 45.10758], [16.38921, 45.11683], [16.39851, 45.12143], [16.42476, 45.12727], [16.43551, 45.13285], [16.44916, 45.1481], [16.48192, 45.19952], [16.52894, 45.22225], [16.58703, 45.22086], [16.78629, 45.17885], [16.81172, 45.18122], [16.82422, 45.18908], [16.82577, 45.19636], [16.82505, 45.20504], [16.83073, 45.21698], [16.84076, 45.22401], [16.85192, 45.22742], [16.86174, 45.23223], [16.86732, 45.24339], [16.87538, 45.24695], [16.88582, 45.25522], [16.89399, 45.26354], [16.89698, 45.26814], [16.92437, 45.28452], [16.93264, 45.27879], [16.9407, 45.25776], [16.94215, 45.24985], [16.94153, 45.24122], [16.94732, 45.23569], [16.96799, 45.23729], [16.9653, 45.24422], [16.96117, 45.25093], [16.97594, 45.24716], [16.98814, 45.23652], [16.99868, 45.2314], [17.0083, 45.24417], [17.01202, 45.23647], [17.01357, 45.23057], [17.01253, 45.22448], [17.0083, 45.21616], [17.01439, 45.21977], [17.03021, 45.22696], [17.0363, 45.23047], [17.05573, 45.20045], [17.09842, 45.17766], [17.12463, 45.16906], [17.18709, 45.14856], [17.19784, 45.15296], [17.24549, 45.15538], [17.24973, 45.15988], [17.26895, 45.18954], [17.30781, 45.1714], [17.32652, 45.16593], [17.35938, 45.15068], [17.36858, 45.1451], [17.38243, 45.13962], [17.40083, 45.14102], [17.43411, 45.14856], [17.43618, 45.15192], [17.43876, 45.15812], [17.44331, 45.16205], [17.45116, 45.15848], [17.45695, 45.15182], [17.45809, 45.14613], [17.45499, 45.14061], [17.44775, 45.1343], [17.46036, 45.13125], [17.47235, 45.13275], [17.49622, 45.14169], [17.48702, 45.12087], [17.48186, 45.1144], [17.4893, 45.11626], [17.53953, 45.12097], [17.56144, 45.11937], [17.5724, 45.1204], [17.59306, 45.1296], [17.62996, 45.15735], [17.65156, 45.16536], [17.68474, 45.16396], [17.7145, 45.15203], [17.74138, 45.13327], [17.7975, 45.08195], [17.81558, 45.07017], [17.83574, 45.06443], [17.84566, 45.06526], [17.87522, 45.07399], [17.90261, 45.07777], [17.91118, 45.08107], [17.92772, 45.09203], [17.98849, 45.14381], [18.00348, 45.14934], [18.01909, 45.14944], [18.035, 45.14334], [18.0903, 45.108], [18.11241, 45.10061], [18.13184, 45.09787], [18.1437, 45.0977], [18.15365, 45.09756], [18.17494, 45.10076], [18.19251, 45.10851], [18.19933, 45.119], [18.20006, 45.13161], [18.20233, 45.14407], [18.21329, 45.15378], [18.23788, 45.15745], [18.26197, 45.15068], [18.30744, 45.12753], [18.32232, 45.12288], [18.39291, 45.11864], [18.41203, 45.11244], [18.42929, 45.10221], [18.45183, 45.08496], [18.46609, 45.07405], [18.48171, 45.06692], [18.49079, 45.06278], [18.51704, 45.05586], [18.54112, 45.05529], [18.53926, 45.06934], [18.5344, 45.08154], [18.5348, 45.08841], [18.53492, 45.09043], [18.5496, 45.09477], [18.55766, 45.09441], [18.57378, 45.09156], [18.58184, 45.09136], [18.58856, 45.09322], [18.60251, 45.09926], [18.60913, 45.10009], [18.61667, 45.09766], [18.62112, 45.09311], [18.62794, 45.08004], [18.63362, 45.07198], [18.64055, 45.06536], [18.64871, 45.06268], [18.65812, 45.06629], [18.66122, 45.0711], [18.66328, 45.07715], [18.66607, 45.08299], [18.67135, 45.08686], [18.67817, 45.08738], [18.68406, 45.08479], [18.68902, 45.08025], [18.72633, 45.02614], [18.73832, 45.01591], [18.7501, 45.01224], [18.77801, 45.01033], [18.78493, 45.00847], [18.78896, 45.00573], [18.79175, 45.00154], [18.79465, 44.99545], [18.79516, 44.99333], [18.79516, 44.988], [18.79578, 44.98506], [18.79795, 44.98222], [18.80302, 44.97731], [18.80457, 44.97384], [18.80157, 44.96397], [18.77987, 44.95224], [18.77263, 44.94248], [18.78338, 44.91374], [18.8178, 44.88755], [18.84213, 44.87624], [18.85872, 44.86853], [18.88963, 44.86119], [18.97492, 44.86276], [19.00497, 44.86331], [19.01582, 44.86563], [19.04776, 44.87271], [19.06843, 44.87483], [19.08455, 44.87897], [19.17426, 44.92542], [19.18687, 44.92754], [19.19317, 44.92155], [19.1969, 44.91318], [19.20186, 44.90837], [19.21188, 44.90837], [19.22955, 44.91374], [19.23948, 44.91514], [19.28382, 44.90837], [19.29301, 44.9094], [19.30128, 44.91235], [19.31017, 44.91235], [19.33022, 44.89871], [19.34014, 44.89623], [19.35027, 44.897], [19.35296, 44.89809], [19.35317, 44.89902], [19.35698, 44.89588], [19.36278, 44.89111], [19.36867, 44.88713], [19.3728, 44.88145], [19.3757, 44.87313], [19.37663, 44.863], [19.37311, 44.86026], [19.36784, 44.85928], [19.36371, 44.85463], [19.32836, 44.73396], [19.31802, 44.71546], [19.30841, 44.70513], [19.28826, 44.69304], [19.27761, 44.68487], [19.27007, 44.67562], [19.2557, 44.64565], [19.20868, 44.58839], [19.20413, 44.58514], [19.19328, 44.58059], [19.18832, 44.57604], [19.18625, 44.56932], [19.18728, 44.5533], [19.18532, 44.54622], [19.17964, 44.53826], [19.17312, 44.53144], [19.16527, 44.52669], [19.12992, 44.51832], [19.12734, 44.50256], [19.14336, 44.45822], [19.14139, 44.43083], [19.12961, 44.41615], [19.11576, 44.4036], [19.10719, 44.38272], [19.10894, 44.36365], [19.11669, 44.3437], [19.13891, 44.30934], [19.157, 44.29358], [19.17715, 44.28696], [19.22005, 44.28024], [19.24072, 44.2727], [19.2495, 44.27074], [19.26366, 44.27017], [19.29591, 44.2758], [19.30738, 44.2742], [19.32433, 44.26397], [19.34159, 44.24583], [19.35399, 44.22433], [19.35606, 44.20402], [19.36236, 44.19121], [19.36609, 44.18841], [18.19336, 44.58948]]]}, "properties": {"id": "man-d2ea", "status": "validé", "pieces": [{"kind": "polygon", "ring": [[15.84229, 44.63643], [16.94092, 44.7302], [18.19336, 44.58948], [19.45679, 44.15739], [20.0061, 45.04169], [17.56714, 45.41325], [15.4248, 45.47494], [15.43579, 44.70677]]}, {"kind": "clip"}]}}, {"type": "Feature", "geometry": null, "properties": {"id": "man-dc91", "status": "rejeté", "pieces": []}}, {"type": "Feature", "geometry": null, "properties": {"id": "man-e199", "status": "rejeté", "pieces": []}}, {"type": "Feature", "geometry": {"type": "Polygon", "coordinates": [[[18.29086, 43.90965], [18.25104, 43.87202], [18.29498, 43.80166], [18.38425, 43.79076], [18.47351, 43.85221], [18.46527, 43.90173], [18.36914, 43.91757], [18.29086, 43.90965]]]}, "properties": {"id": "man-e67a", "status": "validé", "pieces": [{"kind": "polygon", "ring": [[18.29086, 43.90965], [18.25104, 43.87202], [18.29498, 43.80166], [18.38425, 43.79076], [18.47351, 43.85221], [18.46527, 43.90173], [18.36914, 43.91757]]}]}}, {"type": "Feature", "geometry": null, "properties": {"id": "man-efdf", "status": "validé", "pieces": [{"kind": "country"}]}}, {"type": "Feature", "geometry": {"type": "Polygon", "coordinates": [[[15.85705, 44.83444], [15.84126, 44.82007], [15.83988, 44.80228], [15.86391, 44.79692], [15.89344, 44.80764], [15.90374, 44.82932], [15.89172, 44.83712], [15.85705, 44.83444]]]}, "properties": {"id": "man-f18e", "status": "validé", "pieces": [{"kind": "polygon", "ring": [[15.85705, 44.83444], [15.84126, 44.82007], [15.83988, 44.80228], [15.86391, 44.79692], [15.89344, 44.80764], [15.90374, 44.82932], [15.89172, 44.83712]]}]}}, {"type": "Feature", "geometry": null, "properties": {"id": "man-fee6", "status": "validé", "pieces": [{"kind": "country"}]}}]}