{"type": "FeatureCollection", "features": [{"type": "Feature", "geometry": null, "properties": {"id": "0VLo", "status": "validé", "pieces": [{"kind": "country"}]}}, {"type": "Feature", "geometry": {"type": "MultiPolygon", "coordinates": [[[[3.2959, 51.18668], [3.08167, 51.09711], [2.92236, 51.01773], [2.85095, 50.95551], [2.80151, 50.88628], [2.75208, 50.89321], [2.7356, 50.97972], [2.61475, 50.97626], [2.5562, 51.00269], [2.54706, 51.02048], [2.53703, 51.06461], [2.5218, 51.08754], [2.542, 51.09687], [2.57993, 51.1048], [2.71567, 51.1695], [2.9236, 51.24649], [3.12485, 51.32966], [3.34897, 51.37515], [3.34942, 51.37522], [3.35807, 51.33671], [3.35393, 51.31191], [3.35321, 51.2886], [3.36737, 51.26349], [3.39166, 51.24677], [3.3988, 51.2447], [3.42194, 51.23799], [3.42942, 51.23743], [3.2959, 51.18668]]], [[[3.5321, 51.25889], [3.50322, 51.25407], [3.50152, 51.2624], [3.50338, 51.27395], [3.51434, 51.28103], [3.52901, 51.28333], [3.54503, 51.28393], [3.58482, 51.28953], [3.60953, 51.29044], [3.63505, 51.28783], [3.75732, 51.26232], [3.77623, 51.25452], [3.7814, 51.24142], [3.77975, 51.23031], [3.78127, 51.22071], [3.5321, 51.25889]]], [[[4.64722, 51.26577], [4.64722, 51.197], [4.55933, 51.17979], [4.36707, 51.20044], [4.21326, 51.2314], [4.06494, 51.24515], [4.04696, 51.24965], [4.11895, 51.2724], [4.16856, 51.29687], [4.20794, 51.33059], [4.21352, 51.34054], [4.22096, 51.36382], [4.22149, 51.368], [4.22218, 51.36774], [4.24106, 51.35659], [4.24903, 51.34667], [4.25611, 51.32844], [4.27263, 51.31582], [4.29078, 51.30589], [4.30299, 51.29609], [4.30665, 51.28974], [4.30812, 51.28364], [4.30543, 51.2766], [4.29868, 51.2696], [4.29672, 51.26756], [4.30836, 51.27123], [4.31642, 51.27684], [4.33082, 51.29609], [4.29713, 51.30516], [4.28932, 51.30915], [4.28541, 51.31802], [4.28614, 51.33967], [4.28305, 51.35008], [4.27564, 51.3581], [4.26107, 51.36938], [4.28112, 51.36895], [4.2901, 51.36875], [4.32628, 51.35643], [4.3456, 51.35229], [4.39222, 51.35041], [4.41123, 51.35674], [4.41285, 51.36234], [4.64722, 51.26577]]]]}, "properties": {"id": "0Xu1", "status": "validé", "pieces": [{"kind": "polygon", "ring": [[2.61475, 50.97626], [2.7356, 50.97972], [2.75208, 50.89321], [2.80151, 50.88628], [2.85095, 50.95551], [2.92236, 51.01773], [3.08167, 51.09711], [3.2959, 51.18668], [3.44971, 51.24515], [3.5321, 51.25889], [3.80127, 51.21764], [4.01001, 51.25889], [4.06494, 51.24515], [4.21326, 51.2314], [4.36707, 51.20044], [4.55933, 51.17979], [4.64722, 51.197], [4.64722, 51.26577], [4.38904, 51.37215], [2.76306, 51.5398], [2.12585, 51.197]]}, {"kind": "clip"}]}}, {"type": "Feature", "geometry": null, "properties": {"id": "3Ooh", "status": "validé", "pieces": [{"kind": "country"}]}}, {"type": "Feature", "geometry": null, "properties": {"id": "3xpW", "status": "validé", "pieces": [{"kind": "country"}]}}, {"type": "Feature", "geometry": null, "properties": {"id": "5MIw", "status": "validé", "pieces": [{"kind": "country"}]}}, {"type": "Feature", "geometry": null, "properties": {"id": "5jYM", "status": "validé", "pieces": [{"kind": "country"}]}}, {"type": "Feature", "geometry": {"type": "Polygon", "coordinates": [[[2.58179, 51.04549], [2.53885, 51.0566], [2.53703, 51.06461], [2.5218, 51.08754], [2.542, 51.09687], [2.57993, 51.1048], [2.71567, 51.1695], [2.9236, 51.24649], [3.12485, 51.32966], [3.34897, 51.37515], [3.34942, 51.37522], [3.35807, 51.33671], [3.35476, 51.31688], [2.58179, 51.04549]]]}, "properties": {"id": "6AkT", "status": "validé", "pieces": [{"kind": "polygon", "ring": [[2.58179, 51.04549], [3.44421, 51.34829], [2.96082, 51.54677], [2.58728, 51.28995], [2.39502, 51.0938]]}, {"kind": "clip"}]}}, {"type": "Feature", "geometry": null, "properties": {"id": "6eFr", "status": "validé", "pieces": [{"kind": "country"}]}}, {"type": "Feature", "geometry": null, "properties": {"id": "73Bz", "status": "validé", "pieces": [{"kind": "country"}]}}, {"type": "Feature", "geometry": null, "properties": {"id": "9KhQ", "status": "validé", "pieces": [{"kind": "country"}]}}, {"type": "Feature", "geometry": null, "properties": {"id": "AXSi", "status": "validé", "pieces": [{"kind": "country"}]}}, {"type": "Feature", "geometry": null, "properties": {"id": "Bf5S", "status": "validé", "pieces": [{"kind": "country"}]}}, {"type": "Feature", "geometry": null, "properties": {"id": "EGhx", "status": "rejeté", "pieces": []}}, {"type": "Feature", "geometry": null, "properties": {"id": "IlY6", "status": "validé", "pieces": [{"kind": "country"}]}}, {"type": "Feature", "geometry": {"type": "MultiPolygon", "coordinates": [[[[4.71199, 50.10351], [4.68192, 50.08392], [4.67613, 50.07607], [4.67344, 50.0662], [4.67582, 50.0602], [4.67954, 50.05519], [4.68057, 50.04832], [4.67292, 50.01638], [4.6659, 50.00052], [4.6567, 49.98909], [4.64584, 49.9845], [4.60419, 49.98021], [4.46477, 49.93561], [4.43511, 49.93225], [4.42765, 49.93357], [4.2776, 49.96016], [4.21595, 49.95441], [4.20112, 49.95302], [4.18768, 49.95551], [4.13166, 49.97499], [4.13237, 49.97495], [4.13962, 49.97452], [4.13838, 49.9892], [4.13291, 50.00449], [4.12815, 50.00579], [4.13229, 50.01757], [4.13735, 50.02506], [4.14458, 50.0308], [4.16288, 50.0418], [4.18603, 50.05245], [4.21001, 50.06015], [4.21032, 50.06671], [4.20339, 50.07467], [4.1974, 50.08408], [4.18055, 50.12723], [4.17063, 50.13048], [4.15988, 50.1294], [4.13993, 50.12356], [4.12577, 50.12816], [4.12815, 50.14624], [4.12952, 50.1491], [4.71199, 50.10351]]], [[[5.4657, 50.31793], [5.93262, 50.51736], [5.98206, 50.69512], [5.95675, 50.74792], [5.97476, 50.74755], [5.99491, 50.74993], [5.99326, 50.74807], [5.99264, 50.74626], [5.99274, 50.74445], [5.99419, 50.74259], [6.01083, 50.73706], [6.01134, 50.72745], [6.00762, 50.7169], [6.01155, 50.70853], [6.02478, 50.70755], [6.06436, 50.71448], [6.081, 50.7135], [6.10023, 50.7013], [6.1611, 50.64218], [6.14777, 50.63676], [6.15945, 50.62239], [6.18002, 50.61552], [6.24906, 50.61443], [6.25133, 50.60844], [6.2443, 50.59955], [6.23293, 50.59076], [6.23293, 50.58715], [6.21061, 50.57867], [6.17908, 50.56198], [6.16069, 50.54358], [6.17733, 50.5302], [6.16947, 50.5225], [6.17082, 50.51795], [6.17888, 50.51578], [6.19056, 50.51521], [6.1826, 50.50658], [6.19066, 50.50183], [6.19924, 50.49041], [6.2072, 50.48633], [6.21712, 50.48602], [6.25091, 50.49268], [6.25309, 50.49408], [6.25557, 50.49459], [6.25784, 50.49408], [6.26011, 50.49268], [6.27541, 50.48803], [6.31872, 50.48167], [6.3369, 50.481], [6.32574, 50.47403], [6.32326, 50.46602], [6.32616, 50.45703], [6.33163, 50.4469], [6.34021, 50.43785], [6.34734, 50.43697], [6.35117, 50.43356], [6.35044, 50.41687], [6.34331, 50.39331], [6.33639, 50.37992], [6.33773, 50.36809], [6.37246, 50.32944], [6.3734, 50.32308], [6.37453, 50.31548], [6.36202, 50.30696], [6.33546, 50.30386], [6.32202, 50.30541], [6.31065, 50.30825], [6.29949, 50.30887], [6.28595, 50.30386], [6.27603, 50.2961], [6.26942, 50.28649], [6.26735, 50.27642], [6.27179, 50.26742], [6.2534, 50.25678], [6.2104, 50.24903], [6.18963, 50.24272], [6.17981, 50.23301], [6.15717, 50.22272], [6.14684, 50.21404], [6.16017, 50.20453], [6.16575, 50.19317], [6.16513, 50.1819], [6.15914, 50.17244], [6.1517, 50.16934], [6.13175, 50.16831], [6.12317, 50.1649], [6.12131, 50.16159], [6.118, 50.15038], [6.11583, 50.14547], [6.12596, 50.1402], [6.12948, 50.13405], [6.12658, 50.12733], [6.11749, 50.12046], [6.1026, 50.12474], [6.10033, 50.13265], [6.10147, 50.14211], [6.09713, 50.15131], [6.08421, 50.15932], [6.07646, 50.15864], [6.07005, 50.1542], [6.06137, 50.15074], [6.03863, 50.14841], [6.02736, 50.14945], [6.02297, 50.15082], [6.01413, 50.15358], [6.00804, 50.16092], [6.00473, 50.17048], [5.99832, 50.17498], [5.98292, 50.16707], [5.96163, 50.16562], [5.95316, 50.15637], [5.94902, 50.14268], [5.94106, 50.12831], [5.92618, 50.11834], [5.88897, 50.10661], [5.87244, 50.09689], [5.86882, 50.09054], [5.86686, 50.07431], [5.86437, 50.06749], [5.85828, 50.0618], [5.8437, 50.05364], [5.83771, 50.04744], [5.83885, 50.03586], [5.83885, 50.02646], [5.83637, 50.01855], [5.82913, 50.01359], [5.80887, 50.0078], [5.80267, 50.00248], [5.80154, 49.98868], [5.80856, 49.9831], [5.8126, 49.97757], [5.80164, 49.96382], [5.79337, 49.95881], [5.77859, 49.95659], [5.77156, 49.95354], [5.76371, 49.94682], [5.75999, 49.9416], [5.75761, 49.93654], [5.75358, 49.93018], [5.71896, 49.89137], [5.71493, 49.88187], [5.72671, 49.8782], [5.74883, 49.86729], [5.75813, 49.8582], [5.73188, 49.85995], [5.73198, 49.85417], [5.73053, 49.85117], [5.72867, 49.84884], [5.72692, 49.84523], [5.73653, 49.83944], [5.72464, 49.83427], [5.7202, 49.82471], [5.72164, 49.81278], [5.72774, 49.80022], [5.73829, 49.78885], [5.74841, 49.78564], [5.75916, 49.78446], [5.77187, 49.77939], [5.77849, 49.77304], [5.80205, 49.74286], [5.8036, 49.73815], [5.80577, 49.7242], [5.80536, 49.72188], [5.81177, 49.71852], [5.82572, 49.71578], [5.83172, 49.71361], [5.8373, 49.71294], [5.8437, 49.71433], [5.85022, 49.71402], [5.856, 49.70808], [5.8564, 49.70581], [5.85735, 49.70043], [5.85363, 49.6963], [5.84877, 49.69273], [5.84722, 49.6872], [5.8467, 49.68069], [5.8437, 49.67749], [5.84226, 49.67392], [5.84577, 49.66658], [5.85259, 49.66322], [5.87264, 49.66172], [5.87988, 49.65774], [5.88546, 49.64353], [5.87988, 49.63485], [5.86996, 49.62886], [5.862, 49.62276], [5.84918, 49.59971], [5.84122, 49.58969], [5.82996, 49.58276], [5.84691, 49.57672], [5.8374, 49.56111], [5.81446, 49.54514], [5.79068, 49.53775], [5.77901, 49.53961], [5.75709, 49.5484], [5.74635, 49.54943], [5.7356, 49.54571], [5.72268, 49.5346], [5.71028, 49.53109], [5.68868, 49.53352], [5.66718, 49.54044], [5.64465, 49.5438], [5.61974, 49.53553], [5.60785, 49.52494], [5.60558, 49.51775], [5.60227, 49.51372], [5.58749, 49.51243], [5.57892, 49.51393], [5.5476, 49.52344], [5.52879, 49.51796], [5.50367, 49.50509], [5.47773, 49.49522], [5.45613, 49.49894], [5.44993, 49.50783], [5.45096, 49.51677], [5.45417, 49.52618], [5.45437, 49.53662], [5.45024, 49.54576], [5.40208, 49.60245], [5.39117, 49.60882], [5.38347, 49.6133], [5.35247, 49.62069], [5.3411, 49.62514], [5.3349, 49.62581], [5.33118, 49.62312], [5.32694, 49.61764], [5.32167, 49.61258], [5.31454, 49.61113], [5.2979, 49.61325], [5.29304, 49.61718], [5.29066, 49.62638], [5.29376, 49.64054], [5.30183, 49.6439], [5.30637, 49.64751], [5.29945, 49.6625], [5.28012, 49.6779], [5.25924, 49.69134], [5.23764, 49.69097], [5.19248, 49.68281], [5.16943, 49.6872], [5.15124, 49.69599], [5.13636, 49.70534], [5.09378, 49.74534], [5.08189, 49.75273], [5.04623, 49.75939], [5.02629, 49.76673], [4.98908, 49.79055], [4.97099, 49.79707], [4.96837, 49.79698], [4.95001, 49.79639], [4.9066, 49.78647], [4.88418, 49.78415], [4.85803, 49.78657], [4.84904, 49.79417], [4.84924, 49.83158], [4.84676, 49.83753], [4.83695, 49.84802], [4.83488, 49.85303], [4.83674, 49.85913], [4.84563, 49.86585], [4.84893, 49.87107], [4.85431, 49.88331], [4.85937, 49.89168], [4.86196, 49.90031], [4.8602, 49.91334], [4.84459, 49.93173], [4.79726, 49.94429], [4.78392, 49.95829], [4.78826, 49.97426], [4.82671, 50.03602], [4.82764, 50.04671], [4.82609, 50.05503], [4.82723, 50.06408], [4.84604, 50.09069], [4.85214, 50.09162], [4.86289, 50.08408], [4.86516, 50.10159], [4.8698, 50.11945], [5.4657, 50.31793]]]]}, "properties": {"id": "Iq0Z", "status": "validé", "pieces": [{"kind": "polygon", "ring": [[4.08142, 50.15286], [4.80103, 50.09654], [5.4657, 50.31793], [5.93262, 50.51736], [5.98206, 50.69512], [5.92712, 50.80976], [6.86646, 50.25482], [5.83923, 49.12529], [4.48242, 49.76432], [3.7738, 50.03313]]}, {"kind": "clip"}]}}, {"type": "Feature", "geometry": null, "properties": {"id": "LF07", "status": "validé", "pieces": [{"kind": "country"}]}}, {"type": "Feature", "geometry": null, "properties": {"id": "Qz6K", "status": "validé", "pieces": [{"kind": "admin1", "code": "BEL-3477"}, {"kind": "admin1", "code": "BEL-3481"}, {"kind": "admin1", "code": "BEL-3476"}, {"kind": "admin1", "code": "BEL-2"}]}}, {"type": "Feature", "geometry": null, "properties": {"id": "U0Ti", "status": "validé", "pieces": [{"kind": "country"}]}}, {"type": "Feature", "geometry": null, "properties": {"id": "UD8T", "status": "validé", "pieces": [{"kind": "country"}]}}, {"type": "Feature", "geometry": null, "properties": {"id": "VtiH", "status": "validé", "pieces": [{"kind": "country"}]}}, {"type": "Feature", "geometry": null, "properties": {"id": "Wopz", "status": "validé", "pieces": [{"kind": "admin1", "code": "BEL-3474"}]}}, {"type": "Feature", "geometry": null, "properties": {"id": "aGFv", "status": "validé", "pieces": [{"kind": "country"}]}}, {"type": "Feature", "geometry": null, "properties": {"id": "ahrj", "status": "validé", "pieces": [{"kind": "country"}]}}, {"type": "Feature", "geometry": null, "properties": {"id": "by58", "status": "validé", "pieces": [{"kind": "country"}]}}, {"type": "Feature", "geometry": null, "properties": {"id": "ecIc", "status": "validé", "pieces": [{"kind": "country"}]}}, {"type": "Feature", "geometry": {"type": "Polygon", "coordinates": [[[4.9187, 51.44652], [4.91467, 51.43524], [4.92969, 51.4308], [4.9411, 51.43032], [4.9514, 51.44599], [4.95372, 51.45257], [4.94608, 51.45749], [4.92368, 51.45236], [4.9187, 51.44652]]]}, "properties": {"id": "fihD", "status": "validé", "pieces": [{"kind": "polygon", "ring": [[4.9187, 51.44652], [4.91467, 51.43524], [4.92969, 51.4308], [4.9411, 51.43032], [4.9514, 51.44599], [4.95372, 51.45257], [4.94608, 51.45749], [4.92368, 51.45236]]}]}}, {"type": "Feature", "geometry": null, "properties": {"id": "m1Lx", "status": "validé", "pieces": [{"kind": "admin1", "code": "BEL-3479"}, {"kind": "admin1", "code": "BEL-3478"}, {"kind": "admin1", "code": "BEL-3480"}, {"kind": "admin1", "code": "BEL-3475"}, {"kind": "admin1", "code": "BEL-3474"}, {"kind": "admin1", "code": "BEL-3"}]}}, {"type": "Feature", "geometry": null, "properties": {"id": "n3uG", "status": "validé", "pieces": [{"kind": "country"}]}}, {"type": "Feature", "geometry": null, "properties": {"id": "nGOp", "status": "validé", "pieces": [{"kind": "country"}]}}, {"type": "Feature", "geometry": null, "properties": {"id": "npN9", "status": "validé", "pieces": [{"kind": "country"}]}}, {"type": "Feature", "geometry": null, "properties": {"id": "rJDM", "status": "validé", "pieces": [{"kind": "country"}]}}, {"type": "Feature", "geometry": null, "properties": {"id": "rJaC", "status": "validé", "pieces": [{"kind": "country"}]}}, {"type": "Feature", "geometry": null, "properties": {"id": "t75X", "status": "validé", "pieces": [{"kind": "admin1", "code": "BEL-3479"}, {"kind": "admin1", "code": "BEL-3478"}, {"kind": "admin1", "code": "BEL-3474"}, {"kind": "admin1", "code": "BEL-3475"}, {"kind": "admin1", "code": "BEL-3480"}, {"kind": "admin1", "code": "BEL-3"}]}}, {"type": "Feature", "geometry": null, "properties": {"id": "u60n", "status": "validé", "pieces": [{"kind": "country"}]}}, {"type": "Feature", "geometry": null, "properties": {"id": "uyob", "status": "validé", "pieces": [{"kind": "country"}]}}, {"type": "Feature", "geometry": null, "properties": {"id": "vR5K", "status": "validé", "pieces": [{"kind": "country"}]}}, {"type": "Feature", "geometry": null, "properties": {"id": "xzJZ", "status": "validé", "pieces": [{"kind": "country"}]}}]}