{"type": "FeatureCollection", "features": [{"type": "Feature", "geometry": null, "properties": {"id": "3Rlt", "status": "validé", "pieces": [{"kind": "country"}]}}, {"type": "Feature", "geometry": null, "properties": {"id": "4ipy", "status": "validé", "pieces": [{"kind": "country"}]}}, {"type": "Feature", "geometry": null, "properties": {"id": "5asz", "status": "validé", "pieces": [{"kind": "country"}]}}, {"type": "Feature", "geometry": {"type": "Polygon", "coordinates": [[[23.43521, 42.59719], [23.43521, 42.75564], [23.22098, 42.75564], [23.22098, 42.59719], [23.43521, 42.59719]]]}, "properties": {"id": "7hxS", "status": "validé", "pieces": [{"kind": "rect", "bounds": [23.22098, 42.59719, 23.43521, 42.75564]}]}}, {"type": "Feature", "geometry": null, "properties": {"id": "A9Bj", "status": "rejeté", "pieces": []}}, {"type": "Feature", "geometry": null, "properties": {"id": "AKrj", "status": "validé", "pieces": [{"kind": "country"}]}}, {"type": "Feature", "geometry": null, "properties": {"id": "AxEF", "status": "validé", "pieces": [{"kind": "country"}]}}, {"type": "Feature", "geometry": {"type": "Polygon", "coordinates": [[[24.85107, 41.53516], [24.54346, 41.67476], [24.20288, 41.93671], [24.06006, 42.18131], [24.35669, 42.45739], [24.38965, 42.65962], [24.15894, 42.75645], [24.0271, 42.96575], [24.14795, 43.07815], [24.33472, 43.20636], [24.65332, 43.35027], [24.94995, 43.39018], [25.14771, 43.36624], [25.22461, 43.20636], [25.33447, 42.98182], [25.33447, 42.76452], [25.35645, 42.65154], [25.6311, 42.65154], [25.96069, 42.69191], [26.19141, 42.66769], [26.36719, 42.56263], [26.8396, 42.63538], [27.05933, 42.67577], [27.21313, 43.02197], [27.45483, 43.20636], [27.91626, 43.31033], [28.0406, 43.26704], [28.0311, 43.24897], [28.01759, 43.23273], [28.00017, 43.22321], [27.93198, 43.20978], [27.92058, 43.20405], [27.91383, 43.20234], [27.90398, 43.20234], [27.90398, 43.1955], [27.93873, 43.1765], [27.94557, 43.16885], [27.94435, 43.15713], [27.92514, 43.11359], [27.91139, 43.06517], [27.90431, 43.05585], [27.89552, 43.04926], [27.88771, 43.04214], [27.88356, 43.03099], [27.88543, 43.00861], [27.9004, 42.96288], [27.90398, 42.94229], [27.89845, 42.87466], [27.90398, 42.85969], [27.88396, 42.84837], [27.88356, 42.83194], [27.89161, 42.81037], [27.89715, 42.784], [27.89715, 42.73623], [27.8947, 42.71748], [27.89226, 42.71052], [27.84108, 42.70832], [27.78736, 42.71516], [27.74318, 42.71605], [27.73268, 42.7145], [27.7256, 42.70848], [27.719, 42.69457], [27.71583, 42.68374], [27.71697, 42.67451], [27.72413, 42.66698], [27.73951, 42.66108], [27.71274, 42.65766], [27.6692, 42.6437], [27.64674, 42.64057], [27.62843, 42.62897], [27.63038, 42.60273], [27.64145, 42.57477], [27.65016, 42.55805], [27.63404, 42.56371], [27.54086, 42.5655], [27.51149, 42.55305], [27.49855, 42.53246], [27.49147, 42.50776], [27.48015, 42.4829], [27.46225, 42.48957], [27.45289, 42.48013], [27.45338, 42.46524], [27.46567, 42.45563], [27.46209, 42.44872], [27.46111, 42.44355], [27.46567, 42.42829], [27.46843, 42.43578], [27.4699, 42.43708], [27.46941, 42.4372], [27.46567, 42.44135], [27.47267, 42.46186], [27.50392, 42.43732], [27.51417, 42.43513], [27.52638, 42.44367], [27.53443, 42.45527], [27.54444, 42.46003], [27.56202, 42.44819], [27.57106, 42.45848], [27.5796, 42.45722], [27.58774, 42.45148], [27.59555, 42.44819], [27.60963, 42.45116], [27.61948, 42.45588], [27.6294, 42.45864], [27.64332, 42.45563], [27.64283, 42.45051], [27.64177, 42.44953], [27.63982, 42.44977], [27.63649, 42.44819], [27.64243, 42.43089], [27.65219, 42.41852], [27.66774, 42.41608], [27.69166, 42.42829], [27.69353, 42.41889], [27.69907, 42.41389], [27.70786, 42.41275], [27.719, 42.4147], [27.719, 42.40721], [27.71323, 42.40595], [27.69801, 42.40038], [27.70541, 42.39061], [27.70965, 42.38813], [27.719, 42.3867], [27.70948, 42.37678], [27.70834, 42.3631], [27.71437, 42.34919], [27.72584, 42.33893], [27.74041, 42.3343], [27.75213, 42.33539], [27.7645, 42.33832], [27.78045, 42.33893], [27.78045, 42.33271], [27.77459, 42.32722], [27.77443, 42.32172], [27.77914, 42.31631], [27.78785, 42.31098], [27.76295, 42.2956], [27.75115, 42.27705], [27.75587, 42.25849], [27.78045, 42.24335], [27.77605, 42.24067], [27.77565, 42.23965], [27.77369, 42.23591], [27.80974, 42.21841], [27.81528, 42.21198], [27.82, 42.20466], [27.83139, 42.19501], [27.8449, 42.1861], [27.85621, 42.1813], [27.85418, 42.17792], [27.85141, 42.17011], [27.84938, 42.16706], [27.87908, 42.15424], [27.88673, 42.14737], [27.90398, 42.11982], [27.95777, 42.09431], [27.96437, 42.08462], [27.97267, 42.07538], [27.98658, 42.07209], [27.98243, 42.0611], [27.98731, 42.05174], [27.99692, 42.04401], [28.00701, 42.03791], [28.00758, 42.0329], [28.00611, 42.03156], [28.00343, 42.03148], [28.00017, 42.03046], [28.01157, 42.02139], [28.01905, 42.00845], [28.02036, 41.99457], [28.01384, 41.98265], [28.01677, 41.97256], [27.98101, 41.97852], [27.96592, 41.98214], [27.91703, 41.9779], [27.90339, 41.98106], [27.87693, 41.99072], [27.85223, 41.99545], [27.84303, 41.99576], [27.82402, 41.99348], [27.81994, 41.9947], [27.81595, 41.99514], [27.81192, 41.9947], [27.808, 41.99348], [27.80495, 41.98343], [27.8049, 41.96989], [27.80273, 41.96005], [27.81828, 41.95287], [27.81534, 41.9468], [27.80283, 41.94307], [27.78981, 41.94269], [27.77616, 41.94612], [27.72397, 41.9676], [27.68707, 41.9686], [27.6093, 41.95349], [27.60687, 41.94351], [27.60336, 41.93863], [27.59809, 41.9386], [27.59054, 41.94289], [27.58238, 41.93488], [27.5722, 41.92985], [27.55075, 41.92421], [27.5521, 41.92184], [27.55489, 41.92034], [27.55794, 41.91907], [27.56067, 41.91768], [27.55747, 41.91551], [27.55127, 41.9131], [27.54889, 41.91088], [27.56274, 41.90644], [27.54641, 41.90116], [27.53318, 41.90806], [27.50946, 41.93318], [27.49432, 41.94284], [27.42084, 41.97372], [27.39686, 41.98932], [27.37485, 42.0087], [27.33247, 42.05743], [27.30529, 42.07759], [27.27335, 42.09175], [27.23821, 42.09792], [27.21641, 42.09562], [27.2038, 42.08813], [27.18158, 42.06588], [27.17899, 42.06188], [27.17816, 42.05836], [27.17382, 42.05707], [27.14959, 42.06183], [27.12721, 42.06258], [27.11605, 42.06183], [27.10065, 42.0711], [27.0837, 42.07841], [27.06551, 42.0827], [27.0479, 42.08292], [27.04654, 42.08294], [27.02262, 42.07389], [27.0004, 42.04281], [26.98107, 42.03286], [26.96717, 42.02849], [26.95823, 42.01824], [26.95006, 42.00617], [26.9389, 41.99622], [26.93022, 41.99452], [26.91146, 41.99679], [26.90108, 41.99348], [26.89033, 41.98542], [26.88113, 41.98553], [26.87172, 41.98814], [26.86077, 41.9879], [26.85002, 41.98286], [26.8379, 41.97522], [26.82769, 41.96878], [26.81943, 41.96566], [26.80842, 41.96788], [26.78992, 41.97995], [26.78057, 41.98343], [26.76858, 41.98077], [26.74698, 41.96449], [26.73674, 41.95896], [26.71757, 41.95731], [26.62357, 41.96904], [26.60569, 41.96741], [26.58947, 41.95876], [26.56063, 41.93568], [26.55329, 41.93158], [26.54709, 41.9269], [26.54296, 41.92036], [26.54472, 41.91643], [26.55681, 41.91075], [26.55981, 41.90734], [26.55898, 41.90173], [26.55474, 41.89295], [26.5536, 41.8877], [26.55289, 41.88164], [26.55205, 41.87445], [26.54782, 41.85628], [26.53955, 41.83799], [26.52611, 41.82424], [26.47836, 41.81329], [26.37553, 41.81662], [26.33419, 41.78954], [26.32003, 41.76546], [26.3163, 41.74376], [26.32323, 41.72368], [26.33336, 41.71304], [26.29491, 41.71032], [26.27393, 41.7149], [26.26101, 41.72306], [26.23445, 41.74583], [26.22618, 41.74968], [26.21182, 41.75048], [26.1899, 41.73469], [26.13513, 41.7334], [26.10836, 41.72789], [26.08149, 41.71151], [26.07405, 41.70914], [26.06723, 41.70885], [26.06051, 41.7073], [26.05369, 41.70151], [26.0481, 41.68908], [26.04749, 41.67462], [26.05027, 41.66046], [26.05503, 41.64875], [26.05949, 41.64378], [26.06692, 41.6355], [26.08118, 41.63046], [26.09523, 41.62839], [26.10671, 41.62428], [26.11528, 41.61663], [26.12107, 41.60821], [26.13027, 41.58268], [26.13099, 41.57514], [26.12944, 41.55938], [26.1312, 41.55266], [26.13678, 41.5492], [26.15249, 41.54703], [26.15807, 41.54232], [26.16314, 41.52915], [26.16448, 41.51772], [26.16293, 41.50646], [26.15931, 41.4938], [26.14763, 41.48476], [26.14588, 41.47804], [26.15621, 41.46042], [26.16045, 41.45587], [26.1743, 41.446], [26.1774, 41.43995], [26.17564, 41.43189], [26.17058, 41.42956], [26.16427, 41.42786], [26.159, 41.42181], [26.14784, 41.39691], [26.13244, 41.37153], [26.12086, 41.35779], [26.11466, 41.3552], [26.10733, 41.3566], [26.02185, 41.34166], [26.00893, 41.33681], [25.98227, 41.32327], [25.95963, 41.315], [25.94858, 41.31397], [25.93514, 41.31593], [25.92119, 41.31603], [25.89628, 41.30627], [25.88202, 41.30404], [25.86269, 41.31009], [25.83334, 41.33464], [25.81101, 41.34104], [25.80078, 41.33805], [25.76347, 41.31903], [25.72874, 41.31707], [25.71748, 41.31412], [25.70518, 41.3073], [25.69805, 41.30192], [25.69123, 41.29841], [25.67996, 41.29717], [25.67045, 41.29919], [25.64958, 41.30849], [25.63976, 41.31107], [25.55149, 41.31567], [25.53796, 41.31221], [25.5302, 41.30275], [25.52369, 41.29169], [25.51491, 41.28348], [25.50509, 41.28058], [25.49734, 41.2812], [25.48948, 41.28306], [25.4791, 41.28379], [25.45346, 41.28043], [25.28572, 41.2394], [25.26226, 41.2381], [25.23911, 41.2409], [25.21968, 41.24973], [25.1771, 41.29386], [25.15788, 41.30611], [25.15385, 41.30754], [25.11653, 41.32073], [25.11261, 41.32415], [25.10486, 41.33407], [25.10186, 41.33665], [25.09679, 41.3367], [25.08036, 41.33407], [25.05073, 41.34355], [24.85107, 41.53516]]]}, "properties": {"id": "BUpU", "status": "validé", "pieces": [{"kind": "polygon", "ring": [[25.12573, 41.27157], [24.85107, 41.53516], [24.54346, 41.67476], [24.20288, 41.93671], [24.06006, 42.18131], [24.35669, 42.45739], [24.38965, 42.65962], [24.15894, 42.75645], [24.0271, 42.96575], [24.14795, 43.07815], [24.33472, 43.20636], [24.65332, 43.35027], [24.94995, 43.39018], [25.14771, 43.36624], [25.22461, 43.20636], [25.33447, 42.98182], [25.33447, 42.76452], [25.35645, 42.65154], [25.6311, 42.65154], [25.96069, 42.69191], [26.19141, 42.66769], [26.36719, 42.56263], [26.8396, 42.63538], [27.05933, 42.67577], [27.21313, 43.02197], [27.45483, 43.20636], [27.91626, 43.31033], [28.16895, 43.22236], [28.11401, 42.03466], [27.76245, 41.13938], [25.98267, 40.88249]]}, {"kind": "clip"}]}}, {"type": "Feature", "geometry": null, "properties": {"id": "BcFd", "status": "rejeté", "pieces": []}}, {"type": "Feature", "geometry": null, "properties": {"id": "CLGi", "status": "validé", "pieces": [{"kind": "country"}]}}, {"type": "Feature", "geometry": null, "properties": {"id": "Cs2I", "status": "validé", "pieces": [{"kind": "country"}]}}, {"type": "Feature", "geometry": null, "properties": {"id": "D7we", "status": "validé", "pieces": [{"kind": "country"}]}}, {"type": "Feature", "geometry": {"type": "MultiPolygon", "coordinates": [[[[27.08125, 44.15299], [27.10024, 44.14449], [27.20555, 44.12925], [27.22674, 44.12072], [27.25113, 44.12237], [27.25266, 44.12152], [27.26901, 44.1124], [27.26431, 44.08976], [27.28534, 44.07245], [27.34167, 44.05307], [27.35356, 44.04527], [27.37288, 44.02072], [27.38384, 44.01509], [27.57452, 44.01628], [27.63343, 44.02977], [27.65628, 44.02388], [27.66262, 44.01417], [27.46582, 43.939], [26.97144, 43.89153], [26.38916, 43.80442], [26.34521, 43.6139], [26.24634, 43.24704], [26.02661, 43.01463], [25.62012, 42.91819], [25.34546, 42.94232], [24.66431, 42.89406], [24.3457, 42.87797], [24.12598, 42.71681], [24.14795, 42.53096], [24.35669, 42.41756], [24.46655, 42.182], [24.44458, 41.85566], [24.11998, 41.53261], [24.11649, 41.53338], [24.0766, 41.53602], [24.04735, 41.52573], [24.04983, 41.49364], [24.05252, 41.47147], [24.052, 41.463], [24.0459, 41.45546], [24.03474, 41.45132], [24.02285, 41.45308], [24.00074, 41.46414], [23.99712, 41.45701], [23.99236, 41.45463], [23.98689, 41.4537], [23.98131, 41.45086], [23.96467, 41.43835], [23.94989, 41.43758], [23.90286, 41.46352], [23.8948, 41.46434], [23.86772, 41.44548], [23.8516, 41.43959], [23.83093, 41.43561], [23.80974, 41.4338], [23.79207, 41.43447], [23.77708, 41.42905], [23.75445, 41.40068], [23.73822, 41.39747], [23.70535, 41.40316], [23.67218, 41.40295], [23.65285, 41.39763], [23.62774, 41.37851], [23.62485, 41.37709], [23.61244, 41.37102], [23.57895, 41.372], [23.51301, 41.39773], [23.41452, 41.3999], [23.3955, 41.39525], [23.36512, 41.37856], [23.34724, 41.37122], [23.32605, 41.36931], [23.31561, 41.37685], [23.3062, 41.38838], [23.2877, 41.3982], [23.26993, 41.39727], [23.24657, 41.38972], [23.22425, 41.37903], [23.20978, 41.36859], [23.20637, 41.36094], [23.20482, 41.3427], [23.19955, 41.33298], [23.19066, 41.32606], [23.1797, 41.32135], [23.15717, 41.31634], [23.11521, 41.31267], [22.91698, 41.33577], [22.94085, 41.34983], [22.94447, 41.36843], [22.93941, 41.38941], [22.93734, 41.41076], [22.94054, 41.4169], [22.95212, 41.42771], [22.9546, 41.43241], [22.95336, 41.4382], [22.94757, 41.44838], [22.94623, 41.45323], [22.9436, 41.5232], [22.94302, 41.53855], [22.94788, 41.55514], [22.94871, 41.56098], [22.94643, 41.56775], [22.93692, 41.57891], [22.93372, 41.5846], [22.93207, 41.59795], [22.933, 41.61234], [22.9361, 41.62617], [22.94085, 41.63764], [22.94581, 41.64108], [22.96152, 41.64449], [22.967, 41.64705], [22.9701, 41.65203], [22.97661, 41.66655], [22.98543, 41.6772], [22.99863, 41.69311], [23.00958, 41.71637], [23.00886, 41.73993], [22.99119, 41.76099], [22.98054, 41.76474], [22.95687, 41.76567], [22.94592, 41.76934], [22.93972, 41.7767], [22.91832, 41.81435], [22.90768, 41.84858], [22.90137, 41.86042], [22.89672, 41.86445], [22.88504, 41.86915], [22.88209, 41.87162], [22.8808, 41.87269], [22.87822, 41.88026], [22.87863, 41.89502], [22.87708, 41.90204], [22.86633, 41.92488], [22.85889, 41.94788], [22.85714, 41.97188], [22.85476, 41.98263], [22.8469, 41.99348], [22.8466, 41.99364], [22.84577, 42.00687], [22.84562, 42.00741], [22.8437, 42.01447], [22.83822, 42.01948], [22.82696, 42.02508], [22.82127, 42.02537], [22.80598, 42.02139], [22.79895, 42.02123], [22.79109, 42.02581], [22.78768, 42.03258], [22.78531, 42.03914], [22.78086, 42.04317], [22.77063, 42.044], [22.72505, 42.04247], [22.71844, 42.04446], [22.71399, 42.04862], [22.71027, 42.05299], [22.70573, 42.05593], [22.67586, 42.06061], [22.62718, 42.07913], [22.61777, 42.0827], [22.53106, 42.12911], [22.51018, 42.14479], [22.50694, 42.14893], [22.49468, 42.16456], [22.48145, 42.19332], [22.44362, 42.21443], [22.34502, 42.31344], [22.36414, 42.32098], [22.4058, 42.32155], [22.42398, 42.32589], [22.43845, 42.34005], [22.45437, 42.37677], [22.46977, 42.3917], [22.48507, 42.39715], [22.49757, 42.3992], [22.50884, 42.40493], [22.51948, 42.42093], [22.53312, 42.45759], [22.53654, 42.47839], [22.53251, 42.4934], [22.53251, 42.49356], [22.52486, 42.50767], [22.51215, 42.51919], [22.48145, 42.53562], [22.42967, 42.57141], [22.42533, 42.57285], [22.42884, 42.59278], [22.44132, 42.63289], [22.44455, 42.64329], [22.4492, 42.66797], [22.44207, 42.68169], [22.46812, 42.71832], [22.48145, 42.72768], [22.48259, 42.73067], [22.4829, 42.73378], [22.48259, 42.73682], [22.48145, 42.73982], [22.46657, 42.74853], [22.45313, 42.76359], [22.42936, 42.80612], [22.42584, 42.80984], [22.4274, 42.81361], [22.43045, 42.81708], [22.4368, 42.82429], [22.44548, 42.83018], [22.47091, 42.84013], [22.48145, 42.84674], [22.49705, 42.86441], [22.50605, 42.87012], [22.51979, 42.87036], [22.53757, 42.86834], [22.54449, 42.87139], [22.54479, 42.87171], [22.54997, 42.87736], [22.56361, 42.88428], [22.5909, 42.88689], [22.66624, 42.87193], [22.69663, 42.87741], [22.72702, 42.88689], [22.7388, 42.89738], [22.73958, 42.89886], [22.74552, 42.91007], [22.76319, 42.95864], [22.76939, 42.97128], [22.77642, 42.97973], [22.7881, 42.9849], [22.8158, 42.9897], [22.82882, 42.99345], [22.82892, 42.99345], [22.82903, 42.9935], [22.82903, 42.99366], [22.84225, 43.00751], [22.88422, 43.03665], [22.88949, 43.04438], [22.89672, 43.06272], [22.90168, 43.06975], [22.91016, 43.07528], [22.92711, 43.08114], [22.93527, 43.08556], [22.95563, 43.10827], [22.97403, 43.14119], [22.98457, 43.17463], [22.9829, 43.18732], [22.98137, 43.19899], [22.96473, 43.20442], [22.91553, 43.21225], [22.89775, 43.22033], [22.8838, 43.23059], [22.85734, 43.25695], [22.83316, 43.27465], [22.82696, 43.28139], [22.82386, 43.2893], [22.82076, 43.30754], [22.81714, 43.3155], [22.80453, 43.32898], [22.73301, 43.38151], [22.72434, 43.38606], [22.71937, 43.38867], [22.70293, 43.39404], [22.69322, 43.39487], [22.6742, 43.39415], [22.66469, 43.39673], [22.65893, 43.40129], [22.65653, 43.40319], [22.64537, 43.4203], [22.63782, 43.42637], [22.62852, 43.42826], [22.60692, 43.4274], [22.59627, 43.42916], [22.58677, 43.43443], [22.57271, 43.44815], [22.56579, 43.45334], [22.53261, 43.46484], [22.51886, 43.47425], [22.50935, 43.49334], [22.49065, 43.54088], [22.47845, 43.55923], [22.47762, 43.56416], [22.47866, 43.56918], [22.48145, 43.57411], [22.48269, 43.5767], [22.4831, 43.57928], [22.48269, 43.58173], [22.48145, 43.58414], [22.47814, 43.58757], [22.47711, 43.59129], [22.47814, 43.59491], [22.48145, 43.59853], [22.48176, 43.59894], [22.48197, 43.59946], [22.48176, 43.59998], [22.48145, 43.60065], [22.4738, 43.613], [22.47287, 43.63594], [22.46626, 43.64912], [22.45592, 43.65641], [22.42647, 43.66821], [22.41396, 43.67666], [22.40487, 43.68718], [22.39691, 43.6994], [22.3905, 43.71245], [22.38605, 43.7255], [22.38585, 43.73382], [22.38957, 43.75051], [22.38854, 43.75829], [22.36259, 43.78084], [22.34947, 43.80792], [22.35474, 43.8297], [22.36755, 43.85275], [22.37706, 43.88352], [22.37903, 43.9135], [22.38202, 43.91856], [22.39194, 43.93187], [22.39453, 43.93634], [22.3968, 43.95194], [22.39732, 43.98093], [22.39959, 43.99334], [22.41179, 44.00693], [22.43432, 44.01396], [22.46589, 44.01762], [22.48145, 44.01943], [22.50367, 44.0199], [22.51494, 44.03028], [22.52258, 44.0447], [22.53416, 44.05716], [22.55462, 44.06243], [22.57519, 44.06139], [22.59297, 44.06393], [22.60475, 44.07938], [22.60465, 44.08816], [22.59813, 44.1093], [22.5971, 44.11906], [22.59906, 44.13033], [22.6094, 44.15994], [22.60795, 44.15999], [22.60599, 44.16315], [22.60485, 44.16847], [22.6062, 44.17457], [22.60857, 44.17586], [22.6248, 44.1894], [22.63999, 44.20733], [22.64878, 44.21399], [22.69164, 44.22843], [22.90644, 44.12289], [22.94261, 44.11147], [22.98809, 44.10703], [23.00831, 44.10045], [23.03098, 44.09307], [23.04007, 44.06233], [23.02302, 44.03163], [22.98809, 44.01768], [22.96628, 44.01556], [22.92649, 44.00615], [22.90582, 44.00398], [22.88587, 43.99453], [22.87471, 43.97205], [22.85052, 43.89699], [22.85104, 43.87435], [22.86344, 43.85541], [22.88876, 43.83952], [22.91956, 43.83423], [23.05255, 43.84282], [23.13185, 43.84795], [23.16192, 43.85732], [23.19696, 43.86275], [23.23448, 43.8773], [23.32515, 43.88659], [23.48469, 43.8806], [23.5927, 43.83743], [23.62085, 43.83401], [23.63611, 43.83216], [23.72075, 43.84583], [23.74287, 43.8427], [23.79992, 43.81846], [24.14961, 43.75472], [24.15938, 43.75294], [24.3367, 43.75925], [24.35823, 43.76002], [24.37549, 43.76387], [24.4312, 43.79418], [24.46634, 43.80242], [24.50014, 43.7995], [24.66176, 43.75566], [24.7056, 43.74377], [24.75263, 43.7388], [24.96367, 43.74961], [25.0816, 43.71894], [25.21131, 43.71188], [25.25234, 43.70465], [25.28541, 43.69039], [25.28872, 43.68896], [25.32303, 43.66971], [25.35962, 43.65429], [25.40313, 43.65005], [25.42608, 43.65439], [25.46742, 43.66775], [25.48245, 43.66971], [25.48876, 43.67054], [25.53382, 43.66868], [25.55656, 43.67036], [25.57506, 43.67739], [25.59387, 43.68067], [25.6165, 43.68775], [25.6379, 43.69728], [25.6535, 43.70813], [25.67138, 43.71736], [25.73295, 43.71878], [25.7396, 43.71894], [25.78114, 43.73201], [25.8044, 43.75991], [25.80626, 43.76366], [25.83933, 43.78844], [25.8693, 43.80089], [25.91643, 43.84438], [25.9245, 43.85862], [25.934, 43.87032], [26.05431, 43.93432], [26.06164, 43.94977], [26.07932, 43.96905], [26.11621, 43.99887], [26.15073, 44.01241], [26.23145, 44.0275], [26.31052, 44.05261], [26.33234, 44.05493], [26.41579, 44.06379], [26.61417, 44.08485], [26.64776, 44.09338], [26.66781, 44.09509], [26.67732, 44.09705], [26.69721, 44.10609], [26.70868, 44.10811], [26.7537, 44.10811], [26.78946, 44.11597], [26.88413, 44.15653], [26.98228, 44.1637], [27.08125, 44.15299]]], [[[27.76245, 43.22202], [27.77893, 43.34593], [27.94922, 43.50545], [28.23486, 43.58902], [28.37219, 43.66057], [28.38121, 43.74191], [28.43457, 43.73521], [28.57838, 43.74128], [28.57618, 43.72752], [28.57309, 43.60615], [28.57553, 43.59333], [28.5857, 43.57583], [28.59588, 43.56371], [28.60271, 43.55272], [28.60353, 43.53815], [28.59457, 43.51252], [28.57846, 43.48078], [28.56031, 43.45384], [28.54518, 43.44253], [28.535, 43.43863], [28.48862, 43.40644], [28.47926, 43.3968], [28.47389, 43.38426], [28.47315, 43.36685], [28.45948, 43.38068], [28.41456, 43.39887], [28.40496, 43.40469], [28.39381, 43.41429], [28.36866, 43.42178], [28.32163, 43.42829], [28.29916, 43.42504], [28.26157, 43.41096], [28.24318, 43.40778], [28.17799, 43.40998], [28.15724, 43.40778], [28.11883, 43.39155], [28.09156, 43.36396], [28.08701, 43.35525], [28.0311, 43.24897], [28.01759, 43.23273], [28.00017, 43.22321], [27.93198, 43.20978], [27.92058, 43.20405], [27.91383, 43.20234], [27.90398, 43.20234], [27.90398, 43.1955], [27.93873, 43.1765], [27.94557, 43.16885], [27.94435, 43.15713], [27.92514, 43.11359], [27.91885, 43.09144], [27.78442, 43.12591], [27.76245, 43.22202]]]]}, "properties": {"id": "GRh6", "status": "validé", "pieces": [{"kind": "polygon", "ring": [[27.98767, 43.07379], [27.78442, 43.12591], [27.76245, 43.22202], [27.77893, 43.34593], [27.94922, 43.50545], [28.23486, 43.58902], [28.37219, 43.66057], [28.39417, 43.85886], [28.89954, 43.80737], [28.69629, 43.12992]]}, {"kind": "polygon", "ring": [[24.04907, 41.4042], [24.11499, 41.52764], [24.44458, 41.85566], [24.46655, 42.182], [24.35669, 42.41756], [24.14795, 42.53096], [24.12598, 42.71681], [24.3457, 42.87797], [24.66431, 42.89406], [25.34546, 42.94232], [25.62012, 42.91819], [26.02661, 43.01463], [26.24634, 43.24704], [26.34521, 43.6139], [26.38916, 43.80442], [26.97144, 43.89153], [27.46582, 43.939], [27.81738, 44.07328], [24.98291, 44.38019], [22.08252, 44.32522], [20.75317, 42.86187], [21.90674, 41.39596], [23.09326, 41.01591]]}, {"kind": "clip"}]}}, {"type": "Feature", "geometry": null, "properties": {"id": "IGYS", "status": "validé", "pieces": [{"kind": "country"}]}}, {"type": "Feature", "geometry": {"type": "Polygon", "coordinates": [[[27.9657, 43.49744], [27.94922, 43.67244], [28.04059, 43.82154], [28.22125, 43.76198], [28.43457, 43.73521], [28.57838, 43.74128], [28.57618, 43.72752], [28.57309, 43.60615], [28.57553, 43.59333], [28.5857, 43.57583], [28.59588, 43.56371], [28.60271, 43.55272], [28.60353, 43.53815], [28.59457, 43.51252], [28.57846, 43.48078], [28.56031, 43.45384], [28.54518, 43.44253], [28.535, 43.43863], [28.48862, 43.40644], [28.47926, 43.3968], [28.47389, 43.38426], [28.47315, 43.36685], [28.45948, 43.38068], [28.41456, 43.39887], [28.40496, 43.40469], [28.39381, 43.41429], [28.36866, 43.42178], [28.32163, 43.42829], [28.29916, 43.42504], [28.26157, 43.41096], [28.24318, 43.40778], [28.17799, 43.40998], [28.15724, 43.40778], [28.11883, 43.39155], [28.09156, 43.36396], [28.08701, 43.35525], [28.07141, 43.32561], [27.9657, 43.49744]]]}, "properties": {"id": "LaoB", "status": "validé", "pieces": [{"kind": "polygon", "ring": [[28.08105, 43.30994], [27.9657, 43.49744], [27.94922, 43.67244], [28.07556, 43.87861], [28.927, 43.89048], [28.88306, 43.11385]]}, {"kind": "clip"}]}}, {"type": "Feature", "geometry": {"type": "MultiPolygon", "coordinates": [[[[27.77344, 42.13234], [27.57568, 42.1079], [27.36694, 42.11605], [27.22412, 42.26251], [27.3999, 42.33561], [27.72072, 42.34352], [27.72584, 42.33893], [27.74041, 42.3343], [27.75213, 42.33539], [27.75252, 42.33549], [27.77488, 42.32749], [27.77459, 42.32722], [27.77443, 42.32172], [27.77914, 42.31631], [27.78785, 42.31098], [27.76295, 42.2956], [27.75115, 42.27705], [27.75587, 42.25849], [27.78045, 42.24335], [27.77605, 42.24067], [27.77565, 42.23965], [27.77369, 42.23591], [27.80974, 42.21841], [27.81528, 42.21198], [27.82, 42.20466], [27.83139, 42.19501], [27.8449, 42.1861], [27.85621, 42.1813], [27.85418, 42.17792], [27.85141, 42.17011], [27.84938, 42.16706], [27.86547, 42.16011], [27.77344, 42.13234]]], [[[26.05957, 42.33561], [25.96069, 42.22999], [25.70801, 42.1079], [25.3894, 42.08346], [25.03784, 42.09975], [24.98291, 42.16491], [24.90601, 42.35185], [24.97192, 42.50586], [25.3125, 42.59485], [25.68604, 42.61102], [26.04858, 42.53823], [26.05957, 42.33561]]]]}, "properties": {"id": "Ml2y", "status": "validé", "pieces": [{"kind": "polygon", "ring": [[25.68604, 42.61102], [25.3125, 42.59485], [24.97192, 42.50586], [24.90601, 42.35185], [24.98291, 42.16491], [25.03784, 42.09975], [25.3894, 42.08346], [25.70801, 42.1079], [25.96069, 42.22999], [26.05957, 42.33561], [26.04858, 42.53823]]}, {"kind": "polygon", "ring": [[27.72949, 42.34373], [27.3999, 42.33561], [27.22412, 42.26251], [27.36694, 42.11605], [27.57568, 42.1079], [27.77344, 42.13234], [28.07007, 42.22186]]}, {"kind": "clip"}]}}, {"type": "Feature", "geometry": null, "properties": {"id": "QHMB", "status": "validé", "pieces": [{"kind": "country"}]}}, {"type": "Feature", "geometry": null, "properties": {"id": "ZCSx", "status": "validé", "pieces": [{"kind": "country"}]}}, {"type": "Feature", "geometry": {"type": "Polygon", "coordinates": [[[25.34248, 43.66151], [25.35962, 43.65429], [25.40313, 43.65005], [25.42608, 43.65439], [25.46742, 43.66775], [25.48245, 43.66971], [25.48876, 43.67054], [25.53382, 43.66868], [25.55656, 43.67036], [25.57506, 43.67739], [25.59387, 43.68067], [25.6165, 43.68775], [25.6379, 43.69728], [25.6535, 43.70813], [25.67138, 43.71736], [25.73295, 43.71878], [25.7396, 43.71894], [25.78114, 43.73201], [25.8044, 43.75991], [25.80626, 43.76366], [25.83933, 43.78844], [25.8693, 43.80089], [25.91643, 43.84438], [25.9245, 43.85862], [25.934, 43.87032], [26.05431, 43.93432], [26.06164, 43.94977], [26.07932, 43.96905], [26.11621, 43.99887], [26.15073, 44.01241], [26.23145, 44.0275], [26.31052, 44.05261], [26.33234, 44.05493], [26.41579, 44.06379], [26.61417, 44.08485], [26.64776, 44.09338], [26.66781, 44.09509], [26.67732, 44.09705], [26.69721, 44.10609], [26.70868, 44.10811], [26.7537, 44.10811], [26.78946, 44.11597], [26.88413, 44.15653], [27.00154, 44.16511], [27.02748, 44.17705], [27.10024, 44.14449], [27.20555, 44.12925], [27.22674, 44.12072], [27.25113, 44.12237], [27.25266, 44.12152], [27.26901, 44.1124], [27.26431, 44.08976], [27.28534, 44.07245], [27.34167, 44.05307], [27.35356, 44.04527], [27.37288, 44.02072], [27.38384, 44.01509], [27.57452, 44.01628], [27.63343, 44.02977], [27.65628, 44.02388], [27.67612, 43.99354], [27.68251, 43.98726], [27.7217, 43.94874], [27.78733, 43.96042], [27.85647, 43.98863], [27.91207, 43.99334], [27.91207, 43.99323], [27.93585, 43.9644], [27.98101, 43.84934], [28.01481, 43.83004], [28.22125, 43.76198], [28.43457, 43.73521], [28.57838, 43.74128], [28.57618, 43.72752], [28.57309, 43.60615], [28.57553, 43.59333], [28.5857, 43.57583], [28.59588, 43.56371], [28.60271, 43.55272], [28.60353, 43.53815], [28.59457, 43.51252], [28.57846, 43.48078], [28.56031, 43.45384], [28.54518, 43.44253], [28.535, 43.43863], [28.48862, 43.40644], [28.47926, 43.3968], [28.47389, 43.38426], [28.47315, 43.36685], [28.45948, 43.38068], [28.41456, 43.39887], [28.40496, 43.40469], [28.39381, 43.41429], [28.36866, 43.42178], [28.32163, 43.42829], [28.29916, 43.42504], [28.26157, 43.41096], [28.24318, 43.40778], [28.17799, 43.40998], [28.15724, 43.40778], [28.11883, 43.39155], [28.09156, 43.36396], [28.08701, 43.35525], [28.0311, 43.24897], [28.01759, 43.23273], [28.00017, 43.22321], [27.93198, 43.20978], [27.92058, 43.20405], [27.91383, 43.20234], [27.90398, 43.20234], [27.90398, 43.1955], [27.93873, 43.1765], [27.94557, 43.16885], [27.94435, 43.15713], [27.92514, 43.11359], [27.91139, 43.06517], [27.90431, 43.05585], [27.89552, 43.04926], [27.88771, 43.04214], [27.88356, 43.03099], [27.88543, 43.00861], [27.9004, 42.96288], [27.90398, 42.94229], [27.89845, 42.87466], [27.90398, 42.85969], [27.88396, 42.84837], [27.88356, 42.83194], [27.89161, 42.81037], [27.89715, 42.784], [27.89715, 42.73623], [27.8947, 42.71748], [27.89226, 42.71052], [27.84108, 42.70832], [27.78736, 42.71516], [27.74318, 42.71605], [27.73268, 42.7145], [27.7256, 42.70848], [27.719, 42.69457], [27.71583, 42.68374], [27.71697, 42.67451], [27.72413, 42.66698], [27.73951, 42.66108], [27.71274, 42.65766], [27.6692, 42.6437], [27.64674, 42.64057], [27.62843, 42.62897], [27.63038, 42.60273], [27.64145, 42.57477], [27.65016, 42.55805], [27.63404, 42.56371], [27.54086, 42.5655], [27.51149, 42.55305], [27.49855, 42.53246], [27.49147, 42.50776], [27.48015, 42.4829], [27.46225, 42.48957], [27.45289, 42.48013], [27.45338, 42.46524], [27.46567, 42.45563], [27.46209, 42.44872], [27.46111, 42.44355], [27.46567, 42.42829], [27.46843, 42.43578], [27.4699, 42.43708], [27.46941, 42.4372], [27.46567, 42.44135], [27.47267, 42.46186], [27.50392, 42.43732], [27.51417, 42.43513], [27.52638, 42.44367], [27.53443, 42.45527], [27.54444, 42.46003], [27.56202, 42.44819], [27.57106, 42.45848], [27.5796, 42.45722], [27.58774, 42.45148], [27.59555, 42.44819], [27.60963, 42.45116], [27.61948, 42.45588], [27.6294, 42.45864], [27.64332, 42.45563], [27.64283, 42.45051], [27.64177, 42.44953], [27.63982, 42.44977], [27.63649, 42.44819], [27.64243, 42.43089], [27.65219, 42.41852], [27.66774, 42.41608], [27.69166, 42.42829], [27.69353, 42.41889], [27.69907, 42.41389], [27.70786, 42.41275], [27.719, 42.4147], [27.719, 42.40721], [27.71323, 42.40595], [27.69801, 42.40038], [27.70541, 42.39061], [27.70965, 42.38813], [27.719, 42.3867], [27.70948, 42.37678], [27.70834, 42.3631], [27.71437, 42.34919], [27.72584, 42.33893], [27.74041, 42.3343], [27.75213, 42.33539], [27.7645, 42.33832], [27.78045, 42.33893], [27.78045, 42.33271], [27.77459, 42.32722], [27.77443, 42.32172], [27.77914, 42.31631], [27.78785, 42.31098], [27.76295, 42.2956], [27.75115, 42.27705], [27.75587, 42.25849], [27.78045, 42.24335], [27.77605, 42.24067], [27.77565, 42.23965], [27.77369, 42.23591], [27.80974, 42.21841], [27.81528, 42.21198], [27.82, 42.20466], [27.83139, 42.19501], [27.8449, 42.1861], [27.85621, 42.1813], [27.85418, 42.17792], [27.85141, 42.17011], [27.84938, 42.16706], [27.87908, 42.15424], [27.88673, 42.14737], [27.90398, 42.11982], [27.95777, 42.09431], [27.96437, 42.08462], [27.97267, 42.07538], [27.98658, 42.07209], [27.98243, 42.0611], [27.98731, 42.05174], [27.99692, 42.04401], [28.00701, 42.03791], [28.00758, 42.0329], [28.00611, 42.03156], [28.00343, 42.03148], [28.00017, 42.03046], [28.01157, 42.02139], [28.01905, 42.00845], [28.02036, 41.99457], [28.01384, 41.98265], [28.01677, 41.97256], [27.98101, 41.97852], [27.96592, 41.98214], [27.91703, 41.9779], [27.90339, 41.98106], [27.87693, 41.99072], [27.85223, 41.99545], [27.84303, 41.99576], [27.82402, 41.99348], [27.81994, 41.9947], [27.81595, 41.99514], [27.81192, 41.9947], [27.808, 41.99348], [27.80495, 41.98343], [27.8049, 41.96989], [27.80273, 41.96005], [27.81828, 41.95287], [27.81534, 41.9468], [27.80283, 41.94307], [27.78981, 41.94269], [27.77616, 41.94612], [27.72397, 41.9676], [27.68707, 41.9686], [27.6093, 41.95349], [27.60687, 41.94351], [27.60336, 41.93863], [27.59809, 41.9386], [27.59054, 41.94289], [27.58238, 41.93488], [27.5722, 41.92985], [27.55075, 41.92421], [27.5521, 41.92184], [27.55489, 41.92034], [27.55794, 41.91907], [27.56067, 41.91768], [27.55747, 41.91551], [27.55127, 41.9131], [27.54889, 41.91088], [27.56274, 41.90644], [27.54641, 41.90116], [27.53318, 41.90806], [27.50946, 41.93318], [27.49432, 41.94284], [27.42084, 41.97372], [27.39686, 41.98932], [27.37485, 42.0087], [27.33247, 42.05743], [27.30529, 42.07759], [27.27335, 42.09175], [27.23821, 42.09792], [27.21641, 42.09562], [27.2038, 42.08813], [27.18158, 42.06588], [27.17899, 42.06188], [27.17816, 42.05836], [27.17382, 42.05707], [27.14959, 42.06183], [27.12721, 42.06258], [27.11605, 42.06183], [27.10065, 42.0711], [27.0837, 42.07841], [27.06551, 42.0827], [27.0479, 42.08292], [27.04654, 42.08294], [27.02262, 42.07389], [27.0004, 42.04281], [26.98107, 42.03286], [26.96717, 42.02849], [26.95823, 42.01824], [26.95006, 42.00617], [26.9389, 41.99622], [26.93022, 41.99452], [26.91146, 41.99679], [26.90108, 41.99348], [26.89033, 41.98542], [26.88113, 41.98553], [26.87172, 41.98814], [26.86077, 41.9879], [26.85002, 41.98286], [26.8379, 41.97522], [26.82769, 41.96878], [26.81943, 41.96566], [26.80842, 41.96788], [26.78992, 41.97995], [26.78057, 41.98343], [26.76858, 41.98077], [26.74698, 41.96449], [26.73674, 41.95896], [26.71757, 41.95731], [26.62357, 41.96904], [26.60569, 41.96741], [26.58947, 41.95876], [26.56063, 41.93568], [26.55329, 41.93158], [26.54709, 41.9269], [26.54296, 41.92036], [26.54472, 41.91643], [26.55681, 41.91075], [26.55981, 41.90734], [26.55898, 41.90173], [26.55474, 41.89295], [26.5536, 41.8877], [26.55289, 41.88164], [26.55205, 41.87445], [26.54782, 41.85628], [26.53955, 41.83799], [26.52611, 41.82424], [26.47836, 41.81329], [26.37553, 41.81662], [26.33419, 41.78954], [26.32003, 41.76546], [26.3163, 41.74376], [26.32323, 41.72368], [26.33336, 41.71304], [26.29491, 41.71032], [26.27393, 41.7149], [26.26101, 41.72306], [26.23445, 41.74583], [26.22618, 41.74968], [26.21182, 41.75048], [26.1899, 41.73469], [26.13513, 41.7334], [26.10836, 41.72789], [26.08149, 41.71151], [26.07405, 41.70914], [26.06723, 41.70885], [26.06051, 41.7073], [26.05369, 41.70151], [26.0481, 41.68908], [26.04749, 41.67462], [26.05027, 41.66046], [26.05503, 41.64875], [26.05949, 41.64378], [26.06692, 41.6355], [26.08118, 41.63046], [26.09523, 41.62839], [26.10671, 41.62428], [26.11528, 41.61663], [26.12107, 41.60821], [26.13027, 41.58268], [26.13099, 41.57514], [26.12944, 41.55938], [26.1312, 41.55266], [26.13678, 41.5492], [26.15249, 41.54703], [26.15807, 41.54232], [26.16314, 41.52915], [26.16448, 41.51772], [26.16293, 41.50646], [26.15931, 41.4938], [26.14763, 41.48476], [26.14588, 41.47804], [26.15621, 41.46042], [26.16045, 41.45587], [26.1743, 41.446], [26.1774, 41.43995], [26.17564, 41.43189], [26.17058, 41.42956], [26.16427, 41.42786], [26.159, 41.42181], [26.14784, 41.39691], [26.13244, 41.37153], [26.12086, 41.35779], [26.11466, 41.3552], [26.10733, 41.3566], [26.02185, 41.34166], [26.00893, 41.33681], [25.98227, 41.32327], [25.95963, 41.315], [25.94858, 41.31397], [25.93514, 41.31593], [25.92119, 41.31603], [25.89628, 41.30627], [25.88202, 41.30404], [25.86269, 41.31009], [25.83334, 41.33464], [25.81101, 41.34104], [25.80078, 41.33805], [25.76347, 41.31903], [25.72874, 41.31707], [25.71748, 41.31412], [25.70518, 41.3073], [25.69805, 41.30192], [25.69123, 41.29841], [25.67996, 41.29717], [25.67045, 41.29919], [25.64958, 41.30849], [25.63976, 41.31107], [25.55149, 41.31567], [25.53796, 41.31221], [25.5302, 41.30275], [25.52369, 41.29169], [25.51491, 41.28348], [25.50509, 41.28058], [25.49734, 41.2812], [25.48948, 41.28306], [25.4791, 41.28379], [25.45346, 41.28043], [25.28572, 41.2394], [25.26226, 41.2381], [25.23911, 41.2409], [25.21968, 41.24973], [25.1771, 41.29386], [25.15788, 41.30611], [25.15385, 41.30754], [25.11653, 41.32073], [25.11261, 41.32415], [25.10486, 41.33407], [25.10186, 41.33665], [25.09679, 41.3367], [25.08036, 41.33407], [25.07823, 41.33475], [25.34248, 43.66151]]]}, "properties": {"id": "bVxa", "status": "validé", "pieces": [{"kind": "polygon", "ring": [[25.05981, 41.17255], [25.37842, 43.97795], [26.90552, 44.31679], [29.30054, 44.12002], [28.69629, 41.27992], [27.02637, 40.87429]]}, {"kind": "clip"}]}}, {"type": "Feature", "geometry": {"type": "MultiPolygon", "coordinates": [[[[27.67765, 42.42114], [27.69166, 42.42829], [27.69353, 42.41889], [27.69907, 42.41389], [27.70786, 42.41275], [27.70992, 42.41311], [27.70992, 42.4119], [27.67765, 42.4119], [27.67765, 42.42114]]], [[[27.70649, 42.66758], [27.72356, 42.66758], [27.72413, 42.66698], [27.73951, 42.66108], [27.71274, 42.65766], [27.70649, 42.65566], [27.70649, 42.66758]]]]}, "properties": {"id": "dPl7", "status": "validé", "pieces": [{"kind": "rect", "bounds": [27.70649, 42.65143, 27.7494, 42.66758]}, {"kind": "rect", "bounds": [27.67765, 42.4119, 27.70992, 42.43318]}, {"kind": "clip"}]}}, {"type": "Feature", "geometry": null, "properties": {"id": "dsZv", "status": "validé", "pieces": [{"kind": "country"}]}}, {"type": "Feature", "geometry": {"type": "Polygon", "coordinates": [[[24.13696, 41.92808], [24.43601, 41.91373], [24.43988, 41.92152], [24.45115, 41.94943], [24.55331, 41.89058], [24.56694, 41.88677], [24.61031, 41.90183], [24.6591, 41.92535], [24.71098, 41.93651], [24.76017, 41.94114], [24.80875, 41.93098], [24.84523, 41.89581], [24.88978, 41.87494], [24.91438, 41.85807], [24.93381, 41.8314], [24.96688, 41.83238], [24.99375, 41.83895], [25.03127, 41.80094], [25.05018, 41.80076], [25.06713, 41.79497], [25.04956, 41.7806], [25.0383, 41.76081], [25.04255, 41.75392], [25.09277, 41.73989], [25.2356, 41.60044], [25.34546, 41.41952], [25.32544, 41.24911], [25.28572, 41.2394], [25.26226, 41.2381], [25.23911, 41.2409], [25.21968, 41.24973], [25.1771, 41.29386], [25.15788, 41.30611], [25.15385, 41.30754], [25.11653, 41.32073], [25.11261, 41.32415], [25.10486, 41.33407], [25.10186, 41.33665], [25.09679, 41.3367], [25.08036, 41.33407], [24.91696, 41.38636], [24.88637, 41.40063], [24.87293, 41.40187], [24.86301, 41.40032], [24.84213, 41.39473], [24.80327, 41.39267], [24.80017, 41.37934], [24.80286, 41.36192], [24.79428, 41.3474], [24.77444, 41.34807], [24.75263, 41.36275], [24.71873, 41.39572], [24.69919, 41.40895], [24.6809, 41.41551], [24.66126, 41.41768], [24.63822, 41.41768], [24.64431, 41.42765], [24.60948, 41.42724], [24.59584, 41.42977], [24.58044, 41.44052], [24.57972, 41.44419], [24.5822, 41.45525], [24.58106, 41.46021], [24.57724, 41.46357], [24.56773, 41.46812], [24.56411, 41.47106], [24.55874, 41.47685], [24.55357, 41.48078], [24.54944, 41.48543], [24.54654, 41.49364], [24.54334, 41.52134], [24.53094, 41.54754], [24.51016, 41.56165], [24.48133, 41.55323], [24.45921, 41.54951], [24.43885, 41.5277], [24.42397, 41.52522], [24.40288, 41.52785], [24.38748, 41.52667], [24.35389, 41.51912], [24.34501, 41.5184], [24.31824, 41.52077], [24.30955, 41.51979], [24.30304, 41.51695], [24.29612, 41.51525], [24.28682, 41.51762], [24.28506, 41.52315], [24.28733, 41.53163], [24.2864, 41.54036], [24.26687, 41.54977], [24.25075, 41.56346], [24.23328, 41.5618], [24.21437, 41.55576], [24.1977, 41.54771], [24.19628, 41.54703], [24.1816, 41.53736], [24.17747, 41.53101], [24.17313, 41.5153], [24.17024, 41.51158], [24.16279, 41.51204], [24.15845, 41.51633], [24.15401, 41.52212], [24.14626, 41.52677], [24.11649, 41.53338], [24.0766, 41.53602], [24.04735, 41.52573], [24.04983, 41.49364], [24.05252, 41.47147], [24.052, 41.463], [24.0459, 41.45546], [24.03474, 41.45132], [24.02285, 41.45308], [24.00074, 41.46414], [23.99712, 41.45701], [23.99236, 41.45463], [23.98689, 41.4537], [23.98131, 41.45086], [23.96467, 41.43835], [23.94989, 41.43758], [23.90286, 41.46352], [23.8948, 41.46434], [23.86772, 41.44548], [23.8516, 41.43959], [23.83093, 41.43561], [23.8158, 41.43432], [23.80737, 41.43598], [23.87329, 41.69071], [24.13696, 41.92808]]]}, "properties": {"id": "h4Uc", "status": "validé", "pieces": [{"kind": "admin1", "code": "BGR-2236"}, {"kind": "polygon", "ring": [[23.80737, 41.43598], [23.87329, 41.69071], [24.13696, 41.92808], [24.47754, 41.91174], [25.09277, 41.73989], [25.2356, 41.60044], [25.34546, 41.41952], [25.3125, 41.13892]]}, {"kind": "clip"}]}}, {"type": "Feature", "geometry": null, "properties": {"id": "hSvg", "status": "validé", "pieces": [{"kind": "country"}]}}, {"type": "Feature", "geometry": null, "properties": {"id": "kOSE", "status": "validé", "pieces": [{"kind": "country"}]}}, {"type": "Feature", "geometry": null, "properties": {"id": "lskQ", "status": "validé", "pieces": [{"kind": "country"}]}}, {"type": "Feature", "geometry": {"type": "Polygon", "coordinates": [[[23.59417, 43.22197], [23.59417, 43.26272], [23.50628, 43.26272], [23.50628, 43.22197], [23.59417, 43.22197]]]}, "properties": {"id": "mr8t", "status": "validé", "pieces": [{"kind": "rect", "bounds": [23.50628, 43.22197, 23.59417, 43.26272]}]}}, {"type": "Feature", "geometry": null, "properties": {"id": "pclm", "status": "validé", "pieces": [{"kind": "admin1", "code": "BGR-2260"}]}}, {"type": "Feature", "geometry": null, "properties": {"id": "rCxW", "status": "validé", "pieces": [{"kind": "country"}]}}, {"type": "Feature", "geometry": {"type": "Polygon", "coordinates": [[[25.66887, 42.40476], [25.66887, 42.4501], [25.5954, 42.4501], [25.5954, 42.40476], [25.66887, 42.40476]]]}, "properties": {"id": "sB8m", "status": "validé", "pieces": [{"kind": "rect", "bounds": [25.5954, 42.40476, 25.66887, 42.4501]}]}}, {"type": "Feature", "geometry": null, "properties": {"id": "vKm1", "status": "validé", "pieces": [{"kind": "country"}]}}, {"type": "Feature", "geometry": null, "properties": {"id": "yVXY", "status": "validé", "pieces": [{"kind": "country"}]}}, {"type": "Feature", "geometry": {"type": "Polygon", "coordinates": [[[23.0603, 42.05397], [23.09326, 41.91519], [23.12073, 41.71877], [23.15918, 41.5998], [23.32397, 41.53818], [23.48328, 41.5464], [23.66455, 41.55051], [23.90076, 41.54229], [23.85132, 41.65726], [23.79089, 41.73106], [23.76892, 41.86614], [23.8623, 41.96421], [23.91174, 42.08657], [23.79639, 42.15988], [23.703, 42.21277], [23.58215, 42.31436], [23.43933, 42.34684], [23.31299, 42.26562], [23.2196, 42.20464], [23.05481, 42.15174], [23.0603, 42.05397]]]}, "properties": {"id": "yvT6", "status": "validé", "pieces": [{"kind": "polygon", "ring": [[23.0603, 42.05397], [23.09326, 41.91519], [23.12073, 41.71877], [23.15918, 41.5998], [23.32397, 41.53818], [23.48328, 41.5464], [23.66455, 41.55051], [23.90076, 41.54229], [23.85132, 41.65726], [23.79089, 41.73106], [23.76892, 41.86614], [23.8623, 41.96421], [23.91174, 42.08657], [23.79639, 42.15988], [23.703, 42.21277], [23.58215, 42.31436], [23.43933, 42.34684], [23.31299, 42.26562], [23.2196, 42.20464], [23.05481, 42.15174]]}]}}]}