{"type": "FeatureCollection", "features": [{"type": "Feature", "geometry": {"type": "Polygon", "coordinates": [[[-64.78904, 32.29796], [-64.78724, 32.29136], [-64.78045, 32.29121], [-64.77745, 32.2923], [-64.77985, 32.29984], [-64.78904, 32.29796]]]}, "properties": {"id": "1Tff", "status": "validé", "pieces": [{"kind": "polygon", "ring": [[-64.78904, 32.29796], [-64.78724, 32.29136], [-64.78045, 32.29121], [-64.77745, 32.2923], [-64.77985, 32.29984]]}]}}, {"type": "Feature", "geometry": null, "properties": {"id": "2FIK", "status": "validé", "pieces": [{"kind": "country"}]}}, {"type": "Feature", "geometry": null, "properties": {"id": "2tb7", "status": "validé", "pieces": [{"kind": "country"}]}}, {"type": "Feature", "geometry": null, "properties": {"id": "8UWt", "status": "rejeté", "pieces": []}}, {"type": "Feature", "geometry": null, "properties": {"id": "Wp1S", "status": "validé", "pieces": [{"kind": "country"}]}}, {"type": "Feature", "geometry": null, "properties": {"id": "Zzvj", "status": "validé", "pieces": [{"kind": "country"}]}}, {"type": "Feature", "geometry": null, "properties": {"id": "iYFp", "status": "validé", "pieces": [{"kind": "country"}]}}, {"type": "Feature", "geometry": null, "properties": {"id": "mcLU", "status": "validé", "pieces": [{"kind": "country"}]}}, {"type": "Feature", "geometry": null, "properties": {"id": "pS17", "status": "validé", "pieces": [{"kind": "country"}]}}, {"type": "Feature", "geometry": null, "properties": {"id": "plHU", "status": "validé", "pieces": [{"kind": "country"}]}}, {"type": "Feature", "geometry": null, "properties": {"id": "rKvn", "status": "rejeté", "pieces": []}}, {"type": "Feature", "geometry": null, "properties": {"id": "vCKO", "status": "validé", "pieces": [{"kind": "country"}]}}, {"type": "Feature", "geometry": {"type": "Polygon", "coordinates": [[[-64.82157, 32.31958], [-64.82157, 32.33104], [-64.85238, 32.33104], [-64.85238, 32.31958], [-64.82157, 32.31958]]]}, "properties": {"id": "wEtL", "status": "validé", "pieces": [{"kind": "rect", "bounds": [-64.85238, 32.31958, -64.82157, 32.33104]}]}}]}