{"type": "FeatureCollection", "features": [{"type": "Feature", "geometry": {"type": "Polygon", "coordinates": [[[-68.87329, -16.16002], [-68.87329, -15.91727], [-68.56567, -15.97006], [-68.24707, -16.40247], [-68.08228, -16.67618], [-67.62085, -17.1175], [-67.23633, -17.4321], [-67.04956, -17.58919], [-66.76392, -17.92387], [-66.66504, -18.36217], [-66.52222, -18.76817], [-66.55518, -18.92407], [-66.84082, -19.01754], [-66.96167, -18.70578], [-67.15942, -18.49761], [-67.29126, -18.60173], [-67.88452, -19.34944], [-68.47778, -19.45302], [-68.4799, -19.45138], [-68.4561, -19.44124], [-68.44763, -19.43463], [-68.45502, -19.4154], [-68.47259, -19.39546], [-68.49321, -19.37696], [-68.60007, -19.30337], [-68.63573, -19.29055], [-68.66332, -19.2736], [-68.69846, -19.21562], [-68.72125, -19.19175], [-68.81541, -19.1133], [-68.84737, -19.09201], [-68.89478, -19.07651], [-68.9085, -19.06793], [-68.91969, -19.05377], [-68.94315, -19.00117], [-68.9617, -18.96944], [-68.97398, -18.95621], [-68.98961, -18.94649], [-68.95984, -18.90784], [-68.95178, -18.88934], [-68.95145, -18.86732], [-68.95465, -18.85699], [-69.01015, -18.74526], [-69.01054, -18.74454], [-69.01067, -18.74371], [-69.01054, -18.74299], [-69.00317, -18.72955], [-69.00111, -18.71622], [-69.00348, -18.70268], [-69.01015, -18.68976], [-69.03384, -18.64945], [-69.04283, -18.60047], [-69.04165, -18.54889], [-69.0349, -18.50104], [-69.03439, -18.4783], [-69.0417, -18.45773], [-69.07782, -18.39882], [-69.08188, -18.38249], [-69.07929, -18.32803], [-69.08102, -18.31914], [-69.09575, -18.27676], [-69.09684, -18.26798], [-69.09694, -18.25754], [-69.10035, -18.23429], [-69.11066, -18.21796], [-69.1412, -18.18685], [-69.15544, -18.14024], [-69.12593, -18.11109], [-69.08921, -18.08308], [-69.08172, -18.03998], [-69.08228, -18.03908], [-69.09206, -18.02334], [-69.10417, -18.02376], [-69.11988, -18.02985], [-69.14084, -18.03079], [-69.15771, -18.02572], [-69.17389, -18.0189], [-69.20417, -18.00112], [-69.22778, -17.99554], [-69.23481, -17.99296], [-69.24189, -17.98676], [-69.26205, -17.96402], [-69.2776, -17.96753], [-69.29003, -17.97663], [-69.30241, -17.97621], [-69.31786, -17.95162], [-69.32688, -17.91513], [-69.32739, -17.86628], [-68.98315, -17.46353], [-69.30704, -16.90285], [-69.22445, -16.81825], [-69.21065, -16.79706], [-69.19166, -16.74301], [-69.18236, -16.72874], [-69.16637, -16.71913], [-69.13058, -16.71583], [-69.11206, -16.71148], [-69.05382, -16.68234], [-69.03707, -16.67025], [-69.02051, -16.64947], [-69.00834, -16.63418], [-69.03513, -16.598], [-69.03919, -16.58447], [-68.84033, -16.40247], [-68.84742, -16.3503], [-68.83349, -16.32898], [-68.84365, -16.302], [-68.855, -16.29456], [-68.87329, -16.16002]]]}, "properties": {"id": "1ybL", "status": "validé", "pieces": [{"kind": "polygon", "ring": [[-68.47778, -19.45302], [-67.88452, -19.34944], [-67.29126, -18.60173], [-67.15942, -18.49761], [-66.96167, -18.70578], [-66.84082, -19.01754], [-66.55518, -18.92407], [-66.52222, -18.76817], [-66.66504, -18.36217], [-66.76392, -17.92387], [-67.04956, -17.58919], [-67.23633, -17.4321], [-67.62085, -17.1175], [-68.08228, -16.67618], [-68.24707, -16.40247], [-68.56567, -15.97006], [-68.87329, -15.91727], [-68.87329, -16.16002], [-68.84033, -16.40247], [-69.33472, -16.85494], [-68.98315, -17.46353], [-69.36768, -17.91342], [-69.38965, -18.74738]]}, {"kind": "clip"}]}}, {"type": "Feature", "geometry": {"type": "Polygon", "coordinates": [[[-65.21072, -19.08923], [-65.21072, -19.00164], [-65.2993, -19.00164], [-65.2993, -19.08923], [-65.21072, -19.08923]]]}, "properties": {"id": "3bLQ", "status": "validé", "pieces": [{"kind": "rect", "bounds": [-65.2993, -19.08923, -65.21072, -19.00164]}]}}, {"type": "Feature", "geometry": null, "properties": {"id": "4FCc", "status": "validé", "pieces": [{"kind": "country"}]}}, {"type": "Feature", "geometry": null, "properties": {"id": "4uIO", "status": "rejeté", "pieces": []}}, {"type": "Feature", "geometry": null, "properties": {"id": "5Eqs", "status": "validé", "pieces": [{"kind": "country"}]}}, {"type": "Feature", "geometry": {"type": "Polygon", "coordinates": [[[-68.1403, -16.65781], [-68.1403, -16.49236], [-68.27934, -16.49236], [-68.27934, -16.65781], [-68.1403, -16.65781]]]}, "properties": {"id": "8Fju", "status": "validé", "pieces": [{"kind": "rect", "bounds": [-68.27934, -16.65781, -68.1403, -16.49236]}]}}, {"type": "Feature", "geometry": {"type": "Polygon", "coordinates": [[[-63.0986, -17.86486], [-63.0986, -17.72893], [-63.25653, -17.72893], [-63.25653, -17.86486], [-63.0986, -17.86486]]]}, "properties": {"id": "8f7Q", "status": "validé", "pieces": [{"kind": "rect", "bounds": [-63.25653, -17.86486, -63.0986, -17.72893]}]}}, {"type": "Feature", "geometry": null, "properties": {"id": "8kIo", "status": "validé", "pieces": [{"kind": "country"}]}}, {"type": "Feature", "geometry": {"type": "Polygon", "coordinates": [[[-65.71609, -19.63082], [-65.71609, -19.55064], [-65.79437, -19.55064], [-65.79437, -19.63082], [-65.71609, -19.63082]]]}, "properties": {"id": "9yGO", "status": "validé", "pieces": [{"kind": "rect", "bounds": [-65.79437, -19.63082, -65.71609, -19.55064]}]}}, {"type": "Feature", "geometry": {"type": "Polygon", "coordinates": [[[-65.99213, -17.50235], [-65.99213, -17.30193], [-66.36566, -17.30193], [-66.36566, -17.50235], [-65.99213, -17.50235]]]}, "properties": {"id": "Cx1O", "status": "validé", "pieces": [{"kind": "rect", "bounds": [-66.36566, -17.50235, -65.99213, -17.30193]}]}}, {"type": "Feature", "geometry": null, "properties": {"id": "D81j", "status": "validé", "pieces": [{"kind": "country"}]}}, {"type": "Feature", "geometry": {"type": "Polygon", "coordinates": [[[-67.35786, -17.56218], [-67.271, -17.60994], [-67.21401, -17.659], [-67.19856, -17.65442], [-67.05505, -17.67012], [-67.00905, -17.66947], [-66.9809, -17.66129], [-66.98021, -17.64363], [-66.94862, -17.63513], [-66.95343, -17.59522], [-66.9397, -17.58934], [-66.89678, -17.6348], [-66.85146, -17.6505], [-66.8137, -17.68124], [-66.76838, -17.70478], [-66.74435, -17.69955], [-66.74641, -17.67732], [-66.7131, -17.69628], [-66.68667, -17.71393], [-66.64272, -17.71328], [-66.61526, -17.72538], [-66.60084, -17.7244], [-66.58436, -17.71786], [-66.56239, -17.72603], [-66.54488, -17.71165], [-66.51501, -17.71295], [-66.50883, -17.69661], [-66.49544, -17.70601], [-66.47621, -17.70535], [-66.4769, -17.66088], [-66.42471, -17.68574], [-66.41235, -17.67593], [-66.39175, -17.66219], [-66.35811, -17.63341], [-66.34232, -17.60134], [-66.33614, -17.56601], [-66.32618, -17.51698], [-66.3327, -17.48294], [-66.33682, -17.47476], [-66.33648, -17.44624], [-66.32721, -17.42955], [-66.33099, -17.41383], [-66.32515, -17.40139], [-66.26472, -17.39516], [-66.22112, -17.39385], [-66.18439, -17.39549], [-66.17769, -17.39567], [-66.17666, -17.38732], [-66.1722, -17.36358], [-66.1516, -17.36865], [-66.13546, -17.37439], [-66.12396, -17.38143], [-66.09341, -17.39043], [-66.06319, -17.39551], [-66.05118, -17.40124], [-66.04156, -17.40206], [-65.9935, -17.41147], [-65.97565, -17.4095], [-65.95711, -17.42326], [-65.93788, -17.42064], [-65.92552, -17.42784], [-65.90424, -17.42784], [-65.88089, -17.41343], [-65.8239, -17.39313], [-65.83008, -17.36889], [-65.86922, -17.33024], [-65.8699, -17.32107], [-65.86098, -17.32041], [-65.85617, -17.31451], [-65.86578, -17.29227], [-65.88398, -17.2493], [-65.88604, -17.20341], [-65.8651, -17.20865], [-65.84793, -17.2021], [-65.82493, -17.21587], [-65.81223, -17.21287], [-65.81223, -17.19452], [-65.793, -17.19452], [-65.78751, -17.18009], [-65.75111, -17.1932], [-65.73326, -17.18075], [-65.65567, -17.08826], [-65.63232, -17.06136], [-65.6488, -17.03506], [-65.61653, -17.00684], [-65.54031, -17.02653], [-65.45929, -17.03834], [-65.41122, -16.98452], [-65.3611, -16.98452], [-65.31784, -17.0134], [-65.30548, -17.01931], [-65.28145, -17.00684], [-65.25055, -16.98912], [-65.23544, -16.98977], [-65.2018, -17.00356], [-65.11459, -17.0029], [-65.10155, -16.99831], [-65.06104, -17.01143], [-64.97864, -17.0304], [-64.9086, -17.03697], [-64.87701, -17.04615], [-64.84268, -17.08946], [-64.78363, -17.12095], [-64.73831, -17.13013], [-64.55978, -17.1944], [-64.54742, -17.22194], [-64.5282, -17.22718], [-64.51447, -17.218], [-64.46365, -17.23111], [-64.42108, -17.23505], [-64.32632, -17.27831], [-64.27689, -17.25733], [-64.22195, -17.27306], [-64.16016, -17.31763], [-64.14986, -17.30071], [-64.21509, -17.24566], [-64.29543, -17.23058], [-64.34074, -17.23583], [-64.42657, -17.20829], [-64.45747, -17.21944], [-64.50073, -17.20108], [-64.52614, -17.2096], [-64.53918, -17.21354], [-64.55292, -17.18403], [-64.71291, -17.11976], [-64.79874, -17.09746], [-64.87839, -17.01084], [-65.03906, -16.99574], [-65.11734, -16.98524], [-65.2533, -16.98065], [-65.29243, -17.00034], [-65.34805, -16.96358], [-65.4229, -16.9662], [-65.46684, -17.00362], [-65.65567, -16.97542], [-65.72433, -17.10667], [-65.93582, -17.16701], [-65.91248, -17.26404], [-65.85342, -17.37805], [-65.90012, -17.40169], [-65.95161, -17.4078], [-65.97273, -17.40059], [-66.00826, -17.4037], [-66.04002, -17.39797], [-66.06319, -17.39011], [-66.1068, -17.38258], [-66.11984, -17.37963], [-66.12654, -17.37259], [-66.13255, -17.37161], [-66.13632, -17.37128], [-66.14388, -17.36735], [-66.15332, -17.36473], [-66.16585, -17.3626], [-66.1722, -17.35703], [-66.17563, -17.36195], [-66.17786, -17.3703], [-66.17821, -17.38242], [-66.18198, -17.39142], [-66.19949, -17.3906], [-66.23039, -17.38962], [-66.25288, -17.38995], [-66.27554, -17.39191], [-66.30266, -17.39404], [-66.32034, -17.39437], [-66.33116, -17.40026], [-66.33545, -17.41009], [-66.33442, -17.42351], [-66.33888, -17.44136], [-66.34077, -17.45233], [-66.34008, -17.45789], [-66.3406, -17.4777], [-66.33991, -17.52543], [-66.3485, -17.55521], [-66.36944, -17.6194], [-66.41647, -17.6315], [-66.42231, -17.64916], [-66.49853, -17.6436], [-66.50677, -17.67924], [-66.56033, -17.70115], [-66.6259, -17.7054], [-66.67362, -17.70213], [-66.71997, -17.67467], [-66.76426, -17.65995], [-66.77113, -17.68677], [-66.8185, -17.65668], [-66.8446, -17.63314], [-66.87996, -17.63052], [-66.90605, -17.60337], [-66.9397, -17.57524], [-66.96407, -17.59061], [-66.95858, -17.62725], [-66.98639, -17.63673], [-66.98982, -17.65701], [-67.04544, -17.66061], [-67.08355, -17.65603], [-67.15496, -17.6472], [-67.19959, -17.64556], [-67.21624, -17.64659], [-67.22208, -17.6394], [-67.22551, -17.62419], [-67.34825, -17.55595], [-67.35786, -17.56218]]]}, "properties": {"id": "DNvg", "status": "validé", "pieces": [{"kind": "polygon", "ring": [[-67.35786, -17.56218], [-67.271, -17.60994], [-67.21401, -17.659], [-67.19856, -17.65442], [-67.05505, -17.67012], [-67.00905, -17.66947], [-66.9809, -17.66129], [-66.98021, -17.64363], [-66.94862, -17.63513], [-66.95343, -17.59522], [-66.9397, -17.58934], [-66.89678, -17.6348], [-66.85146, -17.6505], [-66.8137, -17.68124], [-66.76838, -17.70478], [-66.74435, -17.69955], [-66.74641, -17.67732], [-66.7131, -17.69628], [-66.68667, -17.71393], [-66.64272, -17.71328], [-66.61526, -17.72538], [-66.60084, -17.7244], [-66.58436, -17.71786], [-66.56239, -17.72603], [-66.54488, -17.71165], [-66.51501, -17.71295], [-66.50883, -17.69661], [-66.49544, -17.70601], [-66.47621, -17.70535], [-66.4769, -17.66088], [-66.42471, -17.68574], [-66.41235, -17.67593], [-66.39175, -17.66219], [-66.35811, -17.63341], [-66.34232, -17.60134], [-66.33614, -17.56601], [-66.32618, -17.51698], [-66.3327, -17.48294], [-66.33682, -17.47476], [-66.33648, -17.44624], [-66.32721, -17.42955], [-66.33099, -17.41383], [-66.32515, -17.40139], [-66.26472, -17.39516], [-66.22112, -17.39385], [-66.18439, -17.39549], [-66.17769, -17.39567], [-66.17666, -17.38732], [-66.1722, -17.36358], [-66.1516, -17.36865], [-66.13546, -17.37439], [-66.12396, -17.38143], [-66.09341, -17.39043], [-66.06319, -17.39551], [-66.05118, -17.40124], [-66.04156, -17.40206], [-65.9935, -17.41147], [-65.97565, -17.4095], [-65.95711, -17.42326], [-65.93788, -17.42064], [-65.92552, -17.42784], [-65.90424, -17.42784], [-65.88089, -17.41343], [-65.8239, -17.39313], [-65.83008, -17.36889], [-65.86922, -17.33024], [-65.8699, -17.32107], [-65.86098, -17.32041], [-65.85617, -17.31451], [-65.86578, -17.29227], [-65.88398, -17.2493], [-65.88604, -17.20341], [-65.8651, -17.20865], [-65.84793, -17.2021], [-65.82493, -17.21587], [-65.81223, -17.21287], [-65.81223, -17.19452], [-65.793, -17.19452], [-65.78751, -17.18009], [-65.75111, -17.1932], [-65.73326, -17.18075], [-65.65567, -17.08826], [-65.63232, -17.06136], [-65.6488, -17.03506], [-65.61653, -17.00684], [-65.54031, -17.02653], [-65.45929, -17.03834], [-65.41122, -16.98452], [-65.3611, -16.98452], [-65.31784, -17.0134], [-65.30548, -17.01931], [-65.28145, -17.00684], [-65.25055, -16.98912], [-65.23544, -16.98977], [-65.2018, -17.00356], [-65.11459, -17.0029], [-65.10155, -16.99831], [-65.06104, -17.01143], [-64.97864, -17.0304], [-64.9086, -17.03697], [-64.87701, -17.04615], [-64.84268, -17.08946], [-64.78363, -17.12095], [-64.73831, -17.13013], [-64.55978, -17.1944], [-64.54742, -17.22194], [-64.5282, -17.22718], [-64.51447, -17.218], [-64.46365, -17.23111], [-64.42108, -17.23505], [-64.32632, -17.27831], [-64.27689, -17.25733], [-64.22195, -17.27306], [-64.16016, -17.31763], [-64.14986, -17.30071], [-64.21509, -17.24566], [-64.29543, -17.23058], [-64.34074, -17.23583], [-64.42657, -17.20829], [-64.45747, -17.21944], [-64.50073, -17.20108], [-64.52614, -17.2096], [-64.53918, -17.21354], [-64.55292, -17.18403], [-64.71291, -17.11976], [-64.79874, -17.09746], [-64.87839, -17.01084], [-65.03906, -16.99574], [-65.11734, -16.98524], [-65.2533, -16.98065], [-65.29243, -17.00034], [-65.34805, -16.96358], [-65.4229, -16.9662], [-65.46684, -17.00362], [-65.65567, -16.97542], [-65.72433, -17.10667], [-65.93582, -17.16701], [-65.91248, -17.26404], [-65.85342, -17.37805], [-65.90012, -17.40169], [-65.95161, -17.4078], [-65.97273, -17.40059], [-66.00826, -17.4037], [-66.04002, -17.39797], [-66.06319, -17.39011], [-66.1068, -17.38258], [-66.11984, -17.37963], [-66.12654, -17.37259], [-66.13255, -17.37161], [-66.13632, -17.37128], [-66.14388, -17.36735], [-66.15332, -17.36473], [-66.16585, -17.3626], [-66.1722, -17.35703], [-66.17563, -17.36195], [-66.17786, -17.3703], [-66.17821, -17.38242], [-66.18198, -17.39142], [-66.19949, -17.3906], [-66.23039, -17.38962], [-66.25288, -17.38995], [-66.27554, -17.39191], [-66.30266, -17.39404], [-66.32034, -17.39437], [-66.33116, -17.40026], [-66.33545, -17.41009], [-66.33442, -17.42351], [-66.33888, -17.44136], [-66.34077, -17.45233], [-66.34008, -17.45789], [-66.3406, -17.4777], [-66.33991, -17.52543], [-66.3485, -17.55521], [-66.36944, -17.6194], [-66.41647, -17.6315], [-66.42231, -17.64916], [-66.49853, -17.6436], [-66.50677, -17.67924], [-66.56033, -17.70115], [-66.6259, -17.7054], [-66.67362, -17.70213], [-66.71997, -17.67467], [-66.76426, -17.65995], [-66.77113, -17.68677], [-66.8185, -17.65668], [-66.8446, -17.63314], [-66.87996, -17.63052], [-66.90605, -17.60337], [-66.9397, -17.57524], [-66.96407, -17.59061], [-66.95858, -17.62725], [-66.98639, -17.63673], [-66.98982, -17.65701], [-67.04544, -17.66061], [-67.08355, -17.65603], [-67.15496, -17.6472], [-67.19959, -17.64556], [-67.21624, -17.64659], [-67.22208, -17.6394], [-67.22551, -17.62419], [-67.34825, -17.55595]]}]}}, {"type": "Feature", "geometry": {"type": "Polygon", "coordinates": [[[-67.02209, -18.02027], [-67.02209, -17.90536], [-67.16217, -17.90536], [-67.16217, -18.02027], [-67.02209, -18.02027]]]}, "properties": {"id": "EDdZ", "status": "validé", "pieces": [{"kind": "rect", "bounds": [-67.16217, -18.02027, -67.02209, -17.90536]}]}}, {"type": "Feature", "geometry": {"type": "MultiPolygon", "coordinates": [[[[-69.02538, -16.5532], [-69.01508, -16.55353], [-68.90762, -16.59596], [-68.85956, -16.59662], [-68.82557, -16.59037], [-68.81973, -16.59925], [-68.85441, -16.60353], [-68.89698, -16.60254], [-68.93612, -16.59859], [-68.98418, -16.58083], [-69.02195, -16.5611], [-69.02538, -16.5532]]], [[[-68.85338, -16.21594], [-68.82729, -16.18892], [-68.83244, -16.16222], [-68.79845, -16.1665], [-68.75862, -16.18364], [-68.73631, -16.18562], [-68.6879, -16.20671], [-68.66455, -16.21001], [-68.62267, -16.18793], [-68.60447, -16.18331], [-68.58627, -16.20902], [-68.5358, -16.29073], [-68.54164, -16.29534], [-68.56911, -16.2591], [-68.60653, -16.21231], [-68.67142, -16.22187], [-68.74043, -16.211], [-68.7957, -16.18068], [-68.81184, -16.19617], [-68.83965, -16.2255], [-68.85338, -16.21594]]]]}, "properties": {"id": "EPdA", "status": "validé", "pieces": [{"kind": "polygon", "ring": [[-68.83965, -16.2255], [-68.81184, -16.19617], [-68.7957, -16.18068], [-68.74043, -16.211], [-68.67142, -16.22187], [-68.60653, -16.21231], [-68.56911, -16.2591], [-68.54164, -16.29534], [-68.5358, -16.29073], [-68.58627, -16.20902], [-68.60447, -16.18331], [-68.62267, -16.18793], [-68.66455, -16.21001], [-68.6879, -16.20671], [-68.73631, -16.18562], [-68.75862, -16.18364], [-68.79845, -16.1665], [-68.83244, -16.16222], [-68.82729, -16.18892], [-68.85338, -16.21594]]}, {"kind": "polygon", "ring": [[-69.02195, -16.5611], [-68.98418, -16.58083], [-68.93612, -16.59859], [-68.89698, -16.60254], [-68.85441, -16.60353], [-68.81973, -16.59925], [-68.82557, -16.59037], [-68.85956, -16.59662], [-68.90762, -16.59596], [-69.01508, -16.55353], [-69.02538, -16.5532]]}]}}, {"type": "Feature", "geometry": {"type": "Polygon", "coordinates": [[[-68.18871, -16.59337], [-68.18871, -16.64138], [-68.20175, -16.69398], [-68.18733, -16.80506], [-68.16124, -16.85367], [-68.12897, -16.89833], [-68.10356, -16.95809], [-68.06305, -17.04079], [-68.01704, -17.09918], [-67.96829, -17.13461], [-67.94975, -17.16215], [-67.94289, -17.20477], [-67.91267, -17.24935], [-67.75063, -17.33651], [-67.65862, -17.38827], [-67.58583, -17.39809], [-67.55219, -17.42232], [-67.43065, -17.51689], [-67.36404, -17.57168], [-67.25006, -17.63056], [-67.19101, -17.72865], [-67.12784, -17.91292], [-67.10999, -17.91553], [-67.19238, -17.67242], [-67.20509, -17.65242], [-67.21573, -17.64621], [-67.22637, -17.62528], [-67.31873, -17.56665], [-67.36542, -17.55225], [-67.43683, -17.48222], [-67.53914, -17.41346], [-67.58652, -17.38137], [-67.65312, -17.38137], [-67.7005, -17.35058], [-67.73209, -17.33289], [-67.88864, -17.24835], [-67.91885, -17.2123], [-67.94495, -17.13164], [-67.99713, -17.09293], [-68.12141, -16.87172], [-68.16811, -16.76106], [-68.18047, -16.59274], [-68.18871, -16.59337]]]}, "properties": {"id": "ERwi", "status": "validé", "pieces": [{"kind": "polygon", "ring": [[-68.18871, -16.59337], [-68.18871, -16.64138], [-68.20175, -16.69398], [-68.18733, -16.80506], [-68.16124, -16.85367], [-68.12897, -16.89833], [-68.10356, -16.95809], [-68.06305, -17.04079], [-68.01704, -17.09918], [-67.96829, -17.13461], [-67.94975, -17.16215], [-67.94289, -17.20477], [-67.91267, -17.24935], [-67.75063, -17.33651], [-67.65862, -17.38827], [-67.58583, -17.39809], [-67.55219, -17.42232], [-67.43065, -17.51689], [-67.36404, -17.57168], [-67.25006, -17.63056], [-67.19101, -17.72865], [-67.12784, -17.91292], [-67.10999, -17.91553], [-67.19238, -17.67242], [-67.20509, -17.65242], [-67.21573, -17.64621], [-67.22637, -17.62528], [-67.31873, -17.56665], [-67.36542, -17.55225], [-67.43683, -17.48222], [-67.53914, -17.41346], [-67.58652, -17.38137], [-67.65312, -17.38137], [-67.7005, -17.35058], [-67.73209, -17.33289], [-67.88864, -17.24835], [-67.91885, -17.2123], [-67.94495, -17.13164], [-67.99713, -17.09293], [-68.12141, -16.87172], [-68.16811, -16.76106], [-68.18047, -16.59274]]}]}}, {"type": "Feature", "geometry": null, "properties": {"id": "EaWE", "status": "validé", "pieces": [{"kind": "country"}]}}, {"type": "Feature", "geometry": {"type": "Polygon", "coordinates": [[[-64.90448, -19.17853], [-64.89109, -19.17237], [-64.8674, -19.15422], [-64.86397, -19.1312], [-64.86534, -19.10267], [-64.81522, -19.09132], [-64.79015, -19.06797], [-64.76303, -19.06926], [-64.70724, -19.11386], [-64.70535, -19.10835], [-64.71411, -19.08822], [-64.73488, -19.06955], [-64.76543, -19.05301], [-64.79393, -19.05139], [-64.81281, -19.06372], [-64.83891, -19.08123], [-64.8698, -19.09226], [-64.87598, -19.10653], [-64.87701, -19.14868], [-64.90414, -19.17104], [-64.90448, -19.17853]]]}, "properties": {"id": "FZk4", "status": "validé", "pieces": [{"kind": "polygon", "ring": [[-64.90448, -19.17853], [-64.89109, -19.17237], [-64.8674, -19.15422], [-64.86397, -19.1312], [-64.86534, -19.10267], [-64.81522, -19.09132], [-64.79015, -19.06797], [-64.76303, -19.06926], [-64.70724, -19.11386], [-64.70535, -19.10835], [-64.71411, -19.08822], [-64.73488, -19.06955], [-64.76543, -19.05301], [-64.79393, -19.05139], [-64.81281, -19.06372], [-64.83891, -19.08123], [-64.8698, -19.09226], [-64.87598, -19.10653], [-64.87701, -19.14868], [-64.90414, -19.17104]]}]}}, {"type": "Feature", "geometry": {"type": "Polygon", "coordinates": [[[-67.81208, -16.29062], [-67.80247, -16.29556], [-67.78994, -16.27481], [-67.77861, -16.26921], [-67.78238, -16.24302], [-67.79182, -16.23033], [-67.77792, -16.22605], [-67.76899, -16.22193], [-67.75663, -16.21336], [-67.75595, -16.2244], [-67.74427, -16.23939], [-67.73689, -16.23281], [-67.73818, -16.22613], [-67.73586, -16.22078], [-67.73209, -16.21274], [-67.73299, -16.20636], [-67.72831, -16.20027], [-67.72702, -16.19541], [-67.72951, -16.19549], [-67.73372, -16.20126], [-67.73732, -16.20554], [-67.73518, -16.21246], [-67.73741, -16.21535], [-67.73801, -16.21741], [-67.74015, -16.21938], [-67.74161, -16.22663], [-67.74144, -16.22935], [-67.74324, -16.22482], [-67.7459, -16.21526], [-67.75208, -16.2062], [-67.77208, -16.21485], [-67.79655, -16.22877], [-67.79311, -16.2399], [-67.79079, -16.25242], [-67.79543, -16.27161], [-67.80925, -16.28709], [-67.81208, -16.29062]]]}, "properties": {"id": "IE29", "status": "validé", "pieces": [{"kind": "polygon", "ring": [[-67.81208, -16.29062], [-67.80247, -16.29556], [-67.78994, -16.27481], [-67.77861, -16.26921], [-67.78238, -16.24302], [-67.79182, -16.23033], [-67.77792, -16.22605], [-67.76899, -16.22193], [-67.75663, -16.21336], [-67.75595, -16.2244], [-67.74427, -16.23939], [-67.73689, -16.23281], [-67.73818, -16.22613], [-67.73586, -16.22078], [-67.73209, -16.21274], [-67.73299, -16.20636], [-67.72831, -16.20027], [-67.72702, -16.19541], [-67.72951, -16.19549], [-67.73372, -16.20126], [-67.73732, -16.20554], [-67.73518, -16.21246], [-67.73741, -16.21535], [-67.73801, -16.21741], [-67.74015, -16.21938], [-67.74161, -16.22663], [-67.74144, -16.22935], [-67.74324, -16.22482], [-67.7459, -16.21526], [-67.75208, -16.2062], [-67.77208, -16.21485], [-67.79655, -16.22877], [-67.79311, -16.2399], [-67.79079, -16.25242], [-67.79543, -16.27161], [-67.80925, -16.28709]]}]}}, {"type": "Feature", "geometry": null, "properties": {"id": "IcXQ", "status": "validé", "pieces": [{"kind": "country"}]}}, {"type": "Feature", "geometry": {"type": "Polygon", "coordinates": [[[-63.17139, -17.29207], [-63.16589, -17.5959], [-63.17688, -17.89921], [-62.99561, -18.10287], [-62.72095, -18.20723], [-62.5946, -18.07156], [-62.4353, -17.62206], [-62.45728, -17.21866], [-62.64404, -16.92997], [-62.85278, -16.78808], [-63.19336, -16.85116], [-63.17139, -17.29207]]]}, "properties": {"id": "ImLA", "status": "validé", "pieces": [{"kind": "polygon", "ring": [[-63.17139, -17.29207], [-63.16589, -17.5959], [-63.17688, -17.89921], [-62.99561, -18.10287], [-62.72095, -18.20723], [-62.5946, -18.07156], [-62.4353, -17.62206], [-62.45728, -17.21866], [-62.64404, -16.92997], [-62.85278, -16.78808], [-63.19336, -16.85116]]}]}}, {"type": "Feature", "geometry": {"type": "Polygon", "coordinates": [[[-68.14579, -16.59729], [-68.14579, -16.48741], [-68.24467, -16.48741], [-68.24467, -16.59729], [-68.14579, -16.59729]]]}, "properties": {"id": "JmzU", "status": "validé", "pieces": [{"kind": "rect", "bounds": [-68.24467, -16.59729, -68.14579, -16.48741]}]}}, {"type": "Feature", "geometry": {"type": "Polygon", "coordinates": [[[-66.76117, -18.90302], [-66.74057, -18.84847], [-66.65543, -18.85886], [-66.57921, -18.97768], [-66.53938, -19.06788], [-66.43295, -19.15089], [-66.29768, -19.14311], [-66.2146, -19.11847], [-66.04362, -19.36989], [-66.0038, -19.37615], [-65.99007, -19.35867], [-66.0347, -19.22273], [-66.20361, -19.04765], [-66.29425, -19.07879], [-66.48926, -19.05025], [-66.57852, -18.83862], [-66.75293, -18.81783], [-66.77902, -18.87239], [-66.76117, -18.90302]]]}, "properties": {"id": "JsPk", "status": "validé", "pieces": [{"kind": "polygon", "ring": [[-66.76117, -18.90302], [-66.74057, -18.84847], [-66.65543, -18.85886], [-66.57921, -18.97768], [-66.53938, -19.06788], [-66.43295, -19.15089], [-66.29768, -19.14311], [-66.2146, -19.11847], [-66.04362, -19.36989], [-66.0038, -19.37615], [-65.99007, -19.35867], [-66.0347, -19.22273], [-66.20361, -19.04765], [-66.29425, -19.07879], [-66.48926, -19.05025], [-66.57852, -18.83862], [-66.75293, -18.81783], [-66.77902, -18.87239]]}]}}, {"type": "Feature", "geometry": {"type": "Polygon", "coordinates": [[[-68.15334, -16.6088], [-68.15334, -16.48708], [-68.27728, -16.48708], [-68.27728, -16.6088], [-68.15334, -16.6088]]]}, "properties": {"id": "K0y8", "status": "validé", "pieces": [{"kind": "rect", "bounds": [-68.27728, -16.6088, -68.15334, -16.48708]}]}}, {"type": "Feature", "geometry": {"type": "Polygon", "coordinates": [[[-68.53821, -16.35128], [-68.36792, -16.53823], [-68.31573, -16.74867], [-68.32123, -16.80912], [-68.59589, -16.85643], [-68.79913, -16.83803], [-68.90076, -16.69608], [-68.97766, -16.58823], [-68.95294, -16.45663], [-68.93921, -16.41976], [-68.71674, -16.33547], [-68.53821, -16.35128]]]}, "properties": {"id": "KhV3", "status": "validé", "pieces": [{"kind": "polygon", "ring": [[-68.71674, -16.33547], [-68.53821, -16.35128], [-68.36792, -16.53823], [-68.31573, -16.74867], [-68.32123, -16.80912], [-68.59589, -16.85643], [-68.79913, -16.83803], [-68.90076, -16.69608], [-68.97766, -16.58823], [-68.95294, -16.45663], [-68.93921, -16.41976]]}, {"kind": "clip"}]}}, {"type": "Feature", "geometry": {"type": "MultiPolygon", "coordinates": [[[[-68.3408, -17.51791], [-68.36311, -17.57125], [-68.3741, -17.56601], [-68.35178, -17.51693], [-68.3408, -17.51791]]], [[[-68.33015, -17.47405], [-68.32844, -17.48944], [-68.3353, -17.49075], [-68.33736, -17.47176], [-68.31642, -17.46063], [-68.31264, -17.46783], [-68.33015, -17.47405]]], [[[-68.24158, -17.36428], [-68.12004, -17.33808], [-68.04108, -17.31383], [-67.92915, -17.23256], [-67.91748, -17.23715], [-68.06236, -17.34921], [-68.15231, -17.37673], [-68.22166, -17.39048], [-68.24707, -17.39245], [-68.24158, -17.36428]]]]}, "properties": {"id": "LUMw", "status": "validé", "pieces": [{"kind": "polygon", "ring": [[-68.22166, -17.39048], [-68.15231, -17.37673], [-68.06236, -17.34921], [-67.91748, -17.23715], [-67.92915, -17.23256], [-68.04108, -17.31383], [-68.12004, -17.33808], [-68.24158, -17.36428], [-68.24707, -17.39245]]}, {"kind": "polygon", "ring": [[-68.31642, -17.46063], [-68.33736, -17.47176], [-68.3353, -17.49075], [-68.32844, -17.48944], [-68.33015, -17.47405], [-68.31264, -17.46783]]}, {"kind": "polygon", "ring": [[-68.35178, -17.51693], [-68.3741, -17.56601], [-68.36311, -17.57125], [-68.3408, -17.51791]]}]}}, {"type": "Feature", "geometry": {"type": "Polygon", "coordinates": [[[-68.01121, -16.56531], [-68.01121, -16.48306], [-68.09875, -16.48306], [-68.09875, -16.56531], [-68.01121, -16.56531]]]}, "properties": {"id": "N4Rl", "status": "validé", "pieces": [{"kind": "rect", "bounds": [-68.09875, -16.56531, -68.01121, -16.48306]}]}}, {"type": "Feature", "geometry": {"type": "Polygon", "coordinates": [[[-65.12421, -18.92683], [-65.12421, -18.89306], [-65.16197, -18.85605], [-65.13931, -18.83526], [-65.13588, -18.78198], [-65.17159, -18.73259], [-65.19905, -18.61685], [-65.14618, -18.59083], [-65.13313, -18.6253], [-65.15785, -18.63051], [-65.14755, -18.70464], [-65.11253, -18.75599], [-65.10498, -18.81837], [-65.11665, -18.86709], [-65.10086, -18.92488], [-65.12421, -18.92683]]]}, "properties": {"id": "Q7C9", "status": "validé", "pieces": [{"kind": "polygon", "ring": [[-65.12421, -18.92683], [-65.12421, -18.89306], [-65.16197, -18.85605], [-65.13931, -18.83526], [-65.13588, -18.78198], [-65.17159, -18.73259], [-65.19905, -18.61685], [-65.14618, -18.59083], [-65.13313, -18.6253], [-65.15785, -18.63051], [-65.14755, -18.70464], [-65.11253, -18.75599], [-65.10498, -18.81837], [-65.11665, -18.86709], [-65.10086, -18.92488]]}]}}, {"type": "Feature", "geometry": {"type": "Polygon", "coordinates": [[[-68.05344, -16.64895], [-68.05344, -16.45815], [-68.28003, -16.45815], [-68.28003, -16.64895], [-68.05344, -16.64895]]]}, "properties": {"id": "RDmK", "status": "validé", "pieces": [{"kind": "rect", "bounds": [-68.28003, -16.64895, -68.05344, -16.45815]}]}}, {"type": "Feature", "geometry": {"type": "Polygon", "coordinates": [[[-68.15025, -16.611], [-68.15025, -16.48863], [-68.2457, -16.48863], [-68.2457, -16.611], [-68.15025, -16.611]]]}, "properties": {"id": "RTyP", "status": "validé", "pieces": [{"kind": "rect", "bounds": [-68.2457, -16.611, -68.15025, -16.48863]}]}}, {"type": "Feature", "geometry": null, "properties": {"id": "TP1D", "status": "rejeté", "pieces": []}}, {"type": "Feature", "geometry": {"type": "Polygon", "coordinates": [[[-66.59637, -17.21422], [-66.57063, -17.20865], [-66.55106, -17.22143], [-66.53561, -17.23585], [-66.5229, -17.24503], [-66.52376, -17.23097], [-66.51827, -17.24967], [-66.51329, -17.25901], [-66.50505, -17.26802], [-66.48608, -17.27056], [-66.48419, -17.27072], [-66.49123, -17.26556], [-66.50222, -17.26392], [-66.51123, -17.25196], [-66.51758, -17.23262], [-66.52282, -17.22623], [-66.52617, -17.22107], [-66.52754, -17.2336], [-66.53561, -17.21779], [-66.54634, -17.20951], [-66.57286, -17.20107], [-66.59423, -17.20361], [-66.59989, -17.20894], [-66.59637, -17.21422]]]}, "properties": {"id": "UDKX", "status": "validé", "pieces": [{"kind": "polygon", "ring": [[-66.59637, -17.21422], [-66.57063, -17.20865], [-66.55106, -17.22143], [-66.53561, -17.23585], [-66.5229, -17.24503], [-66.52376, -17.23097], [-66.51827, -17.24967], [-66.51329, -17.25901], [-66.50505, -17.26802], [-66.48608, -17.27056], [-66.48419, -17.27072], [-66.49123, -17.26556], [-66.50222, -17.26392], [-66.51123, -17.25196], [-66.51758, -17.23262], [-66.52282, -17.22623], [-66.52617, -17.22107], [-66.52754, -17.2336], [-66.53561, -17.21779], [-66.54634, -17.20951], [-66.57286, -17.20107], [-66.59423, -17.20361], [-66.59989, -17.20894]]}]}}, {"type": "Feature", "geometry": {"type": "Polygon", "coordinates": [[[-66.996, -18.14968], [-67.02415, -18.1699], [-67.00081, -18.31787], [-66.97815, -18.46637], [-66.94794, -18.61452], [-66.89438, -18.71336], [-66.81473, -18.881], [-66.76666, -18.90983], [-66.73782, -18.84748], [-66.64856, -18.85787], [-66.57578, -18.95917], [-66.5538, -19.04743], [-66.49612, -19.11878], [-66.30936, -19.1512], [-66.25031, -19.13953], [-66.21048, -19.10321], [-66.15555, -19.16417], [-66.10062, -19.25119], [-66.05118, -19.3367], [-65.96878, -19.39757], [-65.96878, -19.36261], [-66.02097, -19.32505], [-66.07178, -19.16045], [-66.1734, -19.06187], [-66.23108, -19.05798], [-66.40274, -19.10598], [-66.47552, -19.06187], [-66.54282, -18.91779], [-66.66229, -18.81127], [-66.73096, -18.82167], [-66.77216, -18.85675], [-66.82434, -18.74369], [-66.92734, -18.53297], [-66.98639, -18.19554], [-66.996, -18.14968]]]}, "properties": {"id": "VfJf", "status": "validé", "pieces": [{"kind": "polygon", "ring": [[-66.996, -18.14968], [-67.02415, -18.1699], [-67.00081, -18.31787], [-66.97815, -18.46637], [-66.94794, -18.61452], [-66.89438, -18.71336], [-66.81473, -18.881], [-66.76666, -18.90983], [-66.73782, -18.84748], [-66.64856, -18.85787], [-66.57578, -18.95917], [-66.5538, -19.04743], [-66.49612, -19.11878], [-66.30936, -19.1512], [-66.25031, -19.13953], [-66.21048, -19.10321], [-66.15555, -19.16417], [-66.10062, -19.25119], [-66.05118, -19.3367], [-65.96878, -19.39757], [-65.96878, -19.36261], [-66.02097, -19.32505], [-66.07178, -19.16045], [-66.1734, -19.06187], [-66.23108, -19.05798], [-66.40274, -19.10598], [-66.47552, -19.06187], [-66.54282, -18.91779], [-66.66229, -18.81127], [-66.73096, -18.82167], [-66.77216, -18.85675], [-66.82434, -18.74369], [-66.92734, -18.53297], [-66.98639, -18.19554]]}]}}, {"type": "Feature", "geometry": {"type": "Polygon", "coordinates": [[[-68.0452, -16.55819], [-68.0452, -16.43842], [-68.16982, -16.43842], [-68.16982, -16.55819], [-68.0452, -16.55819]]]}, "properties": {"id": "WzWu", "status": "validé", "pieces": [{"kind": "rect", "bounds": [-68.16982, -16.55819, -68.0452, -16.43842]}]}}, {"type": "Feature", "geometry": null, "properties": {"id": "Z8Ei", "status": "validé", "pieces": [{"kind": "admin1", "code": "BOL-1937"}]}}, {"type": "Feature", "geometry": {"type": "MultiPolygon", "coordinates": [[[[-64.54468, -19.11353], [-64.28101, -19.18615], [-64.25903, -19.28983], [-64.37988, -19.43488], [-64.47876, -19.4763], [-64.6875, -19.45559], [-64.79736, -19.4763], [-64.96216, -19.35201], [-64.96216, -19.28983], [-64.91821, -19.20689], [-64.54468, -19.11353]]], [[[-65.6543, -17.39282], [-65.44556, -17.48711], [-65.14893, -17.66508], [-64.96216, -17.63369], [-64.91821, -17.82198], [-64.97314, -18.14578], [-65.13794, -18.29182], [-65.4895, -18.14578], [-65.96191, -17.79061], [-66.10474, -17.529], [-65.9729, -17.4033], [-65.6543, -17.39282]]]]}, "properties": {"id": "ZO0c", "status": "validé", "pieces": [{"kind": "polygon", "ring": [[-65.9729, -17.4033], [-66.10474, -17.529], [-65.96191, -17.79061], [-65.4895, -18.14578], [-65.13794, -18.29182], [-64.97314, -18.14578], [-64.91821, -17.82198], [-64.96216, -17.63369], [-65.14893, -17.66508], [-65.44556, -17.48711], [-65.6543, -17.39282]]}, {"kind": "polygon", "ring": [[-64.91821, -19.20689], [-64.96216, -19.28983], [-64.96216, -19.35201], [-64.79736, -19.4763], [-64.6875, -19.45559], [-64.47876, -19.4763], [-64.37988, -19.43488], [-64.25903, -19.28983], [-64.28101, -19.18615], [-64.54468, -19.11353]]}]}}, {"type": "Feature", "geometry": {"type": "Polygon", "coordinates": [[[-63.95691, -18.10931], [-64.01871, -17.96508], [-64.10797, -17.98859], [-64.1423, -18.078], [-64.24461, -18.10083], [-64.25354, -18.12497], [-64.31328, -18.09039], [-64.36134, -18.06625], [-64.41696, -18.05385], [-64.46159, -17.98206], [-64.49936, -17.92068], [-64.5179, -17.91872], [-64.51859, -17.92917], [-64.49387, -17.96182], [-64.47052, -18.00817], [-64.43413, -18.06886], [-64.41353, -18.08126], [-64.37027, -18.11062], [-64.36272, -18.09953], [-64.30161, -18.13867], [-64.26933, -18.15432], [-64.23019, -18.14193], [-64.19174, -18.25669], [-64.16634, -18.35573], [-64.13475, -18.46254], [-64.11758, -18.47816], [-64.11209, -18.47556], [-64.11346, -18.45212], [-64.11964, -18.39286], [-64.14093, -18.33163], [-64.13132, -18.27037], [-64.16702, -18.19867], [-64.1993, -18.12758], [-64.13063, -18.10344], [-64.08737, -18.02449], [-64.05853, -18.01339], [-64.02489, -18.0036], [-63.98163, -18.1191], [-63.95691, -18.10931]]]}, "properties": {"id": "a0MD", "status": "validé", "pieces": [{"kind": "polygon", "ring": [[-63.95691, -18.10931], [-64.01871, -17.96508], [-64.10797, -17.98859], [-64.1423, -18.078], [-64.24461, -18.10083], [-64.25354, -18.12497], [-64.31328, -18.09039], [-64.36134, -18.06625], [-64.41696, -18.05385], [-64.46159, -17.98206], [-64.49936, -17.92068], [-64.5179, -17.91872], [-64.51859, -17.92917], [-64.49387, -17.96182], [-64.47052, -18.00817], [-64.43413, -18.06886], [-64.41353, -18.08126], [-64.37027, -18.11062], [-64.36272, -18.09953], [-64.30161, -18.13867], [-64.26933, -18.15432], [-64.23019, -18.14193], [-64.19174, -18.25669], [-64.16634, -18.35573], [-64.13475, -18.46254], [-64.11758, -18.47816], [-64.11209, -18.47556], [-64.11346, -18.45212], [-64.11964, -18.39286], [-64.14093, -18.33163], [-64.13132, -18.27037], [-64.16702, -18.19867], [-64.1993, -18.12758], [-64.13063, -18.10344], [-64.08737, -18.02449], [-64.05853, -18.01339], [-64.02489, -18.0036], [-63.98163, -18.1191]]}]}}, {"type": "Feature", "geometry": null, "properties": {"id": "aQXK", "status": "validé", "pieces": [{"kind": "country"}]}}, {"type": "Feature", "geometry": {"type": "Polygon", "coordinates": [[[-68.77785, -18.14839], [-68.74214, -18.10175], [-68.72772, -18.09681], [-68.71742, -18.05635], [-68.6673, -18.01393], [-68.65494, -17.97477], [-68.54095, -17.85721], [-68.44551, -17.82716], [-68.42903, -17.80036], [-68.41187, -17.69643], [-68.38852, -17.66373], [-68.37273, -17.6271], [-68.36655, -17.59439], [-68.38783, -17.60224], [-68.39401, -17.62841], [-68.42628, -17.67812], [-68.44139, -17.80036], [-68.51212, -17.81735], [-68.59039, -17.85852], [-68.65013, -17.92057], [-68.67691, -17.97934], [-68.73665, -18.04657], [-68.7854, -18.12877], [-68.77785, -18.14839]]]}, "properties": {"id": "blRX", "status": "validé", "pieces": [{"kind": "polygon", "ring": [[-68.77785, -18.14839], [-68.74214, -18.10175], [-68.72772, -18.09681], [-68.71742, -18.05635], [-68.6673, -18.01393], [-68.65494, -17.97477], [-68.54095, -17.85721], [-68.44551, -17.82716], [-68.42903, -17.80036], [-68.41187, -17.69643], [-68.38852, -17.66373], [-68.37273, -17.6271], [-68.36655, -17.59439], [-68.38783, -17.60224], [-68.39401, -17.62841], [-68.42628, -17.67812], [-68.44139, -17.80036], [-68.51212, -17.81735], [-68.59039, -17.85852], [-68.65013, -17.92057], [-68.67691, -17.97934], [-68.73665, -18.04657], [-68.7854, -18.12877]]}]}}, {"type": "Feature", "geometry": {"type": "Polygon", "coordinates": [[[-68.8714, -18.02721], [-68.89423, -18.03717], [-68.93011, -18.04891], [-68.94899, -18.07045], [-68.96564, -18.10405], [-68.96873, -18.10144], [-68.95449, -18.07273], [-68.9435, -18.0512], [-68.9308, -18.04255], [-68.90985, -18.03309], [-68.87604, -18.02248], [-68.8714, -18.02721]]]}, "properties": {"id": "caq9", "status": "validé", "pieces": [{"kind": "polygon", "ring": [[-68.8714, -18.02721], [-68.89423, -18.03717], [-68.93011, -18.04891], [-68.94899, -18.07045], [-68.96564, -18.10405], [-68.96873, -18.10144], [-68.95449, -18.07273], [-68.9435, -18.0512], [-68.9308, -18.04255], [-68.90985, -18.03309], [-68.87604, -18.02248]]}]}}, {"type": "Feature", "geometry": null, "properties": {"id": "dcL2", "status": "validé", "pieces": [{"kind": "country"}]}}, {"type": "Feature", "geometry": null, "properties": {"id": "eNja", "status": "validé", "pieces": [{"kind": "country"}]}}, {"type": "Feature", "geometry": {"type": "Polygon", "coordinates": [[[-67.06055, -15.40946], [-65.96191, -16.33899], [-65.14893, -17.18021], [-64.31396, -17.30607], [-63.65479, -17.59941], [-63.65479, -18.1429], [-63.74268, -19.36991], [-64.13818, -20.15537], [-65.34668, -20.44376], [-66.18164, -20.44376], [-66.73096, -20.23782], [-66.70898, -19.30774], [-66.62109, -18.91343], [-66.7749, -18.08028], [-67.28027, -17.62034], [-67.76367, -16.99126], [-68.15918, -16.29684], [-68.31299, -15.38828], [-67.91748, -15.13402], [-67.06055, -15.40946]]]}, "properties": {"id": "fO7D", "status": "validé", "pieces": [{"kind": "polygon", "ring": [[-67.06055, -15.40946], [-65.96191, -16.33899], [-65.14893, -17.18021], [-64.31396, -17.30607], [-63.65479, -17.59941], [-63.65479, -18.1429], [-63.74268, -19.36991], [-64.13818, -20.15537], [-65.34668, -20.44376], [-66.18164, -20.44376], [-66.73096, -20.23782], [-66.70898, -19.30774], [-66.62109, -18.91343], [-66.7749, -18.08028], [-67.28027, -17.62034], [-67.76367, -16.99126], [-68.15918, -16.29684], [-68.31299, -15.38828], [-67.91748, -15.13402]]}]}}, {"type": "Feature", "geometry": {"type": "Polygon", "coordinates": [[[-68.04932, -16.55959], [-68.04932, -16.43982], [-68.18802, -16.43982], [-68.18802, -16.55959], [-68.04932, -16.55959]]]}, "properties": {"id": "gP54", "status": "validé", "pieces": [{"kind": "rect", "bounds": [-68.18802, -16.55959, -68.04932, -16.43982]}]}}, {"type": "Feature", "geometry": {"type": "Polygon", "coordinates": [[[-65.71815, -19.62887], [-65.71815, -19.54804], [-65.79506, -19.54804], [-65.79506, -19.62887], [-65.71815, -19.62887]]]}, "properties": {"id": "hZLQ", "status": "validé", "pieces": [{"kind": "rect", "bounds": [-65.79506, -19.62887, -65.71815, -19.54804]}]}}, {"type": "Feature", "geometry": null, "properties": {"id": "jgzQ", "status": "validé", "pieces": [{"kind": "country"}]}}, {"type": "Feature", "geometry": null, "properties": {"id": "k1TC", "status": "rejeté", "pieces": []}}, {"type": "Feature", "geometry": null, "properties": {"id": "ltvb", "status": "validé", "pieces": [{"kind": "country"}]}}, {"type": "Feature", "geometry": {"type": "Polygon", "coordinates": [[[-64.53026, -17.92448], [-64.51035, -17.94015], [-64.46846, -18.01262], [-64.43962, -18.06026], [-64.42451, -18.07396], [-64.40048, -18.08571], [-64.35997, -18.09549], [-64.3277, -18.1242], [-64.29062, -18.14246], [-64.25148, -18.1542], [-64.23157, -18.1379], [-64.21303, -18.21224], [-64.16771, -18.34584], [-64.12239, -18.48455], [-64.10728, -18.47674], [-64.11415, -18.45656], [-64.11003, -18.41423], [-64.1526, -18.33216], [-64.13887, -18.2859], [-64.17458, -18.2005], [-64.19998, -18.12622], [-64.1526, -18.10273], [-64.10866, -18.09882], [-64.07913, -18.01855], [-64.03862, -18.00224], [-63.97682, -18.11708], [-63.94867, -18.09686], [-63.98781, -18.00807], [-64.03931, -17.95845], [-64.11758, -17.98979], [-64.16084, -18.07464], [-64.25491, -18.11769], [-64.39293, -18.05571], [-64.46297, -17.95584], [-64.51172, -17.90882], [-64.53026, -17.92448]]]}, "properties": {"id": "mHkr", "status": "validé", "pieces": [{"kind": "polygon", "ring": [[-64.53026, -17.92448], [-64.51035, -17.94015], [-64.46846, -18.01262], [-64.43962, -18.06026], [-64.42451, -18.07396], [-64.40048, -18.08571], [-64.35997, -18.09549], [-64.3277, -18.1242], [-64.29062, -18.14246], [-64.25148, -18.1542], [-64.23157, -18.1379], [-64.21303, -18.21224], [-64.16771, -18.34584], [-64.12239, -18.48455], [-64.10728, -18.47674], [-64.11415, -18.45656], [-64.11003, -18.41423], [-64.1526, -18.33216], [-64.13887, -18.2859], [-64.17458, -18.2005], [-64.19998, -18.12622], [-64.1526, -18.10273], [-64.10866, -18.09882], [-64.07913, -18.01855], [-64.03862, -18.00224], [-63.97682, -18.11708], [-63.94867, -18.09686], [-63.98781, -18.00807], [-64.03931, -17.95845], [-64.11758, -17.98979], [-64.16084, -18.07464], [-64.25491, -18.11769], [-64.39293, -18.05571], [-64.46297, -17.95584], [-64.51172, -17.90882]]}]}}, {"type": "Feature", "geometry": null, "properties": {"id": "qTVY", "status": "validé", "pieces": [{"kind": "country"}]}}, {"type": "Feature", "geometry": null, "properties": {"id": "qrcc", "status": "validé", "pieces": [{"kind": "country"}]}}, {"type": "Feature", "geometry": {"type": "Polygon", "coordinates": [[[-68.28329, -19.27611], [-68.30063, -19.27238], [-68.30492, -19.26574], [-68.31093, -19.26379], [-68.3147, -19.25748], [-68.32329, -19.2544], [-68.3329, -19.23836], [-68.34166, -19.21681], [-68.35487, -19.1938], [-68.35178, -19.19153], [-68.34526, -19.19413], [-68.34269, -19.20288], [-68.3305, -19.2241], [-68.32758, -19.23869], [-68.31453, -19.25165], [-68.3087, -19.25942], [-68.29823, -19.26509], [-68.29153, -19.26865], [-68.28278, -19.27125], [-68.28329, -19.27611]]]}, "properties": {"id": "qsZg", "status": "validé", "pieces": [{"kind": "polygon", "ring": [[-68.28329, -19.27611], [-68.30063, -19.27238], [-68.30492, -19.26574], [-68.31093, -19.26379], [-68.3147, -19.25748], [-68.32329, -19.2544], [-68.3329, -19.23836], [-68.34166, -19.21681], [-68.35487, -19.1938], [-68.35178, -19.19153], [-68.34526, -19.19413], [-68.34269, -19.20288], [-68.3305, -19.2241], [-68.32758, -19.23869], [-68.31453, -19.25165], [-68.3087, -19.25942], [-68.29823, -19.26509], [-68.29153, -19.26865], [-68.28278, -19.27125]]}]}}, {"type": "Feature", "geometry": null, "properties": {"id": "rTJh", "status": "validé", "pieces": [{"kind": "country"}]}}, {"type": "Feature", "geometry": {"type": "Polygon", "coordinates": [[[-67.02003, -18.18204], [-66.97403, -18.51133], [-66.94519, -18.58096], [-66.90193, -18.64276], [-66.86279, -18.79227], [-66.82846, -18.84489], [-66.78452, -18.89685], [-66.77834, -18.88971], [-66.81061, -18.84165], [-66.84082, -18.76758], [-66.88065, -18.65977], [-66.90811, -18.58822], [-66.93764, -18.54528], [-66.97197, -18.33106], [-67.00699, -18.17266], [-67.02003, -18.18204]]]}, "properties": {"id": "sBx6", "status": "validé", "pieces": [{"kind": "polygon", "ring": [[-67.02003, -18.18204], [-66.97403, -18.51133], [-66.94519, -18.58096], [-66.90193, -18.64276], [-66.86279, -18.79227], [-66.82846, -18.84489], [-66.78452, -18.89685], [-66.77834, -18.88971], [-66.81061, -18.84165], [-66.84082, -18.76758], [-66.88065, -18.65977], [-66.90811, -18.58822], [-66.93764, -18.54528], [-66.97197, -18.33106], [-67.00699, -18.17266]]}]}}, {"type": "Feature", "geometry": {"type": "Polygon", "coordinates": [[[-62.65778, -17.62571], [-62.46552, -17.61786], [-62.01508, -17.63879], [-61.63055, -17.69373], [-61.17737, -17.75911], [-60.73792, -17.88195], [-60.74341, -17.79048], [-60.96313, -17.70681], [-61.47675, -17.61001], [-61.90796, -17.53149], [-62.60284, -17.5629], [-62.65778, -17.57075], [-62.65778, -17.62571]]]}, "properties": {"id": "sz3k", "status": "validé", "pieces": [{"kind": "polygon", "ring": [[-62.65778, -17.62571], [-62.46552, -17.61786], [-62.01508, -17.63879], [-61.63055, -17.69373], [-61.17737, -17.75911], [-60.73792, -17.88195], [-60.74341, -17.79048], [-60.96313, -17.70681], [-61.47675, -17.61001], [-61.90796, -17.53149], [-62.60284, -17.5629], [-62.65778, -17.57075]]}]}}, {"type": "Feature", "geometry": {"type": "Polygon", "coordinates": [[[-65.21896, -19.09304], [-65.21896, -19.01389], [-65.29037, -19.01389], [-65.29037, -19.09304], [-65.21896, -19.09304]]]}, "properties": {"id": "tbQH", "status": "validé", "pieces": [{"kind": "rect", "bounds": [-65.29037, -19.09304, -65.21896, -19.01389]}]}}, {"type": "Feature", "geometry": null, "properties": {"id": "wFBZ", "status": "validé", "pieces": [{"kind": "country"}]}}, {"type": "Feature", "geometry": {"type": "Polygon", "coordinates": [[[-68.04005, -16.33181], [-68.02614, -16.32736], [-68.02391, -16.32209], [-67.98838, -16.33246], [-67.96589, -16.33559], [-67.94117, -16.33148], [-67.9077, -16.31501], [-67.89585, -16.3076], [-67.89001, -16.29673], [-67.88023, -16.29343], [-67.85568, -16.29459], [-67.85723, -16.28915], [-67.8883, -16.28586], [-67.90718, -16.30661], [-67.94512, -16.32127], [-67.97173, -16.32686], [-68.00331, -16.32044], [-68.02305, -16.31138], [-68.04262, -16.31501], [-68.04005, -16.33181]]]}, "properties": {"id": "xCqp", "status": "validé", "pieces": [{"kind": "polygon", "ring": [[-68.04005, -16.33181], [-68.02614, -16.32736], [-68.02391, -16.32209], [-67.98838, -16.33246], [-67.96589, -16.33559], [-67.94117, -16.33148], [-67.9077, -16.31501], [-67.89585, -16.3076], [-67.89001, -16.29673], [-67.88023, -16.29343], [-67.85568, -16.29459], [-67.85723, -16.28915], [-67.8883, -16.28586], [-67.90718, -16.30661], [-67.94512, -16.32127], [-67.97173, -16.32686], [-68.00331, -16.32044], [-68.02305, -16.31138], [-68.04262, -16.31501]]}]}}, {"type": "Feature", "geometry": {"type": "Polygon", "coordinates": [[[-63.6438, -16.84464], [-64.70947, -16.87617], [-65.29175, -16.80259], [-65.53345, -16.80259], [-65.44556, -16.99173], [-64.78638, -17.23313], [-64.16016, -17.21215], [-64.30298, -17.46374], [-64.65454, -17.70452], [-64.59961, -17.91363], [-64.45679, -18.07031], [-64.23706, -18.34154], [-63.7207, -18.67478], [-63.68774, -19.58779], [-63.58887, -20.18675], [-63.31421, -20.68071], [-63.05054, -20.62933], [-63.39111, -19.79459], [-63.36914, -19.03852], [-62.94067, -18.43533], [-62.62207, -17.7359], [-60.78735, -17.96587], [-60.3479, -18.13294], [-60.31494, -17.84047], [-61.28174, -17.63128], [-62.12769, -17.46374], [-62.05078, -17.17019], [-62.17163, -16.78157], [-62.56714, -16.44482], [-63.02856, -16.47641], [-63.6438, -16.84464]]]}, "properties": {"id": "xLWH", "status": "validé", "pieces": [{"kind": "polygon", "ring": [[-63.6438, -16.84464], [-64.70947, -16.87617], [-65.29175, -16.80259], [-65.53345, -16.80259], [-65.44556, -16.99173], [-64.78638, -17.23313], [-64.16016, -17.21215], [-64.30298, -17.46374], [-64.65454, -17.70452], [-64.59961, -17.91363], [-64.45679, -18.07031], [-64.23706, -18.34154], [-63.7207, -18.67478], [-63.68774, -19.58779], [-63.58887, -20.18675], [-63.31421, -20.68071], [-63.05054, -20.62933], [-63.39111, -19.79459], [-63.36914, -19.03852], [-62.94067, -18.43533], [-62.62207, -17.7359], [-60.78735, -17.96587], [-60.3479, -18.13294], [-60.31494, -17.84047], [-61.28174, -17.63128], [-62.12769, -17.46374], [-62.05078, -17.17019], [-62.17163, -16.78157], [-62.56714, -16.44482], [-63.02856, -16.47641]]}]}}, {"type": "Feature", "geometry": {"type": "Polygon", "coordinates": [[[-63.96172, -18.13204], [-63.94112, -18.14574], [-63.9212, -18.17508], [-63.86147, -18.18682], [-63.8134, -18.17378], [-63.73924, -18.20443], [-63.71246, -18.1803], [-63.62869, -18.16595], [-63.58131, -18.179], [-63.55042, -18.19073], [-63.51677, -18.17248], [-63.46596, -18.14769], [-63.46115, -18.12747], [-63.46664, -18.1216], [-63.51265, -18.15878], [-63.56552, -18.17313], [-63.63625, -18.1216], [-63.72345, -18.1366], [-63.74886, -18.17965], [-63.80379, -18.15291], [-63.89305, -18.15552], [-63.93768, -18.12421], [-63.96172, -18.13204]]]}, "properties": {"id": "ykan", "status": "validé", "pieces": [{"kind": "polygon", "ring": [[-63.96172, -18.13204], [-63.94112, -18.14574], [-63.9212, -18.17508], [-63.86147, -18.18682], [-63.8134, -18.17378], [-63.73924, -18.20443], [-63.71246, -18.1803], [-63.62869, -18.16595], [-63.58131, -18.179], [-63.55042, -18.19073], [-63.51677, -18.17248], [-63.46596, -18.14769], [-63.46115, -18.12747], [-63.46664, -18.1216], [-63.51265, -18.15878], [-63.56552, -18.17313], [-63.63625, -18.1216], [-63.72345, -18.1366], [-63.74886, -18.17965], [-63.80379, -18.15291], [-63.89305, -18.15552], [-63.93768, -18.12421]]}]}}, {"type": "Feature", "geometry": {"type": "Polygon", "coordinates": [[[-69.01748657226564, -16.570970847102426], [-68.95774841308595, -16.59465224763596], [-68.89183044433595, -16.61109594893756], [-68.82110595703126, -16.61109594893756], [-68.7242889404297, -16.580838451531775], [-68.63708496093751, -16.572286556917497], [-68.58352661132814, -16.59859886426963], [-68.54438781738283, -16.587416573404163], [-68.48396301269533, -16.597941100457476], [-68.39881896972658, -16.555162453854738], [-68.33152770996095, -16.54331968960949], [-68.21067810058595, -16.496599477632806], [-68.21411132812501, -16.49001825878302], [-68.26560974121095, -16.50515472744806], [-68.31092834472658, -16.517657873191606], [-68.41392517089845, -16.522264091389076], [-68.51486206054689, -16.567662360077634], [-68.56567382812501, -16.576872298223446], [-68.60549926757814, -16.565030868270366], [-68.68721008300783, -16.559109880269563], [-68.74488830566408, -16.559109880269563], [-68.8286590576172, -16.586081795702682], [-68.95980834960939, -16.57226738422034], [-69.01405334472658, -16.54989909287924], [-69.01748657226564, -16.570970847102426]]]}, "properties": {"id": "zvmK", "status": "validé", "pieces": [{"kind": "polygon", "ring": [[-69.01749, -16.57097], [-68.95775, -16.59465], [-68.89183, -16.6111], [-68.82111, -16.6111], [-68.72429, -16.58084], [-68.63708, -16.57229], [-68.58353, -16.5986], [-68.54439, -16.58742], [-68.48396, -16.59794], [-68.39882, -16.55516], [-68.33153, -16.54332], [-68.21068, -16.4966], [-68.21411, -16.49002], [-68.26561, -16.50515], [-68.31093, -16.51766], [-68.41393, -16.52226], [-68.51486, -16.56766], [-68.56567, -16.57687], [-68.6055, -16.56503], [-68.68721, -16.55911], [-68.74489, -16.55911], [-68.82866, -16.58608], [-68.95981, -16.57227], [-69.01405, -16.5499]]}]}}]}