{"type": "FeatureCollection", "features": [{"type": "Feature", "geometry": {"type": "Polygon", "coordinates": [[[20.02808, -22.35928], [21.54419, -22.13567], [21.50574, -21.94226], [19.98962, -22.10515], [20.02808, -22.35928]]]}, "properties": {"id": "5g1x", "status": "validé", "pieces": [{"kind": "polygon", "ring": [[20.02808, -22.35928], [21.54419, -22.13567], [21.50574, -21.94226], [19.98962, -22.10515]]}]}}, {"type": "Feature", "geometry": {"type": "Polygon", "coordinates": [[[27.63062, -21.24541], [27.63062, -21.07131], [27.4411, -21.07131], [27.4411, -21.24541], [27.63062, -21.24541]]]}, "properties": {"id": "6gap", "status": "validé", "pieces": [{"kind": "rect", "bounds": [27.4411, -21.24541, 27.63062, -21.07131]}]}}, {"type": "Feature", "geometry": {"type": "Polygon", "coordinates": [[[26.0321, -24.67901], [26.0321, -24.47428], [25.73822, -24.47428], [25.73822, -24.67901], [26.0321, -24.67901]]]}, "properties": {"id": "84qU", "status": "validé", "pieces": [{"kind": "rect", "bounds": [25.73822, -24.67901, 26.0321, -24.47428]}]}}, {"type": "Feature", "geometry": null, "properties": {"id": "AwpQ", "status": "rejeté", "pieces": []}}, {"type": "Feature", "geometry": null, "properties": {"id": "BrtG", "status": "validé", "pieces": [{"kind": "country"}]}}, {"type": "Feature", "geometry": null, "properties": {"id": "CVOu", "status": "validé", "pieces": [{"kind": "admin1", "code": "BWA-2648"}]}}, {"type": "Feature", "geometry": null, "properties": {"id": "Fm8z", "status": "rejeté", "pieces": []}}, {"type": "Feature", "geometry": {"type": "Polygon", "coordinates": [[[20.0061, -22.04245], [20.0061, -23.25859], [22.32422, -23.29895], [22.58789, -23.63137], [22.88452, -23.15766], [21.87378, -22.05263], [23.89526, -20.32224], [24.59839, -20.47664], [24.5105, -19.98203], [23.69751, -19.88911], [23.88977, -19.48168], [23.71948, -19.2222], [22.43408, -20.34259], [20.99487, -21.98112], [20.0061, -22.04245]]]}, "properties": {"id": "GwEW", "status": "validé", "pieces": [{"kind": "polygon", "ring": [[20.0061, -22.04245], [20.0061, -23.25859], [22.32422, -23.29895], [22.58789, -23.63137], [22.88452, -23.15766], [21.87378, -22.05263], [23.89526, -20.32224], [24.59839, -20.47664], [24.5105, -19.98203], [23.69751, -19.88911], [23.88977, -19.48168], [23.71948, -19.2222], [22.43408, -20.34259], [20.99487, -21.98112]]}]}}, {"type": "Feature", "geometry": null, "properties": {"id": "IGgM", "status": "validé", "pieces": [{"kind": "country"}]}}, {"type": "Feature", "geometry": {"type": "Polygon", "coordinates": [[[26.1145, -24.83067], [26.1145, -24.46136], [25.75195, -24.46136], [25.75195, -24.83067], [26.1145, -24.83067]]]}, "properties": {"id": "OYIt", "status": "validé", "pieces": [{"kind": "rect", "bounds": [25.75195, -24.83067, 26.1145, -24.46136]}]}}, {"type": "Feature", "geometry": {"type": "Polygon", "coordinates": [[[22.57141, -26.194], [22.57141, -25.93258], [22.27478, -25.93258], [22.27478, -26.194], [22.57141, -26.194]]]}, "properties": {"id": "Rom4", "status": "validé", "pieces": [{"kind": "rect", "bounds": [22.27478, -26.194, 22.57141, -25.93258]}]}}, {"type": "Feature", "geometry": null, "properties": {"id": "UxrV", "status": "validé", "pieces": [{"kind": "country"}]}}, {"type": "Feature", "geometry": {"type": "MultiPolygon", "coordinates": [[[[24.86206, -25.01336], [25.0708, -24.28474], [25.56519, -24.1345], [26.521, -24.40481], [25.8728, -24.76431], [25.64758, -25.52611], [24.86206, -25.01336]]], [[[26.97144, -23.26974], [26.51001, -23.36051], [26.26831, -22.58197], [26.80664, -22.16561], [27.55371, -21.95188], [28.19092, -22.07405], [28.70728, -22.49068], [27.20215, -23.54185], [26.97144, -23.26974]]]]}, "properties": {"id": "VNqS", "status": "validé", "pieces": [{"kind": "polygon", "ring": [[25.64758, -25.52611], [24.86206, -25.01336], [25.0708, -24.28474], [25.56519, -24.1345], [26.521, -24.40481], [25.8728, -24.76431]]}, {"kind": "polygon", "ring": [[27.20215, -23.54185], [26.97144, -23.26974], [26.51001, -23.36051], [26.26831, -22.58197], [26.80664, -22.16561], [27.55371, -21.95188], [28.19092, -22.07405], [28.70728, -22.49068]]}]}}, {"type": "Feature", "geometry": {"type": "Polygon", "coordinates": [[[25.35645, -18.44729], [25.48828, -19.01929], [25.85083, -19.50653], [26.10352, -19.48583], [25.68604, -18.34308], [25.35645, -18.44729]]]}, "properties": {"id": "WC9E", "status": "validé", "pieces": [{"kind": "polygon", "ring": [[25.35645, -18.44729], [25.48828, -19.01929], [25.85083, -19.50653], [26.10352, -19.48583], [25.68604, -18.34308]]}]}}, {"type": "Feature", "geometry": null, "properties": {"id": "WQ2d", "status": "validé", "pieces": [{"kind": "country"}]}}, {"type": "Feature", "geometry": {"type": "Polygon", "coordinates": [[[20.65979, -26.79382], [20.896, -26.67612], [21.47827, -26.69084], [21.85181, -26.58777], [22.12097, -26.33216], [22.18689, -26.38628], [22.099, -26.63196], [21.95068, -26.72518], [21.75842, -26.8918], [21.28052, -26.93587], [20.86304, -26.85752], [20.68176, -26.91629], [20.65979, -26.79382]]]}, "properties": {"id": "XUN2", "status": "validé", "pieces": [{"kind": "polygon", "ring": [[20.65979, -26.79382], [20.896, -26.67612], [21.47827, -26.69084], [21.85181, -26.58777], [22.12097, -26.33216], [22.18689, -26.38628], [22.099, -26.63196], [21.95068, -26.72518], [21.75842, -26.8918], [21.28052, -26.93587], [20.86304, -26.85752], [20.68176, -26.91629]]}]}}, {"type": "Feature", "geometry": null, "properties": {"id": "ZP7K", "status": "validé", "pieces": [{"kind": "country"}]}}, {"type": "Feature", "geometry": {"type": "Polygon", "coordinates": [[[25.0708, -21.23224], [25.0708, -21.38059], [26.15295, -21.39082], [26.3562, -21.20153], [25.0708, -21.23224]]]}, "properties": {"id": "b9XY", "status": "validé", "pieces": [{"kind": "polygon", "ring": [[25.0708, -21.23224], [25.0708, -21.38059], [26.15295, -21.39082], [26.3562, -21.20153]]}]}}, {"type": "Feature", "geometry": null, "properties": {"id": "d1xZ", "status": "validé", "pieces": [{"kind": "country"}]}}, {"type": "Feature", "geometry": {"type": "Polygon", "coordinates": [[[23.57666, -20.12208], [23.57666, -19.89506], [23.29651, -19.89506], [23.29651, -20.12208], [23.57666, -20.12208]]]}, "properties": {"id": "eNTS", "status": "validé", "pieces": [{"kind": "rect", "bounds": [23.29651, -20.12208, 23.57666, -19.89506]}]}}, {"type": "Feature", "geometry": null, "properties": {"id": "ejAj", "status": "validé", "pieces": [{"kind": "country"}]}}, {"type": "Feature", "geometry": {"type": "Polygon", "coordinates": [[[25.20264, -17.82637], [25.20264, -18.08232], [25.35095, -18.24928], [25.47729, -18.53585], [25.7135, -19.3564], [26.15845, -20.20377], [26.30676, -20.20377], [26.14197, -19.63074], [25.66406, -18.76996], [25.65857, -18.47857], [25.51025, -18.37438], [25.41138, -18.11364], [25.27954, -17.98312], [25.20264, -17.82637]]]}, "properties": {"id": "fgRE", "status": "validé", "pieces": [{"kind": "polygon", "ring": [[25.20264, -17.82637], [25.20264, -18.08232], [25.35095, -18.24928], [25.47729, -18.53585], [25.7135, -19.3564], [26.15845, -20.20377], [26.30676, -20.20377], [26.14197, -19.63074], [25.66406, -18.76996], [25.65857, -18.47857], [25.51025, -18.37438], [25.41138, -18.11364], [25.27954, -17.98312]]}]}}, {"type": "Feature", "geometry": {"type": "Polygon", "coordinates": [[[21.73096, -18.29173], [22.00012, -18.68229], [22.20337, -18.94217], [22.03857, -19.44], [22.12646, -19.99824], [22.6593, -20.48766], [22.76367, -20.43107], [22.46704, -20.00856], [22.24731, -19.43482], [22.35168, -18.91101], [22.15393, -18.58343], [21.83533, -18.23958], [21.73096, -18.29173]]]}, "properties": {"id": "gr6s", "status": "validé", "pieces": [{"kind": "polygon", "ring": [[21.73096, -18.29173], [22.00012, -18.68229], [22.20337, -18.94217], [22.03857, -19.44], [22.12646, -19.99824], [22.6593, -20.48766], [22.76367, -20.43107], [22.46704, -20.00856], [22.24731, -19.43482], [22.35168, -18.91101], [22.15393, -18.58343], [21.83533, -18.23958]]}]}}, {"type": "Feature", "geometry": {"type": "MultiPolygon", "coordinates": [[[[29.04785, -21.78831], [29.3335, -22.18545], [28.8501, -22.48004], [28.39966, -22.55105], [27.97119, -22.99658], [27.22412, -22.42929], [27.1582, -21.76792], [28.67432, -21.69651], [29.04785, -21.78831]]], [[[27.20215, -20.06515], [27.29004, -20.44634], [27.69653, -20.45663], [27.72949, -21.09323], [28.01514, -21.58422], [26.93848, -20.98048], [26.68579, -20.49778], [27.01538, -20.0342], [27.20215, -20.06515]]]]}, "properties": {"id": "igGd", "status": "validé", "pieces": [{"kind": "polygon", "ring": [[27.01538, -20.0342], [26.68579, -20.49778], [26.93848, -20.98048], [28.01514, -21.58422], [27.72949, -21.09323], [27.69653, -20.45663], [27.29004, -20.44634], [27.20215, -20.06515]]}, {"kind": "polygon", "ring": [[28.67432, -21.69651], [27.1582, -21.76792], [27.22412, -22.42929], [27.97119, -22.99658], [28.39966, -22.55105], [28.8501, -22.48004], [29.3335, -22.18545], [29.04785, -21.78831]]}]}}, {"type": "Feature", "geometry": {"type": "Polygon", "coordinates": [[[24.77417, -17.9099], [25.30151, -18.07179], [25.26855, -17.9099], [25.26855, -17.80537], [25.20264, -17.77923], [24.96094, -17.774], [24.77417, -17.9099]]]}, "properties": {"id": "jqFy", "status": "validé", "pieces": [{"kind": "polygon", "ring": [[24.77417, -17.9099], [25.30151, -18.07179], [25.26855, -17.9099], [25.26855, -17.80537], [25.20264, -17.77923], [24.96094, -17.774]]}]}}, {"type": "Feature", "geometry": null, "properties": {"id": "jxYh", "status": "validé", "pieces": [{"kind": "country"}]}}, {"type": "Feature", "geometry": null, "properties": {"id": "leHu", "status": "validé", "pieces": [{"kind": "country"}]}}, {"type": "Feature", "geometry": null, "properties": {"id": "mI5v", "status": "validé", "pieces": [{"kind": "country"}]}}, {"type": "Feature", "geometry": {"type": "Polygon", "coordinates": [[[23.99414, -24.55655], [23.40088, -24.81598], [23.34595, -25.28854], [23.00537, -25.34314], [22.54395, -26.26753], [22.31323, -25.97666], [22.63184, -25.55634], [23.09875, -25.20908], [23.17017, -24.67137], [23.89526, -24.5016], [23.99414, -24.55655]]]}, "properties": {"id": "nG4U", "status": "validé", "pieces": [{"kind": "polygon", "ring": [[23.99414, -24.55655], [23.40088, -24.81598], [23.34595, -25.28854], [23.00537, -25.34314], [22.54395, -26.26753], [22.31323, -25.97666], [22.63184, -25.55634], [23.09875, -25.20908], [23.17017, -24.67137], [23.89526, -24.5016]]}]}}, {"type": "Feature", "geometry": {"type": "Polygon", "coordinates": [[[21.85181, -18.869], [21.85181, -18.67664], [21.66504, -18.67664], [21.66504, -18.869], [21.85181, -18.869]]]}, "properties": {"id": "oPNf", "status": "validé", "pieces": [{"kind": "rect", "bounds": [21.66504, -18.869, 21.85181, -18.67664]}]}}, {"type": "Feature", "geometry": null, "properties": {"id": "p2pn", "status": "validé", "pieces": [{"kind": "country"}]}}, {"type": "Feature", "geometry": null, "properties": {"id": "qs9y", "status": "validé", "pieces": [{"kind": "country"}]}}, {"type": "Feature", "geometry": {"type": "Polygon", "coordinates": [[[24.82361, -20.31314], [24.56543, -20.79129], [24.77966, -21.24235], [25.43335, -21.44181], [26.02661, -21.32421], [26.13647, -21.06824], [26.30676, -20.79643], [26.39465, -20.28739], [25.98816, -20.0503], [25.35095, -19.95743], [24.82361, -20.31314]]]}, "properties": {"id": "w13P", "status": "validé", "pieces": [{"kind": "polygon", "ring": [[24.82361, -20.31314], [24.56543, -20.79129], [24.77966, -21.24235], [25.43335, -21.44181], [26.02661, -21.32421], [26.13647, -21.06824], [26.30676, -20.79643], [26.39465, -20.28739], [25.98816, -20.0503], [25.35095, -19.95743]]}]}}, {"type": "Feature", "geometry": null, "properties": {"id": "w9ul", "status": "validé", "pieces": [{"kind": "country"}]}}, {"type": "Feature", "geometry": {"type": "Polygon", "coordinates": [[[25.78491, -18.69216], [25.78491, -18.46315], [25.50476, -18.46315], [25.50476, -18.69216], [25.78491, -18.69216]]]}, "properties": {"id": "wRda", "status": "validé", "pieces": [{"kind": "rect", "bounds": [25.50476, -18.69216, 25.78491, -18.46315]}]}}, {"type": "Feature", "geometry": {"type": "Polygon", "coordinates": [[[23.3432, -19.97013], [23.64807, -18.96285], [23.87878, -18.87455], [23.96667, -19.28968], [23.55469, -20.02395], [23.3432, -19.97013]]]}, "properties": {"id": "yo96", "status": "validé", "pieces": [{"kind": "polygon", "ring": [[23.3432, -19.97013], [23.64807, -18.96285], [23.87878, -18.87455], [23.96667, -19.28968], [23.55469, -20.02395]]}]}}]}