{"type": "FeatureCollection", "features": [{"type": "Feature", "geometry": {"type": "Polygon", "coordinates": [[[27.72949, 53.81391], [27.72949, 53.98054], [27.3999, 53.98054], [27.3999, 53.81391], [27.72949, 53.81391]]]}, "properties": {"id": "GrKy", "status": "validé", "pieces": [{"kind": "rect", "bounds": [27.3999, 53.81391, 27.72949, 53.98054]}]}}, {"type": "Feature", "geometry": {"type": "Polygon", "coordinates": [[[27.74323, 53.81717], [27.74323, 53.96925], [27.37793, 53.96925], [27.37793, 53.81717], [27.74323, 53.81717]]]}, "properties": {"id": "JIQL", "status": "validé", "pieces": [{"kind": "rect", "bounds": [27.37793, 53.81717, 27.74323, 53.96925]}]}}, {"type": "Feature", "geometry": {"type": "Polygon", "coordinates": [[[27.75696, 53.81414], [27.75696, 53.97269], [27.37793, 53.97269], [27.37793, 53.81414], [27.75696, 53.81414]]]}, "properties": {"id": "Jq87", "status": "validé", "pieces": [{"kind": "rect", "bounds": [27.37793, 53.81414, 27.75696, 53.97269]}]}}, {"type": "Feature", "geometry": {"type": "Polygon", "coordinates": [[[27.75146, 53.82069], [27.75146, 53.97921], [27.36694, 53.97921], [27.36694, 53.82069], [27.75146, 53.82069]]]}, "properties": {"id": "USRk", "status": "validé", "pieces": [{"kind": "rect", "bounds": [27.36694, 53.82069, 27.75146, 53.97921]}]}}, {"type": "Feature", "geometry": {"type": "Polygon", "coordinates": [[[27.76794, 53.81096], [27.76794, 53.97598], [27.38342, 53.97598], [27.38342, 53.81096], [27.76794, 53.81096]]]}, "properties": {"id": "aHmA", "status": "validé", "pieces": [{"kind": "rect", "bounds": [27.38342, 53.81096, 27.76794, 53.97598]}]}}, {"type": "Feature", "geometry": null, "properties": {"id": "nIJX", "status": "validé", "pieces": [{"kind": "country"}]}}, {"type": "Feature", "geometry": null, "properties": {"id": "tag-ba4599", "status": "proposé", "pieces": [{"kind": "polygon", "ring": [[26.71073, 51.79883], [26.70222, 51.78604], [26.68168, 51.78074], [26.66113, 51.78604], [26.65263, 51.79883], [26.66113, 51.81162], [26.68168, 51.81691], [26.70222, 51.81162]]}]}}, {"type": "Feature", "geometry": null, "properties": {"id": "tag-c30a4d", "status": "proposé", "pieces": [{"kind": "polygon", "ring": [[23.80045, 53.50965], [23.78895, 53.47504], [23.7562, 53.4457], [23.7072, 53.42609], [23.64939, 53.41921], [23.59158, 53.42609], [23.54258, 53.4457], [23.50983, 53.47504], [23.49833, 53.50965], [23.50983, 53.54425], [23.54258, 53.57359], [23.59158, 53.5932], [23.64939, 53.60008], [23.7072, 53.5932], [23.7562, 53.57359], [23.78895, 53.54425]]}]}}, {"type": "Feature", "geometry": null, "properties": {"id": "tag-e2a894", "status": "proposé", "pieces": [{"kind": "polygon", "ring": [[23.80045, 53.50965], [23.78895, 53.47504], [23.7562, 53.4457], [23.7072, 53.42609], [23.64939, 53.41921], [23.59158, 53.42609], [23.54258, 53.4457], [23.50983, 53.47504], [23.49833, 53.50965], [23.50983, 53.54425], [23.54258, 53.57359], [23.59158, 53.5932], [23.64939, 53.60008], [23.7072, 53.5932], [23.7562, 53.57359], [23.78895, 53.54425]]}]}}, {"type": "Feature", "geometry": null, "properties": {"id": "tag-fb61ef", "status": "proposé", "pieces": [{"kind": "polygon", "ring": [[26.71073, 51.79883], [26.70222, 51.78604], [26.68168, 51.78074], [26.66113, 51.78604], [26.65263, 51.79883], [26.66113, 51.81162], [26.68168, 51.81691], [26.70222, 51.81162]]}]}}]}