{"type": "FeatureCollection", "features": [{"type": "Feature", "geometry": null, "properties": {"id": "1rvx", "status": "validé", "pieces": [{"kind": "admin1", "code": "CHE-174"}]}}, {"type": "Feature", "geometry": {"type": "Polygon", "coordinates": [[[9.43794, 47.38865], [9.43794, 47.45413], [9.31435, 47.45413], [9.31435, 47.38865], [9.43794, 47.38865]]]}, "properties": {"id": "5c2b", "status": "validé", "pieces": [{"kind": "rect", "bounds": [9.31435, 47.38865, 9.43794, 47.45413]}]}}, {"type": "Feature", "geometry": {"type": "Polygon", "coordinates": [[[7.49268, 47.24244], [7.20154, 47.16783], [7.15759, 46.97336], [7.18506, 46.81576], [7.37732, 46.66148], [7.72339, 46.63509], [7.98706, 46.69162], [8.16284, 46.89462], [8.15735, 47.10059], [7.96509, 47.27225], [7.49268, 47.24244]]]}, "properties": {"id": "6CVU", "status": "validé", "pieces": [{"kind": "polygon", "ring": [[7.49268, 47.24244], [7.20154, 47.16783], [7.15759, 46.97336], [7.18506, 46.81576], [7.37732, 46.66148], [7.72339, 46.63509], [7.98706, 46.69162], [8.16284, 46.89462], [8.15735, 47.10059], [7.96509, 47.27225]]}]}}, {"type": "Feature", "geometry": null, "properties": {"id": "9CSb", "status": "validé", "pieces": [{"kind": "country"}]}}, {"type": "Feature", "geometry": {"type": "Polygon", "coordinates": [[[8.13538, 47.40254], [7.57507, 47.25367], [7.16858, 47.11185], [6.81152, 46.91343], [6.37207, 46.63514], [6.14685, 46.37437], [6.13131, 46.37505], [6.12286, 46.38554], [6.10818, 46.3965], [6.05902, 46.41738], [6.05424, 46.41942], [6.06571, 46.42701], [6.06757, 46.4336], [6.0655, 46.44037], [6.0655, 46.44799], [6.06478, 46.45107], [6.0624, 46.4552], [6.06023, 46.4599], [6.06023, 46.46502], [6.06416, 46.47112], [6.07552, 46.47959], [6.11036, 46.52083], [6.1457, 46.55163], [6.12152, 46.57028], [6.11842, 46.58346], [6.13185, 46.59561], [6.26631, 46.68036], [6.33794, 46.70741], [6.34786, 46.71317], [6.37422, 46.73361], [6.40739, 46.7457], [6.41793, 46.7511], [6.4292, 46.76082], [6.43302, 46.76911], [6.43261, 46.78598], [6.42517, 46.79162], [6.4199, 46.79653], [6.41711, 46.80216], [6.41855, 46.80701], [6.43426, 46.83955], [6.44119, 46.84815], [6.44312, 46.85146], [6.44677, 46.85771], [6.44842, 46.87156], [6.44522, 46.88262], [6.43189, 46.90003], [6.42775, 46.90908], [6.44264, 46.94416], [6.49111, 46.96339], [6.5987, 46.98654], [6.66541, 47.02129], [6.68825, 47.04385], [6.67626, 47.0624], [6.6897, 47.07829], [6.69911, 47.08462], [6.72422, 47.09077], [6.72794, 47.09713], [6.73166, 47.09888], [6.74603, 47.10395], [6.74479, 47.12105], [6.77476, 47.12818], [6.83808, 47.16813], [6.84028, 47.16953], [6.8593, 47.19092], [6.88834, 47.21131], [6.95625, 47.24523], [6.95222, 47.27004], [6.95862, 47.29055], [6.97743, 47.30373], [6.98653, 47.3045], [6.9919, 47.30595], [7.00648, 47.31936], [7.01692, 47.32352], [7.02715, 47.32543], [7.03655, 47.32952], [7.0443, 47.3405], [7.03386, 47.35065], [7.01888, 47.3599], [7.004, 47.36814], [6.9856, 47.36212], [6.86664, 47.35417], [6.8716, 47.36695], [6.884, 47.38259], [6.89878, 47.39571], [6.92452, 47.406], [6.92607, 47.42486], [6.95232, 47.42884], [6.96855, 47.43519], [6.98343, 47.4438], [6.99097, 47.45222], [6.98612, 47.46413], [6.97578, 47.47796], [6.9733, 47.48909], [6.9919, 47.49294], [7.00079, 47.49767], [7.00978, 47.49925], [7.01888, 47.49767], [7.02797, 47.49294], [7.05391, 47.49038], [7.10373, 47.49627], [7.1273, 47.49294], [7.14032, 47.48785], [7.14217, 47.48765], [7.15365, 47.4864], [7.18083, 47.48826], [7.16264, 47.4599], [7.16833, 47.44356], [7.19003, 47.43473], [7.21938, 47.42848], [7.22352, 47.42623], [7.22631, 47.42264], [7.23034, 47.41902], [7.23809, 47.4168], [7.24481, 47.41773], [7.28263, 47.42889], [7.30909, 47.43266], [7.33693, 47.43185], [7.37855, 47.43065], [7.38822, 47.43329], [7.40635, 47.43824], [7.42056, 47.45086], [7.42609, 47.45576], [7.42929, 47.46511], [7.42764, 47.47075], [7.42278, 47.47542], [7.41947, 47.47785], [7.41441, 47.48403], [7.41431, 47.49018], [7.42599, 47.4925], [7.44149, 47.48883], [7.446, 47.48688], [7.45451, 47.4832], [7.46743, 47.48191], [7.48273, 47.49126], [7.48448, 47.49294], [7.48583, 47.49578], [7.48593, 47.49839], [7.48578, 47.49877], [7.4849, 47.5009], [7.47776, 47.5077], [7.4756, 47.51173], [7.47694, 47.51488], [7.48273, 47.517], [7.49306, 47.5155], [7.50112, 47.51731], [7.50546, 47.52302], [7.50515, 47.53302], [7.50174, 47.53296], [7.4851, 47.5416], [7.48273, 47.54227], [7.52087, 47.56342], [7.52634, 47.56645], [7.55032, 47.57549], [7.58548, 47.58448], [7.58603, 47.58462], [7.63703, 47.59498], [7.65967, 47.59658], [7.64654, 47.57154], [7.63589, 47.56459], [7.61234, 47.56473], [7.60975, 47.56475], [7.6469, 47.55145], [7.66142, 47.54625], [7.68344, 47.54426], [7.72732, 47.55042], [7.76674, 47.55596], [7.78555, 47.5632], [7.80147, 47.57609], [7.81966, 47.59534], [7.83371, 47.59048], [7.8982, 47.58785], [7.9043, 47.58356], [7.90751, 47.57418], [7.90947, 47.5648], [7.91216, 47.56056], [8.04228, 47.56056], [8.05506, 47.5625], [8.13538, 47.40254]]]}, "properties": {"id": "9xai", "status": "validé", "pieces": [{"kind": "polygon", "ring": [[6.14685, 46.37437], [6.37207, 46.63514], [6.81152, 46.91343], [7.16858, 47.11185], [7.57507, 47.25367], [8.13538, 47.40254], [8.02551, 47.62135], [7.69592, 47.66944], [6.36108, 47.4731], [5.87219, 46.79326], [5.80078, 46.38952]]}, {"kind": "clip"}]}}, {"type": "Feature", "geometry": null, "properties": {"id": "ARS4", "status": "validé", "pieces": [{"kind": "country"}]}}, {"type": "Feature", "geometry": null, "properties": {"id": "DapV", "status": "validé", "pieces": [{"kind": "admin1", "code": "CHE-165"}]}}, {"type": "Feature", "geometry": null, "properties": {"id": "EEdr", "status": "rejeté", "pieces": []}}, {"type": "Feature", "geometry": null, "properties": {"id": "FOTA", "status": "validé", "pieces": [{"kind": "country"}]}}, {"type": "Feature", "geometry": null, "properties": {"id": "H9pK", "status": "validé", "pieces": [{"kind": "admin1", "code": "CHE-3423"}]}}, {"type": "Feature", "geometry": null, "properties": {"id": "JMIW", "status": "validé", "pieces": [{"kind": "country"}]}}, {"type": "Feature", "geometry": null, "properties": {"id": "JZSb", "status": "rejeté", "pieces": []}}, {"type": "Feature", "geometry": null, "properties": {"id": "JkUC", "status": "validé", "pieces": [{"kind": "admin1", "code": "CHE-3422"}]}}, {"type": "Feature", "geometry": null, "properties": {"id": "K1Ul", "status": "validé", "pieces": [{"kind": "country"}]}}, {"type": "Feature", "geometry": null, "properties": {"id": "KVPw", "status": "validé", "pieces": [{"kind": "admin1", "code": "CHE-170"}]}}, {"type": "Feature", "geometry": null, "properties": {"id": "Oo4G", "status": "validé", "pieces": [{"kind": "country"}]}}, {"type": "Feature", "geometry": null, "properties": {"id": "PEET", "status": "validé", "pieces": [{"kind": "country"}]}}, {"type": "Feature", "geometry": null, "properties": {"id": "V7Ou", "status": "validé", "pieces": [{"kind": "admin1", "code": "CHE-169"}]}}, {"type": "Feature", "geometry": null, "properties": {"id": "WZTx", "status": "validé", "pieces": [{"kind": "country"}]}}, {"type": "Feature", "geometry": {"type": "MultiPolygon", "coordinates": [[[[6.08969, 46.24638], [6.09403, 46.25304], [6.09309, 46.26229], [6.09361, 46.27309], [6.10074, 46.30141], [6.10405, 46.30922], [6.11861, 46.33177], [6.12839, 46.32619], [6.17418, 46.30002], [6.21659, 46.3095], [6.21826, 46.3055], [6.22745, 46.28849], [6.22797, 46.28446], [6.23758, 46.26793], [6.24182, 46.26369], [6.25226, 46.25992], [6.269, 46.26524], [6.27603, 46.26312], [6.2812, 46.24007], [6.25536, 46.22111], [6.19138, 46.1917], [6.14033, 46.15021], [6.10787, 46.13863], [6.07387, 46.14917], [6.02829, 46.14793], [5.98292, 46.14044], [5.95884, 46.13047], [5.97217, 46.15217], [5.97982, 46.16225], [5.98292, 46.17083], [5.96525, 46.18623], [5.95481, 46.19992], [5.95853, 46.21196], [5.98292, 46.22271], [6.04287, 46.24307], [6.04452, 46.24343], [6.04617, 46.24354], [6.04803, 46.24343], [6.05589, 46.24168], [6.06188, 46.24116], [6.06767, 46.24162], [6.08969, 46.24638]]], [[[6.85822, 46.41724], [7.03949, 46.29977], [7.20703, 46.09453], [7.13013, 46.05835], [6.99554, 46.10215], [6.86096, 46.26562], [6.75385, 46.35285], [6.75597, 46.35726], [6.7821, 46.37846], [6.78923, 46.3952], [6.78854, 46.40124], [6.85822, 46.41724]]]]}, "properties": {"id": "XO5x", "status": "validé", "pieces": [{"kind": "admin1", "code": "CHE-159"}, {"kind": "polygon", "ring": [[6.75385, 46.35285], [6.86096, 46.26562], [6.99554, 46.10215], [7.13013, 46.05835], [7.20703, 46.09453], [7.03949, 46.29977], [6.85822, 46.41724], [6.77582, 46.39831]]}, {"kind": "clip"}]}}, {"type": "Feature", "geometry": {"type": "Polygon", "coordinates": [[[9.42627, 47.52529], [9.12964, 47.34701], [8.95386, 47.23901], [8.86597, 47.15693], [8.69019, 47.16067], [8.48145, 47.28373], [8.14636, 47.47336], [8.01453, 47.47707], [7.73438, 47.54753], [7.74096, 47.55234], [7.76674, 47.55596], [7.78555, 47.5632], [7.80147, 47.57609], [7.81966, 47.59534], [7.83371, 47.59048], [7.8982, 47.58785], [7.9043, 47.58356], [7.90751, 47.57418], [7.90947, 47.5648], [7.91216, 47.56056], [8.04228, 47.56056], [8.08724, 47.56738], [8.09695, 47.57185], [8.1014, 47.57619], [8.10543, 47.58126], [8.1139, 47.58785], [8.12207, 47.59213], [8.14377, 47.60007], [8.16207, 47.60376], [8.16889, 47.60865], [8.17385, 47.61353], [8.17901, 47.6158], [8.23297, 47.62195], [8.25105, 47.622], [8.27699, 47.61663], [8.28857, 47.6158], [8.29394, 47.61146], [8.29932, 47.60182], [8.30635, 47.59219], [8.31616, 47.58785], [8.35409, 47.58102], [8.41807, 47.58077], [8.4211, 47.58111], [8.44887, 47.58428], [8.45011, 47.58903], [8.46179, 47.60614], [8.49238, 47.61983], [8.52235, 47.6219], [8.53775, 47.61213], [8.54964, 47.59859], [8.55172, 47.59686], [8.5607, 47.5894], [8.57413, 47.59244], [8.5763, 47.59502], [8.58064, 47.60017], [8.58178, 47.60766], [8.58126, 47.61477], [8.5825, 47.62159], [8.58209, 47.62503], [8.57971, 47.62893], [8.57806, 47.63348], [8.58033, 47.639], [8.58395, 47.64112], [8.58922, 47.64247], [8.59356, 47.64257], [8.59449, 47.64097], [8.59511, 47.63482], [8.60162, 47.6326], [8.60731, 47.65629], [8.59821, 47.65689], [8.59359, 47.65817], [8.58219, 47.66133], [8.56824, 47.66293], [8.51967, 47.65735], [8.50468, 47.65226], [8.49083, 47.64557], [8.47605, 47.6404], [8.45827, 47.63988], [8.4376, 47.64784], [8.41197, 47.66105], [8.40701, 47.66156], [8.3913, 47.66546], [8.39771, 47.67629], [8.39523, 47.68482], [8.39099, 47.69213], [8.39213, 47.69952], [8.40195, 47.70709], [8.42727, 47.71647], [8.43791, 47.72319], [8.44546, 47.74318], [8.45011, 47.75047], [8.46365, 47.76391], [8.4715, 47.76706], [8.48267, 47.76685], [8.53651, 47.77409], [8.5516, 47.77925], [8.5423, 47.79502], [8.55822, 47.80117], [8.58312, 47.80024], [8.60162, 47.7946], [8.60318, 47.78732], [8.60411, 47.7744], [8.60762, 47.76225], [8.61744, 47.75732], [8.62984, 47.7628], [8.63501, 47.7846], [8.6441, 47.79101], [8.65702, 47.78812], [8.66663, 47.77827], [8.67449, 47.7667], [8.68193, 47.75874], [8.69227, 47.75716], [8.70332, 47.75871], [8.71314, 47.75742], [8.71976, 47.74732], [8.71707, 47.74355], [8.70374, 47.73003], [8.70043, 47.7235], [8.70467, 47.71533], [8.71262, 47.70869], [8.71511, 47.70107], [8.71707, 47.69456], [8.76988, 47.69507], [8.76172, 47.70125], [8.77071, 47.72086], [8.79758, 47.72003], [8.83024, 47.70719], [8.85608, 47.69068], [8.83768, 47.68779], [8.83779, 47.68084], [8.85193, 47.67128], [8.85267, 47.67079], [8.88171, 47.65614], [8.9062, 47.65179], [8.94538, 47.6543], [8.98176, 47.66216], [8.99767, 47.67383], [9.01659, 47.6789], [9.1281, 47.67043], [9.1834, 47.67043], [9.19694, 47.65614], [9.23435, 47.65616], [9.27321, 47.65009], [9.40981, 47.59254], [9.42627, 47.52529]]]}, "properties": {"id": "YE3t", "status": "validé", "pieces": [{"kind": "polygon", "ring": [[7.73438, 47.54753], [8.01453, 47.47707], [8.14636, 47.47336], [8.48145, 47.28373], [8.69019, 47.16067], [8.86597, 47.15693], [8.95386, 47.23901], [9.12964, 47.34701], [9.42627, 47.52529], [9.34937, 47.83951], [8.24524, 47.92053]]}, {"kind": "clip"}]}}, {"type": "Feature", "geometry": null, "properties": {"id": "aYNF", "status": "validé", "pieces": [{"kind": "country"}]}}, {"type": "Feature", "geometry": {"type": "Polygon", "coordinates": [[[7.65781, 47.50613], [7.5174, 47.50613], [7.5174, 47.56149], [7.52087, 47.56342], [7.52634, 47.56645], [7.55032, 47.57549], [7.57893, 47.5828], [7.65244, 47.5828], [7.64654, 47.57154], [7.63589, 47.56459], [7.61234, 47.56473], [7.60975, 47.56475], [7.6469, 47.55145], [7.65781, 47.54754], [7.65781, 47.50613]]]}, "properties": {"id": "bd1S", "status": "validé", "pieces": [{"kind": "rect", "bounds": [7.5174, 47.50613, 7.65781, 47.5828]}, {"kind": "clip"}]}}, {"type": "Feature", "geometry": null, "properties": {"id": "e1U8", "status": "validé", "pieces": [{"kind": "country"}]}}, {"type": "Feature", "geometry": null, "properties": {"id": "e2jj", "status": "rejeté", "pieces": []}}, {"type": "Feature", "geometry": null, "properties": {"id": "efcd", "status": "rejeté", "pieces": []}}, {"type": "Feature", "geometry": {"type": "Polygon", "coordinates": [[[6.15784, 46.37954], [6.25122, 46.49118], [6.45172, 46.55918], [6.67694, 46.55918], [6.89941, 46.48173], [6.92963, 46.4193], [6.65771, 46.45525], [6.63003, 46.45298], [6.61368, 46.4559], [6.54702, 46.45737], [6.48294, 46.44859], [6.46331, 46.43928], [6.35834, 46.43066], [6.31222, 46.39687], [6.30156, 46.39448], [6.2691, 46.37503], [6.24058, 46.34895], [6.2245, 46.33382], [6.17981, 46.32838], [6.15784, 46.37954]]]}, "properties": {"id": "fLRI", "status": "validé", "pieces": [{"kind": "polygon", "ring": [[6.17981, 46.32838], [6.15784, 46.37954], [6.25122, 46.49118], [6.45172, 46.55918], [6.67694, 46.55918], [6.89941, 46.48173], [6.92963, 46.4193], [6.65771, 46.45525], [6.35834, 46.43066], [6.2265, 46.33407]]}, {"kind": "clip"}]}}, {"type": "Feature", "geometry": {"type": "Polygon", "coordinates": [[[7.04498, 46.08303], [7.2084, 46.1601], [7.5174, 46.2589], [7.63275, 46.2959], [7.5531, 46.3234], [7.23724, 46.20002], [7.06284, 46.11349], [7.04498, 46.08303]]]}, "properties": {"id": "hdVS", "status": "validé", "pieces": [{"kind": "polygon", "ring": [[7.04498, 46.08303], [7.2084, 46.1601], [7.5174, 46.2589], [7.63275, 46.2959], [7.5531, 46.3234], [7.23724, 46.20002], [7.06284, 46.11349]]}]}}, {"type": "Feature", "geometry": null, "properties": {"id": "hhwq", "status": "rejeté", "pieces": []}}, {"type": "Feature", "geometry": null, "properties": {"id": "jQTD", "status": "validé", "pieces": [{"kind": "admin1", "code": "CHE-3473"}, {"kind": "admin1", "code": "CHE-166"}]}}, {"type": "Feature", "geometry": null, "properties": {"id": "kRj5", "status": "validé", "pieces": [{"kind": "country"}]}}, {"type": "Feature", "geometry": null, "properties": {"id": "lPuj", "status": "validé", "pieces": [{"kind": "country"}]}}, {"type": "Feature", "geometry": {"type": "Polygon", "coordinates": [[[6.17432, 46.37444], [6.56982, 46.78958], [6.73462, 46.88723], [7.08069, 47.09323], [7.41577, 47.24255], [7.65198, 47.30217], [8.0365, 47.39889], [8.10791, 47.40632], [8.17932, 47.36171], [8.1134, 47.27982], [7.84424, 47.1978], [7.38281, 47.00344], [7.00928, 46.82716], [6.44897, 46.51821], [6.3411, 46.40166], [6.33236, 46.40138], [6.30156, 46.39448], [6.2691, 46.37503], [6.24058, 46.34895], [6.2195, 46.32911], [6.21876, 46.32725], [6.17432, 46.37444]]]}, "properties": {"id": "nUOq", "status": "validé", "pieces": [{"kind": "polygon", "ring": [[6.24573, 46.29862], [6.17432, 46.37444], [6.56982, 46.78958], [6.73462, 46.88723], [7.08069, 47.09323], [7.41577, 47.24255], [7.65198, 47.30217], [8.0365, 47.39889], [8.10791, 47.40632], [8.17932, 47.36171], [8.1134, 47.27982], [7.84424, 47.1978], [7.38281, 47.00344], [7.00928, 46.82716], [6.44897, 46.51821]]}, {"kind": "clip"}]}}, {"type": "Feature", "geometry": {"type": "MultiPolygon", "coordinates": [[[[8.71769, 46.10752], [8.70219, 46.09796], [8.69505, 46.09517], [8.67749, 46.09579], [8.63087, 46.11471], [8.61155, 46.11936], [8.60183, 46.12282], [8.53868, 46.18762], [8.51026, 46.20788], [8.48267, 46.21754], [8.45652, 46.22483], [8.43812, 46.23537], [8.42717, 46.25144], [8.42324, 46.27583], [8.42665, 46.30157], [8.44287, 46.35337], [8.44628, 46.38218], [8.44577, 46.41236], [8.44163, 46.43494], [8.42789, 46.44869], [8.39916, 46.45218], [8.38591, 46.45021], [8.38588, 46.4506], [8.38557, 46.45458], [8.38464, 46.46207], [8.38712, 46.46853], [8.3913, 46.47566], [8.39642, 46.48238], [8.39704, 46.48455], [8.39673, 46.48652], [8.39549, 46.48848], [8.39595, 46.49086], [8.39921, 46.49316], [8.40804, 46.49504], [8.43099, 46.49695], [8.44763, 46.50455], [8.47693, 46.53184], [8.50985, 46.55085], [8.51217, 46.55605], [8.51605, 46.56258], [8.5238, 46.5785], [8.52628, 46.5809], [8.52969, 46.58307], [8.53713, 46.58455], [8.54866, 46.58499], [8.6363, 46.57116], [8.6779, 46.58359], [8.71123, 46.57302], [8.78838, 46.56814], [8.84735, 46.57525], [8.89809, 46.58925], [8.9077, 46.59416], [8.90987, 46.59747], [8.90925, 46.60072], [8.90709, 46.60382], [8.906, 46.60832], [8.90755, 46.61333], [8.91484, 46.62036], [8.92181, 46.62305], [8.92956, 46.62511], [8.93923, 46.62661], [8.94744, 46.63209], [8.95303, 46.63235], [8.95597, 46.63064], [8.95706, 46.62537], [8.95985, 46.62041], [8.96481, 46.61483], [8.99881, 46.6125], [9.00377, 46.61108], [9.01075, 46.60814], [9.02206, 46.60488], [9.03524, 46.59617], [9.03772, 46.59385], [9.0385, 46.59072], [9.03648, 46.58687], [9.02904, 46.57718], [9.02563, 46.57127], [9.02284, 46.56403], [9.02113, 46.55778], [9.01912, 46.54589], [9.01757, 46.54052], [9.01602, 46.53654], [9.01524, 46.53346], [9.02144, 46.51422], [9.02408, 46.50889], [9.02703, 46.50429], [9.03772, 46.49184], [9.04857, 46.48088], [9.0556, 46.47871], [9.05777, 46.47959], [9.06227, 46.48083], [9.07731, 46.48233], [9.08463, 46.47279], [9.24079, 46.44534], [9.23797, 46.43655], [9.24758, 46.42303], [9.26091, 46.41665], [9.26288, 46.40663], [9.26029, 46.39402], [9.2604, 46.37973], [9.27383, 46.34425], [9.27518, 46.33138], [9.26897, 46.30937], [9.23972, 46.267], [9.22484, 46.23118], [9.21575, 46.22106], [9.20417, 46.21356], [9.19218, 46.20963], [9.18133, 46.20405], [9.17575, 46.19413], [9.1711, 46.18261], [9.16379, 46.17299], [9.16324, 46.17227], [9.09059, 46.13817], [9.07243, 46.11925], [9.07209, 46.11889], [9.06816, 46.10597], [9.07033, 46.08344], [9.06713, 46.07114], [9.05917, 46.06179], [9.04966, 46.05791], [9.02775, 46.05311], [9.00212, 46.03931], [8.99778, 46.02794], [9.01555, 45.99311], [8.98269, 45.97198], [8.98052, 45.9695], [8.97979, 45.96691], [8.98052, 45.96438], [8.98269, 45.96185], [8.99343, 45.95425], [9.0017, 45.93606], [9.0108, 45.92665], [9.02051, 45.92278], [9.04232, 45.91973], [9.05173, 45.91555], [9.0631, 45.89896], [9.05927, 45.88195], [9.03436, 45.84811], [9.00243, 45.82072], [8.97235, 45.82465], [8.93959, 45.83483], [8.90888, 45.82829], [8.9, 45.8264], [8.90372, 45.8418], [8.90972, 45.85369], [8.91375, 45.86609], [8.9121, 45.8834], [8.90652, 45.89648], [8.89814, 45.90955], [8.88078, 45.9311], [8.87096, 45.94707], [8.86445, 45.95342], [8.85773, 45.95709], [8.80037, 45.97854], [8.78508, 45.98231], [8.76792, 45.98309], [8.76957, 45.98577], [8.7734, 45.99058], [8.79097, 46.01869], [8.8196, 46.04293], [8.83437, 46.06639], [8.80895, 46.08975], [8.79386, 46.09342], [8.76317, 46.0929], [8.74714, 46.09445], [8.7395, 46.09807], [8.73216, 46.10742], [8.72897, 46.10824], [8.72389, 46.10954], [8.71769, 46.10752]]], [[[9.60205, 46.38943], [9.81079, 46.35154], [9.81253, 46.35172], [9.78884, 46.3433], [9.76806, 46.33862], [9.75525, 46.34053], [9.73086, 46.35071], [9.72011, 46.35089], [9.70926, 46.34239], [9.70729, 46.33097], [9.70884, 46.31963], [9.70843, 46.31175], [9.69313, 46.29707], [9.67432, 46.2918], [9.5597, 46.29273], [9.53645, 46.29862], [9.51526, 46.3086], [9.50255, 46.32074], [9.4826, 46.35681], [9.47372, 46.36187], [9.46105, 46.36674], [9.60205, 46.38943]]], [[[9.99756, 46.37049], [10.11857, 46.41815], [10.13342, 46.41402], [10.14076, 46.4029], [10.13321, 46.3811], [10.12598, 46.37438], [10.105, 46.36136], [10.09745, 46.35164], [10.09239, 46.3381], [10.09177, 46.32896], [10.0958, 46.32053], [10.10489, 46.30937], [10.14613, 46.28028], [10.15894, 46.26245], [10.14582, 46.24333], [10.11791, 46.23113], [10.07575, 46.22002], [10.04267, 46.22049], [10.04185, 46.24307], [10.03172, 46.26007], [9.99224, 46.28436], [9.97756, 46.2981], [9.97105, 46.32002], [9.97064, 46.33981], [9.96402, 46.35609], [9.94423, 46.36508], [9.99756, 46.37049]]]]}, "properties": {"id": "pdKy", "status": "validé", "pieces": [{"kind": "admin1", "code": "CHE-168"}, {"kind": "polygon", "ring": [[9.06372, 46.47647], [9.3219, 46.43108], [9.43726, 46.36291], [9.60205, 46.38943], [9.81079, 46.35154], [9.99756, 46.37049], [10.18982, 46.44621], [10.448, 46.02463], [9.245, 46.01319], [8.80554, 46.28328]]}, {"kind": "clip"}]}}, {"type": "Feature", "geometry": {"type": "Polygon", "coordinates": [[[7.50778, 46.91291], [7.50778, 46.98319], [7.40479, 46.98319], [7.40479, 46.91291], [7.50778, 46.91291]]]}, "properties": {"id": "pzZV", "status": "validé", "pieces": [{"kind": "rect", "bounds": [7.40479, 46.91291, 7.50778, 46.98319]}]}}, {"type": "Feature", "geometry": null, "properties": {"id": "q9q8", "status": "validé", "pieces": [{"kind": "admin1", "code": "CHE-170"}]}}, {"type": "Feature", "geometry": null, "properties": {"id": "srYV", "status": "validé", "pieces": [{"kind": "country"}]}}, {"type": "Feature", "geometry": {"type": "MultiPolygon", "coordinates": [[[[9.03076, 46.49234], [9.21753, 46.23467], [9.22249, 46.22857], [9.21575, 46.22106], [9.20417, 46.21356], [9.19218, 46.20963], [9.18133, 46.20405], [9.17575, 46.19413], [9.1711, 46.18261], [9.16379, 46.17299], [9.16324, 46.17227], [9.09059, 46.13817], [9.07209, 46.11889], [9.06816, 46.10597], [9.07033, 46.08344], [9.06713, 46.07114], [9.05917, 46.06179], [9.04966, 46.05791], [9.02775, 46.05311], [9.00212, 46.03931], [8.99778, 46.02794], [9.01555, 45.99311], [8.98269, 45.97198], [8.98052, 45.9695], [8.97983, 45.96704], [8.86503, 45.95286], [8.86445, 45.95342], [8.85773, 45.95709], [8.80037, 45.97854], [8.78508, 45.98231], [8.76792, 45.98309], [8.76957, 45.98577], [8.7734, 45.99058], [8.79097, 46.01869], [8.8196, 46.04293], [8.83437, 46.06639], [8.80895, 46.08975], [8.79386, 46.09342], [8.76317, 46.0929], [8.74714, 46.09445], [8.7395, 46.09807], [8.73216, 46.10742], [8.72898, 46.10823], [8.72389, 46.10954], [8.71769, 46.10752], [8.70219, 46.09796], [8.69505, 46.09517], [8.67749, 46.09579], [8.63087, 46.11471], [8.61155, 46.11936], [8.60183, 46.12282], [8.53868, 46.18762], [8.51026, 46.20788], [8.48267, 46.21754], [8.45652, 46.22483], [8.43812, 46.23537], [8.42717, 46.25144], [8.42324, 46.27583], [8.42665, 46.30157], [8.44287, 46.35337], [8.44579, 46.37804], [8.49243, 46.41668], [8.73413, 46.49234], [9.03076, 46.49234]]], [[[10.0317, 46.44165], [10.04205, 46.43272], [10.07141, 46.42482], [10.11616, 46.41882], [10.13342, 46.41402], [10.14076, 46.4029], [10.13321, 46.3811], [10.12598, 46.37438], [10.105, 46.36136], [10.09745, 46.35164], [10.09239, 46.3381], [10.09177, 46.32896], [10.0958, 46.32053], [10.10489, 46.30937], [10.14613, 46.28028], [10.15894, 46.26245], [10.14582, 46.24333], [10.11791, 46.23113], [10.07575, 46.22002], [10.04267, 46.22049], [10.04185, 46.24307], [10.03172, 46.26007], [9.99224, 46.28436], [9.97756, 46.2981], [9.97105, 46.32002], [9.97064, 46.33981], [9.96402, 46.35609], [9.93901, 46.36745], [9.93712, 46.36779], [10.0317, 46.44165]]], [[[6.45019, 46.94716], [6.49111, 46.96339], [6.5987, 46.98654], [6.66541, 47.02129], [6.68825, 47.04385], [6.67626, 47.0624], [6.6897, 47.07829], [6.69911, 47.08462], [6.72422, 47.09077], [6.72794, 47.09713], [6.73166, 47.09888], [6.74603, 47.10395], [6.74479, 47.12105], [6.77476, 47.12818], [6.83808, 47.16813], [6.84028, 47.16953], [6.8593, 47.19092], [6.88834, 47.21131], [6.95625, 47.24523], [6.95222, 47.27004], [6.95862, 47.29055], [6.97743, 47.30373], [6.98653, 47.3045], [6.9919, 47.30595], [7.00648, 47.31936], [7.01692, 47.32352], [7.02715, 47.32543], [7.03655, 47.32952], [7.0443, 47.3405], [7.03386, 47.35065], [7.01888, 47.3599], [7.01152, 47.36398], [7.17407, 47.39501], [7.36084, 47.34295], [7.28394, 47.2573], [6.8335, 46.99204], [6.5863, 46.83075], [6.19629, 46.35912], [6.13574, 46.35832], [6.1364, 46.35934], [6.13506, 46.3704], [6.12286, 46.38554], [6.10818, 46.3965], [6.05902, 46.41738], [6.05424, 46.41942], [6.06571, 46.42701], [6.06757, 46.4336], [6.0655, 46.44037], [6.0655, 46.44799], [6.06478, 46.45107], [6.0624, 46.4552], [6.06023, 46.4599], [6.06023, 46.46502], [6.06416, 46.47112], [6.07552, 46.47959], [6.11036, 46.52083], [6.1457, 46.55163], [6.12152, 46.57028], [6.11842, 46.58346], [6.13185, 46.59561], [6.26631, 46.68036], [6.33794, 46.70741], [6.34786, 46.71317], [6.37422, 46.73361], [6.40739, 46.7457], [6.41793, 46.7511], [6.4292, 46.76082], [6.43302, 46.76911], [6.43261, 46.78598], [6.42517, 46.79162], [6.4199, 46.79653], [6.41711, 46.80216], [6.41855, 46.80701], [6.43426, 46.83955], [6.44119, 46.84815], [6.44312, 46.85146], [6.44677, 46.85771], [6.44842, 46.87156], [6.44522, 46.88262], [6.43189, 46.90003], [6.42775, 46.90908], [6.44069, 46.93957], [6.45019, 46.94716]]]]}, "properties": {"id": "vKu1", "status": "validé", "pieces": [{"kind": "polygon", "ring": [[6.19629, 46.35912], [6.5863, 46.83075], [6.8335, 46.99204], [7.28394, 47.2573], [7.36084, 47.34295], [7.17407, 47.39501], [6.95984, 47.35411], [5.96008, 46.55582], [5.91064, 46.35533]]}, {"kind": "clip"}, {"kind": "polygon", "ring": [[8.49243, 46.41668], [8.73413, 46.49234], [9.03076, 46.49234], [9.21753, 46.23467], [9.31641, 46.113], [9.07471, 45.97876], [8.82751, 45.94822], [8.42102, 46.12357], [8.34961, 46.29836]]}, {"kind": "polygon", "ring": [[9.8822, 46.3249], [10.12939, 46.51795], [10.40955, 46.22623], [10.0415, 46.08169]]}]}}, {"type": "Feature", "geometry": null, "properties": {"id": "wLZ9", "status": "validé", "pieces": [{"kind": "country"}]}}, {"type": "Feature", "geometry": null, "properties": {"id": "waGu", "status": "validé", "pieces": [{"kind": "country"}]}}, {"type": "Feature", "geometry": {"type": "Polygon", "coordinates": [[[9.45374, 47.45802], [9.26697, 47.56928], [9.03706, 47.67734], [9.1281, 47.67043], [9.1834, 47.67043], [9.19694, 47.65614], [9.23435, 47.65616], [9.27321, 47.65009], [9.54748, 47.53455], [9.55306, 47.51689], [9.55495, 47.5109], [9.58451, 47.48072], [9.62172, 47.4692], [9.64042, 47.45802], [9.45374, 47.45802]]]}, "properties": {"id": "xSSR", "status": "validé", "pieces": [{"kind": "polygon", "ring": [[9.03076, 47.68031], [9.26697, 47.56928], [9.45374, 47.45802], [9.66797, 47.45802], [9.50043, 47.73942], [8.77808, 47.79478]]}, {"kind": "clip"}]}}]}