{"type": "FeatureCollection", "features": [{"type": "Feature", "geometry": null, "properties": {"id": "2901", "status": "validé", "pieces": [{"kind": "country"}]}}, {"type": "Feature", "geometry": null, "properties": {"id": "44Li", "status": "validé", "pieces": [{"kind": "admin1", "code": "COL-1318"}]}}, {"type": "Feature", "geometry": null, "properties": {"id": "45F4", "status": "validé", "pieces": [{"kind": "country"}]}}, {"type": "Feature", "geometry": {"type": "Polygon", "coordinates": [[[-74.7345, 10.95275], [-74.69398, 10.98846], [-74.65347, 10.99924], [-74.62395, 11.01002], [-74.58, 10.99183], [-74.52713, 10.98038], [-74.43375, 10.95882], [-74.34998, 10.96488], [-74.28097, 10.98572], [-74.26689, 10.99651], [-74.27582, 11.00459], [-74.30363, 10.99044], [-74.38499, 10.9773], [-74.48799, 10.99145], [-74.5879, 11.0083], [-74.65828, 11.02177], [-74.6957, 11.00998], [-74.74789, 10.96349], [-74.7345, 10.95275]]]}, "properties": {"id": "4oTi", "status": "validé", "pieces": [{"kind": "polygon", "ring": [[-74.7345, 10.95275], [-74.69398, 10.98846], [-74.65347, 10.99924], [-74.62395, 11.01002], [-74.58, 10.99183], [-74.52713, 10.98038], [-74.43375, 10.95882], [-74.34998, 10.96488], [-74.28097, 10.98572], [-74.26689, 10.99651], [-74.27582, 11.00459], [-74.30363, 10.99044], [-74.38499, 10.9773], [-74.48799, 10.99145], [-74.5879, 11.0083], [-74.65828, 11.02177], [-74.6957, 11.00998], [-74.74789, 10.96349]]}]}}, {"type": "Feature", "geometry": {"type": "Polygon", "coordinates": [[[-69.92317, -4.22925], [-69.92317, -4.14163], [-69.97639, -4.14163], [-69.97639, -4.22925], [-69.92317, -4.22925]]]}, "properties": {"id": "5AfA", "status": "validé", "pieces": [{"kind": "rect", "bounds": [-69.97639, -4.22925, -69.92317, -4.14163]}]}}, {"type": "Feature", "geometry": {"type": "MultiPolygon", "coordinates": [[[[-72.86133, 8.30252], [-74.24561, 8.34599], [-75.41016, 8.51979], [-76.30661, 8.96256], [-76.30126, 8.96979], [-76.26427, 8.99632], [-76.25626, 9.00739], [-76.265, 9.04218], [-76.25495, 9.07079], [-76.23546, 9.09357], [-76.20181, 9.12311], [-76.19262, 9.13491], [-76.18651, 9.14973], [-76.17488, 9.23286], [-76.16812, 9.24698], [-76.16251, 9.24811], [-76.13443, 9.25861], [-76.12999, 9.26122], [-76.11693, 9.26581], [-76.11254, 9.27635], [-76.1129, 9.29475], [-76.11083, 9.31216], [-76.10704, 9.3216], [-76.0961, 9.3332], [-76.08658, 9.33991], [-76.07799, 9.34382], [-76.03751, 9.35659], [-76.00529, 9.36624], [-75.97692, 9.38252], [-75.95328, 9.4023], [-75.9509, 9.42676], [-75.9438, 9.44073], [-75.92134, 9.43837], [-75.90998, 9.42817], [-75.87743, 9.43], [-75.84288, 9.43651], [-75.81867, 9.44619], [-75.81103, 9.44355], [-75.80329, 9.43854], [-75.79809, 9.43037], [-75.79821, 9.4182], [-75.812, 9.42422], [-75.82673, 9.42601], [-75.84081, 9.42251], [-75.85285, 9.41206], [-75.84488, 9.40672], [-75.83886, 9.40485], [-75.83275, 9.40656], [-75.82486, 9.41206], [-75.81908, 9.40616], [-75.81526, 9.40339], [-75.8129, 9.39985], [-75.81188, 9.39155], [-75.78112, 9.41242], [-75.76203, 9.42182], [-75.73925, 9.42573], [-75.71679, 9.42206], [-75.69827, 9.4169], [-75.69738, 9.41665], [-75.67261, 9.40999], [-75.65864, 9.41994], [-75.62063, 9.45285], [-75.59658, 9.49875], [-75.57717, 9.56221], [-75.57637, 9.62109], [-75.58721, 9.64862], [-75.59962, 9.66315], [-75.60668, 9.66926], [-75.61803, 9.68928], [-75.63374, 9.68916], [-75.64737, 9.69941], [-75.65779, 9.70523], [-75.67797, 9.70448], [-75.69117, 9.69913], [-75.70281, 9.69072], [-75.70514, 9.70066], [-75.64925, 9.75647], [-75.63994, 9.78326], [-75.62286, 9.83836], [-75.62364, 9.86135], [-75.61742, 9.88275], [-75.60468, 9.91035], [-75.59367, 9.94399], [-75.58952, 9.96419], [-75.58996, 9.98485], [-75.57619, 10.04185], [-75.57385, 10.07396], [-75.58859, 10.10838], [-75.58936, 10.12826], [-75.58392, 10.13591], [-75.58007, 10.13915], [-75.57234, 10.14081], [-75.5655, 10.14448], [-75.56163, 10.14997], [-75.55114, 10.17235], [-75.54402, 10.18268], [-75.54088, 10.18854], [-75.53751, 10.19969], [-75.5362, 10.21101], [-75.53637, 10.22101], [-75.53551, 10.23062], [-75.53067, 10.24067], [-75.56285, 10.22308], [-75.604, 10.19613], [-75.64379, 10.15438], [-75.68488, 10.13152], [-75.70358, 10.13443], [-75.68892, 10.16797], [-75.66015, 10.18411], [-75.64644, 10.19351], [-75.63769, 10.20368], [-75.63085, 10.21345], [-75.62536, 10.22582], [-75.61632, 10.23753], [-75.61364, 10.24877], [-75.61775, 10.26113], [-75.6151, 10.26952], [-75.59215, 10.26862], [-75.59752, 10.277], [-75.59936, 10.28563], [-75.59752, 10.29438], [-75.59215, 10.30272], [-75.58381, 10.28238], [-75.56338, 10.2871], [-75.52725, 10.30956], [-75.5157, 10.319], [-75.51643, 10.34146], [-75.5218, 10.36839], [-75.52383, 10.39151], [-75.53067, 10.39151], [-75.53917, 10.3863], [-75.5443, 10.39301], [-75.55114, 10.41942], [-75.55797, 10.41942], [-75.56094, 10.40986], [-75.5642, 10.40371], [-75.56941, 10.40013], [-75.57848, 10.39834], [-75.5747, 10.40689], [-75.56941, 10.42528], [-75.5655, 10.43305], [-75.55932, 10.43895], [-75.54711, 10.44424], [-75.5406, 10.44986], [-75.51211, 10.48168], [-75.50276, 10.48774], [-75.50796, 10.47085], [-75.51867, 10.45026], [-75.52221, 10.43293], [-75.5065, 10.4256], [-75.49328, 10.43464], [-75.48713, 10.45588], [-75.48632, 10.48094], [-75.48913, 10.50137], [-75.49328, 10.50568], [-75.50036, 10.50739], [-75.51024, 10.50821], [-75.50963, 10.51411], [-75.50414, 10.52684], [-75.50276, 10.52928], [-75.50438, 10.54072], [-75.50446, 10.55158], [-75.50813, 10.55964], [-75.5205, 10.56281], [-75.52453, 10.56708], [-75.5196, 10.57648], [-75.50984, 10.58584], [-75.49962, 10.59007], [-75.48803, 10.59162], [-75.47549, 10.59601], [-75.46386, 10.60273], [-75.45494, 10.61123], [-75.45482, 10.6164], [-75.46251, 10.62645], [-75.46182, 10.63105], [-75.45865, 10.633], [-75.451, 10.63589], [-75.44811, 10.63789], [-75.43957, 10.64203], [-75.4309, 10.64134], [-75.42418, 10.6433], [-75.42146, 10.65526], [-75.41771, 10.65571], [-75.41002, 10.66462], [-75.40368, 10.67503], [-75.4038, 10.68012], [-75.39757, 10.68187], [-75.37304, 10.6931], [-75.30728, 10.70954], [-75.29735, 10.71735], [-75.28746, 10.73347], [-75.27961, 10.74274], [-75.27375, 10.74433], [-75.26879, 10.7414], [-75.26305, 10.73981], [-75.25829, 10.73713], [-75.25634, 10.73102], [-75.25845, 10.7272], [-75.26203, 10.72419], [-75.26277, 10.72028], [-75.25634, 10.71361], [-75.25634, 10.70934], [-75.25634, 10.70677], [-75.2495, 10.70677], [-75.24376, 10.71475], [-75.22224, 10.73469], [-75.22639, 10.74282], [-75.22867, 10.75007], [-75.22973, 10.75804], [-75.22964, 10.76826], [-75.24519, 10.75495], [-75.2495, 10.74775], [-75.27001, 10.7591], [-75.27554, 10.77778], [-75.2674, 10.79532], [-75.23168, 10.80732], [-75.21569, 10.82661], [-75.20482, 10.83096], [-75.19343, 10.83185], [-75.18224, 10.83454], [-75.17138, 10.83881], [-75.10798, 10.88044], [-75.0699, 10.88955], [-75.04955, 10.90119], [-75.03596, 10.91669], [-75.03722, 10.93268], [-75.03283, 10.94269], [-75.02774, 10.96552], [-75.02359, 10.97431], [-75.01415, 10.98041], [-75.0004, 10.9864], [-74.98197, 10.98743], [-74.96281, 10.99489], [-74.95002, 11.00946], [-74.92572, 11.02858], [-74.92357, 11.04567], [-74.8955, 11.04559], [-74.86151, 11.04883], [-74.84534, 11.06213], [-74.84699, 11.08048], [-74.84822, 11.098], [-74.85034, 11.10343], [-74.84437, 11.10967], [-74.81934, 11.09792], [-74.79675, 11.09037], [-74.74317, 11.07265], [-74.64542, 11.03309], [-74.5723, 11.00862], [-74.52295, 10.99592], [-74.47126, 10.98969], [-74.40347, 10.98286], [-74.33727, 10.98696], [-74.29783, 10.9915], [-74.31241, 10.98094], [-74.36181, 10.97167], [-74.45816, 10.97431], [-74.46984, 10.97606], [-74.48078, 10.97895], [-74.49157, 10.97948], [-74.50284, 10.97431], [-74.50577, 10.96577], [-74.50451, 10.95417], [-74.50504, 10.94392], [-74.51342, 10.9396], [-74.51744, 10.92666], [-74.50634, 10.89777], [-74.48176, 10.85082], [-74.49714, 10.85895], [-74.51171, 10.87446], [-74.52501, 10.88345], [-74.53637, 10.87189], [-74.54336, 10.88142], [-74.56721, 10.88142], [-74.58137, 10.88809], [-74.58922, 10.88467], [-74.597, 10.86782], [-74.6029, 10.84756], [-74.60521, 10.83405], [-74.60635, 10.80366], [-74.6046, 10.78901], [-74.59846, 10.78193], [-74.58463, 10.78685], [-74.57873, 10.80256], [-74.57421, 10.82014], [-74.56428, 10.83096], [-74.56432, 10.8205], [-74.5609, 10.81342], [-74.55403, 10.80956], [-74.54381, 10.80923], [-74.54552, 10.79938], [-74.54381, 10.76203], [-74.52855, 10.75528], [-74.51232, 10.75601], [-74.49966, 10.76472], [-74.49543, 10.78193], [-74.50674, 10.77578], [-74.51561, 10.77823], [-74.52131, 10.78775], [-74.5233, 10.80297], [-74.51928, 10.81607], [-74.51146, 10.8251], [-74.50617, 10.83348], [-74.50963, 10.84455], [-74.48965, 10.84105], [-74.47712, 10.82758], [-74.47057, 10.80785], [-74.46569, 10.75967], [-74.45661, 10.74803], [-74.44148, 10.74584], [-74.40209, 10.74803], [-74.39509, 10.7495], [-74.38557, 10.75458], [-74.36657, 10.77277], [-74.36217, 10.7757], [-74.36002, 10.78482], [-74.33092, 10.83714], [-74.33007, 10.84431], [-74.33092, 10.87189], [-74.31965, 10.8937], [-74.31786, 10.902], [-74.31461, 10.90717], [-74.30061, 10.92349], [-74.29735, 10.92935], [-74.28991, 10.96748], [-74.28043, 10.98973], [-74.21813, 11.07909], [-74.21492, 11.08698], [-74.21784, 11.09882], [-74.2318, 11.11571], [-74.23595, 11.12515], [-74.23571, 11.13597], [-74.22997, 11.15302], [-74.2285, 11.16275], [-74.23038, 11.17267], [-74.23933, 11.19074], [-74.24218, 11.20026], [-74.24035, 11.20425], [-74.2307, 11.21284], [-74.2285, 11.21768], [-74.22964, 11.22354], [-74.23225, 11.2263], [-74.23477, 11.22801], [-74.23595, 11.23066], [-74.23363, 11.24116], [-74.22814, 11.25088], [-74.21492, 11.26911], [-74.20963, 11.27485], [-74.20507, 11.27765], [-74.20177, 11.28205], [-74.20055, 11.29271], [-74.18749, 11.31696], [-74.17186, 11.3181], [-74.15901, 11.31513], [-74.15184, 11.31973], [-74.15339, 11.34366], [-74.1459, 11.34366], [-74.14533, 11.33723], [-74.14367, 11.33295], [-74.13907, 11.32372], [-74.12849, 11.33784], [-74.12609, 11.34366], [-74.12271, 11.34154], [-74.12149, 11.3415], [-74.12072, 11.34101], [-74.11864, 11.33739], [-74.11242, 11.33739], [-74.11242, 11.3579], [-74.10245, 11.34992], [-74.09488, 11.33442], [-74.08385, 11.33063], [-74.07413, 11.3354], [-74.06957, 11.34577], [-74.06542, 11.35175], [-74.0572, 11.34366], [-74.04971, 11.34366], [-74.04792, 11.35082], [-74.04402, 11.35464], [-74.03799, 11.35639], [-74.0299, 11.3579], [-74.00463, 11.35529], [-73.98526, 11.3478], [-73.9685, 11.33592], [-73.95104, 11.3203], [-73.94359, 11.31737], [-73.89778, 11.30768], [-73.86539, 11.28901], [-73.82604, 11.27676], [-73.70515, 11.26826], [-73.5924, 11.27704], [-73.56558, 11.27709], [-73.4025, 11.27725], [-73.29239, 11.29401], [-73.28258, 11.29955], [-73.27619, 11.30805], [-73.24576, 11.33088], [-73.22004, 11.34488], [-73.21496, 11.34894], [-73.20743, 11.3579], [-73.19567, 11.38158], [-73.19066, 11.3852], [-73.17903, 11.38862], [-73.17028, 11.39688], [-73.15624, 11.41625], [-73.14525, 11.42552], [-73.11189, 11.44042], [-73.05484, 11.49396], [-72.93399, 11.55679], [-72.75967, 11.69709], [-72.74132, 11.70795], [-72.7047, 11.72036], [-72.64391, 11.7333], [-72.62833, 11.74042], [-72.59797, 11.76195], [-72.57746, 11.75605], [-72.55626, 11.76659], [-72.53433, 11.78164], [-72.51163, 11.78925], [-72.45206, 11.79133], [-72.43346, 11.79609], [-72.41759, 11.80512], [-72.392, 11.82612], [-72.35961, 11.83397], [-72.31615, 11.86498], [-72.26305, 11.88597], [-72.25056, 11.90168], [-72.23217, 11.91975], [-72.22802, 11.93016], [-72.22631, 11.93895], [-72.21373, 11.97484], [-72.17797, 12.02985], [-72.16788, 12.06338], [-72.1455, 12.09252], [-72.13866, 12.10456], [-72.13711, 12.12409], [-72.14123, 12.18032], [-72.14542, 12.20083], [-72.15111, 12.20848], [-72.16051, 12.21654], [-72.16926, 12.22183], [-72.17276, 12.22126], [-72.17052, 12.23428], [-72.16198, 12.24287], [-72.13866, 12.25605], [-72.10753, 12.24502], [-72.00487, 12.26289], [-71.96963, 12.25511], [-71.97354, 12.23656], [-72.01513, 12.194], [-72.00015, 12.18623], [-71.98485, 12.16096], [-71.96728, 12.15302], [-71.93761, 12.16645], [-71.93252, 12.16975], [-71.92992, 12.18277], [-71.92325, 12.19408], [-71.91442, 12.20279], [-71.90526, 12.20767], [-71.89232, 12.20832], [-71.87877, 12.20677], [-71.86803, 12.20824], [-71.86364, 12.21784], [-71.86767, 12.22809], [-71.87487, 12.23713], [-71.87833, 12.24604], [-71.87108, 12.25605], [-71.88121, 12.26386], [-71.88659, 12.27131], [-71.89273, 12.27778], [-71.90526, 12.2827], [-71.91832, 12.28392], [-71.93065, 12.28189], [-71.94075, 12.27692], [-71.94685, 12.26903], [-71.95303, 12.26903], [-71.96052, 12.2827], [-71.91478, 12.31363], [-71.87792, 12.34479], [-71.87548, 12.34956], [-71.87125, 12.36262], [-71.86742, 12.3653], [-71.84944, 12.36432], [-71.84439, 12.3653], [-71.82909, 12.37621], [-71.82091, 12.37787], [-71.80907, 12.37214], [-71.82681, 12.36335], [-71.84008, 12.35171], [-71.84313, 12.33808], [-71.83015, 12.32368], [-71.82286, 12.31981], [-71.8177, 12.31928], [-71.80285, 12.32368], [-71.80183, 12.3264], [-71.80297, 12.33124], [-71.80321, 12.33588], [-71.79943, 12.33796], [-71.78539, 12.33714], [-71.78173, 12.33796], [-71.76329, 12.3476], [-71.75109, 12.35619], [-71.74405, 12.36762], [-71.74079, 12.38573], [-71.7434, 12.38719], [-71.74869, 12.38784], [-71.75182, 12.39081], [-71.7482, 12.3994], [-71.74153, 12.40575], [-71.73253, 12.41022], [-71.72277, 12.41279], [-71.71345, 12.41372], [-71.71984, 12.39598], [-71.71377, 12.38703], [-71.70421, 12.37922], [-71.69982, 12.3653], [-71.69359, 12.3653], [-71.69099, 12.36896], [-71.68708, 12.37592], [-71.68546, 12.38272], [-71.68985, 12.38573], [-71.69677, 12.38813], [-71.69164, 12.39338], [-71.68297, 12.39814], [-71.67931, 12.3994], [-71.66759, 12.40575], [-71.6538, 12.41006], [-71.64074, 12.41596], [-71.63093, 12.4274], [-71.64338, 12.42597], [-71.65388, 12.42121], [-71.66234, 12.41608], [-71.66877, 12.41372], [-71.67911, 12.41698], [-71.67732, 12.42479], [-71.66869, 12.43374], [-71.6588, 12.44037], [-71.67007, 12.44042], [-71.68008, 12.43838], [-71.6881, 12.43407], [-71.69359, 12.4274], [-71.69188, 12.44343], [-71.69064, 12.44782], [-71.4548, 12.40911], [-71.44595, 12.40058], [-71.43908, 12.39619], [-71.4261, 12.39256], [-71.39025, 12.3933], [-71.38109, 12.38915], [-71.36124, 12.37446], [-71.34093, 12.36717], [-71.29515, 12.35847], [-71.26183, 12.34186], [-71.2423, 12.3277], [-71.2316, 12.31086], [-71.22716, 12.30541], [-71.22265, 12.29731], [-71.21907, 12.27827], [-71.15844, 12.1767], [-71.15172, 12.1496], [-71.11388, 12.09439], [-71.10749, 12.07494], [-71.11368, 12.0524], [-71.12609, 12.0312], [-71.13809, 12.01581], [-71.16491, 11.99616], [-71.234, 11.95889], [-71.25414, 11.93696], [-71.26867, 11.92919], [-71.28563, 11.92292], [-71.29882, 11.92023], [-71.30358, 11.91169], [-71.32307, 11.85814], [-71.32746, 11.85008], [-71.32751, 11.85], [-71.35763, 11.8508], [-71.37546, 11.84109], [-71.40967, 11.8123], [-71.44946, 11.79546], [-71.47648, 11.78858], [-71.53509, 11.77355], [-71.59364, 11.75851], [-71.65229, 11.74357], [-71.71089, 11.72854], [-71.76944, 11.71355], [-71.82804, 11.69856], [-71.88664, 11.68353], [-71.94524, 11.66854], [-71.97108, 11.66193], [-71.99061, 11.64906], [-72.00793, 11.62462], [-72.018, 11.60611], [-72.04782, 11.55131], [-72.07764, 11.49653], [-72.10745, 11.44176], [-72.13727, 11.38698], [-72.16709, 11.3322], [-72.19691, 11.2774], [-72.22678, 11.22257], [-72.25659, 11.16779], [-72.26708, 11.1549], [-72.28465, 11.15046], [-72.32186, 11.1601], [-72.34134, 11.16211], [-72.36144, 11.158], [-72.417, 11.13762], [-72.45999, 11.13581], [-72.48149, 11.13253], [-72.49932, 11.12079], [-72.50381, 11.11178], [-72.50469, 11.09271], [-72.50748, 11.08299], [-72.51503, 11.07248], [-72.53394, 11.05238], [-72.54205, 11.04108], [-72.57647, 10.95737], [-72.5945, 10.93298], [-72.61311, 10.91525], [-72.65672, 10.8852], [-72.68297, 10.85562], [-72.70613, 10.81125], [-72.75439, 10.67485], [-72.78142, 10.63132], [-72.84302, 10.5606], [-72.86141, 10.50809], [-72.87542, 10.48964], [-72.89201, 10.47293], [-72.90756, 10.45246], [-72.9149, 10.4329], [-72.91523, 10.42817], [-72.91624, 10.41384], [-72.91552, 10.39428], [-72.93562, 10.17519], [-72.98771, 9.99942], [-72.98787, 9.96043], [-72.99619, 9.92128], [-72.99696, 9.90071], [-72.99045, 9.87498], [-72.98161, 9.85656], [-72.97763, 9.83806], [-72.98554, 9.81217], [-73.01691, 9.7486], [-73.07189, 9.66409], [-73.09716, 9.59637], [-73.10765, 9.57799], [-73.12362, 9.56125], [-73.16372, 9.53634], [-73.17845, 9.52304], [-73.19741, 9.47867], [-73.27741, 9.36181], [-73.31177, 9.27623], [-73.32438, 9.25592], [-73.34216, 9.23918], [-73.37911, 9.21388], [-73.39084, 9.1945], [-73.39115, 9.17277], [-73.37782, 9.16469], [-73.36365, 9.16503], [-73.25384, 9.16771], [-73.21224, 9.17345], [-73.17618, 9.19094], [-73.14186, 9.22303], [-73.12434, 9.23448], [-73.09876, 9.24158], [-73.07603, 9.25427], [-73.03267, 9.2946], [-73.00973, 9.29538], [-73.00357, 9.28791], [-72.99112, 9.25168], [-72.99143, 9.24794], [-72.99546, 9.2391], [-72.99562, 9.23536], [-72.99221, 9.23034], [-72.98285, 9.22096], [-72.98006, 9.21652], [-72.97603, 9.19213], [-72.97867, 9.15014], [-72.97319, 9.12844], [-72.95531, 9.10399], [-72.9364, 9.09919], [-72.91619, 9.10697], [-72.88198, 9.12937], [-72.87402, 9.13342], [-72.86172, 9.13704], [-72.85025, 9.13673], [-72.84152, 9.13378], [-72.83413, 9.13363], [-72.82669, 9.14169], [-72.80767, 9.12373], [-72.79103, 9.11394], [-72.7856, 9.10244], [-72.80002, 9.07945], [-72.78307, 9.05994], [-72.77806, 9.04105], [-72.76659, 8.99738], [-72.75506, 8.95374], [-72.74354, 8.91005], [-72.73207, 8.86638], [-72.72049, 8.82274], [-72.70902, 8.77905], [-72.6975, 8.73539], [-72.68602, 8.69169], [-72.67543, 8.65151], [-72.65543, 8.6179], [-72.63709, 8.59818], [-72.61735, 8.57705], [-72.59776, 8.55597], [-72.57807, 8.53486], [-72.55854, 8.51372], [-72.53885, 8.49261], [-72.51921, 8.47152], [-72.49952, 8.45044], [-72.47994, 8.42933], [-72.45627, 8.40393], [-72.44454, 8.39411], [-72.43441, 8.39019], [-72.42495, 8.38771], [-72.41561, 8.38269], [-72.41508, 8.38241], [-72.40325, 8.3705], [-72.39649, 8.35999], [-72.86133, 8.30252]]], [[[-71.6956, 12.44863], [-71.69929, 12.44627], [-71.7257, 12.42349], [-71.73453, 12.41372], [-71.74079, 12.41991], [-71.73054, 12.43806], [-71.71704, 12.45215], [-71.6956, 12.44863]]], [[[-75.57583, 10.37787], [-75.56811, 10.3728], [-75.5559, 10.36776], [-75.53789, 10.36267], [-75.53532, 10.35065], [-75.54626, 10.33927], [-75.55591, 10.34054], [-75.5675, 10.34372], [-75.57586, 10.33866], [-75.57843, 10.326], [-75.58229, 10.31903], [-75.59066, 10.31904], [-75.59453, 10.33108], [-75.59581, 10.34754], [-75.5926, 10.3602], [-75.5868, 10.36779], [-75.57583, 10.37787]]]]}, "properties": {"id": "A1PS", "status": "validé", "pieces": [{"kind": "polygon", "ring": [[-76.55273, 9.08412], [-75.41016, 8.51979], [-74.24561, 8.34599], [-72.86133, 8.30252], [-72.33398, 8.36772], [-69.60938, 12.10623], [-74.44336, 12.89961]]}, {"kind": "clip"}]}}, {"type": "Feature", "geometry": {"type": "Polygon", "coordinates": [[[-81.66138, 12.45963], [-81.66138, 12.60837], [-81.75613, 12.60837], [-81.75613, 12.45963], [-81.66138, 12.45963]]]}, "properties": {"id": "AbNO", "status": "validé", "pieces": [{"kind": "rect", "bounds": [-81.75613, 12.45963, -81.66138, 12.60837]}]}}, {"type": "Feature", "geometry": {"type": "Polygon", "coordinates": [[[-76.14075, 3.31167], [-76.22864, 3.07592], [-76.56372, 2.98819], [-76.72302, 3.08141], [-76.6571, 3.56927], [-76.47583, 4.00759], [-76.25061, 4.57704], [-76.11877, 4.78499], [-75.99792, 4.96554], [-75.91003, 5.00383], [-75.84412, 4.97101], [-75.82214, 4.78499], [-75.92651, 4.5223], [-76.00342, 4.07331], [-76.11328, 3.60763], [-76.14075, 3.31167]]]}, "properties": {"id": "AsK1", "status": "validé", "pieces": [{"kind": "polygon", "ring": [[-76.14075, 3.31167], [-76.22864, 3.07592], [-76.56372, 2.98819], [-76.72302, 3.08141], [-76.6571, 3.56927], [-76.47583, 4.00759], [-76.25061, 4.57704], [-76.11877, 4.78499], [-75.99792, 4.96554], [-75.91003, 5.00383], [-75.84412, 4.97101], [-75.82214, 4.78499], [-75.92651, 4.5223], [-76.00342, 4.07331], [-76.11328, 3.60763]]}]}}, {"type": "Feature", "geometry": {"type": "MultiPolygon", "coordinates": [[[[-77.47326, 0.65217], [-77.50935, 0.6612], [-77.51414, 0.66053], [-77.54335, 0.65645], [-77.57983, 0.67092], [-77.64557, 0.71629], [-77.6668, 0.74771], [-77.67332, 0.81964], [-77.70319, 0.8431], [-77.72789, 0.84331], [-77.80762, 0.81303], [-77.82773, 0.80889], [-77.84798, 0.80925], [-77.86933, 0.81406], [-77.89263, 0.82305], [-77.90323, 0.8321], [-77.90529, 0.84289], [-77.90498, 0.85401], [-77.90855, 0.86419], [-77.91826, 0.87442], [-77.92307, 0.87504], [-77.92818, 0.87235], [-77.93904, 0.87256], [-78.00704, 0.89819], [-78.07794, 0.90077], [-78.12001, 0.92124], [-78.25015, 1.01963], [-78.27062, 1.03048], [-78.33007, 1.0465], [-78.34922, 1.0558], [-78.37281, 1.07379], [-78.46691, 1.17838], [-78.47812, 1.18712], [-78.4852, 1.19264], [-78.5406, 1.20535], [-78.55561, 1.20411], [-78.57006, 1.19585], [-78.57569, 1.21197], [-78.59662, 1.23409], [-78.60044, 1.24442], [-78.60215, 1.26364], [-78.61153, 1.26643], [-78.62556, 1.26199], [-78.64127, 1.25941], [-78.66468, 1.26664], [-78.68429, 1.28189], [-78.69935, 1.30204], [-78.7092, 1.32416], [-78.71948, 1.34106], [-78.74899, 1.36485], [-78.76997, 1.3941], [-78.82868, 1.43431], [-78.81286, 1.4418], [-78.81957, 1.4597], [-78.83194, 1.47036], [-78.8452, 1.47883], [-78.85448, 1.49018], [-78.85562, 1.50544], [-78.8535, 1.5244], [-78.85334, 1.54336], [-78.86071, 1.5585], [-78.8671, 1.56029], [-78.87999, 1.55415], [-78.8996, 1.54533], [-78.90793, 1.55505], [-78.91812, 1.56431], [-78.93108, 1.56616], [-78.9408, 1.57495], [-78.96257, 1.58699], [-78.97151, 1.59128], [-78.99798, 1.60794], [-79.01269, 1.62361], [-79.02151, 1.63831], [-79.01661, 1.65497], [-79.00877, 1.66476], [-78.99308, 1.67063], [-78.97348, 1.67553], [-78.95584, 1.69218], [-78.94016, 1.72256], [-78.92644, 1.74118], [-78.90096, 1.76666], [-78.88037, 1.79019], [-78.86665, 1.8049], [-78.84605, 1.82159], [-78.79939, 1.83202], [-78.77684, 1.82844], [-78.75945, 1.83055], [-78.7376, 1.8258], [-78.7186, 1.81726], [-78.69725, 1.81208], [-78.66373, 1.80976], [-78.64159, 1.80488], [-78.61264, 1.80131], [-78.60754, 1.79876], [-78.60053, 1.79049], [-78.59097, 1.78348], [-78.58079, 1.7803], [-78.57123, 1.78221], [-78.57185, 1.79621], [-78.57056, 1.80385], [-78.56673, 1.81977], [-78.55333, 1.83441], [-78.5463, 1.85988], [-78.55407, 1.87621], [-78.55285, 1.89118], [-78.55118, 1.89448], [-78.54784, 1.89932], [-78.54515, 1.90591], [-78.5454, 1.91474], [-78.54835, 1.92061], [-78.5523, 1.91665], [-78.55848, 1.90417], [-78.5715, 1.89681], [-78.59137, 1.89684], [-78.59763, 1.90989], [-78.59821, 1.92857], [-78.59382, 1.94888], [-78.59252, 1.96406], [-78.58747, 1.98847], [-78.58633, 2.00039], [-78.58959, 2.0091], [-78.59773, 2.01936], [-78.60802, 2.02798], [-78.61799, 2.03144], [-78.62902, 2.02534], [-78.6372, 2.01236], [-78.64747, 1.98064], [-78.65824, 1.97499], [-78.66561, 1.98291], [-78.66735, 2.00365], [-78.67068, 2.03099], [-78.68299, 2.06504], [-78.69177, 2.11248], [-78.70055, 2.14674], [-78.70316, 2.1898], [-78.69171, 2.21442], [-78.67936, 2.24168], [-78.6723, 2.26719], [-78.64538, 2.27827], [-78.63695, 2.30659], [-78.60741, 2.35981], [-78.58568, 2.40314], [-78.57409, 2.43317], [-78.55899, 2.44916], [-78.5653, 2.43256], [-78.56627, 2.41551], [-78.56359, 2.39834], [-78.55899, 2.38154], [-78.54491, 2.42674], [-78.5362, 2.47515], [-78.52505, 2.49551], [-78.50646, 2.49087], [-78.48139, 2.52231], [-78.45633, 2.5519], [-78.43222, 2.58703], [-78.41089, 2.59533], [-78.39328, 2.61196], [-78.37196, 2.63229], [-78.34602, 2.64799], [-78.33397, 2.64704], [-78.32471, 2.62391], [-78.3136, 2.59708], [-78.29786, 2.57118], [-78.2775, 2.54251], [-78.25475, 2.5419], [-78.26546, 2.57578], [-78.27101, 2.60444], [-78.27008, 2.63495], [-78.26174, 2.64974], [-78.24693, 2.6636], [-78.23583, 2.64601], [-78.22843, 2.6155], [-78.23492, 2.59332], [-78.22474, 2.57667], [-78.2155, 2.5554], [-78.20775, 2.53734], [-78.19311, 2.52143], [-78.1844, 2.5152], [-78.14879, 2.49755], [-78.13248, 2.49274], [-78.12296, 2.49364], [-78.10656, 2.50438], [-78.08666, 2.51057], [-78.08528, 2.51606], [-78.08507, 2.52359], [-78.08576, 2.52985], [-78.08666, 2.53168], [-78.08312, 2.53754], [-78.08165, 2.54149], [-78.08136, 2.57749], [-78.08505, 2.59228], [-78.08966, 2.608], [-78.09983, 2.62464], [-78.10537, 2.6422], [-78.0961, 2.65145], [-78.0739, 2.64682], [-78.06372, 2.65421], [-78.03966, 2.65513], [-78.02115, 2.6542], [-78.00449, 2.65511], [-77.99152, 2.66343], [-77.96928, 2.67637], [-77.94984, 2.67452], [-77.93586, 2.66206], [-77.92544, 2.64322], [-77.91759, 2.63227], [-77.90689, 2.62946], [-77.88805, 2.63471], [-77.89704, 2.61909], [-77.90543, 2.59821], [-77.90429, 2.57998], [-77.88435, 2.57209], [-77.87255, 2.57079], [-77.85237, 2.56611], [-77.83967, 2.56586], [-77.81383, 2.57123], [-77.8024, 2.57209], [-77.77794, 2.5777], [-77.76041, 2.59162], [-77.75121, 2.60961], [-77.75154, 2.62726], [-77.75764, 2.63996], [-77.76891, 2.65717], [-77.78336, 2.67137], [-77.79869, 2.67573], [-77.79869, 2.68187], [-77.77819, 2.68187], [-77.77819, 2.6894], [-77.79133, 2.69196], [-77.7976, 2.69872], [-77.79776, 2.70767], [-77.79247, 2.7167], [-77.80289, 2.71939], [-77.8063, 2.72553], [-77.80443, 2.73408], [-77.79869, 2.74396], [-77.80752, 2.7458], [-77.81176, 2.74848], [-77.81286, 2.7541], [-77.81237, 2.76447], [-77.79479, 2.75727], [-77.78091, 2.76317], [-77.7683, 2.77334], [-77.75463, 2.77875], [-77.7482, 2.77953], [-77.73925, 2.78205], [-77.73355, 2.78612], [-77.73721, 2.79173], [-77.74551, 2.79316], [-77.76195, 2.78559], [-77.77074, 2.78559], [-77.78576, 2.79483], [-77.78185, 2.80215], [-77.77082, 2.80874], [-77.76456, 2.81566], [-77.75764, 2.8133], [-77.74157, 2.81005], [-77.72321, 2.80874], [-77.70934, 2.81224], [-77.70519, 2.80565], [-77.69848, 2.79751], [-77.69628, 2.79173], [-77.68883, 2.79173], [-77.6986, 2.81314], [-77.73542, 2.8225], [-77.72354, 2.84016], [-77.70816, 2.84846], [-77.69359, 2.85017], [-77.68025, 2.85366], [-77.66832, 2.8675], [-77.6586, 2.86347], [-77.65071, 2.85912], [-77.64489, 2.85375], [-77.64171, 2.84638], [-77.63606, 2.86962], [-77.6577, 2.8769], [-77.68822, 2.8725], [-77.70934, 2.86066], [-77.71492, 2.87568], [-77.71569, 2.89753], [-77.71007, 2.91812], [-77.69628, 2.92894], [-77.68261, 2.92731], [-77.67345, 2.91918], [-77.66519, 2.90925], [-77.65465, 2.9016], [-77.64338, 2.89814], [-77.64013, 2.90005], [-77.63907, 2.90616], [-77.63419, 2.91535], [-77.62507, 2.92447], [-77.62072, 2.92768], [-77.6197, 2.93159], [-77.62051, 2.94261], [-77.62393, 2.94798], [-77.63769, 2.95173], [-77.64171, 2.95624], [-77.64147, 2.96133], [-77.63589, 2.96483], [-77.63109, 2.97797], [-77.62588, 2.97968], [-77.62316, 2.98184], [-77.62735, 2.99103], [-77.6339, 2.99486], [-77.64216, 2.99429], [-77.64977, 2.99555], [-77.65465, 3.00471], [-77.65612, 2.9975], [-77.65754, 2.99584], [-77.65754, 2.99519], [-77.65465, 2.99103], [-77.66544, 2.98456], [-77.67663, 2.98233], [-77.68541, 2.98591], [-77.68883, 2.99726], [-77.71394, 2.97476], [-77.72354, 2.96992], [-77.72179, 2.982], [-77.68502, 3.02584], [-77.66226, 3.05846], [-77.64771, 3.07385], [-77.57143, 3.13808], [-77.55144, 3.17515], [-77.53963, 3.19685], [-77.52512, 3.20135], [-77.50866, 3.19457], [-77.50552, 3.20458], [-77.50451, 3.2132], [-77.50182, 3.22337], [-77.49486, 3.22362], [-77.48575, 3.22138], [-77.47968, 3.22746], [-77.48544, 3.2377], [-77.5008, 3.24476], [-77.51618, 3.23966], [-77.5386, 3.23712], [-77.54179, 3.24608], [-77.5296, 3.26142], [-77.50524, 3.28249], [-77.48857, 3.2927], [-77.46486, 3.30163], [-77.47766, 3.31315], [-77.47655, 3.33365], [-77.46866, 3.34467], [-77.45739, 3.35615], [-77.44546, 3.36323], [-77.43562, 3.36099], [-77.41906, 3.36522], [-77.40486, 3.36717], [-77.40046, 3.37002], [-77.38097, 3.38764], [-77.35851, 3.34577], [-77.34374, 3.32941], [-77.31892, 3.31997], [-77.32348, 3.33112], [-77.35676, 3.37092], [-77.36563, 3.38565], [-77.36705, 3.40209], [-77.36246, 3.41779], [-77.35302, 3.42984], [-77.34944, 3.42133], [-77.34268, 3.41206], [-77.33609, 3.40717], [-77.33316, 3.41181], [-77.33519, 3.41926], [-77.34415, 3.43203], [-77.34618, 3.43602], [-77.34113, 3.45624], [-77.33169, 3.47333], [-77.32628, 3.49067], [-77.33316, 3.51179], [-77.32291, 3.5124], [-77.31273, 3.51179], [-77.31583, 3.5069], [-77.31774, 3.50178], [-77.31867, 3.49555], [-77.31892, 3.48762], [-77.31615, 3.48037], [-77.3098, 3.48021], [-77.30028, 3.48656], [-77.28283, 3.48517], [-77.27819, 3.48261], [-77.26915, 3.47394], [-77.26427, 3.47085], [-77.26549, 3.48041], [-77.26944, 3.48794], [-77.27587, 3.49348], [-77.28478, 3.4975], [-77.28051, 3.4997], [-77.27587, 3.503], [-77.27172, 3.50495], [-77.29052, 3.51154], [-77.29898, 3.51179], [-77.29479, 3.52115], [-77.291, 3.52367], [-77.28596, 3.52192], [-77.27794, 3.51797], [-77.27489, 3.53278], [-77.28905, 3.53807], [-77.30956, 3.53685], [-77.32575, 3.53221], [-77.32177, 3.54784], [-77.31054, 3.5502], [-77.29499, 3.54702], [-77.27794, 3.54589], [-77.28319, 3.54857], [-77.29357, 3.55589], [-77.29898, 3.55899], [-77.29328, 3.56118], [-77.28991, 3.56342], [-77.28588, 3.56533], [-77.27794, 3.56639], [-77.281, 3.57046], [-77.28478, 3.58063], [-77.26476, 3.58503], [-77.24376, 3.5869], [-77.24376, 3.58063], [-77.24861, 3.57152], [-77.23884, 3.57168], [-77.20963, 3.58063], [-77.22387, 3.58421], [-77.22716, 3.59101], [-77.22265, 3.60017], [-77.2049, 3.62124], [-77.19864, 3.63353], [-77.1892, 3.66258], [-77.17772, 3.65445], [-77.16954, 3.65225], [-77.16186, 3.65595], [-77.15127, 3.66572], [-77.14029, 3.66983], [-77.12487, 3.67373], [-77.11828, 3.67805], [-77.13394, 3.68305], [-77.14721, 3.6811], [-77.16055, 3.67622], [-77.17081, 3.67719], [-77.17492, 3.69269], [-77.16788, 3.69497], [-77.15221, 3.69794], [-77.13573, 3.70441], [-77.12645, 3.71723], [-77.14367, 3.71507], [-77.18541, 3.7036], [-77.19872, 3.71003], [-77.20295, 3.72549], [-77.20079, 3.74348], [-77.19542, 3.7582], [-77.16739, 3.73794], [-77.15233, 3.7331], [-77.1302, 3.73151], [-77.12564, 3.73355], [-77.12825, 3.73798], [-77.13536, 3.7425], [-77.14444, 3.74453], [-77.15526, 3.74445], [-77.16344, 3.74535], [-77.16979, 3.74925], [-77.17492, 3.7582], [-77.15844, 3.7569], [-77.14444, 3.75959], [-77.13366, 3.76675], [-77.12645, 3.77871], [-77.142, 3.78848], [-77.15148, 3.80044], [-77.15038, 3.81367], [-77.13394, 3.82709], [-77.12613, 3.8216], [-77.12149, 3.81635], [-77.1197, 3.80952], [-77.12027, 3.79914], [-77.10562, 3.81346], [-77.11189, 3.83405], [-77.11449, 3.85261], [-77.06859, 3.86774], [-77.0563, 3.88435], [-77.04601, 3.90278], [-77.03157, 3.91584], [-77.03157, 3.92206], [-77.09301, 3.909], [-77.09301, 3.91584], [-77.08601, 3.91816], [-77.07934, 3.92206], [-77.10464, 3.92178], [-77.11608, 3.92381], [-77.12645, 3.92951], [-77.12304, 3.88613], [-77.18114, 3.85297], [-77.25316, 3.84081], [-77.29161, 3.86058], [-77.28954, 3.86982], [-77.27522, 3.87775], [-77.27172, 3.8854], [-77.27526, 3.88923], [-77.29263, 3.89777], [-77.3048, 3.90583], [-77.30915, 3.90595], [-77.31176, 3.90843], [-77.31273, 3.91901], [-77.31163, 3.92756], [-77.30915, 3.9348], [-77.30525, 3.94318], [-77.3002, 3.96914], [-77.29507, 3.97797], [-77.28478, 3.98408], [-77.27042, 3.9864], [-77.26089, 3.98314], [-77.26, 3.97541], [-77.27172, 3.96426], [-77.22399, 3.97199], [-77.20963, 3.97728], [-77.20963, 3.98408], [-77.24376, 3.97728], [-77.23925, 3.98994], [-77.23229, 4.00121], [-77.20539, 4.03262], [-77.1892, 4.06733], [-77.19982, 4.06688], [-77.20474, 4.0681], [-77.20694, 4.07217], [-77.20963, 4.08031], [-77.22492, 4.07697], [-77.23668, 4.08535], [-77.24861, 4.09821], [-77.26427, 4.10822], [-77.26, 4.09854], [-77.25853, 4.08763], [-77.26, 4.07689], [-77.26427, 4.06733], [-77.27294, 4.07209], [-77.28161, 4.07355], [-77.2904, 4.07184], [-77.29898, 4.06733], [-77.29898, 4.05988], [-77.2941, 4.05549], [-77.29377, 4.055], [-77.29601, 4.05337], [-77.29898, 4.0456], [-77.30346, 4.04979], [-77.30651, 4.05097], [-77.3107, 4.05126], [-77.31892, 4.05305], [-77.31583, 4.03425], [-77.31892, 4.00654], [-77.32632, 3.98139], [-77.33654, 3.97044], [-77.33971, 3.96442], [-77.34325, 3.93696], [-77.34618, 3.92951], [-77.36213, 3.92805], [-77.37466, 3.93643], [-77.37979, 3.95002], [-77.37353, 3.96426], [-77.42504, 4.00458], [-77.43078, 4.01264], [-77.43517, 4.02936], [-77.43041, 4.04401], [-77.40827, 4.0456], [-77.41983, 4.06021], [-77.42398, 4.06733], [-77.43114, 4.09439], [-77.43505, 4.12491], [-77.43517, 4.15522], [-77.43285, 4.16901], [-77.42667, 4.18037], [-77.41511, 4.19017], [-77.40119, 4.1933], [-77.38777, 4.19172], [-77.37755, 4.19359], [-77.37353, 4.20694], [-77.36962, 4.21394], [-77.3601, 4.22114], [-77.34805, 4.22468], [-77.33654, 4.22061], [-77.31981, 4.20083], [-77.3131, 4.19888], [-77.29898, 4.20319], [-77.281, 4.21377], [-77.26496, 4.22875], [-77.23632, 4.26533], [-77.32091, 4.26634], [-77.33654, 4.26874], [-77.35033, 4.28579], [-77.3872, 4.34724], [-77.359, 4.38719], [-77.35302, 4.40249], [-77.34508, 4.44554], [-77.33511, 4.46092], [-77.31273, 4.47138], [-77.31273, 4.47818], [-77.33316, 4.47138], [-77.33043, 4.49966], [-77.31957, 4.54662], [-77.31892, 4.68366], [-77.31566, 4.67438], [-77.31168, 4.66718], [-77.3063, 4.6612], [-77.29898, 4.65571], [-77.29442, 4.66572], [-77.29161, 4.68207], [-77.29499, 4.69733], [-77.29803, 4.69891], [-77.31884, 4.70966], [-77.32213, 4.72285], [-77.32311, 4.73876], [-77.32575, 4.75251], [-77.30333, 4.74921], [-77.2858, 4.73701], [-77.27294, 4.72061], [-77.26591, 4.70721], [-77.26591, 4.70721], [-77.26427, 4.70409], [-77.25805, 4.70409], [-77.25977, 4.7088], [-77.25977, 4.7088], [-77.26977, 4.73607], [-77.31216, 4.78718], [-77.31892, 4.82087], [-77.3236, 4.81879], [-77.33536, 4.8155], [-77.34, 4.81338], [-77.34862, 4.85419], [-77.3605, 4.98249], [-77.36669, 4.99893], [-77.37287, 5.14916], [-77.36791, 5.18325], [-77.359, 5.21564], [-77.34618, 5.24478], [-77.36059, 5.25349], [-77.36156, 5.27521], [-77.3592, 5.29731], [-77.3636, 5.30744], [-77.37304, 5.31566], [-77.37825, 5.33519], [-77.38097, 5.37507], [-77.39574, 5.37035], [-77.40465, 5.3747], [-77.40856, 5.38618], [-77.40827, 5.40302], [-77.40148, 5.40302], [-77.39696, 5.39842], [-77.39342, 5.39594], [-77.38878, 5.39704], [-77.38097, 5.40302], [-77.39127, 5.40957], [-77.39533, 5.41869], [-77.40258, 5.44965], [-77.4016, 5.45311], [-77.40225, 5.45722], [-77.40827, 5.4645], [-77.41291, 5.46621], [-77.42931, 5.46894], [-77.43562, 5.47134], [-77.44689, 5.48208], [-77.45397, 5.49262], [-77.46215, 5.50104], [-77.47655, 5.50544], [-77.49088, 5.50544], [-77.50133, 5.50243], [-77.50792, 5.49575], [-77.51065, 5.48493], [-77.52269, 5.49555], [-77.53454, 5.49494], [-77.54479, 5.49112], [-77.55223, 5.49185], [-77.55919, 5.50308], [-77.55687, 5.51191], [-77.54784, 5.51765], [-77.5349, 5.51972], [-77.52623, 5.53018], [-77.50276, 5.57925], [-77.49083, 5.59479], [-77.48184, 5.5976], [-77.45954, 5.59903], [-77.44982, 5.60163], [-77.4379, 5.61017], [-77.42911, 5.61896], [-77.4195, 5.62568], [-77.40486, 5.62836], [-77.3872, 5.6232], [-77.37218, 5.61347], [-77.35562, 5.6079], [-77.33316, 5.6153], [-77.32677, 5.62128], [-77.32445, 5.62739], [-77.32299, 5.63443], [-77.31892, 5.64256], [-77.31794, 5.64704], [-77.31973, 5.65852], [-77.31892, 5.66303], [-77.31444, 5.66429], [-77.30785, 5.66303], [-77.30167, 5.66254], [-77.29898, 5.66616], [-77.2943, 5.67695], [-77.28327, 5.68578], [-77.27062, 5.69355], [-77.26114, 5.70091], [-77.25451, 5.71092], [-77.24942, 5.72232], [-77.24592, 5.7342], [-77.24376, 5.74567], [-77.24645, 5.78734], [-77.26159, 5.8225], [-77.3024, 5.88825], [-77.3059, 5.89151], [-77.31273, 5.89643], [-77.31347, 5.9184], [-77.35302, 6.02619], [-77.36046, 6.02619], [-77.36046, 5.99893], [-77.36669, 5.99893], [-77.3828, 6.04263], [-77.40844, 6.08198], [-77.46972, 6.15648], [-77.48062, 6.17406], [-77.48436, 6.18879], [-77.48339, 6.2285], [-77.47655, 6.26407], [-77.4757, 6.28156], [-77.48339, 6.29434], [-77.47655, 6.30052], [-77.43904, 6.26948], [-77.41511, 6.23908], [-77.40502, 6.24624], [-77.39489, 6.26358], [-77.38097, 6.30052], [-77.37759, 6.31924], [-77.3767, 6.33686], [-77.37792, 6.35179], [-77.38097, 6.36262], [-77.39928, 6.38764], [-77.39647, 6.39582], [-77.37353, 6.4042], [-77.37084, 6.39794], [-77.36767, 6.39509], [-77.36413, 6.39313], [-77.36046, 6.38988], [-77.35631, 6.40518], [-77.35993, 6.41918], [-77.3688, 6.43049], [-77.38097, 6.43769], [-77.38097, 6.44452], [-77.36579, 6.47004], [-77.36083, 6.48607], [-77.36046, 6.50658], [-77.34752, 6.52155], [-77.34301, 6.54377], [-77.34537, 6.56611], [-77.35302, 6.58173], [-77.3872, 6.60904], [-77.39415, 6.61669], [-77.39883, 6.62368], [-77.40469, 6.63011], [-77.41511, 6.6363], [-77.41466, 6.64745], [-77.40954, 6.66828], [-77.40827, 6.68106], [-77.41124, 6.69379], [-77.41869, 6.69872], [-77.4287, 6.70157], [-77.46264, 6.72069], [-77.48615, 6.71507], [-77.50569, 6.70014], [-77.51749, 6.68476], [-77.51334, 6.67792], [-77.51065, 6.67109], [-77.51871, 6.66958], [-77.52428, 6.66747], [-77.53181, 6.66364], [-77.53799, 6.66364], [-77.5382, 6.68891], [-77.53649, 6.70083], [-77.53181, 6.71206], [-77.57335, 6.80101], [-77.59325, 6.82811], [-77.62182, 6.85594], [-77.63622, 6.86542], [-77.66251, 6.87177], [-77.66674, 6.87686], [-77.67105, 6.87971], [-77.68261, 6.87592], [-77.68603, 6.87019], [-77.6857, 6.86188], [-77.68737, 6.85399], [-77.69628, 6.84919], [-77.70132, 6.91836], [-77.69221, 6.94725], [-77.66466, 6.95905], [-77.65274, 6.97663], [-77.66503, 7.01557], [-77.69628, 7.07453], [-77.70311, 7.07453], [-77.69677, 7.06269], [-77.69371, 7.05874], [-77.68883, 7.05463], [-77.68883, 7.04719], [-77.69628, 7.04719], [-77.71325, 7.0705], [-77.78694, 7.14887], [-77.79768, 7.15493], [-77.81579, 7.15705], [-77.82559, 7.16279], [-77.83186, 7.17524], [-77.83959, 7.18724], [-77.85391, 7.19184], [-77.84708, 7.19806], [-77.85985, 7.20185], [-77.87141, 7.21113], [-77.88805, 7.23282], [-77.89584, 7.2351], [-77.85501, 7.36539], [-77.82018, 7.47655], [-77.79631, 7.47128], [-77.77424, 7.47474], [-77.75512, 7.48611], [-77.74024, 7.50461], [-77.73125, 7.53034], [-77.73424, 7.55179], [-77.75683, 7.59556], [-77.76582, 7.62646], [-77.77052, 7.66899], [-77.76421, 7.70573], [-77.74024, 7.71886], [-77.7299, 7.71333], [-77.67993, 7.67095], [-77.67022, 7.65995], [-77.67063, 7.65731], [-77.67476, 7.64842], [-77.67481, 7.64465], [-77.67187, 7.64196], [-77.66339, 7.63995], [-77.66076, 7.63804], [-77.63306, 7.60067], [-77.62546, 7.58744], [-77.61332, 7.53747], [-77.60268, 7.52605], [-77.57999, 7.52838], [-77.55492, 7.54848], [-77.50935, 7.59411], [-77.3691, 7.68077], [-77.33974, 7.70723], [-77.346, 7.72573], [-77.36651, 7.74511], [-77.3799, 7.77441], [-77.37664, 7.78661], [-77.34719, 7.82381], [-77.32161, 7.88102], [-77.30042, 7.9021], [-77.26972, 7.91812], [-77.23613, 7.92923], [-77.20606, 7.93549], [-77.16901, 7.93507], [-77.16327, 7.93926], [-77.17107, 7.95492], [-77.18084, 7.96515], [-77.19154, 7.97285], [-77.2012, 7.982], [-77.20776, 7.99657], [-77.20962, 8.0207], [-77.23107, 8.09873], [-77.26011, 8.15403], [-77.26943, 8.1677], [-77.2952, 8.2055], [-77.3169, 8.25084], [-77.32434, 8.2612], [-77.33716, 8.26663], [-77.35049, 8.2674], [-77.36321, 8.27208], [-77.37437, 8.28931], [-77.383, 8.32494], [-77.39127, 8.39355], [-77.40579, 8.42845], [-77.42232, 8.45641], [-77.43271, 8.46507], [-77.44961, 8.47065], [-77.47969, 8.46786], [-77.48873, 8.47364], [-77.48868, 8.49654], [-77.48036, 8.5262], [-77.46937, 8.53781], [-77.44113, 8.56767], [-77.42909, 8.59263], [-77.43023, 8.61046], [-77.43504, 8.62064], [-77.434, 8.62826], [-77.41767, 8.63847], [-77.40155, 8.64203], [-77.38537, 8.64363], [-77.37494, 8.65095], [-77.37353, 8.66474], [-77.37316, 8.66934], [-77.37145, 8.67219], [-77.36897, 8.67475], [-77.36669, 8.67841], [-77.35167, 8.66934], [-77.34138, 8.63247], [-77.32946, 8.61351], [-77.31713, 8.60139], [-77.30712, 8.58902], [-77.29882, 8.57429], [-77.29161, 8.55549], [-77.28319, 8.51679], [-77.27473, 8.49579], [-77.20963, 8.45185], [-77.15917, 8.43171], [-77.14444, 8.42109], [-77.13362, 8.40839], [-77.05281, 8.27631], [-77.03157, 8.26], [-77.01773, 8.25764], [-76.98986, 8.25727], [-76.98546, 8.25618], [-76.98426, 8.25327], [-76.97297, 8.20487], [-76.96599, 8.18857], [-76.96052, 8.16955], [-76.95393, 8.08653], [-76.95987, 8.06522], [-76.9668, 8.05512], [-76.96959, 8.03698], [-76.98873, 8.02437], [-76.99713, 8.01494], [-77.00346, 7.99941], [-77.02168, 7.89848], [-77.0348, 7.88334], [-77.05113, 7.87306], [-77.07051, 7.85249], [-77.09335, 7.83714], [-77.12017, 7.84239], [-77.12017, 7.80141], [-77.1188, 7.80208], [-77.11635, 7.79875], [-77.11407, 7.79348], [-77.11332, 7.78839], [-77.11508, 7.7888], [-77.11924, 7.78761], [-77.12368, 7.78498], [-77.12637, 7.78092], [-77.11878, 7.76736], [-77.10914, 7.75446], [-76.98085, 7.63917], [-76.87688, 7.5654], [-76.7729, 7.45345], [-76.6925, 7.35443], [-76.6725, 7.33854], [-76.64622, 7.32131], [-76.61196, 7.31728], [-76.59785, 7.31224], [-76.58666, 7.30441], [-76.54295, 7.267], [-76.52956, 7.24871], [-76.50835, 7.18631], [-76.50527, 7.07443], [-76.50943, 7.0552], [-76.51259, 7.04634], [-76.5461, 6.99102], [-76.56961, 6.99311], [-76.58333, 6.99988], [-76.60051, 7.00608], [-76.6834, 7.02603], [-76.704, 7.02665], [-76.76831, 7.02151], [-76.79686, 7.0157], [-76.8166, 7.00833], [-76.83138, 6.99973], [-76.83564, 6.98598], [-76.83308, 6.97784], [-76.82748, 6.96534], [-76.82407, 6.96162], [-76.81892, 6.95898], [-76.81192, 6.95394], [-76.80644, 6.94325], [-76.80226, 6.92679], [-76.79725, 6.88932], [-76.80179, 6.87449], [-76.81104, 6.86263], [-76.8235, 6.85144], [-76.82701, 6.84447], [-76.83616, 6.84059], [-76.88329, 6.84462], [-76.91517, 6.82568], [-76.92876, 6.82398], [-76.95788, 6.81522], [-76.97279, 6.8102], [-76.97057, 6.80057], [-76.96995, 6.76331], [-76.96661, 6.75238], [-76.95207, 6.74142], [-76.94884, 6.73197], [-76.9515, 6.72553], [-76.96995, 6.70466], [-76.9609, 6.70388], [-76.95184, 6.70416], [-76.94486, 6.70218], [-76.94202, 6.69473], [-76.94127, 6.68355], [-76.93837, 6.67626], [-76.93217, 6.67236], [-76.92153, 6.67114], [-76.92282, 6.67657], [-76.9153, 6.68698], [-76.90574, 6.69365], [-76.90106, 6.68791], [-76.90326, 6.67858], [-76.9069, 6.67029], [-76.90765, 6.66132], [-76.90106, 6.65003], [-76.89336, 6.6474], [-76.87094, 6.64507], [-76.86629, 6.6398], [-76.86858, 6.62505], [-76.87417, 6.62466], [-76.88106, 6.62944], [-76.88739, 6.63019], [-76.89613, 6.61453], [-76.89822, 6.59464], [-76.89318, 6.58216], [-76.88057, 6.58859], [-76.86634, 6.58177], [-76.85675, 6.57151], [-76.8521, 6.55774], [-76.85264, 6.54017], [-76.84174, 6.53009], [-76.83406, 6.51697], [-76.82546, 6.50867], [-76.81166, 6.51286], [-76.7881, 6.48346], [-76.78779, 6.47532], [-76.79714, 6.46415], [-76.80329, 6.45149], [-76.80086, 6.44136], [-76.78438, 6.43777], [-76.78719, 6.43105], [-76.79084, 6.42679], [-76.79657, 6.42447], [-76.80546, 6.42348], [-76.79673, 6.40723], [-76.78872, 6.39571], [-76.78722, 6.38442], [-76.79802, 6.36886], [-76.79363, 6.36793], [-76.78438, 6.36266], [-76.79254, 6.35339], [-76.799, 6.3362], [-76.80151, 6.31677], [-76.79802, 6.3006], [-76.79107, 6.29362], [-76.78303, 6.29109], [-76.77567, 6.28988], [-76.77071, 6.28693], [-76.76668, 6.26466], [-76.76451, 6.259], [-76.73683, 6.22905], [-76.72645, 6.21094], [-76.7228, 6.19122], [-76.71544, 6.18164], [-76.71374, 6.17838], [-76.70015, 6.16869], [-76.67384, 6.16172], [-76.64922, 6.15862], [-76.56922, 6.16172], [-76.52512, 6.17094], [-76.46882, 6.17614], [-76.42109, 6.18117], [-76.38859, 6.18841], [-76.34978, 6.19221], [-76.31195, 6.19213], [-76.27717, 6.18732], [-76.25821, 6.17396], [-76.24917, 6.15769], [-76.24028, 6.09692], [-76.21697, 6.03477], [-76.18873, 5.99847], [-76.16382, 5.98871], [-76.13713, 5.98801], [-76.11127, 5.97558], [-76.10514, 5.92997], [-76.1331, 5.86145], [-76.13558, 5.83724], [-76.13023, 5.81055], [-76.12359, 5.78859], [-76.09556, 5.74198], [-76.08757, 5.72776], [-76.08447, 5.70224], [-76.09631, 5.65958], [-76.09791, 5.64343], [-76.08799, 5.6249], [-76.08189, 5.61751], [-76.04248, 5.57733], [-76.08023, 5.53759], [-76.08153, 5.51093], [-76.09326, 5.45538], [-76.14545, 5.4252], [-76.16555, 5.40866], [-76.18291, 5.35195], [-76.17992, 5.30872], [-76.0976, 5.17503], [-76.08806, 5.13873], [-76.08966, 5.10995], [-76.07496, 5.08426], [-76.07592, 5.03571], [-76.10488, 5.00748], [-76.02539, 5.02804], [-76.53076, 3.0344], [-77.23389, 0.97119], [-77.47326, 0.65217]]], [[[-78.12999, 2.62246], [-78.10656, 2.59382], [-78.09728, 2.57217], [-78.09618, 2.54002], [-78.10729, 2.51252], [-78.13443, 2.50438], [-78.15758, 2.51813], [-78.18456, 2.5454], [-78.20702, 2.57534], [-78.21642, 2.59687], [-78.21329, 2.61075], [-78.20645, 2.61685], [-78.1997, 2.62153], [-78.19497, 2.63214], [-78.20221, 2.643], [-78.2167, 2.67015], [-78.21487, 2.68191], [-78.20489, 2.68734], [-78.18768, 2.67828], [-78.16592, 2.68552], [-78.14509, 2.67375], [-78.13952, 2.65542], [-78.1317, 2.64619], [-78.12898, 2.63369], [-78.13142, 2.62726], [-78.12999, 2.62246]]], [[[-77.88801, 2.68744], [-77.85049, 2.63813], [-77.83532, 2.62637], [-77.80163, 2.60708], [-77.78502, 2.59382], [-77.80842, 2.5786], [-77.83992, 2.57734], [-77.86974, 2.58442], [-77.88805, 2.59382], [-77.88069, 2.6], [-77.88805, 2.60741], [-77.86718, 2.62718], [-77.8675, 2.63984], [-77.88073, 2.64643], [-77.89859, 2.64838], [-77.91405, 2.65868], [-77.92024, 2.67976], [-77.91637, 2.69721], [-77.90233, 2.69623], [-77.88801, 2.68744]]], [[[-77.76769, 2.63255], [-77.75414, 2.61799], [-77.7591, 2.6031], [-77.77587, 2.60102], [-77.80175, 2.61396], [-77.84708, 2.64838], [-77.87458, 2.68476], [-77.88069, 2.69623], [-77.8839, 2.70799], [-77.88512, 2.71963], [-77.88256, 2.72459], [-77.87442, 2.7167], [-77.87133, 2.7143], [-77.8601, 2.70987], [-77.85749, 2.71613], [-77.85456, 2.71906], [-77.85106, 2.72089], [-77.84708, 2.72411], [-77.8192, 2.69623], [-77.81526, 2.68846], [-77.81054, 2.66942], [-77.80614, 2.66206], [-77.76769, 2.63255]]], [[[-77.33243, 4.25503], [-77.31163, 4.25755], [-77.29117, 4.26236], [-77.27172, 4.25849], [-77.29003, 4.22944], [-77.30297, 4.2176], [-77.31566, 4.22272], [-77.33316, 4.24482], [-77.35778, 4.23554], [-77.38158, 4.23163], [-77.43407, 4.23212], [-77.45377, 4.2364], [-77.4663, 4.23737], [-77.48168, 4.23444], [-77.49055, 4.22736], [-77.49682, 4.21857], [-77.50451, 4.21064], [-77.54133, 4.19941], [-77.54548, 4.19636], [-77.54955, 4.20478], [-77.54914, 4.21866], [-77.54426, 4.23163], [-77.5349, 4.23737], [-77.5216, 4.24169], [-77.49966, 4.26097], [-77.48713, 4.26533], [-77.47379, 4.26374], [-77.44953, 4.25829], [-77.43562, 4.25849], [-77.4403, 4.26655], [-77.45547, 4.277], [-77.46288, 4.28579], [-77.42813, 4.28579], [-77.45202, 4.29169], [-77.44937, 4.30126], [-77.43293, 4.31184], [-77.41511, 4.3205], [-77.42056, 4.32233], [-77.4239, 4.32437], [-77.42789, 4.32616], [-77.43562, 4.32734], [-77.43432, 4.33153], [-77.43297, 4.33442], [-77.42813, 4.34101], [-77.40148, 4.32734], [-77.38614, 4.31464], [-77.3754, 4.30044], [-77.3673, 4.28413], [-77.35302, 4.26533], [-77.33243, 4.25503]]], [[[-78.17264, 3.0025], [-78.16427, 3.0016], [-78.16613, 2.98762], [-78.16613, 2.97365], [-78.16709, 2.9597], [-78.18203, 2.94293], [-78.19322, 2.93362], [-78.20816, 2.92989], [-78.22029, 2.93362], [-78.22029, 2.94387], [-78.20442, 2.94573], [-78.19972, 2.96062], [-78.19503, 2.98016], [-78.18661, 2.99037], [-78.17264, 3.0025]]]]}, "properties": {"id": "D97d", "status": "validé", "pieces": [{"kind": "admin1", "code": "COL-1415"}, {"kind": "polygon", "ring": [[-76.02539, 5.02804], [-76.53076, 3.0344], [-77.23389, 0.97119], [-77.82715, 0.18054], [-79.76074, 2.13481], [-78.31055, 4.43705]]}, {"kind": "clip"}]}}, {"type": "Feature", "geometry": {"type": "Polygon", "coordinates": [[[-81.31634, 13.30286], [-81.31634, 13.40938], [-81.41899, 13.40938], [-81.41899, 13.30286], [-81.31634, 13.30286]]]}, "properties": {"id": "FhGC", "status": "validé", "pieces": [{"kind": "rect", "bounds": [-81.41899, 13.30286, -81.31634, 13.40938]}]}}, {"type": "Feature", "geometry": null, "properties": {"id": "JMPO", "status": "validé", "pieces": [{"kind": "country"}]}}, {"type": "Feature", "geometry": null, "properties": {"id": "OUrh", "status": "validé", "pieces": [{"kind": "country"}]}}, {"type": "Feature", "geometry": {"type": "Polygon", "coordinates": [[[-81.30981, 13.30039], [-81.30981, 13.41925], [-81.4238, 13.41925], [-81.4238, 13.30039], [-81.30981, 13.30039]]]}, "properties": {"id": "PQZi", "status": "validé", "pieces": [{"kind": "rect", "bounds": [-81.4238, 13.30039, -81.30981, 13.41925]}]}}, {"type": "Feature", "geometry": null, "properties": {"id": "ay1W", "status": "validé", "pieces": [{"kind": "country"}]}}, {"type": "Feature", "geometry": null, "properties": {"id": "cSUD", "status": "validé", "pieces": [{"kind": "country"}]}}, {"type": "Feature", "geometry": null, "properties": {"id": "fexW", "status": "validé", "pieces": [{"kind": "admin1", "code": "COL-1314"}]}}, {"type": "Feature", "geometry": {"type": "Polygon", "coordinates": [[[-74.70154, 10.90498], [-74.70154, 11.06264], [-74.8938, 11.06264], [-74.8938, 10.90498], [-74.70154, 10.90498]]]}, "properties": {"id": "kWTr", "status": "validé", "pieces": [{"kind": "rect", "bounds": [-74.8938, 10.90498, -74.70154, 11.06264]}]}}, {"type": "Feature", "geometry": null, "properties": {"id": "mZY9", "status": "validé", "pieces": [{"kind": "admin1", "code": "COL-1425"}, {"kind": "admin1", "code": "COL-1422"}, {"kind": "admin1", "code": "COL-1420"}]}}, {"type": "Feature", "geometry": {"type": "MultiPolygon", "coordinates": [[[[-76.92696, 0.39501], [-76.92696, 0.44412], [-76.88129, 0.44412], [-76.88129, 0.39501], [-76.92696, 0.39501]]], [[[-76.51463, 0.53512], [-76.47102, 0.53512], [-76.47102, 0.47811], [-76.51463, 0.47811], [-76.51463, 0.53512]]], [[[-76.57505, 0.60215], [-76.55788, 0.60215], [-76.55788, 0.5867], [-76.57505, 0.5867], [-76.57505, 0.60215]]]]}, "properties": {"id": "man-1042", "status": "validé", "pieces": [{"kind": "rect", "bounds": [-76.51463, 0.47811, -76.47102, 0.53512]}, {"kind": "rect", "bounds": [-76.92696, 0.39501, -76.88129, 0.44412]}, {"kind": "rect", "bounds": [-76.57505, 0.5867, -76.55788, 0.60215]}]}}, {"type": "Feature", "geometry": null, "properties": {"id": "man-12ec", "status": "validé", "pieces": [{"kind": "admin1", "code": "COL-1397"}, {"kind": "admin1", "code": "COL-1401"}]}}, {"type": "Feature", "geometry": null, "properties": {"id": "man-1abe", "status": "validé", "pieces": [{"kind": "admin1", "code": "COL-1407"}]}}, {"type": "Feature", "geometry": null, "properties": {"id": "man-1ece", "status": "validé", "pieces": [{"kind": "admin1", "code": "COL-1405"}]}}, {"type": "Feature", "geometry": null, "properties": {"id": "man-2775", "status": "validé", "pieces": [{"kind": "admin1", "code": "COL-1425"}]}}, {"type": "Feature", "geometry": null, "properties": {"id": "man-2aa9", "status": "validé", "pieces": [{"kind": "admin1", "code": "COL-1316"}, {"kind": "admin1", "code": "COL-1417"}]}}, {"type": "Feature", "geometry": null, "properties": {"id": "man-3074", "status": "validé", "pieces": [{"kind": "admin1", "code": "COL-1400"}]}}, {"type": "Feature", "geometry": null, "properties": {"id": "man-310b", "status": "validé", "pieces": [{"kind": "admin1", "code": "COL-1406"}, {"kind": "admin1", "code": "COL-1404"}]}}, {"type": "Feature", "geometry": null, "properties": {"id": "man-3a2b", "status": "validé", "pieces": [{"kind": "admin1", "code": "COL-1408"}, {"kind": "admin1", "code": "COL-1404"}]}}, {"type": "Feature", "geometry": null, "properties": {"id": "man-3fc1", "status": "validé", "pieces": [{"kind": "admin1", "code": "COL-1316"}, {"kind": "admin1", "code": "COL-1417"}, {"kind": "admin1", "code": "COL-1416"}, {"kind": "admin1", "code": "COL-1413"}, {"kind": "admin1", "code": "COL-1412"}, {"kind": "admin1", "code": "COL-1414"}, {"kind": "admin1", "code": "COL-1318"}]}}, {"type": "Feature", "geometry": {"type": "MultiPolygon", "coordinates": [[[[-74.80419, 9.80814], [-74.76402, 9.80814], [-74.76402, 9.77802], [-74.80419, 9.77802], [-74.80419, 9.80814]]], [[[-74.72427, 11.065], [-74.70703, 11.05802], [-74.70703, 10.80873], [-74.88831, 10.80873], [-74.88831, 11.04628], [-74.86151, 11.04883], [-74.84534, 11.06213], [-74.8456, 11.065], [-74.72427, 11.065]]], [[[-72.8809, 11.5661], [-72.8809, 11.50049], [-72.95162, 11.50049], [-72.95162, 11.54762], [-72.93399, 11.55679], [-72.92242, 11.5661], [-72.8809, 11.5661]]]]}, "properties": {"id": "man-41d2", "status": "validé", "pieces": [{"kind": "rect", "bounds": [-74.88831, 10.80873, -74.70703, 11.065]}, {"kind": "rect", "bounds": [-72.95162, 11.50049, -72.8809, 11.5661]}, {"kind": "clip"}, {"kind": "rect", "bounds": [-74.80419, 9.77802, -74.76402, 9.80814]}]}}, {"type": "Feature", "geometry": null, "properties": {"id": "man-43ec", "status": "validé", "pieces": [{"kind": "admin1", "code": "COL-1402"}]}}, {"type": "Feature", "geometry": null, "properties": {"id": "man-4ca0", "status": "validé", "pieces": [{"kind": "admin1", "code": "COL-1421"}, {"kind": "admin1", "code": "COL-1405"}, {"kind": "admin1", "code": "COL-1402"}]}}, {"type": "Feature", "geometry": {"type": "Polygon", "coordinates": [[[-75.12932, 4.40589], [-75.12932, 4.46308], [-75.25841, 4.46308], [-75.25841, 4.40589], [-75.12932, 4.40589]]]}, "properties": {"id": "man-4f16", "status": "validé", "pieces": [{"kind": "rect", "bounds": [-75.25841, 4.40589, -75.12932, 4.46308]}]}}, {"type": "Feature", "geometry": null, "properties": {"id": "man-53be", "status": "validé", "pieces": [{"kind": "admin1", "code": "COL-1406"}]}}, {"type": "Feature", "geometry": null, "properties": {"id": "man-5433", "status": "validé", "pieces": [{"kind": "admin1", "code": "COL-1399"}, {"kind": "admin1", "code": "COL-1398"}]}}, {"type": "Feature", "geometry": null, "properties": {"id": "man-5c0a", "status": "validé", "pieces": [{"kind": "admin1", "code": "COL-1403"}, {"kind": "admin1", "code": "COL-1405"}]}}, {"type": "Feature", "geometry": null, "properties": {"id": "man-625e", "status": "validé", "pieces": [{"kind": "admin1", "code": "COL-1314"}, {"kind": "admin1", "code": "COL-1415"}]}}, {"type": "Feature", "geometry": null, "properties": {"id": "man-6ab5", "status": "validé", "pieces": [{"kind": "admin1", "code": "COL-1405"}]}}, {"type": "Feature", "geometry": null, "properties": {"id": "man-6c5e", "status": "validé", "pieces": [{"kind": "admin1", "code": "COL-1405"}, {"kind": "admin1", "code": "COL-1398"}, {"kind": "admin1", "code": "COL-1425"}, {"kind": "admin1", "code": "COL-1403"}, {"kind": "admin1", "code": "COL-1407"}, {"kind": "admin1", "code": "COL-1422"}, {"kind": "admin1", "code": "COL-1420"}, {"kind": "admin1", "code": "COL-1427"}, {"kind": "admin1", "code": "COL-1423"}]}}, {"type": "Feature", "geometry": null, "properties": {"id": "man-7558", "status": "validé", "pieces": [{"kind": "admin1", "code": "COL-1408"}]}}, {"type": "Feature", "geometry": {"type": "Polygon", "coordinates": [[[-74.65055, 5.75825], [-74.64608, 5.75252], [-74.64608, 5.71838], [-74.64492, 5.71428], [-74.64239, 5.70986], [-74.63926, 5.70622], [-74.63185, 5.70255], [-74.63368, 5.69759], [-74.63769, 5.69177], [-74.64353, 5.67914], [-74.64986, 5.66888], [-74.65195, 5.66004], [-74.64298, 5.65632], [-74.63738, 5.6442], [-74.64327, 5.6172], [-74.66037, 5.57439], [-74.64482, 5.56982], [-74.64068, 5.56289], [-74.6473, 5.55669], [-74.66378, 5.5539], [-74.67763, 5.5494], [-74.68011, 5.53961], [-74.67355, 5.52992], [-74.66037, 5.52597], [-74.66678, 5.51077], [-74.66836, 5.4923], [-74.66595, 5.47383], [-74.66037, 5.45832], [-74.675, 5.45584], [-74.67805, 5.44915], [-74.67339, 5.42696], [-74.6767, 5.42145], [-74.68394, 5.41657], [-74.6912, 5.40998], [-74.69877, 5.38368], [-74.71755, 5.35016], [-74.72182, 5.33045], [-74.72507, 5.32533], [-74.7407, 5.31058], [-74.74603, 5.30748], [-74.75052, 5.30236], [-74.74869, 5.29084], [-74.75918, 5.28795], [-74.79755, 5.30438], [-74.83307, 5.3144], [-74.84204, 5.31415], [-74.86294, 5.31004], [-74.88214, 5.30174], [-74.92025, 5.30965], [-74.94095, 5.3095], [-74.97741, 5.29702], [-74.99872, 5.29415], [-75.01275, 5.29392], [-75.03012, 5.2866], [-75.0381, 5.28017], [-75.06283, 5.26893], [-75.06805, 5.25146], [-75.10998, 5.18971], [-75.11588, 5.17808], [-75.11742, 5.1724], [-75.11988, 5.16744], [-75.1251, 5.16372], [-75.13435, 5.16085], [-75.14884, 5.16403], [-75.17063, 5.17374], [-75.19967, 5.16093], [-75.20866, 5.15116], [-75.22326, 5.14245], [-75.24158, 5.13625], [-75.25545, 5.13625], [-75.26747, 5.13997], [-75.27951, 5.13865], [-75.29436, 5.13183], [-75.31594, 5.11219], [-75.33886, 5.08581], [-75.34847, 5.06021], [-75.3309, 5.05114], [-75.31728, 5.02747], [-75.3486, 4.96657], [-75.35222, 4.95207], [-75.35392, 4.9391], [-75.33824, 4.90885], [-75.32932, 4.89396], [-75.33072, 4.8789], [-75.33754, 4.86332], [-75.35565, 4.83857], [-75.37803, 4.80007], [-75.40309, 4.82521], [-75.43309, 4.84872], [-75.4503, 4.86601], [-75.46381, 4.8827], [-75.48337, 4.91257], [-75.49244, 4.91939], [-75.50296, 4.92218], [-75.52404, 4.92368], [-75.55065, 4.93096], [-75.56184, 4.93197], [-75.58468, 4.93011], [-75.61065, 4.93368], [-75.61468, 4.93973], [-75.61484, 4.94484], [-75.6167, 4.95107], [-75.62623, 4.96719], [-75.63416, 4.97184], [-75.63809, 4.97355], [-75.64044, 4.97231], [-75.64029, 4.9706], [-75.64114, 4.96882], [-75.6615, 4.95045], [-75.66698, 4.94701], [-75.67426, 4.94484], [-75.68804, 4.94352], [-75.69811, 4.94546], [-75.70558, 4.9491], [-75.70925, 4.95262], [-75.71375, 4.96215], [-75.74842, 5.04509], [-75.75472, 5.04478], [-75.78343, 5.00031], [-75.78614, 4.99202], [-75.7878, 4.95835], [-75.79054, 4.94802], [-75.79604, 4.93887], [-75.81115, 4.92422], [-75.8188, 4.92016], [-75.84009, 4.92453], [-75.85849, 4.93228], [-75.86195, 4.93996], [-75.88516, 4.95797], [-75.89588, 4.97316], [-75.90247, 4.9883], [-75.90417, 4.99442], [-75.90523, 5.00179], [-75.90583, 5.01778], [-75.91399, 5.03158], [-75.92681, 5.04347], [-75.90453, 5.09987], [-75.89208, 5.12075], [-75.88764, 5.12439], [-75.87939, 5.12548], [-75.86138, 5.12455], [-75.85526, 5.12222], [-75.83792, 5.11111], [-75.8301, 5.1486], [-75.829, 5.15079], [-76.12427, 5.18096], [-76.18744, 5.3971], [-76.0199, 5.5612], [-75.87433, 5.48462], [-75.85766, 5.47951], [-75.85779, 5.48935], [-75.80444, 5.51124], [-75.73894, 5.55715], [-75.72473, 5.55894], [-75.70995, 5.54801], [-75.69858, 5.54057], [-75.68742, 5.52899], [-75.67788, 5.52674], [-75.65657, 5.5276], [-75.63543, 5.52488], [-75.61228, 5.52659], [-75.6006, 5.52271], [-75.58574, 5.51876], [-75.58125, 5.54243], [-75.57995, 5.56227], [-75.58236, 5.58291], [-75.59804, 5.63777], [-75.59781, 5.65237], [-75.59246, 5.68317], [-75.60693, 5.68828], [-75.61254, 5.70084], [-75.61251, 5.73203], [-75.61323, 5.73518], [-75.60114, 5.73505], [-75.56921, 5.72296], [-75.55613, 5.72102], [-75.54505, 5.71133], [-75.54469, 5.70815], [-75.54205, 5.70441], [-75.54066, 5.70076], [-75.53965, 5.69689], [-75.53588, 5.69224], [-75.53058, 5.68813], [-75.49288, 5.67368], [-75.48665, 5.66965], [-75.4765, 5.66942], [-75.47053, 5.67035], [-75.42611, 5.69433], [-75.41552, 5.68976], [-75.41175, 5.68596], [-75.40666, 5.68232], [-75.39991, 5.67903], [-75.38462, 5.67415], [-75.37899, 5.66826], [-75.37632, 5.65849], [-75.37749, 5.63924], [-75.37917, 5.62862], [-75.37749, 5.61922], [-75.36726, 5.60759], [-75.36028, 5.60294], [-75.3533, 5.60093], [-75.34713, 5.59751], [-75.33992, 5.58664], [-75.31617, 5.51713], [-75.31398, 5.50571], [-75.31351, 5.4999], [-75.31803, 5.46359], [-75.29142, 5.47383], [-75.27612, 5.43365], [-75.27134, 5.43473], [-75.26491, 5.43706], [-75.25359, 5.456], [-75.25003, 5.46096], [-75.24592, 5.46538], [-75.24184, 5.47104], [-75.23171, 5.48928], [-75.22561, 5.49532], [-75.21577, 5.503], [-75.19496, 5.51643], [-75.18088, 5.52318], [-75.17166, 5.52667], [-75.16786, 5.5276], [-75.14295, 5.53008], [-75.13745, 5.53279], [-75.13443, 5.53543], [-75.13373, 5.54359], [-75.10019, 5.5809], [-75.09172, 5.59627], [-75.09172, 5.60046], [-75.09259, 5.60457], [-75.09383, 5.63335], [-75.0912, 5.65958], [-75.05397, 5.66306], [-75.03394, 5.67004], [-75.02154, 5.6765], [-75.01441, 5.68115], [-75.00919, 5.68611], [-75.00454, 5.69185], [-75.00113, 5.69813], [-74.99704, 5.70332], [-74.99095, 5.71389], [-74.92687, 5.73252], [-74.88979, 5.73965], [-74.86677, 5.74384], [-74.84656, 5.73818], [-74.84183, 5.73474], [-74.83892, 5.7311], [-74.82842, 5.72133], [-74.78721, 5.69433], [-74.77726, 5.68968], [-74.74373, 5.6996], [-74.73127, 5.72311], [-74.72654, 5.74446], [-74.72259, 5.75484], [-74.71872, 5.76146], [-74.71755, 5.76952], [-74.7151, 5.77278], [-74.71184, 5.77487], [-74.70381, 5.77681], [-74.69854, 5.77649], [-74.68957, 5.77913], [-74.68613, 5.77913], [-74.68254, 5.7775], [-74.67432, 5.76936], [-74.67115, 5.76673], [-74.66249, 5.77195], [-74.65828, 5.76425], [-74.65055, 5.75825]]]}, "properties": {"id": "man-768c", "status": "validé", "pieces": [{"kind": "admin1", "code": "COL-1397"}, {"kind": "polygon", "ring": [[-75.87433, 5.48462], [-76.0199, 5.5612], [-76.18744, 5.3971], [-76.12427, 5.18096], [-75.6958, 5.13718], [-75.58868, 5.3971]]}, {"kind": "clip"}]}}, {"type": "Feature", "geometry": null, "properties": {"id": "man-818f", "status": "validé", "pieces": [{"kind": "admin1", "code": "COL-1314"}, {"kind": "admin1", "code": "COL-1417"}, {"kind": "admin1", "code": "COL-1316"}]}}, {"type": "Feature", "geometry": {"type": "MultiPolygon", "coordinates": [[[[-76.19843, 8.42065], [-76.32477, 8.2521], [-76.50879, 7.60172], [-76.34949, 7.37289], [-76.5033, 7.13304], [-76.97021, 7.5958], [-77.13501, 7.80817], [-76.96314, 8.20373], [-76.96312, 8.20368], [-76.95084, 8.19709], [-76.93529, 8.20539], [-76.93529, 8.18496], [-76.9217, 8.1992], [-76.91759, 8.18895], [-76.92711, 8.17276], [-76.92854, 8.15766], [-76.93301, 8.15961], [-76.94445, 8.16254], [-76.94896, 8.1645], [-76.94254, 8.12885], [-76.91832, 8.11392], [-76.89574, 8.11726], [-76.89371, 8.13654], [-76.83227, 8.13654], [-76.83837, 8.12787], [-76.84362, 8.11799], [-76.84675, 8.10712], [-76.84655, 8.09553], [-76.8391, 8.09553], [-76.8356, 8.09833], [-76.82543, 8.10301], [-76.82543, 8.09553], [-76.86022, 8.08251], [-76.86022, 8.07567], [-76.85123, 8.07416], [-76.84529, 8.07152], [-76.83707, 8.06249], [-76.83825, 8.06078], [-76.83812, 8.05793], [-76.8391, 8.05463], [-76.84341, 8.05939], [-76.84923, 8.06232], [-76.8568, 8.06318], [-76.86644, 8.062], [-76.85827, 8.05329], [-76.84838, 8.04702], [-76.83898, 8.03962], [-76.83227, 8.02729], [-76.85729, 8.03901], [-76.88439, 8.04633], [-76.9077, 8.04409], [-76.9217, 8.02729], [-76.92203, 8.02302], [-76.92077, 8.02192], [-76.91832, 8.02192], [-76.9154, 8.02106], [-76.93371, 7.96459], [-76.90705, 7.92951], [-76.85359, 7.91275], [-76.79133, 7.9112], [-76.77961, 7.91324], [-76.76765, 7.91743], [-76.75723, 7.92357], [-76.75036, 7.93171], [-76.74714, 7.9405], [-76.74747, 7.94644], [-76.74926, 7.95262], [-76.75036, 7.9621], [-76.7482, 7.97028], [-76.73884, 7.98029], [-76.73668, 7.98973], [-76.73062, 8.05134], [-76.732, 8.07929], [-76.74413, 8.10301], [-76.74665, 8.09516], [-76.74767, 8.08999], [-76.74694, 8.08454], [-76.74413, 8.07567], [-76.75036, 8.07567], [-76.75548, 8.09162], [-76.75919, 8.11469], [-76.75939, 8.13789], [-76.74791, 8.17154], [-76.75178, 8.19294], [-76.76464, 8.2259], [-76.77017, 8.25849], [-76.77009, 8.39802], [-76.77481, 8.41669], [-76.78791, 8.42451], [-76.80207, 8.43016], [-76.80842, 8.44416], [-76.81225, 8.46198], [-76.81859, 8.47915], [-76.83861, 8.50043], [-76.86998, 8.52155], [-76.90648, 8.53864], [-76.93529, 8.54181], [-76.93529, 8.53437], [-76.94717, 8.54548], [-76.93082, 8.57071], [-76.90636, 8.59931], [-76.89371, 8.62035], [-76.79475, 8.65107], [-76.77062, 8.65298], [-76.67321, 8.68041], [-76.66023, 8.68745], [-76.65478, 8.69575], [-76.65453, 8.70653], [-76.65294, 8.71817], [-76.64875, 8.72801], [-76.64049, 8.73363], [-76.64049, 8.73981], [-76.64733, 8.73981], [-76.64733, 8.7473], [-76.62825, 8.75047], [-76.56046, 8.77538], [-76.54686, 8.78457], [-76.5028, 8.8288], [-76.451, 8.86445], [-76.43829, 8.87561], [-76.19843, 8.42065]]], [[[-76.97157, 8.26373], [-76.97012, 8.26675], [-76.96203, 8.26655], [-76.95613, 8.25654], [-76.95629, 8.2469], [-76.97157, 8.26373]]]]}, "properties": {"id": "man-84cf", "status": "validé", "pieces": [{"kind": "polygon", "ring": [[-76.94824, 8.23803], [-77.13501, 7.80817], [-76.97021, 7.5958], [-76.5033, 7.13304], [-76.34949, 7.37289], [-76.50879, 7.60172], [-76.32477, 8.2521], [-76.19843, 8.42065], [-76.50055, 8.99369], [-77.19543, 8.51033]]}, {"kind": "clip"}]}}, {"type": "Feature", "geometry": null, "properties": {"id": "man-8c7a", "status": "validé", "pieces": [{"kind": "admin1", "code": "COL-1315"}]}}, {"type": "Feature", "geometry": null, "properties": {"id": "man-936b", "status": "validé", "pieces": [{"kind": "admin1", "code": "COL-1408"}]}}, {"type": "Feature", "geometry": {"type": "Polygon", "coordinates": [[[-76.53625, 3.50381], [-76.58432, 3.40987], [-76.55548, 3.34542], [-76.46004, 3.35708], [-76.44081, 3.44141], [-76.48476, 3.50929], [-76.53625, 3.50381]]]}, "properties": {"id": "man-9766", "status": "validé", "pieces": [{"kind": "polygon", "ring": [[-76.53625, 3.50381], [-76.58432, 3.40987], [-76.55548, 3.34542], [-76.46004, 3.35708], [-76.44081, 3.44141], [-76.48476, 3.50929]]}]}}, {"type": "Feature", "geometry": null, "properties": {"id": "man-a143", "status": "validé", "pieces": [{"kind": "admin1", "code": "COL-1408"}]}}, {"type": "Feature", "geometry": null, "properties": {"id": "man-aec8", "status": "validé", "pieces": [{"kind": "admin1", "code": "COL-1317"}]}}, {"type": "Feature", "geometry": {"type": "Polygon", "coordinates": [[[-74.64386, 10.84522], [-74.729, 10.73321], [-74.93637, 10.76695], [-74.94324, 10.93021], [-74.90736, 11.04563], [-74.8955, 11.04559], [-74.86151, 11.04883], [-74.84534, 11.06213], [-74.84628, 11.07261], [-74.7875, 11.08731], [-74.74858, 11.07444], [-74.64386, 10.84522]]]}, "properties": {"id": "man-b867", "status": "validé", "pieces": [{"kind": "polygon", "ring": [[-74.90341, 11.05832], [-74.94324, 10.93021], [-74.93637, 10.76695], [-74.729, 10.73321], [-74.64386, 10.84522], [-74.75784, 11.09472]]}, {"kind": "clip"}]}}, {"type": "Feature", "geometry": null, "properties": {"id": "man-b880", "status": "validé", "pieces": [{"kind": "admin1", "code": "COL-1402"}, {"kind": "admin1", "code": "COL-1408"}]}}, {"type": "Feature", "geometry": {"type": "Polygon", "coordinates": [[[-73.14594, 7.16185], [-73.14011, 7.13357], [-73.15006, 7.10051], [-73.13084, 7.06847], [-73.07693, 7.09131], [-73.09273, 7.13459], [-73.13805, 7.16594], [-73.14182, 7.16321], [-73.14594, 7.16185]]]}, "properties": {"id": "man-b89d", "status": "validé", "pieces": [{"kind": "polygon", "ring": [[-73.14594, 7.16185], [-73.14011, 7.13357], [-73.15006, 7.10051], [-73.13084, 7.06847], [-73.07693, 7.09131], [-73.09273, 7.13459], [-73.13805, 7.16594], [-73.14182, 7.16321]]}]}}, {"type": "Feature", "geometry": null, "properties": {"id": "man-baed", "status": "validé", "pieces": [{"kind": "admin1", "code": "COL-1421"}]}}, {"type": "Feature", "geometry": null, "properties": {"id": "man-bc5b", "status": "validé", "pieces": [{"kind": "admin1", "code": "COL-1317"}]}}, {"type": "Feature", "geometry": null, "properties": {"id": "man-c18e", "status": "validé", "pieces": [{"kind": "admin1", "code": "COL-1314"}, {"kind": "admin1", "code": "COL-1421"}]}}, {"type": "Feature", "geometry": null, "properties": {"id": "man-dd4f", "status": "validé", "pieces": [{"kind": "admin1", "code": "COL-1398"}, {"kind": "admin1", "code": "COL-1399"}]}}, {"type": "Feature", "geometry": null, "properties": {"id": "man-e001", "status": "validé", "pieces": [{"kind": "admin1", "code": "COL-1398"}]}}, {"type": "Feature", "geometry": null, "properties": {"id": "man-ecf4", "status": "validé", "pieces": [{"kind": "admin1", "code": "COL-1403"}]}}, {"type": "Feature", "geometry": null, "properties": {"id": "man-f274", "status": "validé", "pieces": [{"kind": "admin1", "code": "COL-1415"}, {"kind": "admin1", "code": "COL-1401"}]}}, {"type": "Feature", "geometry": null, "properties": {"id": "oKQt", "status": "rejeté", "pieces": []}}, {"type": "Feature", "geometry": {"type": "MultiPolygon", "coordinates": [[[[-77.01965, 1.77533], [-77.18994, 1.53932], [-77.39868, 1.27034], [-77.66235, 1.20447], [-77.76672, 1.31975], [-77.60742, 1.48443], [-77.36023, 1.77533], [-77.15698, 1.8796], [-77.01965, 1.77533]]], [[[-76.56921, 2.50447], [-76.47034, 2.42767], [-76.59943, 2.24662], [-76.74774, 2.09298], [-76.8576, 2.06829], [-76.92627, 2.12591], [-76.90155, 2.30697], [-76.71478, 2.4551], [-76.56921, 2.50447]]]]}, "properties": {"id": "qLYa", "status": "validé", "pieces": [{"kind": "polygon", "ring": [[-76.71478, 2.4551], [-76.90155, 2.30697], [-76.92627, 2.12591], [-76.8576, 2.06829], [-76.74774, 2.09298], [-76.59943, 2.24662], [-76.47034, 2.42767], [-76.56921, 2.50447]]}, {"kind": "polygon", "ring": [[-77.15698, 1.8796], [-77.36023, 1.77533], [-77.60742, 1.48443], [-77.76672, 1.31975], [-77.66235, 1.20447], [-77.39868, 1.27034], [-77.18994, 1.53932], [-77.01965, 1.77533]]}]}}, {"type": "Feature", "geometry": null, "properties": {"id": "rkhV", "status": "validé", "pieces": [{"kind": "country"}]}}, {"type": "Feature", "geometry": null, "properties": {"id": "uYGd", "status": "validé", "pieces": [{"kind": "country"}]}}, {"type": "Feature", "geometry": null, "properties": {"id": "wre8", "status": "validé", "pieces": [{"kind": "country"}]}}]}