{"type": "FeatureCollection", "features": [{"type": "Feature", "geometry": null, "properties": {"id": "9ndl", "status": "validé", "pieces": [{"kind": "country"}]}}, {"type": "Feature", "geometry": null, "properties": {"id": "C1Qn", "status": "validé", "pieces": [{"kind": "country"}]}}, {"type": "Feature", "geometry": {"type": "Polygon", "coordinates": [[[-68.93245, 12.11182], [-68.93275, 12.11103], [-68.93123, 12.11054], [-68.93108, 12.1113], [-68.93245, 12.11182]]]}, "properties": {"id": "DdrH", "status": "validé", "pieces": [{"kind": "polygon", "ring": [[-68.93245, 12.11182], [-68.93275, 12.11103], [-68.93123, 12.11054], [-68.93108, 12.1113]]}]}}, {"type": "Feature", "geometry": null, "properties": {"id": "IcNc", "status": "validé", "pieces": [{"kind": "country"}]}}, {"type": "Feature", "geometry": null, "properties": {"id": "Nchv", "status": "validé", "pieces": [{"kind": "country"}]}}, {"type": "Feature", "geometry": {"type": "Polygon", "coordinates": [[[-68.98768, 12.13246], [-69.00744, 12.14818], [-69.02025, 12.16975], [-69.02721, 12.19009], [-69.04361, 12.19668], [-69.0629, 12.19843], [-69.0786, 12.20425], [-69.09191, 12.21988], [-69.12267, 12.26903], [-69.13439, 12.27733], [-69.1481, 12.28441], [-69.15954, 12.29336], [-69.1643, 12.30695], [-69.16198, 12.34284], [-69.16381, 12.36188], [-69.17174, 12.37889], [-69.16613, 12.38784], [-69.1612, 12.39151], [-69.15624, 12.39061], [-69.15062, 12.38573], [-69.10778, 12.36782], [-69.08959, 12.35688], [-69.07152, 12.34138], [-69.06041, 12.32258], [-69.04996, 12.27611], [-69.04076, 12.25605], [-69.00402, 12.22167], [-68.96129, 12.20136], [-68.94406, 12.19722], [-68.98768, 12.13246]]]}, "properties": {"id": "SRsK", "status": "validé", "pieces": [{"kind": "polygon", "ring": [[-68.99689, 12.11879], [-68.92548, 12.2248], [-69.12048, 12.43803], [-69.207, 12.40854], [-69.22485, 12.19931]]}, {"kind": "clip"}]}}, {"type": "Feature", "geometry": null, "properties": {"id": "YPX7", "status": "validé", "pieces": [{"kind": "country"}]}}, {"type": "Feature", "geometry": {"type": "Polygon", "coordinates": [[[-68.98882, 12.18318], [-68.98882, 12.19702], [-69.0077, 12.19702], [-69.0077, 12.18318], [-68.98882, 12.18318]]]}, "properties": {"id": "aKGZ", "status": "validé", "pieces": [{"kind": "rect", "bounds": [-69.0077, 12.18318, -68.98882, 12.19702]}]}}, {"type": "Feature", "geometry": null, "properties": {"id": "hvDX", "status": "rejeté", "pieces": []}}, {"type": "Feature", "geometry": {"type": "Polygon", "coordinates": [[[-69.10246, 12.30482], [-69.10285, 12.30373], [-69.10267, 12.3005], [-69.10109, 12.29778], [-69.09555, 12.29996], [-69.09336, 12.31074], [-69.09933, 12.31565], [-69.09984, 12.31468], [-69.10104, 12.3104], [-69.1019, 12.307], [-69.10246, 12.30482]]]}, "properties": {"id": "man-0362", "status": "validé", "pieces": [{"kind": "polygon", "ring": [[-69.10246, 12.30482], [-69.10285, 12.30373], [-69.10267, 12.3005], [-69.10109, 12.29778], [-69.09555, 12.29996], [-69.09336, 12.31074], [-69.09933, 12.31565], [-69.09984, 12.31468], [-69.10104, 12.3104], [-69.1019, 12.307]]}]}}, {"type": "Feature", "geometry": {"type": "Polygon", "coordinates": [[[-68.90162, 12.08327], [-68.90385, 12.10225], [-68.93097, 12.11568], [-68.95157, 12.12458], [-68.96839, 12.12676], [-68.9732, 12.11484], [-68.90162, 12.08327]]]}, "properties": {"id": "man-05ee", "status": "validé", "pieces": [{"kind": "polygon", "ring": [[-68.90162, 12.08327], [-68.90385, 12.10225], [-68.93097, 12.11568], [-68.95157, 12.12458], [-68.96839, 12.12676], [-68.9732, 12.11484]]}]}}, {"type": "Feature", "geometry": {"type": "Polygon", "coordinates": [[[-69.05079, 12.24604], [-69.04976, 12.24764], [-69.05311, 12.25603], [-69.05517, 12.25821], [-69.05671, 12.26584], [-69.05869, 12.26752], [-69.06169, 12.27239], [-69.06418, 12.27281], [-69.06748, 12.27534], [-69.06974, 12.27601], [-69.07083, 12.27645], [-69.07235, 12.27767], [-69.07484, 12.27947], [-69.07559, 12.28161], [-69.07491, 12.28434], [-69.07452, 12.28623], [-69.07302, 12.29236], [-69.07349, 12.29432], [-69.07514, 12.29579], [-69.07654, 12.29837], [-69.07847, 12.30235], [-69.08044, 12.30705], [-69.08109, 12.31069], [-69.08298, 12.31476], [-69.08478, 12.32089], [-69.08967, 12.326], [-69.09074, 12.32873], [-69.09091, 12.33603], [-69.09594, 12.33791], [-69.10117, 12.33955], [-69.10289, 12.34295], [-69.1031, 12.34634], [-69.10628, 12.35062], [-69.10735, 12.35054], [-69.10615, 12.34865], [-69.10362, 12.33976], [-69.10143, 12.33766], [-69.0928, 12.33536], [-69.09203, 12.32595], [-69.08495, 12.31639], [-69.0828, 12.3106], [-69.08212, 12.30859], [-69.08113, 12.30276], [-69.07658, 12.29571], [-69.07478, 12.29324], [-69.07559, 12.28602], [-69.07697, 12.28245], [-69.07555, 12.27878], [-69.07135, 12.27518], [-69.06765, 12.2732], [-69.06426, 12.27044], [-69.05804, 12.26418], [-69.05658, 12.25722], [-69.05388, 12.25319], [-69.05079, 12.24604]]]}, "properties": {"id": "man-0888", "status": "validé", "pieces": [{"kind": "polygon", "ring": [[-69.05079, 12.24604], [-69.04976, 12.24764], [-69.05311, 12.25603], [-69.05517, 12.25821], [-69.05671, 12.26584], [-69.05869, 12.26752], [-69.06169, 12.27239], [-69.06418, 12.27281], [-69.06748, 12.27534], [-69.06974, 12.27601], [-69.07083, 12.27645], [-69.07235, 12.27767], [-69.07484, 12.27947], [-69.07559, 12.28161], [-69.07491, 12.28434], [-69.07452, 12.28623], [-69.07302, 12.29236], [-69.07349, 12.29432], [-69.07514, 12.29579], [-69.07654, 12.29837], [-69.07847, 12.30235], [-69.08044, 12.30705], [-69.08109, 12.31069], [-69.08298, 12.31476], [-69.08478, 12.32089], [-69.08967, 12.326], [-69.09074, 12.32873], [-69.09091, 12.33603], [-69.09594, 12.33791], [-69.10117, 12.33955], [-69.10289, 12.34295], [-69.1031, 12.34634], [-69.10628, 12.35062], [-69.10735, 12.35054], [-69.10615, 12.34865], [-69.10362, 12.33976], [-69.10143, 12.33766], [-69.0928, 12.33536], [-69.09203, 12.32595], [-69.08495, 12.31639], [-69.0828, 12.3106], [-69.08212, 12.30859], [-69.08113, 12.30276], [-69.07658, 12.29571], [-69.07478, 12.29324], [-69.07559, 12.28602], [-69.07697, 12.28245], [-69.07555, 12.27878], [-69.07135, 12.27518], [-69.06765, 12.2732], [-69.06426, 12.27044], [-69.05804, 12.26418], [-69.05658, 12.25722], [-69.05388, 12.25319]]}]}}, {"type": "Feature", "geometry": {"type": "Polygon", "coordinates": [[[-69.16239, 12.37851], [-69.16005, 12.37933], [-69.16117, 12.38376], [-69.16404, 12.38189], [-69.16239, 12.37851]]]}, "properties": {"id": "man-0a56", "status": "validé", "pieces": [{"kind": "polygon", "ring": [[-69.16239, 12.37851], [-69.16005, 12.37933], [-69.16117, 12.38376], [-69.16404, 12.38189]]}]}}, {"type": "Feature", "geometry": {"type": "Polygon", "coordinates": [[[-68.97594, 12.16145], [-68.98109, 12.20879], [-68.97346, 12.20714], [-68.96129, 12.20136], [-68.83528, 12.17105], [-68.8275, 12.16637], [-68.79982, 12.09425], [-68.80737, 12.05932], [-68.84557, 12.05843], [-68.89342, 12.09052], [-68.94473, 12.10562], [-68.97777, 12.12458], [-68.994, 12.13749], [-68.97594, 12.16145]]]}, "properties": {"id": "man-1e29", "status": "validé", "pieces": [{"kind": "polygon", "ring": [[-68.99826, 12.13184], [-68.97594, 12.16145], [-68.98109, 12.20879], [-68.83141, 12.17656], [-68.79982, 12.09425], [-68.80737, 12.05932], [-68.89389, 12.05731]]}, {"kind": "clip"}]}}, {"type": "Feature", "geometry": {"type": "Polygon", "coordinates": [[[-69.1301, 12.35475], [-69.13113, 12.31784], [-69.07551, 12.30609], [-69.07379, 12.343], [-69.1301, 12.35475]]]}, "properties": {"id": "man-1e6d", "status": "validé", "pieces": [{"kind": "polygon", "ring": [[-69.1301, 12.35475], [-69.13113, 12.31784], [-69.07551, 12.30609], [-69.07379, 12.343]]}]}}, {"type": "Feature", "geometry": {"type": "Polygon", "coordinates": [[[-68.99998, 12.13494], [-68.96496, 12.20411], [-68.83415, 12.19236], [-68.81767, 12.13525], [-68.79639, 12.06741], [-68.89801, 12.04121], [-68.99998, 12.13494]]]}, "properties": {"id": "man-1f78", "status": "validé", "pieces": [{"kind": "polygon", "ring": [[-68.99998, 12.13494], [-68.96496, 12.20411], [-68.83415, 12.19236], [-68.81767, 12.13525], [-68.79639, 12.06741], [-68.89801, 12.04121]]}]}}, {"type": "Feature", "geometry": {"type": "Polygon", "coordinates": [[[-68.89011, 12.13596], [-68.9035, 12.10574], [-68.8678, 12.08693], [-68.84583, 12.10373], [-68.84926, 12.11649], [-68.89011, 12.13596]]]}, "properties": {"id": "man-1ff3", "status": "validé", "pieces": [{"kind": "polygon", "ring": [[-68.89011, 12.13596], [-68.9035, 12.10574], [-68.8678, 12.08693], [-68.84583, 12.10373], [-68.84926, 12.11649]]}]}}, {"type": "Feature", "geometry": {"type": "Polygon", "coordinates": [[[-69.13284, 12.36314], [-69.14005, 12.34066], [-69.13319, 12.32892], [-69.08855, 12.31751], [-69.07825, 12.34368], [-69.13284, 12.36314]]]}, "properties": {"id": "man-20a1", "status": "validé", "pieces": [{"kind": "polygon", "ring": [[-69.13284, 12.36314], [-69.14005, 12.34066], [-69.13319, 12.32892], [-69.08855, 12.31751], [-69.07825, 12.34368]]}]}}, {"type": "Feature", "geometry": {"type": "Polygon", "coordinates": [[[-69.07182, 12.21931], [-69.06512, 12.20916], [-69.05701, 12.21017], [-69.06014, 12.21927], [-69.06804, 12.22259], [-69.07182, 12.21931]]]}, "properties": {"id": "man-2362", "status": "validé", "pieces": [{"kind": "polygon", "ring": [[-69.07182, 12.21931], [-69.06512, 12.20916], [-69.05701, 12.21017], [-69.06014, 12.21927], [-69.06804, 12.22259]]}]}}, {"type": "Feature", "geometry": {"type": "Polygon", "coordinates": [[[-69.00564, 12.20345], [-69.01174, 12.19556], [-69.00667, 12.17399], [-68.98367, 12.18188], [-68.98212, 12.19338], [-69.00564, 12.20345]]]}, "properties": {"id": "man-24e9", "status": "validé", "pieces": [{"kind": "polygon", "ring": [[-69.00564, 12.20345], [-69.01174, 12.19556], [-69.00667, 12.17399], [-68.98367, 12.18188], [-68.98212, 12.19338]]}]}}, {"type": "Feature", "geometry": {"type": "Polygon", "coordinates": [[[-68.79707, 12.08554], [-68.83247, 12.05142], [-68.84118, 12.05549], [-68.89342, 12.09052], [-68.94473, 12.10562], [-68.97777, 12.12458], [-69.00744, 12.14818], [-69.02025, 12.16975], [-69.02721, 12.19009], [-69.04361, 12.19668], [-69.04365, 12.19669], [-69.04633, 12.20978], [-69.02073, 12.23731], [-69.00402, 12.22167], [-68.96129, 12.20136], [-68.83528, 12.17105], [-68.82079, 12.16234], [-68.81481, 12.1496], [-68.81184, 12.12934], [-68.80403, 12.11701], [-68.79917, 12.11301], [-68.79707, 12.08554]]]}, "properties": {"id": "man-26e6", "status": "validé", "pieces": [{"kind": "polygon", "ring": [[-68.84377, 12.04054], [-68.79707, 12.08554], [-68.80463, 12.18427], [-69.00513, 12.25409], [-69.04633, 12.20978], [-69.03259, 12.14263]]}, {"kind": "clip"}]}}, {"type": "Feature", "geometry": {"type": "Polygon", "coordinates": [[[-68.85203, 12.06891], [-68.85098, 12.06862], [-68.8508, 12.06652], [-68.84795, 12.06471], [-68.84726, 12.06398], [-68.84763, 12.06339], [-68.85052, 12.06476], [-68.85252, 12.0666], [-68.85203, 12.06891]]]}, "properties": {"id": "man-2e00", "status": "validé", "pieces": [{"kind": "polygon", "ring": [[-68.85203, 12.06891], [-68.85098, 12.06862], [-68.8508, 12.06652], [-68.84795, 12.06471], [-68.84726, 12.06398], [-68.84763, 12.06339], [-68.85052, 12.06476], [-68.85252, 12.0666]]}]}}, {"type": "Feature", "geometry": {"type": "Polygon", "coordinates": [[[-68.91123, 12.10842], [-68.9111, 12.10704], [-68.91599, 12.108], [-68.91685, 12.10762], [-68.92041, 12.10498], [-68.92282, 12.10544], [-68.92513, 12.10771], [-68.93015, 12.10934], [-68.93496, 12.1119], [-68.93663, 12.11312], [-68.93754, 12.11384], [-68.94676, 12.11476], [-68.94899, 12.12248], [-68.95092, 12.13285], [-68.95183, 12.13478], [-68.94955, 12.13608], [-68.94689, 12.13764], [-68.93942, 12.13755], [-68.93524, 12.13867], [-68.93078, 12.14173], [-68.92423, 12.14498], [-68.91915, 12.14498], [-68.91644, 12.14318], [-68.91488, 12.14106], [-68.90867, 12.1398], [-68.90612, 12.1369], [-68.90479, 12.13533], [-68.90393, 12.12823], [-68.90265, 12.12101], [-68.90101, 12.11879], [-68.90157, 12.11514], [-68.9026, 12.11258], [-68.9041, 12.11043], [-68.90904, 12.10817], [-68.91101, 12.10861], [-68.91123, 12.10842]]]}, "properties": {"id": "man-2f9a", "status": "validé", "pieces": [{"kind": "polygon", "ring": [[-68.91123, 12.10842], [-68.9111, 12.10704], [-68.91599, 12.108], [-68.91685, 12.10762], [-68.92041, 12.10498], [-68.92282, 12.10544], [-68.92513, 12.10771], [-68.93015, 12.10934], [-68.93496, 12.1119], [-68.93663, 12.11312], [-68.93754, 12.11384], [-68.94676, 12.11476], [-68.94899, 12.12248], [-68.95092, 12.13285], [-68.95183, 12.13478], [-68.94955, 12.13608], [-68.94689, 12.13764], [-68.93942, 12.13755], [-68.93524, 12.13867], [-68.93078, 12.14173], [-68.92423, 12.14498], [-68.91915, 12.14498], [-68.91644, 12.14318], [-68.91488, 12.14106], [-68.90867, 12.1398], [-68.90612, 12.1369], [-68.90479, 12.13533], [-68.90393, 12.12823], [-68.90265, 12.12101], [-68.90101, 12.11879], [-68.90157, 12.11514], [-68.9026, 12.11258], [-68.9041, 12.11043], [-68.90904, 12.10817], [-68.91132, 12.10868], [-68.91422, 12.10851], [-68.91726, 12.10904], [-68.91882, 12.10782], [-68.92052, 12.10612], [-68.922, 12.10614], [-68.9243, 12.10845], [-68.92715, 12.10963], [-68.92908, 12.1117], [-68.9308, 12.11126], [-68.93417, 12.11269], [-68.93417, 12.11433], [-68.93537, 12.11439], [-68.94138, 12.11519], [-68.94335, 12.11484], [-68.94572, 12.11575], [-68.94609, 12.11736], [-68.94669, 12.11903], [-68.94744, 12.12201], [-68.94839, 12.12609], [-68.94961, 12.13252], [-68.95039, 12.13379], [-68.94706, 12.13619], [-68.93982, 12.1363], [-68.93324, 12.13811], [-68.92497, 12.14319], [-68.92004, 12.14416], [-68.91697, 12.14268], [-68.91482, 12.13999], [-68.90866, 12.13893], [-68.90556, 12.13391], [-68.90497, 12.12843], [-68.90372, 12.12258], [-68.90319, 12.12004], [-68.90196, 12.11832], [-68.90262, 12.11449], [-68.90396, 12.11274], [-68.90466, 12.11158], [-68.90745, 12.1117]]}]}}, {"type": "Feature", "geometry": {"type": "Polygon", "coordinates": [[[-68.93265, 12.11186], [-68.93266, 12.11114], [-68.9313, 12.11069], [-68.93118, 12.1112], [-68.93127, 12.1114], [-68.93265, 12.11186]]]}, "properties": {"id": "man-3761", "status": "validé", "pieces": [{"kind": "polygon", "ring": [[-68.93265, 12.11186], [-68.93266, 12.11114], [-68.9313, 12.11069], [-68.93118, 12.1112], [-68.93127, 12.1114]]}]}}, {"type": "Feature", "geometry": {"type": "Polygon", "coordinates": [[[-68.85887, 12.15639], [-68.86909, 12.15681], [-68.869, 12.14673], [-68.85844, 12.14455], [-68.85887, 12.15639]]]}, "properties": {"id": "man-3eb4", "status": "validé", "pieces": [{"kind": "polygon", "ring": [[-68.85887, 12.15639], [-68.86909, 12.15681], [-68.869, 12.14673], [-68.85844, 12.14455]]}]}}, {"type": "Feature", "geometry": {"type": "Polygon", "coordinates": [[[-68.99933, 12.18683], [-68.99757, 12.18758], [-68.99508, 12.18429], [-68.98753, 12.18076], [-68.98298, 12.17688], [-68.97298, 12.17047], [-68.97201, 12.16976], [-68.97057, 12.16938], [-68.96865, 12.16906], [-68.96761, 12.16888], [-68.9677, 12.16808], [-68.97341, 12.16967], [-68.97921, 12.17315], [-68.99663, 12.18396], [-68.99933, 12.18683]]]}, "properties": {"id": "man-4577", "status": "validé", "pieces": [{"kind": "polygon", "ring": [[-68.99933, 12.18683], [-68.99757, 12.18758], [-68.99508, 12.18429], [-68.98753, 12.18076], [-68.98298, 12.17688], [-68.97298, 12.17047], [-68.97201, 12.16976], [-68.97057, 12.16938], [-68.96865, 12.16906], [-68.96761, 12.16888], [-68.9677, 12.16808], [-68.97341, 12.16967], [-68.97921, 12.17315], [-68.99663, 12.18396]]}]}}, {"type": "Feature", "geometry": {"type": "Polygon", "coordinates": [[[-69.03702, 12.19403], [-69.04361, 12.19668], [-69.0629, 12.19843], [-69.0786, 12.20425], [-69.09191, 12.21988], [-69.12267, 12.26903], [-69.13439, 12.27733], [-69.1481, 12.28441], [-69.15954, 12.29336], [-69.1643, 12.30695], [-69.16198, 12.34284], [-69.16381, 12.36188], [-69.17174, 12.37889], [-69.16613, 12.38784], [-69.1612, 12.39151], [-69.15624, 12.39061], [-69.15062, 12.38573], [-69.10778, 12.36782], [-69.08959, 12.35688], [-69.07152, 12.34138], [-69.06041, 12.32258], [-69.04996, 12.27611], [-69.04076, 12.25605], [-69.00787, 12.22527], [-69.03702, 12.19403]]]}, "properties": {"id": "man-4636", "status": "validé", "pieces": [{"kind": "polygon", "ring": [[-69.05869, 12.17082], [-68.99414, 12.23998], [-69.09164, 12.42587], [-69.27567, 12.38019], [-69.22073, 12.31577]]}, {"kind": "clip"}]}}, {"type": "Feature", "geometry": {"type": "Polygon", "coordinates": [[[-69.04091, 12.1956], [-69.04361, 12.19668], [-69.0629, 12.19843], [-69.0786, 12.20425], [-69.09191, 12.21988], [-69.12267, 12.26903], [-69.13439, 12.27733], [-69.1481, 12.28441], [-69.15954, 12.29336], [-69.1643, 12.30695], [-69.16198, 12.34284], [-69.16381, 12.36188], [-69.17174, 12.37889], [-69.16613, 12.38784], [-69.1612, 12.39151], [-69.15624, 12.39061], [-69.15062, 12.38573], [-69.10778, 12.36782], [-69.08959, 12.35688], [-69.07152, 12.34138], [-69.06041, 12.32258], [-69.04996, 12.27611], [-69.04076, 12.25605], [-69.00964, 12.22693], [-69.04091, 12.1956]]]}, "properties": {"id": "man-46a9", "status": "validé", "pieces": [{"kind": "polygon", "ring": [[-69.0683, 12.16815], [-68.98521, 12.2514], [-69.11293, 12.41112], [-69.20082, 12.40709], [-69.21524, 12.24469]]}, {"kind": "clip"}]}}, {"type": "Feature", "geometry": {"type": "Polygon", "coordinates": [[[-68.92908, 12.10024], [-68.9217, 12.11301], [-68.89466, 12.11158], [-68.88668, 12.1052], [-68.89612, 12.08236], [-68.92908, 12.10024]]]}, "properties": {"id": "man-4ea7", "status": "validé", "pieces": [{"kind": "polygon", "ring": [[-68.92908, 12.10024], [-68.9217, 12.11301], [-68.89466, 12.11158], [-68.88668, 12.1052], [-68.89612, 12.08236]]}]}}, {"type": "Feature", "geometry": {"type": "Polygon", "coordinates": [[[-68.9229, 12.11099], [-68.92277, 12.10872], [-68.92024, 12.10654], [-68.91419, 12.10885], [-68.91531, 12.11619], [-68.92466, 12.11582], [-68.9229, 12.11099]]]}, "properties": {"id": "man-51e4", "status": "validé", "pieces": [{"kind": "polygon", "ring": [[-68.9229, 12.11099], [-68.92277, 12.10872], [-68.92024, 12.10654], [-68.91419, 12.10885], [-68.91531, 12.11619], [-68.92466, 12.11582]]}]}}, {"type": "Feature", "geometry": {"type": "Polygon", "coordinates": [[[-69.10817, 12.35171], [-69.10619, 12.3489], [-69.10486, 12.3409], [-69.12495, 12.3409], [-69.13645, 12.35465], [-69.1361, 12.36539], [-69.1258, 12.36589], [-69.10817, 12.35171]]]}, "properties": {"id": "man-538d", "status": "validé", "pieces": [{"kind": "polygon", "ring": [[-69.10817, 12.35171], [-69.10619, 12.3489], [-69.10486, 12.3409], [-69.12495, 12.3409], [-69.13645, 12.35465], [-69.1361, 12.36539], [-69.1258, 12.36589]]}]}}, {"type": "Feature", "geometry": {"type": "Polygon", "coordinates": [[[-68.81111, 12.07935], [-68.81006, 12.07757], [-68.80656, 12.0807], [-68.81757, 12.08678], [-68.81956, 12.0871], [-68.82031, 12.08397], [-68.82012, 12.08395], [-68.81941, 12.08393], [-68.81677, 12.08322], [-68.8137, 12.08147], [-68.81111, 12.07935]]]}, "properties": {"id": "man-5819", "status": "validé", "pieces": [{"kind": "polygon", "ring": [[-68.81111, 12.07935], [-68.81006, 12.07757], [-68.80656, 12.0807], [-68.81757, 12.08678], [-68.81956, 12.0871], [-68.82031, 12.08397], [-68.82012, 12.08395], [-68.81941, 12.08393], [-68.81677, 12.08322], [-68.8137, 12.08147]]}]}}, {"type": "Feature", "geometry": null, "properties": {"id": "man-59fd", "status": "rejeté", "pieces": []}}, {"type": "Feature", "geometry": {"type": "Polygon", "coordinates": [[[-68.84778, 12.13609], [-68.85052, 12.13309], [-68.8452, 12.12732], [-68.83844, 12.13416], [-68.84778, 12.13609]]]}, "properties": {"id": "man-5c5c", "status": "validé", "pieces": [{"kind": "polygon", "ring": [[-68.84778, 12.13609], [-68.85052, 12.13309], [-68.8452, 12.12732], [-68.83844, 12.13416]]}]}}, {"type": "Feature", "geometry": {"type": "Polygon", "coordinates": [[[-68.8266, 12.14166], [-68.86745, 12.16751], [-68.88531, 12.15576], [-68.88428, 12.13897], [-68.83896, 12.11278], [-68.8266, 12.14166]]]}, "properties": {"id": "man-5c7f", "status": "validé", "pieces": [{"kind": "polygon", "ring": [[-68.8266, 12.14166], [-68.86745, 12.16751], [-68.88531, 12.15576], [-68.88428, 12.13897], [-68.83896, 12.11278]]}]}}, {"type": "Feature", "geometry": {"type": "Polygon", "coordinates": [[[-69.14969, 12.32955], [-69.14658, 12.34344], [-69.14331, 12.34512], [-69.14589, 12.34709], [-69.15301, 12.35296], [-69.1561, 12.36076], [-69.1543, 12.36965], [-69.15233, 12.36898], [-69.14967, 12.35581], [-69.14331, 12.35235], [-69.13937, 12.34397], [-69.144, 12.34212], [-69.14709, 12.32601], [-69.14778, 12.32182], [-69.14572, 12.32148], [-69.13816, 12.31175], [-69.13301, 12.30773], [-69.12812, 12.30189], [-69.13001, 12.29963], [-69.1337, 12.30415], [-69.13842, 12.30499], [-69.14022, 12.30683], [-69.14537, 12.31707], [-69.14821, 12.31766], [-69.15198, 12.31766], [-69.15147, 12.32831], [-69.14969, 12.32955]]]}, "properties": {"id": "man-60f9", "status": "validé", "pieces": [{"kind": "polygon", "ring": [[-69.13001, 12.29963], [-69.12812, 12.30189], [-69.13301, 12.30773], [-69.13816, 12.31175], [-69.14572, 12.32148], [-69.14778, 12.32182], [-69.14709, 12.32601], [-69.144, 12.34212], [-69.13937, 12.34397], [-69.14331, 12.35235], [-69.14967, 12.35581], [-69.15233, 12.36898], [-69.1543, 12.36965], [-69.1561, 12.36076], [-69.15301, 12.35296], [-69.14589, 12.34709], [-69.14331, 12.34512], [-69.14658, 12.34344], [-69.14984, 12.32889], [-69.14967, 12.32957], [-69.15147, 12.32831], [-69.15198, 12.31766], [-69.14821, 12.31766], [-69.14537, 12.31707], [-69.14022, 12.30683], [-69.13842, 12.30499], [-69.1337, 12.30415]]}]}}, {"type": "Feature", "geometry": {"type": "Polygon", "coordinates": [[[-69.15683, 12.38991], [-69.15452, 12.3905], [-69.15228, 12.38731], [-69.1561, 12.37947], [-69.15597, 12.37725], [-69.15743, 12.37704], [-69.1607, 12.38676], [-69.15683, 12.38991]]]}, "properties": {"id": "man-6232", "status": "validé", "pieces": [{"kind": "polygon", "ring": [[-69.15683, 12.38991], [-69.15452, 12.3905], [-69.15228, 12.38731], [-69.1561, 12.37947], [-69.15597, 12.37725], [-69.15743, 12.37704], [-69.1607, 12.38676]]}]}}, {"type": "Feature", "geometry": {"type": "Polygon", "coordinates": [[[-69.15022, 12.37106], [-69.14971, 12.37026], [-69.14499, 12.37202], [-69.14134, 12.37181], [-69.1364, 12.37081], [-69.13117, 12.36867], [-69.1255, 12.36796], [-69.12018, 12.3646], [-69.11675, 12.36305], [-69.11439, 12.35806], [-69.10937, 12.35336], [-69.10735, 12.35035], [-69.10658, 12.35139], [-69.11173, 12.35935], [-69.11422, 12.3612], [-69.11765, 12.36598], [-69.12297, 12.36841], [-69.12435, 12.36933], [-69.13293, 12.37059], [-69.13782, 12.37269], [-69.14108, 12.37244], [-69.14346, 12.3731], [-69.15022, 12.37106]]]}, "properties": {"id": "man-65f1", "status": "validé", "pieces": [{"kind": "polygon", "ring": [[-69.15022, 12.37106], [-69.14971, 12.37026], [-69.14499, 12.37202], [-69.14134, 12.37181], [-69.1364, 12.37081], [-69.13117, 12.36867], [-69.1255, 12.36796], [-69.12018, 12.3646], [-69.11675, 12.36305], [-69.11439, 12.35806], [-69.10937, 12.35336], [-69.10735, 12.35035], [-69.10658, 12.35139], [-69.11173, 12.35935], [-69.11422, 12.3612], [-69.11765, 12.36598], [-69.12297, 12.36841], [-69.12435, 12.36933], [-69.13293, 12.37059], [-69.13782, 12.37269], [-69.14108, 12.37244], [-69.14346, 12.3731]]}]}}, {"type": "Feature", "geometry": {"type": "Polygon", "coordinates": [[[-68.8896, 12.10007], [-68.88992, 12.09979], [-68.88977, 12.09972], [-68.89858, 12.09204], [-68.94473, 12.10562], [-68.95346, 12.11062], [-68.9472, 12.12176], [-68.94608, 12.12424], [-68.93629, 12.11998], [-68.8896, 12.10007]]]}, "properties": {"id": "man-6cd6", "status": "validé", "pieces": [{"kind": "polygon", "ring": [[-68.9538, 12.10728], [-68.94608, 12.12424], [-68.88977, 12.09972], [-68.91174, 12.08055], [-68.91758, 12.08458]]}, {"kind": "clip"}, {"kind": "polygon", "ring": [[-68.90007, 12.09133], [-68.90591, 12.08864], [-68.91844, 12.09771], [-68.909, 12.09737], [-68.89904, 12.09586]]}, {"kind": "polygon", "ring": [[-68.90333, 12.08831], [-68.8896, 12.10007], [-68.9459, 12.12408], [-68.95552, 12.10695], [-68.93818, 12.09721]]}]}}, {"type": "Feature", "geometry": {"type": "Polygon", "coordinates": [[[-69.02405, 12.20495], [-69.01676, 12.20705], [-69.02079, 12.21365], [-69.02461, 12.21336], [-69.02598, 12.20849], [-69.02405, 12.20495]]]}, "properties": {"id": "man-75f9", "status": "validé", "pieces": [{"kind": "polygon", "ring": [[-69.02405, 12.20495], [-69.01676, 12.20705], [-69.02079, 12.21365], [-69.02461, 12.21336], [-69.02598, 12.20849]]}]}}, {"type": "Feature", "geometry": {"type": "Polygon", "coordinates": [[[-68.98556, 12.16751], [-68.97078, 12.20587], [-68.96129, 12.20136], [-68.83528, 12.17105], [-68.82713, 12.16615], [-68.79982, 12.07616], [-68.84838, 12.06032], [-68.89342, 12.09052], [-68.94473, 12.10562], [-68.97777, 12.12458], [-69.00364, 12.14516], [-69.0041, 12.14602], [-68.98556, 12.16751]]]}, "properties": {"id": "man-776d", "status": "validé", "pieces": [{"kind": "polygon", "ring": [[-69.0041, 12.14602], [-68.98556, 12.16751], [-68.96564, 12.21921], [-68.82866, 12.1712], [-68.79982, 12.07616], [-68.86574, 12.05466], [-68.96187, 12.06675]]}, {"kind": "clip"}]}}, {"type": "Feature", "geometry": {"type": "Polygon", "coordinates": [[[-68.96942, 12.18155], [-68.9215, 12.19179], [-68.83617, 12.17126], [-68.83102, 12.16849], [-68.82079, 12.16234], [-68.81481, 12.1496], [-68.81184, 12.12934], [-68.80403, 12.11701], [-68.78075, 12.0978], [-68.74523, 12.06224], [-68.73973, 12.05305], [-68.74865, 12.04702], [-68.76985, 12.04291], [-68.79475, 12.04133], [-68.81481, 12.04316], [-68.84118, 12.05549], [-68.89342, 12.09052], [-68.94473, 12.10562], [-68.97777, 12.12458], [-68.99418, 12.13763], [-68.96942, 12.18155]]]}, "properties": {"id": "man-809f", "status": "validé", "pieces": [{"kind": "polygon", "ring": [[-68.99895, 12.12917], [-68.96942, 12.18155], [-68.88771, 12.19901], [-68.64944, 12.07074], [-68.79639, 11.98675]]}, {"kind": "clip"}]}}, {"type": "Feature", "geometry": {"type": "Polygon", "coordinates": [[[-68.83825, 12.0906], [-68.83731, 12.09062], [-68.83595, 12.08548], [-68.83694, 12.08208], [-68.8346, 12.07971], [-68.83838, 12.07408], [-68.84085, 12.06921], [-68.84055, 12.06303], [-68.83915, 12.06272], [-68.83862, 12.06171], [-68.84037, 12.06108], [-68.84413, 12.06072], [-68.84773, 12.06377], [-68.85196, 12.06584], [-68.85119, 12.06673], [-68.84995, 12.06673], [-68.84488, 12.06299], [-68.84256, 12.06173], [-68.84072, 12.06215], [-68.84107, 12.06337], [-68.84147, 12.07064], [-68.83947, 12.07497], [-68.83634, 12.08021], [-68.83806, 12.08219], [-68.83673, 12.0858], [-68.83825, 12.0906]]]}, "properties": {"id": "man-8377", "status": "validé", "pieces": [{"kind": "polygon", "ring": [[-68.83825, 12.0906], [-68.83731, 12.09062], [-68.83595, 12.08548], [-68.83694, 12.08208], [-68.8346, 12.07971], [-68.83838, 12.07408], [-68.84085, 12.06921], [-68.84055, 12.06303], [-68.83915, 12.06272], [-68.83862, 12.06171], [-68.84037, 12.06108], [-68.84413, 12.06072], [-68.84773, 12.06377], [-68.85196, 12.06584], [-68.85119, 12.06673], [-68.84995, 12.06673], [-68.84488, 12.06299], [-68.84256, 12.06173], [-68.84072, 12.06215], [-68.84107, 12.06337], [-68.84147, 12.07064], [-68.83947, 12.07497], [-68.83634, 12.08021], [-68.83806, 12.08219], [-68.83673, 12.0858]]}]}}, {"type": "Feature", "geometry": {"type": "Polygon", "coordinates": [[[-69.01304, 12.23011], [-69.00402, 12.22167], [-68.96129, 12.20136], [-68.83528, 12.17105], [-68.82528, 12.16504], [-68.79776, 12.0768], [-68.83711, 12.05358], [-68.84118, 12.05549], [-68.89342, 12.09052], [-68.94473, 12.10562], [-68.97777, 12.12458], [-69.00744, 12.14818], [-69.02025, 12.16975], [-69.02721, 12.19009], [-69.03897, 12.19482], [-69.01304, 12.23011]]]}, "properties": {"id": "man-83ee", "status": "validé", "pieces": [{"kind": "polygon", "ring": [[-69.04427, 12.18762], [-68.99345, 12.25677], [-68.83965, 12.21112], [-68.79776, 12.0768], [-68.84102, 12.05128], [-68.96049, 12.04254]]}, {"kind": "clip"}]}}, {"type": "Feature", "geometry": {"type": "Polygon", "coordinates": [[[-69.00015, 12.18809], [-68.99946, 12.18897], [-69.00496, 12.19447], [-69.0077, 12.19889], [-69.01594, 12.20544], [-69.02315, 12.21525], [-69.02504, 12.21718], [-69.0301, 12.22381], [-69.03414, 12.22851], [-69.03706, 12.23177], [-69.041, 12.23558], [-69.04555, 12.24007], [-69.04839, 12.24489], [-69.04924, 12.24623], [-69.05122, 12.24974], [-69.05225, 12.24932], [-69.04959, 12.24395], [-69.04555, 12.23808], [-69.0368, 12.22927], [-69.0259, 12.21609], [-69.02229, 12.21114], [-69.01637, 12.20367], [-69.01251, 12.20015], [-69.0095, 12.1978], [-69.00581, 12.19319], [-69.00264, 12.19017], [-69.00015, 12.18809]]]}, "properties": {"id": "man-8d18", "status": "validé", "pieces": [{"kind": "polygon", "ring": [[-69.00015, 12.18809], [-68.99946, 12.18897], [-69.00496, 12.19447], [-69.0077, 12.19889], [-69.01594, 12.20544], [-69.02315, 12.21525], [-69.02504, 12.21718], [-69.0301, 12.22381], [-69.03414, 12.22851], [-69.03706, 12.23177], [-69.041, 12.23558], [-69.04555, 12.24007], [-69.04839, 12.24489], [-69.04924, 12.24623], [-69.05122, 12.24974], [-69.05225, 12.24932], [-69.04959, 12.24395], [-69.04555, 12.23808], [-69.0368, 12.22927], [-69.0259, 12.21609], [-69.02229, 12.21114], [-69.01637, 12.20367], [-69.01251, 12.20015], [-69.0095, 12.1978], [-69.00581, 12.19319], [-69.00264, 12.19017]]}]}}, {"type": "Feature", "geometry": {"type": "Polygon", "coordinates": [[[-68.86694, 12.07167], [-68.86333, 12.09132], [-68.88548, 12.09602], [-68.88548, 12.07184], [-68.87587, 12.06781], [-68.86694, 12.07167]]]}, "properties": {"id": "man-8d91", "status": "validé", "pieces": [{"kind": "polygon", "ring": [[-68.86694, 12.07167], [-68.86333, 12.09132], [-68.88548, 12.09602], [-68.88548, 12.07184], [-68.87587, 12.06781]]}]}}, {"type": "Feature", "geometry": null, "properties": {"id": "man-9851", "status": "rejeté", "pieces": []}}, {"type": "Feature", "geometry": {"type": "Polygon", "coordinates": [[[-69.03435, 12.19296], [-69.04361, 12.19668], [-69.0629, 12.19843], [-69.0786, 12.20425], [-69.09191, 12.21988], [-69.12267, 12.26903], [-69.13439, 12.27733], [-69.1481, 12.28441], [-69.15954, 12.29336], [-69.1643, 12.30695], [-69.16198, 12.34284], [-69.16381, 12.36188], [-69.17174, 12.37889], [-69.16613, 12.38784], [-69.1612, 12.39151], [-69.15624, 12.39061], [-69.15062, 12.38573], [-69.10778, 12.36782], [-69.08959, 12.35688], [-69.07152, 12.34138], [-69.06041, 12.32258], [-69.04996, 12.27611], [-69.04076, 12.25605], [-69.01355, 12.23058], [-69.03435, 12.19296]]]}, "properties": {"id": "man-985d", "status": "validé", "pieces": [{"kind": "polygon", "ring": [[-69.04289, 12.17752], [-68.99277, 12.26816], [-69.10812, 12.41109], [-69.19258, 12.40438], [-69.16855, 12.19364]]}, {"kind": "clip"}]}}, {"type": "Feature", "geometry": {"type": "Polygon", "coordinates": [[[-68.84819, 12.06471], [-68.84849, 12.06431], [-68.84655, 12.06288], [-68.84561, 12.06179], [-68.84424, 12.06107], [-68.84346, 12.06082], [-68.84364, 12.06137], [-68.84701, 12.0638], [-68.84819, 12.06471]]]}, "properties": {"id": "man-9c74", "status": "validé", "pieces": [{"kind": "polygon", "ring": [[-68.84819, 12.06471], [-68.84849, 12.06431], [-68.84655, 12.06288], [-68.84561, 12.06179], [-68.84424, 12.06107], [-68.84346, 12.06082], [-68.84364, 12.06137], [-68.84701, 12.0638]]}]}}, {"type": "Feature", "geometry": {"type": "Polygon", "coordinates": [[[-69.02491, 12.21482], [-69.01869, 12.22074], [-69.02783, 12.23312], [-69.0356, 12.22821], [-69.03405, 12.22586], [-69.02491, 12.21482]]]}, "properties": {"id": "man-a9d3", "status": "validé", "pieces": [{"kind": "polygon", "ring": [[-69.02491, 12.21482], [-69.01869, 12.22074], [-69.02783, 12.23312], [-69.0356, 12.22821], [-69.03405, 12.22586]]}]}}, {"type": "Feature", "geometry": {"type": "Polygon", "coordinates": [[[-68.98092, 12.12606], [-68.9641, 12.14537], [-68.97732, 12.15309], [-68.98745, 12.16199], [-68.99792, 12.15527], [-69.0029, 12.14084], [-69.00084, 12.13899], [-68.98092, 12.12606]]]}, "properties": {"id": "man-b46b", "status": "validé", "pieces": [{"kind": "polygon", "ring": [[-68.98092, 12.12606], [-68.9641, 12.14537], [-68.97732, 12.15309], [-68.98745, 12.16199], [-68.99792, 12.15527], [-69.0029, 12.14084], [-69.00084, 12.13899]]}]}}, {"type": "Feature", "geometry": {"type": "Polygon", "coordinates": [[[-68.96873, 12.11685], [-68.96152, 12.12239], [-68.91346, 12.10157], [-68.89715, 12.09032], [-68.89887, 12.08192], [-68.91586, 12.09519], [-68.93887, 12.10208], [-68.95414, 12.10795], [-68.96873, 12.11685]]]}, "properties": {"id": "man-b540", "status": "validé", "pieces": [{"kind": "polygon", "ring": [[-68.96873, 12.11685], [-68.96152, 12.12239], [-68.91346, 12.10157], [-68.89715, 12.09032], [-68.89887, 12.08192], [-68.91586, 12.09519], [-68.93887, 12.10208], [-68.95414, 12.10795]]}]}}, {"type": "Feature", "geometry": {"type": "Polygon", "coordinates": [[[-69.13121, 12.3006], [-69.12769, 12.28944], [-69.12031, 12.28994], [-69.10469, 12.29917], [-69.10366, 12.30983], [-69.12709, 12.30555], [-69.13121, 12.3006]]]}, "properties": {"id": "man-b5e2", "status": "validé", "pieces": [{"kind": "polygon", "ring": [[-69.13121, 12.3006], [-69.12769, 12.28944], [-69.12031, 12.28994], [-69.10469, 12.29917], [-69.10366, 12.30983], [-69.12709, 12.30555]]}]}}, {"type": "Feature", "geometry": {"type": "Polygon", "coordinates": [[[-68.94968, 12.11819], [-68.89921, 12.10005], [-68.89737, 12.09168], [-68.94473, 12.10562], [-68.96062, 12.11473], [-68.94968, 12.11819]]]}, "properties": {"id": "man-b7b6", "status": "validé", "pieces": [{"kind": "polygon", "ring": [[-68.96616, 12.11298], [-68.94968, 12.11819], [-68.89921, 12.10005], [-68.89492, 12.08054]]}, {"kind": "clip"}]}}, {"type": "Feature", "geometry": {"type": "Polygon", "coordinates": [[[-68.97388, 12.15879], [-68.97457, 12.19941], [-68.92443, 12.19249], [-68.83528, 12.17105], [-68.82725, 12.16623], [-68.81245, 12.13354], [-68.81184, 12.12934], [-68.80803, 12.12332], [-68.80394, 12.06204], [-68.83617, 12.05315], [-68.84118, 12.05549], [-68.89342, 12.09052], [-68.94473, 12.10562], [-68.97777, 12.12458], [-69.00172, 12.14363], [-68.97388, 12.15879]]]}, "properties": {"id": "man-bb6f", "status": "validé", "pieces": [{"kind": "polygon", "ring": [[-69.00719, 12.14066], [-68.97388, 12.15879], [-68.97457, 12.19941], [-68.83347, 12.17994], [-68.80806, 12.12384], [-68.80394, 12.06204], [-68.88428, 12.03987], [-68.93578, 12.06809]]}, {"kind": "clip"}]}}, {"type": "Feature", "geometry": {"type": "Polygon", "coordinates": [[[-68.96856, 12.1338], [-68.9653, 12.14756], [-68.94831, 12.14773], [-68.94693, 12.12288], [-68.94959, 12.1084], [-68.97075, 12.12055], [-68.96856, 12.1338]]]}, "properties": {"id": "man-bd73", "status": "validé", "pieces": [{"kind": "clip"}, {"kind": "polygon", "ring": [[-68.9502, 12.10508], [-68.94693, 12.12288], [-68.94831, 12.14773], [-68.9653, 12.14756], [-68.96856, 12.1338], [-68.97131, 12.11717], [-68.97079, 12.11751]]}]}}, {"type": "Feature", "geometry": {"type": "Polygon", "coordinates": [[[-69.11078, 12.355], [-69.13147, 12.37018], [-69.13175, 12.37784], [-69.10885, 12.36827], [-69.10478, 12.36549], [-69.11078, 12.355]]]}, "properties": {"id": "man-c074", "status": "validé", "pieces": [{"kind": "polygon", "ring": [[-69.10478, 12.36549], [-69.11078, 12.355], [-69.13147, 12.37018], [-69.13198, 12.3841]]}, {"kind": "clip"}]}}, {"type": "Feature", "geometry": {"type": "Polygon", "coordinates": [[[-68.8163, 12.13917], [-68.86007, 12.17141], [-68.85853, 12.17543], [-68.85832, 12.17659], [-68.84019, 12.17223], [-68.81904, 12.1586], [-68.81481, 12.1496], [-68.81377, 12.14254], [-68.8163, 12.13917]]]}, "properties": {"id": "man-c1eb", "status": "validé", "pieces": [{"kind": "polygon", "ring": [[-68.85853, 12.17543], [-68.86007, 12.17141], [-68.8163, 12.13917], [-68.80737, 12.15109], [-68.85715, 12.18316]]}, {"kind": "clip"}]}}, {"type": "Feature", "geometry": {"type": "Polygon", "coordinates": [[[-69.05879, 12.21531], [-69.05881, 12.21424], [-69.05216, 12.21038], [-69.05047, 12.21418], [-69.05772, 12.21605], [-69.05879, 12.21531]]]}, "properties": {"id": "man-c4d9", "status": "validé", "pieces": [{"kind": "polygon", "ring": [[-69.05879, 12.21531], [-69.05881, 12.21424], [-69.05216, 12.21038], [-69.05047, 12.21418], [-69.05772, 12.21605]]}]}}, {"type": "Feature", "geometry": {"type": "Polygon", "coordinates": [[[-69.00066, 12.17188], [-68.98659, 12.19101], [-68.90282, 12.16785], [-68.85509, 12.15408], [-68.86402, 12.12218], [-68.86505, 12.11748], [-68.86642, 12.11614], [-68.86745, 12.11446], [-68.93681, 12.13931], [-68.98178, 12.16281], [-69.00066, 12.17188]]]}, "properties": {"id": "man-d736", "status": "validé", "pieces": [{"kind": "polygon", "ring": [[-69.00066, 12.17188], [-68.98659, 12.19101], [-68.90282, 12.16785], [-68.85509, 12.15408], [-68.86402, 12.12218], [-68.86505, 12.11748], [-68.86642, 12.11614], [-68.86745, 12.11446], [-68.93681, 12.13931], [-68.98178, 12.16281]]}]}}, {"type": "Feature", "geometry": {"type": "Polygon", "coordinates": [[[-69.11465, 12.28449], [-69.12014, 12.28138], [-69.11748, 12.27165], [-69.10375, 12.26939], [-69.09928, 12.27551], [-69.10666, 12.28633], [-69.11465, 12.28449]]]}, "properties": {"id": "man-e035", "status": "validé", "pieces": [{"kind": "polygon", "ring": [[-69.11465, 12.28449], [-69.12014, 12.28138], [-69.11748, 12.27165], [-69.10375, 12.26939], [-69.09928, 12.27551], [-69.10666, 12.28633]]}]}}, {"type": "Feature", "geometry": {"type": "Polygon", "coordinates": [[[-69.01766, 12.17955], [-69.01659, 12.17963], [-69.01525, 12.17556], [-69.01491, 12.17443], [-69.00315, 12.16678], [-69.00221, 12.16502], [-68.98976, 12.15847], [-68.98376, 12.15503], [-68.98444, 12.15402], [-68.98642, 12.15461], [-69.00161, 12.16208], [-69.00882, 12.17022], [-69.01337, 12.17073], [-69.01453, 12.17225], [-69.0162, 12.17502], [-69.01766, 12.17955]]]}, "properties": {"id": "man-e53b", "status": "validé", "pieces": [{"kind": "polygon", "ring": [[-69.01766, 12.17955], [-69.01659, 12.17963], [-69.01525, 12.17556], [-69.01491, 12.17443], [-69.00315, 12.16678], [-69.00221, 12.16502], [-68.98976, 12.15847], [-68.98376, 12.15503], [-68.98444, 12.15402], [-68.98642, 12.15461], [-69.00161, 12.16208], [-69.00882, 12.17022], [-69.01337, 12.17073], [-69.01453, 12.17225], [-69.0162, 12.17502]]}]}}, {"type": "Feature", "geometry": {"type": "Polygon", "coordinates": [[[-68.82694, 12.0728], [-68.806, 12.06978], [-68.80257, 12.09598], [-68.82694, 12.10908], [-68.89767, 12.13359], [-68.90797, 12.10807], [-68.8829, 12.08489], [-68.87192, 12.07918], [-68.85235, 12.07683], [-68.82694, 12.0728]]]}, "properties": {"id": "man-e54f", "status": "validé", "pieces": [{"kind": "polygon", "ring": [[-68.82694, 12.0728], [-68.806, 12.06978], [-68.80257, 12.09598], [-68.82694, 12.10908], [-68.89767, 12.13359], [-68.90797, 12.10807], [-68.8829, 12.08489], [-68.87192, 12.07918], [-68.85235, 12.07683]]}]}}, {"type": "Feature", "geometry": {"type": "Polygon", "coordinates": [[[-69.00015, 12.19825], [-69.01002, 12.1954], [-69.00667, 12.18407], [-68.99766, 12.17995], [-68.98659, 12.19087], [-68.98762, 12.19296], [-69.00015, 12.19825]]]}, "properties": {"id": "man-e618", "status": "validé", "pieces": [{"kind": "polygon", "ring": [[-69.00015, 12.19825], [-69.01002, 12.1954], [-69.00667, 12.18407], [-68.99766, 12.17995], [-68.98659, 12.19087], [-68.98762, 12.19296]]}]}}, {"type": "Feature", "geometry": {"type": "Polygon", "coordinates": [[[-68.97079, 12.1822], [-68.92198, 12.1919], [-68.83528, 12.17105], [-68.82079, 12.16234], [-68.81481, 12.1496], [-68.81184, 12.12934], [-68.81041, 12.12709], [-68.80463, 12.09691], [-68.80875, 12.06601], [-68.84157, 12.05575], [-68.89342, 12.09052], [-68.94473, 12.10562], [-68.97777, 12.12458], [-68.99417, 12.13762], [-68.97079, 12.1822]]]}, "properties": {"id": "man-edae", "status": "validé", "pieces": [{"kind": "polygon", "ring": [[-68.99826, 12.12982], [-68.97079, 12.1822], [-68.88634, 12.19899], [-68.81699, 12.16139], [-68.80463, 12.09691], [-68.80875, 12.06601], [-68.85818, 12.05056], [-68.88496, 12.05123]]}, {"kind": "clip"}]}}, {"type": "Feature", "geometry": {"type": "Polygon", "coordinates": [[[-69.08177, 12.29019], [-69.07328, 12.29086], [-69.0677, 12.28717], [-69.06907, 12.28163], [-69.08469, 12.28113], [-69.08521, 12.2917], [-69.08177, 12.29019]]]}, "properties": {"id": "man-ee9d", "status": "validé", "pieces": [{"kind": "polygon", "ring": [[-69.08177, 12.29019], [-69.07328, 12.29086], [-69.0677, 12.28717], [-69.06907, 12.28163], [-69.08469, 12.28113], [-69.08521, 12.2917]]}]}}, {"type": "Feature", "geometry": {"type": "Polygon", "coordinates": [[[-69.15379, 12.33298], [-69.14795, 12.33373], [-69.14632, 12.32442], [-69.14821, 12.31654], [-69.1543, 12.31612], [-69.15379, 12.33298]]]}, "properties": {"id": "man-fc49", "status": "validé", "pieces": [{"kind": "polygon", "ring": [[-69.15379, 12.33298], [-69.14795, 12.33373], [-69.14632, 12.32442], [-69.14821, 12.31654], [-69.1543, 12.31612]]}]}}, {"type": "Feature", "geometry": null, "properties": {"id": "nT9Q", "status": "validé", "pieces": [{"kind": "country"}]}}, {"type": "Feature", "geometry": null, "properties": {"id": "wuzk", "status": "validé", "pieces": [{"kind": "country"}]}}, {"type": "Feature", "geometry": null, "properties": {"id": "zAfQ", "status": "validé", "pieces": [{"kind": "country"}]}}, {"type": "Feature", "geometry": {"type": "Polygon", "coordinates": [[[-68.88634, 12.15788], [-68.88634, 12.18137], [-68.87818, 12.18137], [-68.83528, 12.17105], [-68.82079, 12.16234], [-68.8187, 12.15788], [-68.88634, 12.15788]]]}, "properties": {"id": "zB68", "status": "validé", "pieces": [{"kind": "rect", "bounds": [-68.88634, 12.15788, -68.81424, 12.18137]}, {"kind": "clip"}]}}]}