{"type": "FeatureCollection", "features": [{"type": "Feature", "geometry": null, "properties": {"id": "5z6w", "status": "validé", "pieces": [{"kind": "country"}]}}, {"type": "Feature", "geometry": null, "properties": {"id": "6bR5", "status": "validé", "pieces": [{"kind": "country"}]}}, {"type": "Feature", "geometry": {"type": "Polygon", "coordinates": [[[11.16993, 57.33271], [11.18149, 57.33031], [11.19012, 57.32551], [11.19728, 57.31338], [11.1965, 57.30282], [11.18911, 57.29428], [11.16688, 57.29677], [11.14323, 57.30135], [11.06658, 57.29133], [11.08269, 57.28388], [11.09417, 57.269], [11.0911, 57.25278], [11.06717, 57.23836], [11.05352, 57.2262], [11.04514, 57.21272], [11.02884, 57.20191], [10.9979, 57.19791], [10.97796, 57.20673], [10.95181, 57.23373], [10.91654, 57.23737], [10.8888, 57.24534], [10.8711, 57.25462], [10.85499, 57.26463], [10.85499, 57.2709], [10.88842, 57.27486], [10.92126, 57.29228], [10.9466, 57.30464], [10.98687, 57.30599], [11.01008, 57.30987], [11.02772, 57.32069], [11.10193, 57.32042], [11.14235, 57.33234], [11.16993, 57.33271]]]}, "properties": {"id": "95gK", "status": "validé", "pieces": [{"kind": "rect", "bounds": [10.75562, 57.12761, 11.25549, 57.38747]}, {"kind": "clip"}]}}, {"type": "Feature", "geometry": null, "properties": {"id": "AQr9", "status": "rejeté", "pieces": []}}, {"type": "Feature", "geometry": null, "properties": {"id": "Dfcn", "status": "validé", "pieces": [{"kind": "country"}]}}, {"type": "Feature", "geometry": null, "properties": {"id": "Expm", "status": "validé", "pieces": [{"kind": "country"}]}}, {"type": "Feature", "geometry": null, "properties": {"id": "Fhf5", "status": "validé", "pieces": [{"kind": "country"}]}}, {"type": "Feature", "geometry": null, "properties": {"id": "Hx8L", "status": "validé", "pieces": [{"kind": "country"}]}}, {"type": "Feature", "geometry": null, "properties": {"id": "I8Xz", "status": "validé", "pieces": [{"kind": "country"}]}}, {"type": "Feature", "geometry": null, "properties": {"id": "MZX3", "status": "validé", "pieces": [{"kind": "country"}]}}, {"type": "Feature", "geometry": null, "properties": {"id": "N0Lu", "status": "rejeté", "pieces": []}}, {"type": "Feature", "geometry": null, "properties": {"id": "NemR", "status": "validé", "pieces": [{"kind": "country"}]}}, {"type": "Feature", "geometry": null, "properties": {"id": "PUXX", "status": "validé", "pieces": [{"kind": "country"}]}}, {"type": "Feature", "geometry": {"type": "Polygon", "coordinates": [[[15.14666, 55.12824], [15.14454, 55.12482], [15.14235, 55.12214], [15.13771, 55.11953], [15.14503, 55.10489], [15.14772, 55.09561], [15.14471, 55.0871], [15.13429, 55.07486], [15.1128, 55.05463], [15.10662, 55.04466], [15.11036, 55.03636], [15.11036, 55.03022], [15.11324, 55.0183], [15.09735, 55.00782], [15.08669, 54.99921], [15.07267, 54.99164], [15.02366, 54.99934], [14.98287, 55.00101], [14.92727, 55.01369], [14.85861, 55.03823], [14.78083, 55.05113], [14.69956, 55.08918], [14.68417, 55.10135], [14.69704, 55.12265], [14.70143, 55.1647], [14.70574, 55.22565], [14.70924, 55.23583], [14.71754, 55.24677], [14.73707, 55.26667], [14.74513, 55.28156], [14.75213, 55.29877], [14.76092, 55.30927], [14.77459, 55.3039], [14.81495, 55.27041], [14.82895, 55.2617], [14.85142, 55.2482], [14.88901, 55.23322], [14.9268, 55.2158], [14.95435, 55.21925], [14.9734, 55.21613], [14.98976, 55.19603], [15.0005, 55.18842], [15.01287, 55.18382], [15.08454, 55.15458], [15.1316, 55.14545], [15.15138, 55.1332], [15.14666, 55.12824]]]}, "properties": {"id": "PXr5", "status": "validé", "pieces": [{"kind": "rect", "bounds": [14.68323, 54.94672, 15.21606, 55.32026]}, {"kind": "clip"}]}}, {"type": "Feature", "geometry": null, "properties": {"id": "SVbg", "status": "validé", "pieces": [{"kind": "country"}]}}, {"type": "Feature", "geometry": null, "properties": {"id": "TriN", "status": "validé", "pieces": [{"kind": "country"}]}}, {"type": "Feature", "geometry": null, "properties": {"id": "UVfB", "status": "validé", "pieces": [{"kind": "country"}]}}, {"type": "Feature", "geometry": {"type": "MultiPolygon", "coordinates": [[[[10.29419, 55.42979], [10.47821, 55.42979], [10.47821, 55.34714], [10.29419, 55.34714], [10.29419, 55.42979]]], [[[9.54987, 55.5247], [9.54987, 55.43914], [9.41254, 55.43914], [9.41254, 55.5247], [9.54987, 55.5247]]], [[[12.65625, 55.7633], [12.65625, 55.58216], [12.34863, 55.58216], [12.34863, 55.7633], [12.65625, 55.7633]]], [[[9.65698, 55.73085], [9.65698, 55.67361], [9.47571, 55.67361], [9.47571, 55.73085], [9.65698, 55.73085]]], [[[12.33765, 55.9559], [12.33765, 55.90207], [12.23602, 55.90207], [12.23602, 55.9559], [12.33765, 55.9559]]], [[[10.30243, 56.22089], [10.30243, 56.07407], [10.06348, 56.07407], [10.06348, 56.22089], [10.30243, 56.22089]]], [[[10.01953, 57.07955], [10.01953, 56.98767], [9.85474, 56.98767], [9.85474, 57.07955], [10.01953, 57.07955]]]]}, "properties": {"id": "Wd1V", "status": "validé", "pieces": [{"kind": "rect", "bounds": [9.85474, 56.98767, 10.01953, 57.07955]}, {"kind": "rect", "bounds": [10.06348, 56.07407, 10.30243, 56.22089]}, {"kind": "rect", "bounds": [9.41254, 55.43914, 9.54987, 55.5247]}, {"kind": "rect", "bounds": [9.47571, 55.67361, 9.65698, 55.73085]}, {"kind": "rect", "bounds": [10.29419, 55.34714, 10.47821, 55.42979]}, {"kind": "rect", "bounds": [12.34863, 55.58216, 12.65625, 55.7633]}, {"kind": "rect", "bounds": [12.23602, 55.90207, 12.33765, 55.9559]}]}}, {"type": "Feature", "geometry": null, "properties": {"id": "X28G", "status": "validé", "pieces": [{"kind": "country"}]}}, {"type": "Feature", "geometry": null, "properties": {"id": "bHDl", "status": "validé", "pieces": [{"kind": "country"}]}}, {"type": "Feature", "geometry": {"type": "Polygon", "coordinates": [[[15.14666, 55.12824], [15.14454, 55.12482], [15.14235, 55.12214], [15.13771, 55.11953], [15.14503, 55.10489], [15.14772, 55.09561], [15.14471, 55.0871], [15.13429, 55.07486], [15.1128, 55.05463], [15.10662, 55.04466], [15.11036, 55.03636], [15.11036, 55.03022], [15.11324, 55.0183], [15.09735, 55.00782], [15.08669, 54.99921], [15.07267, 54.99164], [15.02366, 54.99934], [14.98287, 55.00101], [14.92727, 55.01369], [14.85861, 55.03823], [14.78083, 55.05113], [14.69956, 55.08918], [14.68417, 55.10135], [14.69704, 55.12265], [14.70143, 55.1647], [14.70574, 55.22565], [14.70924, 55.23583], [14.71754, 55.24677], [14.73707, 55.26667], [14.74513, 55.28156], [14.75213, 55.29877], [14.76092, 55.30927], [14.77459, 55.3039], [14.81495, 55.27041], [14.82895, 55.2617], [14.85142, 55.2482], [14.88901, 55.23322], [14.9268, 55.2158], [14.95435, 55.21925], [14.9734, 55.21613], [14.98976, 55.19603], [15.0005, 55.18842], [15.01287, 55.18382], [15.08454, 55.15458], [15.1316, 55.14545], [15.15138, 55.1332], [15.14666, 55.12824]]]}, "properties": {"id": "bVRk", "status": "validé", "pieces": [{"kind": "rect", "bounds": [14.58984, 54.92457, 15.29297, 55.3358]}, {"kind": "clip"}]}}, {"type": "Feature", "geometry": null, "properties": {"id": "cK6E", "status": "validé", "pieces": [{"kind": "country"}]}}, {"type": "Feature", "geometry": null, "properties": {"id": "ctgh", "status": "validé", "pieces": [{"kind": "country"}]}}, {"type": "Feature", "geometry": null, "properties": {"id": "dC2V", "status": "validé", "pieces": [{"kind": "country"}]}}, {"type": "Feature", "geometry": null, "properties": {"id": "dYhG", "status": "validé", "pieces": [{"kind": "country"}]}}, {"type": "Feature", "geometry": null, "properties": {"id": "iepe", "status": "validé", "pieces": [{"kind": "country"}]}}, {"type": "Feature", "geometry": null, "properties": {"id": "mA1R", "status": "validé", "pieces": [{"kind": "country"}]}}, {"type": "Feature", "geometry": {"type": "MultiPolygon", "coordinates": [[[[9.74459, 55.43647], [9.73732, 55.43818], [9.70346, 55.46214], [9.70346, 55.46841], [9.73024, 55.46149], [9.75085, 55.45127], [9.75, 55.45], [9.74459, 55.43647]]], [[[9.65, 55.2], [9.6643, 55.19106], [9.65577, 55.18944], [9.6421, 55.18842], [9.58334, 55.19465], [9.56983, 55.19253], [9.56153, 55.1872], [9.55494, 55.18057], [9.54591, 55.17414], [9.52182, 55.16543], [9.50717, 55.16193], [9.4944, 55.16055], [9.48634, 55.15624], [9.48634, 55.14741], [9.49464, 55.14008], [9.51189, 55.14008], [9.51189, 55.1332], [9.48243, 55.13377], [9.46876, 55.13178], [9.45655, 55.12572], [9.46664, 55.12141], [9.47918, 55.1197], [9.50807, 55.11953], [9.52133, 55.11587], [9.53582, 55.10688], [9.55958, 55.08539], [9.5337, 55.06582], [9.51661, 55.05654], [9.49806, 55.05069], [9.4524, 55.04536], [9.43434, 55.03754], [9.44288, 55.02338], [9.45525, 55.02318], [9.51189, 55.03636], [9.53736, 55.03539], [9.54591, 55.03636], [9.55323, 55.03962], [9.56023, 55.04442], [9.56853, 55.04877], [9.57993, 55.05069], [9.60157, 55.0454], [9.64186, 55.01972], [9.66261, 55.00971], [9.71754, 55.00117], [9.73097, 54.99543], [9.73862, 54.98086], [9.76075, 54.90498], [9.76319, 54.90046], [9.76157, 54.89741], [9.75196, 54.89301], [9.73707, 54.89277], [9.72299, 54.89765], [9.71144, 54.89859], [9.70346, 54.88618], [9.71599, 54.88377], [9.72787, 54.87946], [9.7378, 54.87352], [9.74448, 54.86628], [9.7483, 54.85786], [9.75025, 54.84626], [9.74594, 54.83601], [9.73121, 54.83153], [9.71957, 54.83584], [9.70533, 54.85456], [9.69662, 54.85887], [9.65504, 54.85708], [9.6421, 54.85887], [9.6233, 54.8653], [9.62468, 54.86929], [9.63282, 54.87311], [9.63461, 54.87934], [9.61695, 54.89423], [9.61036, 54.90322], [9.61752, 54.90729], [9.64422, 54.91327], [9.63884, 54.92475], [9.615, 54.93268], [9.58676, 54.92772], [9.58123, 54.92178], [9.56804, 54.90143], [9.55681, 54.89033], [9.55055, 54.88272], [9.54591, 54.87934], [9.53834, 54.87792], [9.52215, 54.8793], [9.51515, 54.87592], [9.49806, 54.86433], [9.45639, 54.84382], [9.44288, 54.83153], [9.43629, 54.81045], [9.4375, 54.81041], [9.43692, 54.81014], [9.42214, 54.80725], [9.40519, 54.80839], [9.38504, 54.81939], [9.36695, 54.81702], [9.356, 54.81133], [9.34173, 54.80906], [9.33202, 54.80322], [9.31703, 54.80162], [9.24407, 54.80177], [9.22639, 54.80591], [9.21905, 54.81779], [9.21606, 54.83174], [9.21151, 54.84182], [9.19477, 54.8504], [8.98269, 54.87934], [8.90414, 54.89794], [8.82425, 54.9059], [8.80089, 54.90383], [8.73278, 54.88905], [8.69588, 54.88998], [8.66078, 54.89631], [8.66879, 54.91352], [8.66139, 54.92032], [8.67482, 54.94794], [8.66635, 54.97333], [8.6504, 54.99799], [8.64096, 55.02338], [8.64479, 55.05573], [8.6565, 55.08251], [8.67091, 55.10712], [8.6819, 55.1332], [8.57553, 55.14411], [8.56365, 55.14338], [8.55991, 55.13508], [8.55738, 55.09638], [8.55112, 55.09138], [8.54135, 55.09028], [8.52858, 55.08198], [8.51482, 55.07079], [8.49936, 55.06558], [8.4839, 55.06761], [8.47022, 55.0786], [8.45883, 55.10346], [8.46022, 55.12739], [8.46648, 55.1516], [8.47022, 55.17756], [8.48894, 55.19717], [8.53053, 55.20075], [8.5726, 55.19367], [8.59376, 55.18098], [8.58033, 55.17894], [8.56951, 55.17377], [8.55209, 55.16055], [8.55519, 55.14936], [8.61476, 55.14435], [8.66928, 55.13691], [8.68946, 55.14159], [8.68718, 55.16059], [8.66879, 55.19465], [8.65593, 55.23749], [8.64845, 55.28026], [8.6504, 55.29173], [8.65935, 55.30581], [8.66139, 55.31444], [8.65968, 55.32722], [8.64845, 55.35228], [8.63941, 55.39741], [8.63209, 55.41877], [8.61769, 55.43793], [8.59254, 55.44929], [8.55665, 55.45429], [8.49, 55.45531], [8.44191, 55.46393], [8.40113, 55.48566], [8.31039, 55.56269], [8.31121, 55.56977], [8.33237, 55.57201], [8.33237, 55.57827], [8.31316, 55.58271], [8.29021, 55.58381], [8.26783, 55.58051], [8.2505, 55.57201], [8.23902, 55.55793], [8.24203, 55.54853], [8.27174, 55.53046], [8.26246, 55.5292], [8.25636, 55.5268], [8.24366, 55.51679], [8.26678, 55.51439], [8.29396, 55.50434], [8.31674, 55.48941], [8.32618, 55.47211], [8.31332, 55.46931], [8.19361, 55.52595], [8.1692, 55.53408], [8.11061, 55.54023], [8.09522, 55.54906], [8.094, 55.56391], [8.15024, 55.64924], [8.16912, 55.68793], [8.18165, 55.72907], [8.18336, 55.7696], [8.13559, 55.96601], [8.13071, 55.97614], [8.12778, 55.97822], [8.1268, 55.98298], [8.12778, 55.98762], [8.13071, 55.98973], [8.13673, 55.98859], [8.13941, 55.98603], [8.14112, 55.98347], [8.14405, 55.98233], [8.15056, 55.97704], [8.17547, 55.90034], [8.19337, 55.87385], [8.19597, 55.86278], [8.19361, 55.85322], [8.18385, 55.8395], [8.18165, 55.82836], [8.18507, 55.81464], [8.19361, 55.81184], [8.23854, 55.82608], [8.28631, 55.84748], [8.30885, 55.852], [8.34783, 55.86933], [8.38771, 55.89289], [8.39332, 55.90917], [8.38689, 55.9265], [8.37289, 55.94343], [8.35694, 55.95869], [8.31951, 55.98603], [8.31951, 56.01703], [8.30812, 56.05292], [8.29372, 56.06577], [8.29372, 56.06577], [8.2824, 56.07587], [8.24773, 56.08983], [8.17058, 56.10957], [8.14967, 56.11115], [8.14064, 56.10273], [8.14161, 56.06], [8.1399, 56.03974], [8.1338, 56.01703], [8.13746, 56.00039], [8.13478, 55.99396], [8.12013, 55.99657], [8.11598, 56.00186], [8.11166, 56.01227], [8.10792, 56.02432], [8.10336, 56.09687], [8.10646, 56.11945], [8.13063, 56.18195], [8.1338, 56.20547], [8.12241, 56.55166], [8.12664, 56.56843], [8.1338, 56.58564], [8.17872, 56.67207], [8.19899, 56.69888], [8.21388, 56.71182], [8.21998, 56.70917], [8.22397, 56.70043], [8.23316, 56.69546], [8.23243, 56.68838], [8.20997, 56.65595], [8.20216, 56.64704], [8.20216, 56.6402], [8.20834, 56.63679], [8.2151, 56.63495], [8.23316, 56.63398], [8.23658, 56.62971], [8.24049, 56.62006], [8.24578, 56.61042], [8.25392, 56.60611], [8.29493, 56.602], [8.30592, 56.59781], [8.29152, 56.593], [8.29518, 56.58381], [8.29249, 56.56769], [8.29835, 56.5583], [8.30738, 56.55435], [8.3152, 56.55687], [8.31804, 56.56363], [8.31202, 56.57197], [8.31202, 56.5788], [8.34352, 56.58454], [8.3921, 56.58527], [8.43653, 56.58023], [8.4559, 56.56855], [8.46518, 56.56688], [8.51466, 56.54466], [8.52849, 56.54816], [8.54135, 56.55683], [8.55209, 56.56802], [8.55958, 56.5788], [8.56577, 56.5788], [8.59604, 56.53181], [8.59685, 56.52416], [8.59303, 56.51992], [8.59457, 56.51048], [8.60108, 56.50113], [8.61744, 56.4938], [8.63697, 56.47972], [8.64845, 56.47574], [8.66554, 56.4759], [8.72657, 56.48322], [8.73316, 56.48505], [8.73854, 56.49006], [8.74203, 56.49775], [8.74342, 56.50707], [8.74366, 56.52167], [8.74497, 56.53156], [8.75082, 56.55207], [8.75514, 56.55781], [8.76043, 56.56013], [8.76254, 56.56338], [8.75758, 56.57197], [8.72657, 56.58564], [8.71656, 56.58617], [8.70899, 56.58857], [8.70444, 56.59369], [8.70297, 56.60236], [8.6985, 56.61123], [8.68149, 56.61628], [8.6819, 56.62653], [8.69516, 56.63325], [8.7409, 56.63495], [8.80543, 56.69546], [8.82049, 56.70038], [8.86158, 56.70746], [8.91676, 56.70881], [8.91871, 56.71101], [8.89479, 56.71597], [8.85108, 56.71678], [8.84083, 56.72236], [8.85011, 56.74018], [8.86476, 56.75585], [8.87664, 56.76431], [8.90846, 56.77741], [8.95574, 56.80297], [8.97429, 56.80537], [8.9852, 56.80414], [9.00367, 56.79906], [9.0149, 56.79784], [9.02662, 56.79963], [9.03272, 56.80378], [9.03761, 56.80854], [9.04558, 56.8122], [9.06316, 56.81257], [9.08611, 56.80842], [9.10597, 56.80012], [9.11451, 56.78799], [9.12045, 56.76459], [9.13445, 56.75072], [9.15056, 56.74091], [9.16285, 56.72964], [9.17604, 56.70856], [9.1482, 56.70474], [9.11883, 56.67878], [9.09343, 56.67499], [9.09343, 56.66755], [9.0975, 56.65843], [9.08668, 56.6496], [9.05934, 56.63398], [9.04998, 56.61982], [9.04884, 56.60716], [9.05299, 56.57538], [9.06056, 56.56574], [9.077, 56.56737], [9.09343, 56.57807], [9.10678, 56.61078], [9.12159, 56.61302], [9.13966, 56.61103], [9.15545, 56.61294], [9.14918, 56.6225], [9.14112, 56.62604], [9.13152, 56.62482], [9.12135, 56.62035], [9.12892, 56.63125], [9.13673, 56.63907], [9.14373, 56.64769], [9.14861, 56.66132], [9.15545, 56.66132], [9.14943, 56.63886], [9.17555, 56.63544], [9.21119, 56.63886], [9.23365, 56.63715], [9.24724, 56.63202], [9.26246, 56.63373], [9.27622, 56.63296], [9.28533, 56.62035], [9.2824, 56.61054], [9.25945, 56.59195], [9.25034, 56.5788], [9.26124, 56.57636], [9.26336, 56.57197], [9.26401, 56.5659], [9.27084, 56.5583], [9.28061, 56.5528], [9.30568, 56.54466], [9.30974, 56.54051], [9.31218, 56.5351], [9.31642, 56.53083], [9.32618, 56.53034], [9.34059, 56.54707], [9.34669, 56.55207], [9.36085, 56.54474], [9.37306, 56.55272], [9.37273, 56.56538], [9.35035, 56.57197], [9.31935, 56.56171], [9.31739, 56.55866], [9.31284, 56.55777], [9.30226, 56.5583], [9.29371, 56.56102], [9.29314, 56.5668], [9.29615, 56.5716], [9.29884, 56.57197], [9.30063, 56.60912], [9.31707, 56.6411], [9.32602, 56.66942], [9.32594, 56.66962], [9.30568, 56.69546], [9.29591, 56.70157], [9.2907, 56.70384], [9.27084, 56.70234], [9.23064, 56.69208], [9.22071, 56.68427], [9.19907, 56.67658], [9.17791, 56.67585], [9.16912, 56.68867], [9.18035, 56.70075], [9.22641, 56.71625], [9.23683, 56.73306], [9.24252, 56.74706], [9.24049, 56.75397], [9.21551, 56.75886], [9.20525, 56.76382], [9.19654, 56.77045], [9.18971, 56.77741], [9.18442, 56.784], [9.17872, 56.79413], [9.17498, 56.80606], [9.17604, 56.81843], [9.18116, 56.82172], [9.20411, 56.84162], [9.20672, 56.84634], [9.21144, 56.85151], [9.21062, 56.8631], [9.2059, 56.87458], [9.19956, 56.87983], [9.18784, 56.88117], [9.17897, 56.88459], [9.16285, 56.89411], [9.18149, 56.91909], [9.20021, 56.93891], [9.22047, 56.95506], [9.25147, 56.97256], [9.25847, 56.97484], [9.26596, 56.97622], [9.27467, 56.97663], [9.27996, 56.9798], [9.28549, 56.99396], [9.28875, 56.99714], [9.43702, 57.0244], [9.47006, 57.02383], [9.58676, 56.99714], [9.58676, 56.98969], [9.57399, 56.98501], [9.57309, 56.97883], [9.58082, 56.97297], [9.59425, 56.96918], [9.60792, 56.96988], [9.61769, 56.97504], [9.65414, 57.00678], [9.67066, 57.02485], [9.68897, 57.03913], [9.7282, 57.04707], [9.76124, 57.05858], [9.80909, 57.05174], [9.91578, 57.05858], [9.85662, 57.08869], [9.82667, 57.09488], [9.80641, 57.10423], [9.79566, 57.10639], [9.78761, 57.10395], [9.75245, 57.07779], [9.73325, 57.0668], [9.71193, 57.06126], [9.69321, 57.06916], [9.67514, 57.07917], [9.6561, 57.07636], [9.6211, 57.05858], [9.58082, 57.0493], [9.49399, 57.04857], [9.26515, 57.0034], [9.24537, 57.00235], [9.22641, 57.00702], [9.11451, 57.05858], [9.12086, 57.0454], [9.1128, 57.03864], [9.07985, 57.03124], [9.05543, 57.02114], [9.04265, 57.01773], [9.02573, 57.01756], [9.03199, 57.02383], [9.01401, 57.03018], [8.99676, 57.02806], [8.97967, 57.02049], [8.96315, 57.0102], [8.94695, 57.01118], [8.92644, 57.00015], [8.90903, 56.98819], [8.90162, 56.98627], [8.89308, 56.99966], [8.87322, 57.00483], [8.85043, 57.00348], [8.83334, 56.99714], [8.84799, 56.98847], [8.8117, 56.96988], [8.76206, 56.95547], [8.72641, 56.96125], [8.70297, 56.95844], [8.67953, 56.95254], [8.66879, 56.9453], [8.66334, 56.92593], [8.64991, 56.91413], [8.63412, 56.90518], [8.6211, 56.89411], [8.61541, 56.86563], [8.61427, 56.86335], [8.61256, 56.85468], [8.60792, 56.84968], [8.60133, 56.84553], [8.56959, 56.81843], [8.54705, 56.81733], [8.53631, 56.81452], [8.53175, 56.80878], [8.52426, 56.80476], [8.50782, 56.80109], [8.49138, 56.79426], [8.4839, 56.78115], [8.49244, 56.74726], [8.49147, 56.73139], [8.47641, 56.72215], [8.47641, 56.71597], [8.51637, 56.71821], [8.52556, 56.71597], [8.53305, 56.7038], [8.52703, 56.6953], [8.51401, 56.69025], [8.50099, 56.68867], [8.48927, 56.69074], [8.46583, 56.70014], [8.45289, 56.70234], [8.44093, 56.70038], [8.42091, 56.69135], [8.40821, 56.68867], [8.40821, 56.68122], [8.4559, 56.68867], [8.47022, 56.6861], [8.49122, 56.67699], [8.50099, 56.67499], [8.57154, 56.69196], [8.58627, 56.68867], [8.58904, 56.68134], [8.58627, 56.6623], [8.58627, 56.65388], [8.60133, 56.64061], [8.60808, 56.63105], [8.59327, 56.61636], [8.58302, 56.60932], [8.56959, 56.60611], [8.55543, 56.60489], [8.54664, 56.60171], [8.54705, 56.59748], [8.55958, 56.593], [8.53932, 56.59276], [8.51149, 56.607], [8.48699, 56.62531], [8.47641, 56.63715], [8.4673, 56.65205], [8.44483, 56.66405], [8.41676, 56.67207], [8.39112, 56.67499], [8.37338, 56.68024], [8.35222, 56.69294], [8.33253, 56.7084], [8.31951, 56.72215], [8.30836, 56.7582], [8.30201, 56.76374], [8.28842, 56.76634], [8.26027, 56.77668], [8.24366, 56.77741], [8.25807, 56.74055], [8.26319, 56.71894], [8.26075, 56.70539], [8.24586, 56.70401], [8.23829, 56.72504], [8.23618, 56.77119], [8.24789, 56.81244], [8.27036, 56.84325], [8.44972, 57.00397], [8.50359, 57.03465], [8.58627, 57.10639], [8.61801, 57.12287], [8.65382, 57.1225], [8.73715, 57.10639], [8.78395, 57.1048], [8.87436, 57.11612], [8.91456, 57.12743], [8.96258, 57.15656], [8.98048, 57.16104], [9.23064, 57.1411], [9.32154, 57.14704], [9.41212, 57.16543], [9.49781, 57.19701], [9.57325, 57.24291], [9.78842, 57.4593], [9.82643, 57.48994], [9.89536, 57.53156], [9.92986, 57.56745], [9.94313, 57.5725], [9.96697, 57.59138], [10.01539, 57.59663], [10.10768, 57.59296], [10.1976, 57.60122], [10.27955, 57.62092], [10.3506, 57.64899], [10.4725, 57.71699], [10.53907, 57.74384], [10.56609, 57.74946], [10.59604, 57.75117], [10.62501, 57.7475], [10.64894, 57.73701], [10.59441, 57.7259], [10.54249, 57.69892], [10.46046, 57.63056], [10.43043, 57.57054], [10.45834, 57.52546], [10.50896, 57.48404], [10.54656, 57.43529], [10.51743, 57.3913], [10.51791, 57.33918], [10.53907, 57.23672], [10.52198, 57.22175], [10.47088, 57.20116], [10.44679, 57.18488], [10.41147, 57.14444], [10.39552, 57.11726], [10.38404, 57.0742], [10.35922, 57.02611], [10.34718, 57.0102], [10.33872, 57.00324], [10.33058, 56.99934], [10.31967, 56.9975], [10.27247, 56.99787], [10.25799, 56.99584], [10.23976, 56.99283], [10.15602, 57.02383], [10.094, 57.06049], [10.05274, 57.06973], [10.01938, 57.08845], [9.99464, 57.09272], [9.97446, 57.08649], [9.94614, 57.06118], [9.92693, 57.05858], [9.94549, 57.05732], [9.96656, 57.07221], [9.98414, 57.07905], [10.00196, 57.08389], [10.02263, 57.07909], [10.12127, 57.02212], [10.15398, 57.01325], [10.19239, 56.99404], [10.21437, 56.98969], [10.29509, 56.98859], [10.31373, 56.98286], [10.28566, 56.96369], [10.27955, 56.95551], [10.27475, 56.94229], [10.2693, 56.91502], [10.26588, 56.9077], [10.27312, 56.89134], [10.28403, 56.84032], [10.28834, 56.80012], [10.29542, 56.77888], [10.32, 56.73648], [10.32846, 56.7298], [10.33823, 56.72394], [10.34059, 56.71735], [10.32683, 56.70856], [10.3187, 56.70824], [10.29518, 56.7143], [10.28256, 56.71597], [10.23756, 56.71597], [10.22185, 56.7121], [10.20387, 56.70234], [10.18702, 56.71223], [10.16814, 56.72004], [10.14649, 56.72236], [10.12127, 56.71597], [10.09897, 56.70612], [10.08961, 56.70405], [10.0735, 56.70234], [10.05836, 56.69823], [10.02752, 56.68427], [9.9909, 56.67695], [9.94557, 56.65815], [9.80592, 56.64704], [9.80592, 56.6402], [9.85133, 56.63573], [10.00147, 56.66132], [10.03492, 56.67284], [10.04957, 56.67499], [10.05291, 56.67715], [10.05348, 56.68183], [10.05543, 56.68651], [10.06284, 56.68867], [10.07097, 56.68749], [10.08432, 56.68236], [10.09059, 56.68122], [10.10133, 56.68268], [10.11362, 56.68671], [10.12379, 56.69233], [10.1281, 56.69888], [10.13478, 56.71239], [10.15056, 56.71442], [10.18336, 56.70856], [10.18084, 56.7049], [10.17579, 56.69546], [10.19321, 56.69359], [10.24195, 56.68838], [10.28354, 56.68977], [10.31031, 56.69888], [10.33424, 56.70384], [10.35279, 56.68183], [10.35768, 56.64875], [10.34034, 56.62035], [10.27296, 56.5917], [10.22332, 56.56061], [10.21437, 56.5583], [10.20729, 56.52578], [10.20387, 56.51667], [10.21144, 56.50532], [10.2068, 56.49095], [10.19549, 56.47769], [10.18336, 56.46955], [10.21412, 56.47044], [10.2256, 56.47574], [10.22438, 56.51362], [10.22755, 56.54108], [10.23764, 56.55439], [10.27955, 56.57197], [10.31267, 56.59663], [10.33033, 56.60322], [10.35092, 56.59589], [10.3545, 56.58955], [10.35987, 56.5681], [10.36085, 56.56171], [10.36524, 56.55842], [10.39487, 56.54466], [10.4699, 56.5209], [10.55152, 56.51557], [10.78907, 56.53636], [10.82228, 56.53425], [10.85499, 56.52416], [10.86988, 56.51472], [10.90211, 56.48322], [10.96412, 56.44843], [10.96412, 56.44221], [10.94093, 56.42951], [10.92848, 56.40648], [10.92351, 56.37987], [10.92262, 56.35627], [10.91163, 56.33405], [10.81959, 56.26093], [10.77296, 56.24299], [10.75538, 56.22931], [10.75001, 56.21605], [10.75262, 56.18496], [10.73862, 56.15453], [10.70704, 56.15087], [10.67221, 56.16519], [10.64894, 56.18838], [10.67465, 56.19082], [10.68523, 56.19623], [10.69044, 56.20889], [10.68767, 56.22223], [10.67758, 56.2263], [10.66456, 56.22761], [10.6526, 56.23273], [10.62859, 56.23754], [10.60377, 56.22102], [10.58123, 56.1992], [10.54916, 56.17821], [10.55616, 56.15493], [10.56935, 56.12946], [10.57374, 56.11262], [10.56397, 56.10562], [10.54803, 56.10126], [10.53102, 56.10016], [10.51857, 56.10273], [10.50847, 56.11103], [10.49855, 56.13019], [10.49122, 56.13996], [10.4992, 56.14472], [10.51612, 56.1516], [10.5254, 56.15363], [10.51824, 56.16478], [10.50945, 56.17011], [10.46811, 56.17707], [10.45899, 56.17609], [10.4367, 56.16791], [10.4087, 56.16486], [10.39145, 56.17267], [10.37623, 56.18667], [10.35467, 56.20205], [10.37696, 56.20332], [10.41041, 56.21849], [10.42921, 56.22248], [10.44337, 56.21662], [10.4607, 56.2062], [10.47779, 56.20234], [10.49122, 56.2163], [10.47429, 56.23224], [10.47543, 56.2447], [10.50473, 56.27778], [10.49122, 56.27766], [10.47682, 56.28091], [10.46363, 56.28685], [10.45362, 56.2945], [10.44264, 56.29865], [10.41676, 56.2919], [10.40301, 56.29825], [10.39926, 56.28486], [10.39381, 56.27652], [10.38502, 56.27216], [10.3711, 56.27094], [10.36378, 56.26557], [10.33693, 56.23273], [10.31251, 56.21516], [10.25847, 56.19025], [10.23422, 56.17133], [10.22022, 56.14789], [10.2269, 56.13325], [10.24342, 56.11957], [10.25904, 56.09903], [10.26564, 56.07372], [10.26149, 56.05443], [10.2492, 56.03693], [10.23113, 56.01703], [10.25514, 56.02363], [10.27272, 56.02485], [10.27752, 56.01777], [10.25245, 55.98623], [10.25001, 55.97346], [10.25164, 55.94819], [10.25074, 55.93073], [10.24928, 55.92304], [10.24537, 55.91462], [10.22137, 55.89692], [10.21754, 55.88984], [10.21266, 55.88988], [10.20183, 55.88589], [10.1902, 55.87971], [10.18336, 55.87373], [10.18832, 55.87116], [10.19557, 55.86131], [10.19939, 55.85074], [10.1906, 55.84349], [10.18735, 55.83861], [10.18214, 55.83369], [10.1727, 55.83149], [10.16041, 55.83332], [10.15105, 55.83812], [10.13551, 55.852], [10.13103, 55.85847], [10.1281, 55.86587], [10.12379, 55.87328], [10.11451, 55.87987], [10.10182, 55.88239], [10.00465, 55.87987], [9.99171, 55.87735], [9.98365, 55.87141], [9.97739, 55.86457], [9.97047, 55.85944], [9.94451, 55.85358], [9.89178, 55.85537], [9.87017, 55.85238], [9.87017, 55.85238], [9.86744, 55.852], [9.87905, 55.84472], [9.87905, 55.84472], [9.89259, 55.83625], [10.03566, 55.81843], [10.04575, 55.81395], [10.04217, 55.80341], [10.02565, 55.78303], [10.01735, 55.76557], [10.01979, 55.75788], [10.0337, 55.75605], [10.05983, 55.75641], [10.05983, 55.7495], [10.01881, 55.73627], [10.00685, 55.72504], [10.01824, 55.70856], [10.0145, 55.70685], [10.00522, 55.70112], [9.9817, 55.70942], [9.91566, 55.69848], [9.87184, 55.69123], [9.82179, 55.67597], [9.79225, 55.67446], [9.73097, 55.68814], [9.69565, 55.7058], [9.68653, 55.70856], [9.58302, 55.70889], [9.55958, 55.7154], [9.55641, 55.71158], [9.55453, 55.70881], [9.55348, 55.7058], [9.55274, 55.70112], [9.57358, 55.69546], [9.64552, 55.69489], [9.65854, 55.69038], [9.7103, 55.66014], [9.72096, 55.64826], [9.7282, 55.63752], [9.73829, 55.62971], [9.75815, 55.62665], [9.85377, 55.62665], [9.83741, 55.61522], [9.78549, 55.59195], [9.75766, 55.5716], [9.74415, 55.56635], [9.72088, 55.5646], [9.71241, 55.56029], [9.71062, 55.55093], [9.7103, 55.54157], [9.70688, 55.5373], [9.64389, 55.52831], [9.6211, 55.51895], [9.60727, 55.51679], [9.59522, 55.51838], [9.57277, 55.52391], [9.55958, 55.52363], [9.56218, 55.51952], [9.56642, 55.51679], [9.55193, 55.50511], [9.5149, 55.4982], [9.49806, 55.48945], [9.51564, 55.48314], [9.53443, 55.48383], [9.58367, 55.49116], [9.59278, 55.49429], [9.60239, 55.4958], [9.66017, 55.47797], [9.66424, 55.4667], [9.65992, 55.45303], [9.64894, 55.44107], [9.63527, 55.43574], [9.60141, 55.43183], [9.58676, 55.42744], [9.59205, 55.41633], [9.60434, 55.40119], [9.60792, 55.39326], [9.60515, 55.38202], [9.59929, 55.37336], [9.60084, 55.36591], [9.6211, 55.35855], [9.63347, 55.352], [9.64527, 55.34272], [9.64828, 55.33291], [9.63461, 55.32502], [9.63461, 55.31757], [9.64487, 55.31094], [9.68043, 55.27608], [9.65, 55.2]]], [[[10.01445, 54.97222], [10.02589, 54.95978], [10.03509, 54.94361], [9.94242, 54.90389], [9.89828, 54.91299], [9.88795, 54.91352], [9.87794, 54.91132], [9.86354, 54.90306], [9.85377, 54.89981], [9.81471, 54.90107], [9.78093, 54.91681], [9.76124, 54.94306], [9.76441, 54.97553], [9.75815, 54.97553], [9.75815, 54.98176], [9.78028, 54.97285], [9.80405, 54.95718], [9.8274, 54.94546], [9.8475, 54.94819], [9.84327, 54.95173], [9.83668, 54.95856], [9.83277, 54.96516], [9.83668, 54.96809], [9.84213, 54.97028], [9.83522, 54.97516], [9.79371, 54.99217], [9.78679, 55.00015], [9.79908, 55.00971], [9.79908, 55.01655], [9.72055, 55.01227], [9.70688, 55.01313], [9.69695, 55.01752], [9.68483, 55.01854], [9.67416, 55.02106], [9.66879, 55.03022], [9.67237, 55.03465], [9.69125, 55.04279], [9.69662, 55.05069], [9.67823, 55.0502], [9.66163, 55.04654], [9.64552, 55.04487], [9.62843, 55.05069], [9.62843, 55.05805], [9.71664, 55.08222], [9.75196, 55.08539], [9.79347, 55.08076], [9.85304, 55.04011], [9.88478, 55.03022], [9.92793, 55.02629], [10.01445, 54.97222]]], [[[9.888, 54.88057], [9.87428, 54.88618], [9.87428, 54.89301], [9.90089, 54.9007], [9.92237, 54.8953], [9.888, 54.88057]]], [[[9.76123, 55.46684], [9.71339, 55.49103], [9.67628, 55.49567], [9.68393, 55.50605], [9.69353, 55.5102], [9.70476, 55.5124], [9.71778, 55.51679], [9.75514, 55.54413], [9.80909, 55.55028], [9.81636, 55.54954], [9.76123, 55.46684]]], [[[10.56691, 55.92829], [10.5486, 55.93574], [10.52833, 55.94062], [10.51539, 55.95124], [10.51857, 55.97614], [10.52882, 55.9892], [10.54396, 55.99799], [10.55681, 55.9958], [10.56422, 55.95384], [10.58025, 55.93651], [10.60279, 55.92524], [10.62827, 55.92084], [10.6194, 55.91096], [10.61541, 55.90034], [10.61638, 55.8898], [10.62143, 55.87987], [10.63868, 55.86612], [10.65065, 55.8701], [10.65919, 55.88076], [10.66627, 55.8867], [10.66928, 55.88003], [10.65504, 55.86538], [10.62827, 55.84577], [10.6233, 55.8277], [10.62436, 55.79434], [10.61459, 55.77684], [10.58221, 55.75975], [10.54713, 55.7652], [10.52027, 55.78856], [10.51157, 55.82526], [10.51726, 55.84553], [10.52768, 55.85391], [10.54217, 55.85814], [10.55942, 55.86628], [10.57309, 55.87885], [10.58107, 55.89452], [10.58025, 55.91153], [10.56691, 55.92829]]], [[[11.64943, 56.72964], [11.64943, 56.72215], [11.64519, 56.72199], [11.64194, 56.72065], [11.63575, 56.71597], [11.61801, 56.71133], [11.60426, 56.70116], [11.59254, 56.68985], [11.58107, 56.68122], [11.56422, 56.67744], [11.54371, 56.67866], [11.52459, 56.68472], [11.51222, 56.69546], [11.50953, 56.71015], [11.52084, 56.7154], [11.60613, 56.7204], [11.64943, 56.72964]]], [[[8.68637, 56.68659], [8.65838, 56.67813], [8.64845, 56.68106], [8.62176, 56.71393], [8.61085, 56.72215], [8.58627, 56.73648], [8.56227, 56.74323], [8.55592, 56.74384], [8.52491, 56.73729], [8.51466, 56.73823], [8.51808, 56.75007], [8.5228, 56.75507], [8.53028, 56.75935], [8.53924, 56.76252], [8.54868, 56.76374], [8.55323, 56.76813], [8.55161, 56.77778], [8.54803, 56.78726], [8.54526, 56.79108], [8.57301, 56.80256], [8.64381, 56.80805], [8.66879, 56.82583], [8.65626, 56.82514], [8.64381, 56.82587], [8.63201, 56.82807], [8.6211, 56.83202], [8.62672, 56.84154], [8.64674, 56.85635], [8.65512, 56.86685], [8.65187, 56.86603], [8.64975, 56.87425], [8.64845, 56.89069], [8.65162, 56.89419], [8.65935, 56.89448], [8.66822, 56.89379], [8.67506, 56.89411], [8.70379, 56.90005], [8.76246, 56.90542], [8.79176, 56.91454], [8.81365, 56.91035], [8.83375, 56.92475], [8.86744, 56.96296], [8.89039, 56.95482], [8.90504, 56.96601], [8.91627, 56.97907], [8.92888, 56.97663], [8.92311, 56.96857], [8.91139, 56.95612], [8.90846, 56.94872], [8.91041, 56.9444], [8.92042, 56.93049], [8.9227, 56.92202], [8.92042, 56.91991], [8.90846, 56.88727], [8.9004, 56.87482], [8.89527, 56.87031], [8.88795, 56.86685], [8.88771, 56.87873], [8.88266, 56.88638], [8.87501, 56.8911], [8.86744, 56.89411], [8.84376, 56.88345], [8.83961, 56.87983], [8.83644, 56.86929], [8.83904, 56.86286], [8.8436, 56.85822], [8.84702, 56.8531], [8.85515, 56.81977], [8.86394, 56.80952], [8.88111, 56.80537], [8.87477, 56.80036], [8.86842, 56.79808], [8.86134, 56.79755], [8.85328, 56.79784], [8.86069, 56.79491], [8.86744, 56.79108], [8.85418, 56.77993], [8.83912, 56.75727], [8.82586, 56.74384], [8.81267, 56.73457], [8.77125, 56.71597], [8.76612, 56.69872], [8.68637, 56.68659]]], [[[11.19728, 57.31338], [11.1965, 57.30282], [11.18911, 57.29428], [11.16688, 57.29677], [11.14323, 57.30135], [11.06658, 57.29133], [11.08269, 57.28388], [11.09417, 57.269], [11.0911, 57.25278], [11.06717, 57.23836], [11.05352, 57.2262], [11.04514, 57.21272], [11.02884, 57.20191], [10.9979, 57.19791], [10.97796, 57.20673], [10.95181, 57.23373], [10.91654, 57.23737], [10.8888, 57.24534], [10.8711, 57.25462], [10.85499, 57.26463], [10.85499, 57.2709], [10.88842, 57.27486], [10.92126, 57.29228], [10.9466, 57.30464], [10.98687, 57.30599], [11.01008, 57.30987], [11.02772, 57.32069], [11.10193, 57.32042], [11.14235, 57.33234], [11.16993, 57.33271], [11.18149, 57.33031], [11.19012, 57.32551], [11.19728, 57.31338]]], [[[8.45167, 55.33975], [8.4253, 55.35554], [8.40235, 55.38003], [8.37094, 55.42744], [8.36427, 55.44904], [8.37436, 55.46328], [8.40821, 55.46841], [8.41196, 55.43871], [8.42856, 55.43354], [8.4489, 55.43553], [8.46339, 55.42744], [8.46306, 55.41572], [8.45021, 55.39338], [8.45289, 55.38337], [8.46046, 55.37238], [8.46746, 55.3537], [8.47641, 55.34544], [8.45167, 55.33975]]]]}, "properties": {"id": "man-2c71", "status": "validé", "pieces": [{"kind": "admin1", "code": "DNK-3418"}, {"kind": "admin1", "code": "DNK-3416"}, {"kind": "polygon", "ring": [[8, 54.8], [9.7, 54.8], [10.05, 54.95], [9.65, 55.2], [9.75, 55.45], [9.85, 55.6], [9.95, 55.75], [8, 55.75]]}, {"kind": "clip"}, {"kind": "polygon", "ring": [[7.77832, 56.05883], [8.15186, 55.41532], [9.58008, 55.45274], [9.8877, 55.83728], [9.60205, 56.08337]]}]}}, {"type": "Feature", "geometry": {"type": "MultiPolygon", "coordinates": [[[[9.83585, 55.61452], [9.78549, 55.59195], [9.75766, 55.5716], [9.74415, 55.56635], [9.72088, 55.5646], [9.71241, 55.56029], [9.71062, 55.55093], [9.7103, 55.54157], [9.70688, 55.5373], [9.64389, 55.52831], [9.6211, 55.51895], [9.60727, 55.51679], [9.59522, 55.51838], [9.57277, 55.52391], [9.55958, 55.52363], [9.56218, 55.51952], [9.56642, 55.51679], [9.55193, 55.50511], [9.5149, 55.4982], [9.49806, 55.48945], [9.51564, 55.48314], [9.53443, 55.48383], [9.58367, 55.49116], [9.59278, 55.49429], [9.60239, 55.4958], [9.66017, 55.47797], [9.66424, 55.4667], [9.65992, 55.45303], [9.64894, 55.44107], [9.63527, 55.43574], [9.60141, 55.43183], [9.58676, 55.42744], [9.59205, 55.41633], [9.60434, 55.40119], [9.60792, 55.39326], [9.60515, 55.38202], [9.59929, 55.37336], [9.60084, 55.36591], [9.6211, 55.35855], [9.63347, 55.352], [9.64527, 55.34272], [9.64828, 55.33291], [9.63461, 55.32502], [9.63461, 55.31757], [9.64487, 55.31094], [9.6819, 55.27464], [9.69418, 55.27163], [9.6995, 55.2687], [9.69674, 55.22615], [9.69288, 55.22102], [9.68979, 55.2049], [9.68442, 55.19758], [9.67156, 55.19245], [9.65577, 55.18944], [9.6421, 55.18842], [9.58334, 55.19465], [9.56983, 55.19253], [9.56153, 55.1872], [9.55494, 55.18057], [9.54591, 55.17414], [9.52182, 55.16543], [9.50717, 55.16193], [9.4944, 55.16055], [9.48634, 55.15624], [9.48634, 55.14741], [9.49464, 55.14008], [9.51189, 55.14008], [9.51189, 55.1332], [9.48243, 55.13377], [9.46876, 55.13178], [9.45655, 55.12572], [9.46664, 55.12141], [9.47918, 55.1197], [9.50807, 55.11953], [9.52133, 55.11587], [9.53582, 55.10688], [9.55958, 55.08539], [9.5337, 55.06582], [9.51661, 55.05654], [9.49806, 55.05069], [9.4524, 55.04536], [9.43434, 55.03754], [9.44288, 55.02338], [9.45525, 55.02318], [9.51189, 55.03636], [9.53736, 55.03539], [9.54591, 55.03636], [9.55323, 55.03962], [9.56023, 55.04442], [9.56853, 55.04877], [9.57993, 55.05069], [9.60157, 55.0454], [9.64186, 55.01972], [9.66261, 55.00971], [9.71754, 55.00117], [9.73097, 54.99543], [9.73862, 54.98086], [9.76075, 54.90498], [9.76319, 54.90046], [9.76157, 54.89741], [9.75196, 54.89301], [9.73707, 54.89277], [9.72299, 54.89765], [9.71144, 54.89859], [9.70346, 54.88618], [9.71599, 54.88377], [9.72787, 54.87946], [9.7378, 54.87352], [9.74448, 54.86628], [9.7483, 54.85786], [9.75025, 54.84626], [9.74594, 54.83601], [9.73121, 54.83153], [9.71957, 54.83584], [9.70533, 54.85456], [9.69662, 54.85887], [9.65504, 54.85708], [9.6421, 54.85887], [9.6233, 54.8653], [9.62468, 54.86929], [9.63282, 54.87311], [9.63461, 54.87934], [9.61695, 54.89423], [9.61036, 54.90322], [9.61752, 54.90729], [9.64422, 54.91327], [9.63884, 54.92475], [9.615, 54.93268], [9.58676, 54.92772], [9.58123, 54.92178], [9.56804, 54.90143], [9.55681, 54.89033], [9.55055, 54.88272], [9.54591, 54.87934], [9.53834, 54.87792], [9.52215, 54.8793], [9.51515, 54.87592], [9.49806, 54.86433], [9.45639, 54.84382], [9.44288, 54.83153], [9.43629, 54.81045], [9.4375, 54.81041], [9.43692, 54.81014], [9.42214, 54.80725], [9.40519, 54.80839], [9.38504, 54.81939], [9.36695, 54.81702], [9.356, 54.81133], [9.34173, 54.80906], [9.33202, 54.80322], [9.31703, 54.80162], [9.24407, 54.80177], [9.22639, 54.80591], [9.21905, 54.81779], [9.21606, 54.83174], [9.21151, 54.84182], [9.19477, 54.8504], [8.98269, 54.87934], [8.90414, 54.89794], [8.82425, 54.9059], [8.80089, 54.90383], [8.73278, 54.88905], [8.69588, 54.88998], [8.66078, 54.89631], [8.66879, 54.91352], [8.66139, 54.92032], [8.67482, 54.94794], [8.66635, 54.97333], [8.6504, 54.99799], [8.64096, 55.02338], [8.64479, 55.05573], [8.6565, 55.08251], [8.67091, 55.10712], [8.6819, 55.1332], [8.57553, 55.14411], [8.56365, 55.14338], [8.55991, 55.13508], [8.55738, 55.09638], [8.55112, 55.09138], [8.54135, 55.09028], [8.52858, 55.08198], [8.51482, 55.07079], [8.49936, 55.06558], [8.4839, 55.06761], [8.47022, 55.0786], [8.45883, 55.10346], [8.46022, 55.12739], [8.46648, 55.1516], [8.47022, 55.17756], [8.48894, 55.19717], [8.53053, 55.20075], [8.5726, 55.19367], [8.59376, 55.18098], [8.58033, 55.17894], [8.56951, 55.17377], [8.55209, 55.16055], [8.55519, 55.14936], [8.61476, 55.14435], [8.66928, 55.13691], [8.68946, 55.14159], [8.68718, 55.16059], [8.66879, 55.19465], [8.65593, 55.23749], [8.64845, 55.28026], [8.6504, 55.29173], [8.65935, 55.30581], [8.66139, 55.31444], [8.65968, 55.32722], [8.64845, 55.35228], [8.63941, 55.39741], [8.63209, 55.41877], [8.61769, 55.43793], [8.59254, 55.44929], [8.55665, 55.45429], [8.49, 55.45531], [8.44191, 55.46393], [8.40113, 55.48566], [8.31039, 55.56269], [8.31121, 55.56977], [8.33237, 55.57201], [8.33237, 55.57827], [8.31316, 55.58271], [8.29021, 55.58381], [8.26783, 55.58051], [8.2505, 55.57201], [8.23902, 55.55793], [8.24203, 55.54853], [8.27174, 55.53046], [8.26246, 55.5292], [8.25636, 55.5268], [8.24366, 55.51679], [8.26678, 55.51439], [8.29396, 55.50434], [8.31674, 55.48941], [8.32618, 55.47211], [8.31332, 55.46931], [8.19361, 55.52595], [8.1692, 55.53408], [8.11061, 55.54023], [8.09522, 55.54906], [8.094, 55.56391], [8.15024, 55.64924], [8.16912, 55.68793], [8.18165, 55.72907], [8.18336, 55.7696], [8.15742, 55.87624], [8.18828, 55.88138], [8.19337, 55.87385], [8.19597, 55.86278], [8.19361, 55.85322], [8.18385, 55.8395], [8.18165, 55.82836], [8.18507, 55.81464], [8.19361, 55.81184], [8.23854, 55.82608], [8.28631, 55.84748], [8.30885, 55.852], [8.34783, 55.86933], [8.38771, 55.89289], [8.39332, 55.90917], [8.39109, 55.91518], [8.6, 55.95], [9.1, 55.98], [9.45, 55.85], [9.58025, 55.71975], [9.61372, 55.70879], [9.58302, 55.70889], [9.55958, 55.7154], [9.55641, 55.71158], [9.55453, 55.70881], [9.55348, 55.7058], [9.55274, 55.70112], [9.57358, 55.69546], [9.64552, 55.69489], [9.65854, 55.69038], [9.7103, 55.66014], [9.72096, 55.64826], [9.7282, 55.63752], [9.73829, 55.62971], [9.75815, 55.62665], [9.84091, 55.62665], [9.83585, 55.61452]]], [[[9.77203, 55.46138], [9.71339, 55.49103], [9.67628, 55.49567], [9.68393, 55.50605], [9.69353, 55.5102], [9.70476, 55.5124], [9.71778, 55.51679], [9.75514, 55.54413], [9.80908, 55.55028], [9.77203, 55.46138]]], [[[9.76069, 55.43416], [9.75131, 55.43488], [9.73732, 55.43818], [9.70346, 55.46214], [9.70346, 55.46841], [9.73024, 55.46149], [9.75847, 55.4475], [9.76521, 55.445], [9.76069, 55.43416]]], [[[9.9394, 55.00759], [10.01268, 54.97415], [10.02589, 54.95978], [10.06512, 54.89082], [10.06446, 54.88101], [10.05047, 54.87885], [10.02198, 54.87934], [10.00709, 54.87482], [9.98756, 54.86591], [9.96803, 54.85952], [9.95362, 54.86262], [9.93718, 54.87092], [9.89112, 54.8793], [9.87428, 54.88618], [9.87428, 54.89301], [9.90089, 54.9007], [9.9323, 54.89281], [9.96388, 54.87995], [9.99155, 54.8725], [9.99155, 54.87934], [9.9437, 54.90363], [9.89828, 54.91299], [9.88795, 54.91352], [9.87794, 54.91132], [9.86354, 54.90306], [9.85377, 54.89981], [9.81471, 54.90107], [9.78093, 54.91681], [9.76124, 54.94306], [9.76441, 54.97553], [9.75815, 54.97553], [9.75815, 54.98176], [9.78028, 54.97285], [9.80405, 54.95718], [9.8274, 54.94546], [9.8475, 54.94819], [9.84327, 54.95173], [9.83668, 54.95856], [9.83277, 54.96516], [9.83668, 54.96809], [9.84213, 54.97028], [9.83522, 54.97516], [9.79371, 54.99217], [9.78679, 55.00015], [9.79908, 55.00971], [9.79908, 55.01655], [9.72055, 55.01227], [9.70688, 55.01313], [9.69695, 55.01752], [9.68483, 55.01854], [9.67416, 55.02106], [9.66879, 55.03022], [9.67237, 55.03465], [9.69125, 55.04279], [9.69662, 55.05069], [9.67823, 55.0502], [9.66163, 55.04654], [9.64552, 55.04487], [9.62843, 55.05069], [9.62843, 55.05805], [9.71664, 55.08222], [9.75196, 55.08539], [9.79347, 55.08076], [9.85304, 55.04011], [9.88478, 55.03022], [9.92905, 55.02619], [9.94284, 55.02137], [9.9394, 55.00759]]], [[[8.45167, 55.33975], [8.4253, 55.35554], [8.40235, 55.38003], [8.37094, 55.42744], [8.36427, 55.44904], [8.37436, 55.46328], [8.40821, 55.46841], [8.41196, 55.43871], [8.42856, 55.43354], [8.4489, 55.43553], [8.46339, 55.42744], [8.46306, 55.41572], [8.45021, 55.39338], [8.45289, 55.38337], [8.46046, 55.37238], [8.46746, 55.3537], [8.47641, 55.34544], [8.45167, 55.33975]]]]}, "properties": {"id": "man-e0f5", "status": "validé", "pieces": [{"kind": "polygon", "ring": [[8, 55.85], [8.6, 55.95], [9.1, 55.98], [9.45, 55.85], [9.6, 55.7], [9.55, 55.45], [9.6, 55.2], [9.95, 55.05], [9.9, 54.85], [8.6, 54.85], [8, 55]]}, {"kind": "clip"}, {"kind": "polygon", "ring": [[9.50317, 55.74499], [9.84375, 55.63347], [9.70093, 55.29075], [9.68994, 55.12142], [10.17334, 54.90083], [10.10742, 54.77424], [7.84424, 54.62181], [7.81128, 55.21558]]}]}}, {"type": "Feature", "geometry": {"type": "Polygon", "coordinates": [[[11.50953, 56.71015], [11.52084, 56.7154], [11.60613, 56.7204], [11.64943, 56.72964], [11.64943, 56.72215], [11.64519, 56.72199], [11.64194, 56.72065], [11.63575, 56.71597], [11.61801, 56.71133], [11.60426, 56.70116], [11.59254, 56.68985], [11.58107, 56.68122], [11.56422, 56.67744], [11.54371, 56.67866], [11.52459, 56.68472], [11.51222, 56.69546], [11.50953, 56.71015]]]}, "properties": {"id": "mbZq", "status": "validé", "pieces": [{"kind": "rect", "bounds": [11.43402, 56.65952, 11.7334, 56.76199]}, {"kind": "clip"}]}}, {"type": "Feature", "geometry": null, "properties": {"id": "o1S7", "status": "validé", "pieces": [{"kind": "country"}]}}, {"type": "Feature", "geometry": null, "properties": {"id": "qCU5", "status": "validé", "pieces": [{"kind": "country"}]}}, {"type": "Feature", "geometry": null, "properties": {"id": "sRx7", "status": "validé", "pieces": [{"kind": "country"}]}}, {"type": "Feature", "geometry": null, "properties": {"id": "ulal", "status": "validé", "pieces": [{"kind": "country"}]}}]}