{"type": "FeatureCollection", "features": [{"type": "Feature", "geometry": {"type": "Polygon", "coordinates": [[[-69.5874, 18.34828], [-69.5874, 18.62298], [-70.11612, 18.62298], [-70.11612, 18.34828], [-69.5874, 18.34828]]]}, "properties": {"id": "2Vae", "status": "validé", "pieces": [{"kind": "rect", "bounds": [-70.11612, 18.34828, -69.5874, 18.62298]}]}}, {"type": "Feature", "geometry": {"type": "Polygon", "coordinates": [[[-69.63135, 18.3678], [-69.63135, 18.62036], [-70.12573, 18.62036], [-70.12573, 18.3678], [-69.63135, 18.3678]]]}, "properties": {"id": "6BE0", "status": "validé", "pieces": [{"kind": "rect", "bounds": [-70.12573, 18.3678, -69.63135, 18.62036]}]}}, {"type": "Feature", "geometry": null, "properties": {"id": "CWXA", "status": "validé", "pieces": [{"kind": "country"}]}}, {"type": "Feature", "geometry": null, "properties": {"id": "DC2k", "status": "validé", "pieces": [{"kind": "country"}]}}, {"type": "Feature", "geometry": {"type": "Polygon", "coordinates": [[[-70.54733, 19.3425], [-70.54733, 19.54185], [-70.83984, 19.54185], [-70.83984, 19.3425], [-70.54733, 19.3425]]]}, "properties": {"id": "EOjT", "status": "validé", "pieces": [{"kind": "rect", "bounds": [-70.83984, 19.3425, -70.54733, 19.54185]}]}}, {"type": "Feature", "geometry": null, "properties": {"id": "FOlT", "status": "validé", "pieces": [{"kind": "country"}]}}, {"type": "Feature", "geometry": null, "properties": {"id": "bzLa", "status": "validé", "pieces": [{"kind": "country"}]}}, {"type": "Feature", "geometry": {"type": "Polygon", "coordinates": [[[-69.6286, 18.31309], [-69.6286, 18.64509], [-70.11749, 18.64509], [-70.11749, 18.31309], [-69.6286, 18.31309]]]}, "properties": {"id": "ftK6", "status": "validé", "pieces": [{"kind": "rect", "bounds": [-70.11749, 18.31309, -69.6286, 18.64509]}]}}, {"type": "Feature", "geometry": null, "properties": {"id": "isVx", "status": "validé", "pieces": [{"kind": "country"}]}}, {"type": "Feature", "geometry": null, "properties": {"id": "jcOp", "status": "validé", "pieces": [{"kind": "country"}]}}, {"type": "Feature", "geometry": {"type": "Polygon", "coordinates": [[[-69.6286, 18.33417], [-69.6286, 18.618], [-70.12573, 18.618], [-70.12573, 18.33417], [-69.6286, 18.33417]]]}, "properties": {"id": "jtB1", "status": "validé", "pieces": [{"kind": "rect", "bounds": [-70.12573, 18.33417, -69.6286, 18.618]}]}}, {"type": "Feature", "geometry": {"type": "Polygon", "coordinates": [[[-69.55444, 18.35764], [-69.55444, 18.61021], [-70.1532, 18.61021], [-70.1532, 18.35764], [-69.55444, 18.35764]]]}, "properties": {"id": "npXt", "status": "validé", "pieces": [{"kind": "rect", "bounds": [-70.1532, 18.35764, -69.55444, 18.61021]}]}}, {"type": "Feature", "geometry": {"type": "Polygon", "coordinates": [[[-70.54871, 19.35806], [-70.54871, 19.5341], [-70.82474, 19.5341], [-70.82474, 19.35806], [-70.54871, 19.35806]]]}, "properties": {"id": "pfJU", "status": "validé", "pieces": [{"kind": "rect", "bounds": [-70.82474, 19.35806, -70.54871, 19.5341]}]}}]}