{"type": "FeatureCollection", "features": [{"type": "Feature", "geometry": null, "properties": {"id": "3DE7", "status": "validé", "pieces": [{"kind": "country"}]}}, {"type": "Feature", "geometry": null, "properties": {"id": "4Cwf", "status": "validé", "pieces": [{"kind": "admin1", "code": "ECU-1281"}, {"kind": "admin1", "code": "ECU-1280"}, {"kind": "admin1", "code": "ECU-1267"}]}}, {"type": "Feature", "geometry": null, "properties": {"id": "4F5m", "status": "validé", "pieces": [{"kind": "country"}]}}, {"type": "Feature", "geometry": null, "properties": {"id": "6GsD", "status": "validé", "pieces": [{"kind": "admin1", "code": "ECU-1280"}]}}, {"type": "Feature", "geometry": {"type": "Polygon", "coordinates": [[[-80.85251, -2.23851], [-80.81406, -2.24742], [-80.7653, -2.26868], [-80.71037, -2.29749], [-80.68703, -2.31738], [-80.63072, -2.32835], [-80.57785, -2.32081], [-80.4879, -2.37361], [-80.42816, -2.41613], [-80.38902, -2.42984], [-80.34782, -2.39693], [-80.25719, -2.34275], [-80.20088, -2.30503], [-80.09102, -2.23988], [-80.04845, -2.2049], [-79.96056, -2.18981], [-79.9585, -2.18295], [-80.02441, -2.17747], [-80.09102, -2.20421], [-80.12398, -2.23851], [-80.22491, -2.2872], [-80.31761, -2.36127], [-80.3904, -2.3887], [-80.3904, -2.40859], [-80.46799, -2.35784], [-80.55038, -2.3064], [-80.61562, -2.30915], [-80.67535, -2.2968], [-80.75706, -2.25497], [-80.84908, -2.22136], [-80.85251, -2.23851]]]}, "properties": {"id": "7DsW", "status": "validé", "pieces": [{"kind": "polygon", "ring": [[-80.85251, -2.23851], [-80.81406, -2.24742], [-80.7653, -2.26868], [-80.71037, -2.29749], [-80.68703, -2.31738], [-80.63072, -2.32835], [-80.57785, -2.32081], [-80.4879, -2.37361], [-80.42816, -2.41613], [-80.38902, -2.42984], [-80.34782, -2.39693], [-80.25719, -2.34275], [-80.20088, -2.30503], [-80.09102, -2.23988], [-80.04845, -2.2049], [-79.96056, -2.18981], [-79.9585, -2.18295], [-80.02441, -2.17747], [-80.09102, -2.20421], [-80.12398, -2.23851], [-80.22491, -2.2872], [-80.31761, -2.36127], [-80.3904, -2.3887], [-80.3904, -2.40859], [-80.46799, -2.35784], [-80.55038, -2.3064], [-80.61562, -2.30915], [-80.67535, -2.2968], [-80.75706, -2.25497], [-80.84908, -2.22136]]}]}}, {"type": "Feature", "geometry": null, "properties": {"id": "7ek9", "status": "rejeté", "pieces": []}}, {"type": "Feature", "geometry": null, "properties": {"id": "8VeO", "status": "validé", "pieces": [{"kind": "country"}]}}, {"type": "Feature", "geometry": null, "properties": {"id": "8Xg1", "status": "validé", "pieces": [{"kind": "country"}]}}, {"type": "Feature", "geometry": null, "properties": {"id": "8XgY", "status": "validé", "pieces": [{"kind": "country"}]}}, {"type": "Feature", "geometry": null, "properties": {"id": "CduU", "status": "validé", "pieces": [{"kind": "country"}]}}, {"type": "Feature", "geometry": null, "properties": {"id": "F7Tj", "status": "validé", "pieces": [{"kind": "country"}]}}, {"type": "Feature", "geometry": null, "properties": {"id": "H10J", "status": "rejeté", "pieces": []}}, {"type": "Feature", "geometry": null, "properties": {"id": "HsDH", "status": "validé", "pieces": [{"kind": "country"}]}}, {"type": "Feature", "geometry": null, "properties": {"id": "LwpU", "status": "validé", "pieces": [{"kind": "country"}]}}, {"type": "Feature", "geometry": null, "properties": {"id": "N2lV", "status": "rejeté", "pieces": []}}, {"type": "Feature", "geometry": null, "properties": {"id": "QajZ", "status": "validé", "pieces": [{"kind": "admin1", "code": "ECU-1268"}, {"kind": "admin1", "code": "ECU-1269"}, {"kind": "admin1", "code": "ECU-1267"}]}}, {"type": "Feature", "geometry": null, "properties": {"id": "T07k", "status": "validé", "pieces": [{"kind": "admin1", "code": "ECU-1335"}]}}, {"type": "Feature", "geometry": {"type": "Polygon", "coordinates": [[[-77.14462, 0.09903], [-76.91254, 0.10177], [-76.87958, 0.12374], [-76.86859, 0.25689], [-76.83014, 0.25689], [-76.82739, 0.1608], [-76.84387, 0.10315], [-76.6777, 0.08942], [-76.46896, -0.06982], [-76.3179, -0.09041], [-76.31241, 0.17315], [-76.24924, 0.18414], [-76.2616, 0.00019], [-76.2616, -0.14669], [-76.34262, -0.18238], [-76.4772, -0.12335], [-76.68457, -0.01491], [-76.72852, 0.04549], [-76.87408, 0.03863], [-76.8576, -0.0657], [-76.79169, -0.23729], [-76.84387, -0.34436], [-76.91666, -0.35534], [-76.94, -0.34162], [-76.96747, -0.31142], [-76.89606, -0.3073], [-76.87134, -0.20297], [-76.91254, -0.00255], [-76.91254, 0.04686], [-77.14737, 0.05785], [-77.14462, 0.09903]]]}, "properties": {"id": "Z3gQ", "status": "validé", "pieces": [{"kind": "polygon", "ring": [[-77.14462, 0.09903], [-76.91254, 0.10177], [-76.87958, 0.12374], [-76.86859, 0.25689], [-76.83014, 0.25689], [-76.82739, 0.1608], [-76.84387, 0.10315], [-76.6777, 0.08942], [-76.46896, -0.06982], [-76.3179, -0.09041], [-76.31241, 0.17315], [-76.24924, 0.18414], [-76.2616, 0.00019], [-76.2616, -0.14669], [-76.34262, -0.18238], [-76.4772, -0.12335], [-76.68457, -0.01491], [-76.72852, 0.04549], [-76.87408, 0.03863], [-76.8576, -0.0657], [-76.79169, -0.23729], [-76.84387, -0.34436], [-76.91666, -0.35534], [-76.94, -0.34162], [-76.96747, -0.31142], [-76.89606, -0.3073], [-76.87134, -0.20297], [-76.91254, -0.00255], [-76.91254, 0.04686], [-77.14737, 0.05785]]}]}}, {"type": "Feature", "geometry": null, "properties": {"id": "blv0", "status": "validé", "pieces": [{"kind": "admin1", "code": "ECU-1284"}]}}, {"type": "Feature", "geometry": null, "properties": {"id": "cF1l", "status": "validé", "pieces": [{"kind": "country"}]}}, {"type": "Feature", "geometry": {"type": "MultiPolygon", "coordinates": [[[[-80.37598, -2.34401], [-80.20569, -2.20136], [-80.1947, -2.05869], [-80.32104, -1.88857], [-80.38696, -1.77332], [-80.26062, -1.53731], [-80.16174, -1.26285], [-79.81018, -0.95542], [-79.66187, -0.6809], [-79.53003, -0.6205], [-79.32129, -0.65894], [-79.20044, -0.70835], [-79.21692, -0.86208], [-79.32678, -1.08169], [-79.32678, -1.31226], [-79.32129, -1.65258], [-79.2334, -1.76784], [-79.21692, -2.05869], [-78.98621, -2.33852], [-79.29382, -2.77736], [-79.61792, -3.11186], [-79.65637, -3.20506], [-79.87061, -3.48462], [-80.22125, -3.61536], [-80.22213, -3.61244], [-80.22228, -3.60128], [-80.225, -3.59187], [-80.23368, -3.58784], [-80.24355, -3.58464], [-80.24998, -3.57771], [-80.2499, -3.56996], [-80.24213, -3.54299], [-80.24026, -3.52387], [-80.24029, -3.51405], [-80.24267, -3.50516], [-80.24908, -3.49792], [-80.26556, -3.4911], [-80.27163, -3.48552], [-80.27388, -3.46464], [-80.26778, -3.44387], [-80.26566, -3.4264], [-80.27975, -3.41555], [-80.31763, -3.40553], [-80.3339, -3.39705], [-80.34073, -3.3935], [-80.34288, -3.38633], [-80.34411, -3.37884], [-80.34105, -3.36858], [-80.32763, -3.36053], [-80.32144, -3.34873], [-80.31648, -3.33473], [-80.30687, -3.32073], [-80.31701, -3.34881], [-80.32055, -3.35556], [-80.31432, -3.37607], [-80.30232, -3.3668], [-80.2967, -3.33538], [-80.28645, -3.32073], [-80.2591, -3.34808], [-80.24551, -3.34238], [-80.17317, -3.32757], [-80.16071, -3.32879], [-80.1525, -3.33082], [-80.14517, -3.33123], [-80.13557, -3.32757], [-80.11278, -3.30071], [-80.10827, -3.29681], [-80.07046, -3.21819], [-80.05988, -3.20403], [-80.03751, -3.20827], [-80.03287, -3.23211], [-80.03995, -3.27988], [-80.02921, -3.27353], [-80.02257, -3.26385], [-80.01692, -3.2527], [-80.00894, -3.24188], [-79.99983, -3.23463], [-79.96801, -3.21461], [-79.9532, -3.19744], [-79.94347, -3.17653], [-79.93798, -3.15399], [-79.93334, -3.11541], [-79.91706, -3.07928], [-79.88341, -3.02549], [-79.87487, -3.00547], [-79.88484, -2.98805], [-79.88121, -2.96543], [-79.86803, -2.92637], [-79.86583, -2.90879], [-79.83458, -2.80682], [-79.81347, -2.76898], [-79.81119, -2.76238], [-79.80138, -2.74098], [-79.79768, -2.71771], [-79.77644, -2.65944], [-79.76496, -2.64227], [-79.73498, -2.61159], [-79.72643, -2.59384], [-79.72509, -2.56976], [-79.73152, -2.52508], [-79.74502, -2.49017], [-79.74828, -2.48463], [-79.77017, -2.48594], [-79.78148, -2.48496], [-79.78954, -2.48105], [-79.80163, -2.46258], [-79.82091, -2.40895], [-79.8334, -2.38925], [-79.83947, -2.37705], [-79.8413, -2.36289], [-79.84044, -2.30462], [-79.84716, -2.25807], [-79.84756, -2.24505], [-79.84142, -2.22308], [-79.83983, -2.20957], [-79.84447, -2.20355], [-79.8461, -2.19948], [-79.8588, -2.18239], [-79.86189, -2.17962], [-79.86339, -2.17278], [-79.86636, -2.16774], [-79.86864, -2.1609], [-79.86803, -2.14886], [-79.86303, -2.13787], [-79.85644, -2.12933], [-79.85411, -2.12029], [-79.86189, -2.108], [-79.84642, -2.09173], [-79.83064, -2.08709], [-79.81835, -2.07985], [-79.81347, -2.05641], [-79.8059, -2.04518], [-79.78938, -2.03769], [-79.77286, -2.02663], [-79.76561, -2.00498], [-79.82494, -2.03867], [-79.83137, -2.04355], [-79.83397, -2.05234], [-79.83458, -2.07], [-79.84191, -2.07317], [-79.87434, -2.07537], [-79.8817, -2.08375], [-79.88341, -2.09157], [-79.89196, -2.1159], [-79.90046, -2.15594], [-79.90184, -2.18483], [-79.89574, -2.2138], [-79.86531, -2.26678], [-79.86303, -2.29713], [-79.87857, -2.49188], [-79.88915, -2.53248], [-79.89611, -2.54339], [-79.92349, -2.57391], [-79.93322, -2.58026], [-79.94933, -2.58514], [-79.984, -2.60516], [-79.9984, -2.60817], [-80.00845, -2.6032], [-80.01431, -2.58978], [-80.02229, -2.58709], [-80.04369, -2.58945], [-80.05085, -2.58701], [-80.06359, -2.57724], [-80.06892, -2.56081], [-80.05553, -2.54518], [-80.02571, -2.52508], [-80.01659, -2.50408], [-80.01211, -2.48903], [-80.00178, -2.48016], [-79.97484, -2.47723], [-79.9685, -2.48138], [-79.96251, -2.48992], [-79.95494, -2.49765], [-79.94376, -2.49831], [-79.93419, -2.49261], [-79.92968, -2.48414], [-79.93041, -2.47389], [-79.93635, -2.46299], [-79.94083, -2.48398], [-79.95434, -2.47959], [-79.97794, -2.45672], [-79.99987, -2.45924], [-80.01985, -2.46942], [-80.03433, -2.47389], [-80.03995, -2.45989], [-80.03576, -2.43792], [-80.01696, -2.3952], [-80.01269, -2.37119], [-80.00894, -2.35882], [-79.99991, -2.35394], [-79.98852, -2.35174], [-79.97794, -2.34743], [-79.97037, -2.33961], [-79.95002, -2.30722], [-79.95922, -2.30967], [-79.96434, -2.31276], [-79.97484, -2.32366], [-79.98314, -2.32708], [-80.00341, -2.32545], [-80.01269, -2.32643], [-80.024, -2.33416], [-80.03287, -2.34637], [-80.07604, -2.4577], [-80.14428, -2.55332], [-80.17512, -2.58668], [-80.20759, -2.60076], [-80.21508, -2.61387], [-80.22256, -2.62322], [-80.2318, -2.62868], [-80.24136, -2.62851], [-80.24657, -2.62444], [-80.25032, -2.61826], [-80.25536, -2.61159], [-80.27001, -2.60508], [-80.27961, -2.61256], [-80.28311, -2.62908], [-80.27961, -2.64918], [-80.27579, -2.65211], [-80.24853, -2.67986], [-80.24502, -2.68817], [-80.24425, -2.69948], [-80.24543, -2.72112], [-80.25548, -2.73024], [-80.27843, -2.72715], [-80.32055, -2.71063], [-80.36278, -2.67474], [-80.37751, -2.66644], [-80.39045, -2.65374], [-80.39631, -2.64918], [-80.40258, -2.64739], [-80.4204, -2.64495], [-80.4298, -2.64235], [-80.46788, -2.61793], [-80.57409, -2.49285], [-80.57986, -2.48746], [-80.37598, -2.34401]]], [[[-80.01452, -2.66424], [-79.94579, -2.70664], [-79.90282, -2.71746], [-79.90441, -2.72519], [-79.90722, -2.73235], [-79.91124, -2.73887], [-79.91649, -2.74481], [-79.92764, -2.75416], [-79.97794, -2.77581], [-79.98111, -2.7846], [-79.99519, -2.79803], [-79.9984, -2.8034], [-80.00446, -2.81878], [-80.01269, -2.83416], [-80.02098, -2.84287], [-80.0231, -2.84303], [-80.03371, -2.86123], [-80.04572, -2.88523], [-80.05832, -2.90804], [-80.06493, -2.92424], [-80.08115, -2.93085], [-80.09437, -2.94586], [-80.09376, -2.96927], [-80.109, -2.98358], [-80.1151, -2.99798], [-80.13103, -3.02092], [-80.16682, -3.01735], [-80.18676, -3.02899], [-80.20373, -3.03411], [-80.2281, -3.03216], [-80.25158, -3.02606], [-80.26594, -3.01849], [-80.27185, -2.99641], [-80.2658, -2.96095], [-80.2622, -2.84085], [-80.25866, -2.82733], [-80.22496, -2.76531], [-80.21068, -2.72487], [-80.1964, -2.71461], [-80.13557, -2.69695], [-80.08088, -2.66985], [-80.05988, -2.66277], [-80.01452, -2.66424]]], [[[-79.80901, -2.51168], [-79.78472, -2.52077], [-79.77257, -2.54199], [-79.79381, -2.57384], [-79.8287, -2.59205], [-79.83324, -2.63602], [-79.85751, -2.65119], [-79.87724, -2.64968], [-79.8818, -2.62694], [-79.86816, -2.58903], [-79.84694, -2.53444], [-79.81964, -2.48591], [-79.80901, -2.51168]]]]}, "properties": {"id": "dewU", "status": "validé", "pieces": [{"kind": "polygon", "ring": [[-80.61768, -2.51407], [-80.37598, -2.34401], [-80.20569, -2.20136], [-80.1947, -2.05869], [-80.32104, -1.88857], [-80.38696, -1.77332], [-80.26062, -1.53731], [-80.16174, -1.26285], [-79.81018, -0.95542], [-79.66187, -0.6809], [-79.53003, -0.6205], [-79.32129, -0.65894], [-79.20044, -0.70835], [-79.21692, -0.86208], [-79.32678, -1.08169], [-79.32678, -1.31226], [-79.32129, -1.65258], [-79.2334, -1.76784], [-79.21692, -2.05869], [-78.98621, -2.33852], [-79.29382, -2.77736], [-79.61792, -3.11186], [-79.65637, -3.20506], [-79.87061, -3.48462], [-80.41443, -3.68739], [-80.68359, -3.12831]]}, {"kind": "clip"}]}}, {"type": "Feature", "geometry": null, "properties": {"id": "g3pY", "status": "rejeté", "pieces": []}}, {"type": "Feature", "geometry": null, "properties": {"id": "g9O5", "status": "validé", "pieces": [{"kind": "country"}]}}, {"type": "Feature", "geometry": {"type": "Polygon", "coordinates": [[[-76.24512, 0.27619], [-76.24512, -0.02032], [-76.55273, -0.25094], [-76.84937, -0.53646], [-77.08008, -0.65725], [-77.25586, -0.75608], [-77.49756, -0.84393], [-77.56348, -0.71216], [-77.48657, -0.48155], [-77.32178, -0.20701], [-77.36572, 0.03459], [-77.49756, 0.25422], [-77.40482, 0.39327], [-77.39747, 0.38763], [-77.36253, 0.37481], [-77.25613, 0.35321], [-77.23727, 0.34639], [-77.22254, 0.33884], [-77.20694, 0.33419], [-77.18518, 0.33543], [-77.1348, 0.35435], [-77.11743, 0.35755], [-77.10386, 0.35414], [-77.08286, 0.34887], [-77.04462, 0.30567], [-77.01491, 0.29564], [-76.97491, 0.29492], [-76.96246, 0.29285], [-76.94587, 0.28706], [-76.93569, 0.27983], [-76.91388, 0.25782], [-76.89683, 0.24531], [-76.88246, 0.24014], [-76.86732, 0.23952], [-76.79787, 0.24996], [-76.78526, 0.24872], [-76.7496, 0.2327], [-76.73435, 0.23311], [-76.73689, 0.2729], [-76.72454, 0.27755], [-76.68997, 0.26815], [-76.64123, 0.26278], [-76.62687, 0.25854], [-76.61105, 0.24748], [-76.58434, 0.22257], [-76.56543, 0.21606], [-76.5508, 0.21792], [-76.52491, 0.23125], [-76.42569, 0.24272], [-76.40802, 0.25451], [-76.41835, 0.32086], [-76.41587, 0.39538], [-76.41639, 0.40189], [-76.40693, 0.40013], [-76.38533, 0.40148], [-76.37469, 0.40354], [-76.36539, 0.40695], [-76.3537, 0.4209], [-76.24512, 0.27619]]]}, "properties": {"id": "iFnv", "status": "validé", "pieces": [{"kind": "polygon", "ring": [[-77.34375, 0.48484], [-77.49756, 0.25422], [-77.36572, 0.03459], [-77.32178, -0.20701], [-77.48657, -0.48155], [-77.56348, -0.71216], [-77.49756, -0.84393], [-77.25586, -0.75608], [-77.08008, -0.65725], [-76.84937, -0.53646], [-76.55273, -0.25094], [-76.24512, -0.02032], [-76.24512, 0.27619], [-76.44287, 0.53974], [-77.06909, 0.55072]]}, {"kind": "clip"}]}}, {"type": "Feature", "geometry": {"type": "Polygon", "coordinates": [[[-78.402393, -3.594353], [-78.404719, -3.613783], [-78.404253, -3.64975], [-78.400094, -3.670111], [-78.40074, -3.679826], [-78.408362, -3.685614], [-78.4211, -3.687784], [-78.425854, -3.689438], [-78.426423, -3.694605], [-78.426371, -3.707214], [-78.413581, -3.77181], [-78.419679, -3.791034], [-78.44407, -3.814805], [-78.452003, -3.819869], [-78.464327, -3.825657], [-78.470373, -3.830204], [-78.480683, -3.849531], [-78.48784, -3.868652], [-78.49771, -3.942652], [-78.497633, -3.949577], [-78.501767, -3.953711], [-78.51572, -3.961359], [-78.528639, -3.96539], [-78.540757, -3.96632], [-78.551893, -3.969214], [-78.562073, -3.979756], [-78.566905, -3.996189], [-78.565923, -4.05572], [-78.57662, -4.100059], [-78.637573, -4.227389], [-78.647107, -4.271108], [-78.655737, -4.290641], [-78.674134, -4.305938], [-78.682428, -4.326918], [-78.681213, -4.364435], [-78.673152, -4.401539], [-78.660982, -4.420659], [-78.637211, -4.435129], [-78.639898, -4.451252], [-78.655349, -4.470165], [-78.669793, -4.49342], [-78.672377, -4.511817], [-78.671446, -4.531764], [-78.672661, -4.550987], [-78.681678, -4.56711], [-78.708935, -4.585108], [-78.719712, -4.592225], [-78.811283, -4.628709], [-78.853063, -4.652273], [-78.898642, -4.694234], [-78.917349, -4.719969], [-78.928614, -4.747461], [-78.927891, -4.77485], [-78.905334, -4.819808], [-78.900218, -4.843683], [-78.910812, -4.863526], [-78.933963, -4.868694], [-78.960266, -4.868901], [-78.980342, -4.873965], [-78.991014, -4.890398], [-79.002098, -4.939129], [-79.009281, -4.96011], [-79.035094, -4.987498], [-79.063929, -5.011373], [-79.082455, -4.993079], [-79.093385, -4.985121], [-79.104159, -4.980057], [-79.11452, -4.978816], [-79.130669, -4.982847], [-79.140849, -4.983261], [-79.158316, -4.979333], [-79.191751, -4.967654], [-79.209321, -4.96476], [-79.233689, -4.965648], [-79.280272, -4.967344], [-79.303217, -4.961246], [-79.317169, -4.9444], [-79.327841, -4.923264], [-79.341044, -4.904247], [-79.349855, -4.89846], [-79.369363, -4.891122], [-79.37807, -4.884817], [-79.383419, -4.876239], [-79.38993, -4.856498], [-79.39533, -4.84761], [-79.412693, -4.834794], [-79.433312, -4.823942], [-79.450572, -4.810196], [-79.457755, -4.789009], [-79.460823, -4.770456], [-79.461037, -4.769165], [-79.487211, -4.719969], [-79.498709, -4.660645], [-79.527854, -4.618063], [-79.527182, -4.596566], [-79.504135, -4.555638], [-79.501628, -4.540962], [-79.507209, -4.531557], [-79.527544, -4.519671], [-79.551625, -4.519878], [-79.557775, -4.516571], [-79.572038, -4.506029], [-79.579841, -4.502308], [-79.630329, -4.452492], [-79.657975, -4.438746], [-79.694123, -4.443604], [-79.728591, -4.464067], [-79.795745, -4.484738], [-79.832874, -4.47895], [-79.857731, -4.453319], [-79.878737, -4.422003], [-79.904084, -4.398645], [-79.930336, -4.392031], [-79.956019, -4.39172], [-79.982012, -4.38862], [-80.009091, -4.37384], [-80.029271, -4.359681], [-80.06162, -4.324438], [-80.079655, -4.309038], [-80.096863, -4.302837], [-80.117224, -4.299116], [-80.133864, -4.293949], [-80.140246, -4.283097], [-80.143088, -4.28413], [-80.183835, -4.289401], [-80.194764, -4.293122], [-80.205048, -4.298186], [-80.213445, -4.304904], [-80.221946, -4.31896], [-80.232204, -4.353997], [-80.239671, -4.36981], [-80.255407, -4.38676], [-80.332301, -4.445671], [-80.373255, -4.467581], [-80.382867, -4.476263], [-80.390747, -4.476987], [-80.408498, -4.477503], [-80.425112, -4.471509], [-80.469967, -4.446084], [-80.483532, -4.433992], [-80.492291, -4.413011], [-80.488545, -4.395958], [-80.356305, -4.220568], [-80.345272, -4.198451], [-80.391419, -4.204135], [-80.434724, -4.216951], [-80.469605, -4.21323], [-80.490767, -4.168995], [-80.490689, -4.159693], [-80.48684, -4.140676], [-80.487175, -4.131271], [-80.492601, -4.118456], [-80.50906, -4.095821], [-80.514073, -4.083419], [-80.512294, -4.065034], [-80.512213, -4.064195], [-80.503583, -4.039081], [-80.491981, -4.014896], [-80.481078, -3.998773], [-80.466143, -3.988128], [-80.447695, -3.982753], [-80.427463, -3.981306], [-80.407103, -3.982443], [-80.386458, -3.988954], [-80.344264, -4.011589], [-80.325506, -4.015413], [-80.304628, -4.005181], [-80.287808, -3.984407], [-80.273287, -3.961256], [-80.259076, -3.943686], [-80.181148, -3.907926], [-80.165257, -3.890046], [-80.165074, -3.880696], [-80.16505, -3.879504], [-80.171097, -3.873613], [-80.180062, -3.867825], [-80.18877, -3.857696], [-80.191457, -3.849118], [-80.191457, -3.830618], [-80.192723, -3.821626], [-80.20156, -3.801472], [-80.221636, -3.769433], [-80.226313, -3.749279], [-80.224452, -3.741631], [-80.220189, -3.734706], [-80.216856, -3.726955], [-80.217864, -3.717136], [-80.223987, -3.698429], [-80.224943, -3.690678], [-80.224943, -3.680653], [-80.22329, -3.671868], [-80.216779, -3.652437], [-80.215202, -3.642516], [-80.216391, -3.63156], [-80.222127, -3.61244], [-80.222282, -3.601278], [-80.224995, -3.591873], [-80.233677, -3.587842], [-80.243547, -3.584638], [-80.249981, -3.577713], [-80.249903, -3.569962], [-80.242126, -3.542987], [-80.240265, -3.523866], [-80.240291, -3.514048], [-80.242668, -3.50516], [-80.249076, -3.497925], [-80.265561, -3.491104], [-80.271633, -3.485523], [-80.273881, -3.464645], [-80.267783, -3.443871], [-80.265664, -3.426405], [-80.279746, -3.415553], [-80.317625, -3.405527], [-80.333903, -3.397053], [-80.340729, -3.393498], [-80.342885, -3.386326], [-80.344106, -3.378839], [-80.341054, -3.368585], [-80.327626, -3.360528], [-80.321441, -3.348728], [-80.316477, -3.334731], [-80.306874, -3.320733], [-80.317006, -3.34881], [-80.320546, -3.355564], [-80.31432, -3.376072], [-80.302317, -3.366795], [-80.296702, -3.335382], [-80.286448, -3.320733], [-80.259104, -3.348077], [-80.245513, -3.34238], [-80.173166, -3.327569], [-80.160715, -3.32879], [-80.152496, -3.330824], [-80.145172, -3.331231], [-80.135569, -3.327569], [-80.112782, -3.300714], [-80.108266, -3.296808], [-80.070465, -3.218194], [-80.059885, -3.204034], [-80.037506, -3.208266], [-80.032867, -3.23211], [-80.039947, -3.27988], [-80.029205, -3.273533], [-80.022572, -3.263849], [-80.016916, -3.252699], [-80.008941, -3.241876], [-79.999827, -3.234633], [-79.968007, -3.214614], [-79.953196, -3.197442], [-79.943471, -3.176528], [-79.937978, -3.153985], [-79.933339, -3.115411], [-79.917063, -3.079278], [-79.895893, -3.045438], [-79.895815, -3.045447], [-79.887883, -3.046377], [-79.811376, -3.050459], [-79.800989, -3.052423], [-79.760475, -3.064671], [-79.64586053646481, -3.1249888620219908], [-79.62890625000001, -3.1165281753941136], [-79.17846679687501, -3.1165281753941136], [-78.79394531250001, -3.1494243947917386], [-78.87084960937501, -3.368705444896333], [-78.87134394099516, -3.370776130982594], [-78.855956, -3.381705], [-78.849393, -3.389147], [-78.84637, -3.396433], [-78.846293, -3.402583], [-78.848799, -3.408784], [-78.853476, -3.413952], [-78.864354, -3.42408], [-78.869418, -3.429816], [-78.873139, -3.436379], [-78.874379, -3.44258], [-78.873604, -3.449608], [-78.869676, -3.463303], [-78.8681, -3.481338], [-78.866395, -3.490381], [-78.864044, -3.497306], [-78.860142, -3.503507], [-78.854897, -3.509811], [-78.846913, -3.516839], [-78.84234, -3.522679], [-78.839937, -3.52857], [-78.838929, -3.53565], [-78.833296, -3.541696], [-78.822186, -3.547018], [-78.794384, -3.551307], [-78.75312, -3.56247], [-78.719246, -3.567069], [-78.708756, -3.570531], [-78.691031, -3.578748], [-78.684365, -3.579316], [-78.677854, -3.574872], [-78.673358, -3.568981], [-78.663332, -3.550067], [-78.659767, -3.545881], [-78.654573, -3.542161], [-78.645272, -3.53937], [-78.633464, -3.538027], [-78.59468, -3.542161], [-78.574707, -3.541851], [-78.50112, -3.528777], [-78.376632, -3.529345], [-78.375872, -3.529348], [-78.377253, -3.533685], [-78.395675, -3.573786], [-78.402393, -3.594353]], [[-79.62321642308846, -3.757986083359221], [-79.624411, -3.758685], [-79.62321642308846, -3.757986083359223], [-79.62321642308846, -3.757986083359221]]]}, "properties": {"id": "iKkh", "status": "validé", "pieces": [{"kind": "admin1", "code": "ECU-1268"}, {"kind": "admin1", "code": "ECU-1267"}, {"kind": "admin1", "code": "ECU-1269"}, {"kind": "polygon", "ring": [[-79.62891, -3.11653], [-79.17847, -3.11653], [-78.79395, -3.14942], [-78.87085, -3.36871], [-79.09058, -4.28911], [-79.67285, -3.70849], [-79.84863, -3.22618]]}, {"kind": "clip"}]}}, {"type": "Feature", "geometry": null, "properties": {"id": "ifrx", "status": "validé", "pieces": [{"kind": "country"}]}}, {"type": "Feature", "geometry": null, "properties": {"id": "ki46", "status": "validé", "pieces": [{"kind": "country"}]}}, {"type": "Feature", "geometry": {"type": "MultiPolygon", "coordinates": [[[[-80.28098, -2.619], [-80.28311, -2.62908], [-80.27961, -2.64918], [-80.27579, -2.65211], [-80.24853, -2.67986], [-80.24502, -2.68817], [-80.24425, -2.69948], [-80.24543, -2.72112], [-80.25548, -2.73024], [-80.27843, -2.72715], [-80.32055, -2.71063], [-80.36278, -2.67474], [-80.36928, -2.67108], [-80.33478, -2.62706], [-80.28098, -2.619]]], [[[-80.22491, -2.6106], [-80.22168, -2.62212], [-80.22256, -2.62322], [-80.2318, -2.62868], [-80.24136, -2.62851], [-80.24657, -2.62444], [-80.25032, -2.61826], [-80.25293, -2.6148], [-80.22491, -2.6106]]], [[[-80.61768, -0.96968], [-80.72754, -1.00811], [-80.81268, -1.0383], [-80.81268, -1.11516], [-80.73853, -1.21123], [-80.6781, -1.31828], [-80.68634, -1.40062], [-80.72479, -1.57078], [-80.68909, -1.70251], [-80.66986, -1.94948], [-80.66986, -2.18543], [-80.66986, -2.28419], [-80.56549, -2.33631], [-80.53802, -2.42135], [-80.57939, -2.4879], [-80.65665, -2.41579], [-80.68886, -2.4053], [-80.71805, -2.39126], [-80.75051, -2.39236], [-80.80346, -2.37477], [-80.82189, -2.36639], [-80.86392, -2.32928], [-80.88598, -2.3209], [-80.90172, -2.32106], [-80.91365, -2.31878], [-80.92121, -2.30975], [-80.92711, -2.27597], [-80.9348, -2.26092], [-80.95116, -2.23756], [-80.965, -2.22332], [-81.00207, -2.19362], [-81.00617, -2.18719], [-81.01089, -2.17669], [-81.01301, -2.16692], [-81.00919, -2.16253], [-81.00121, -2.16448], [-80.99755, -2.16872], [-80.99543, -2.17344], [-80.9921, -2.1762], [-80.96666, -2.18231], [-80.95466, -2.18304], [-80.94933, -2.18621], [-80.94429, -2.20328], [-80.93129, -2.21733], [-80.90634, -2.21626], [-80.87057, -2.2033], [-80.81966, -2.16227], [-80.7807, -2.14284], [-80.74498, -2.10291], [-80.73745, -2.0435], [-80.75155, -2.0132], [-80.75951, -1.98203], [-80.76252, -1.97389], [-80.75808, -1.96346], [-80.74726, -1.96131], [-80.73319, -1.95377], [-80.73021, -1.92938], [-80.73302, -1.90399], [-80.76057, -1.79755], [-80.77562, -1.75547], [-80.78213, -1.73699], [-80.79092, -1.72161], [-80.80036, -1.71014], [-80.81225, -1.69158], [-80.83576, -1.63356], [-80.84952, -1.61582], [-80.85407, -1.60296], [-80.85558, -1.58831], [-80.85155, -1.57692], [-80.81649, -1.55225], [-80.82079, -1.5289], [-80.82055, -1.49993], [-80.81152, -1.49162], [-80.79962, -1.4808], [-80.78737, -1.47771], [-80.77086, -1.47783], [-80.76653, -1.46488], [-80.76704, -1.4506], [-80.76491, -1.43113], [-80.75978, -1.41386], [-80.76429, -1.39089], [-80.76002, -1.3766], [-80.74266, -1.36816], [-80.74426, -1.34377], [-80.77404, -1.30254], [-80.83359, -1.23124], [-80.88215, -1.14577], [-80.90325, -1.09478], [-80.91618, -1.06553], [-80.90961, -1.04492], [-80.89754, -1.03287], [-80.88351, -1.02101], [-80.87051, -1.00694], [-80.86287, -0.99715], [-80.85529, -0.98741], [-80.84236, -0.9734], [-80.83045, -0.95933], [-80.82719, -0.95067], [-80.81637, -0.94634], [-80.80228, -0.95064], [-80.7882, -0.95061], [-80.77414, -0.94196], [-80.76117, -0.93655], [-80.74602, -0.93977], [-80.73414, -0.93545], [-80.72225, -0.93113], [-80.72437, -0.93988], [-80.706, -0.94851], [-80.69088, -0.94959], [-80.67896, -0.93926], [-80.6714, -0.93602], [-80.66384, -0.9263], [-80.65304, -0.92307], [-80.64332, -0.9371], [-80.63468, -0.93925], [-80.61892, -0.9411], [-80.61768, -0.96968]]]]}, "properties": {"id": "ohfM", "status": "validé", "pieces": [{"kind": "polygon", "ring": [[-80.38422, -2.69014], [-80.33478, -2.62706], [-80.22491, -2.6106], [-80.20569, -2.67917], [-80.24414, -2.77241]]}, {"kind": "polygon", "ring": [[-80.58746, -2.50089], [-80.53802, -2.42135], [-80.56549, -2.33631], [-80.66986, -2.28419], [-80.66986, -2.18543], [-80.66986, -1.94948], [-80.68909, -1.70251], [-80.72479, -1.57078], [-80.68634, -1.40062], [-80.6781, -1.31828], [-80.73853, -1.21123], [-80.81268, -1.11516], [-80.81268, -1.0383], [-80.72754, -1.00811], [-80.61768, -0.96968], [-80.62042, -0.90654], [-81.09009, -0.97517], [-81.05164, -2.25127], [-80.89783, -2.50912]]}, {"kind": "clip"}]}}, {"type": "Feature", "geometry": null, "properties": {"id": "r9a6", "status": "validé", "pieces": [{"kind": "country"}]}}, {"type": "Feature", "geometry": null, "properties": {"id": "rhiO", "status": "validé", "pieces": [{"kind": "country"}]}}, {"type": "Feature", "geometry": {"type": "MultiPolygon", "coordinates": [[[[-80.14526, -0.70098], [-79.42017, -0.87667], [-79.26483, -1.53903], [-78.80493, -1.06333], [-78.81592, -0.71196], [-78.8269, -0.12994], [-78.62915, 0.53994], [-78.11144, 0.91707], [-78.07794, 0.90077], [-78.00704, 0.89819], [-77.93904, 0.87256], [-77.92818, 0.87235], [-77.92307, 0.87504], [-77.91826, 0.87442], [-77.90855, 0.86419], [-77.90498, 0.85401], [-77.90529, 0.84289], [-77.90323, 0.8321], [-77.89263, 0.82305], [-77.86933, 0.81406], [-77.84798, 0.80925], [-77.82773, 0.80889], [-77.80762, 0.81303], [-77.72789, 0.84331], [-77.70319, 0.8431], [-77.67332, 0.81964], [-77.6668, 0.74771], [-77.64557, 0.71629], [-77.57983, 0.67092], [-77.54335, 0.65645], [-77.51414, 0.66053], [-77.50935, 0.6612], [-77.46806, 0.65087], [-77.45457, 0.60239], [-77.44816, 0.49728], [-77.43912, 0.46369], [-77.43473, 0.43383], [-77.42439, 0.4083], [-77.39747, 0.38763], [-77.36253, 0.37481], [-77.25613, 0.35321], [-77.23727, 0.34639], [-77.22254, 0.33884], [-77.20694, 0.33419], [-77.18518, 0.33543], [-77.1348, 0.35435], [-77.11743, 0.35755], [-77.10386, 0.35414], [-77.08286, 0.34887], [-77.04462, 0.30567], [-77.01491, 0.29564], [-76.97491, 0.29492], [-76.96246, 0.29285], [-76.94587, 0.28706], [-76.93569, 0.27983], [-76.91388, 0.25782], [-76.89683, 0.24531], [-76.88246, 0.24014], [-76.86732, 0.23952], [-76.79787, 0.24996], [-76.78526, 0.24872], [-76.7496, 0.2327], [-76.73435, 0.23311], [-76.73689, 0.2729], [-76.72454, 0.27755], [-76.68997, 0.26815], [-76.64123, 0.26278], [-76.62687, 0.25854], [-76.61105, 0.24748], [-76.58434, 0.22257], [-76.56543, 0.21606], [-76.5508, 0.21792], [-76.52491, 0.23125], [-76.42569, 0.24272], [-76.40802, 0.25451], [-76.41835, 0.32086], [-76.41587, 0.39538], [-76.41639, 0.40189], [-76.40693, 0.40013], [-76.38533, 0.40148], [-76.37469, 0.40354], [-76.36539, 0.40695], [-76.34053, 0.43661], [-76.33495, 0.44168], [-76.32973, 0.44478], [-76.31159, 0.45853], [-76.30048, 0.46163], [-76.29051, 0.45718], [-76.26291, 0.42804], [-76.24369, 0.41543], [-76.22374, 0.40675], [-76.20209, 0.40179], [-76.17759, 0.40013], [-76.15584, 0.40127], [-76.14468, 0.40044], [-76.1363, 0.39672], [-76.13031, 0.38608], [-76.12468, 0.35962], [-76.11956, 0.35176], [-76.10132, 0.35269], [-76.076, 0.36075], [-76.05347, 0.36355], [-76.04385, 0.34856], [-76.03951, 0.33667], [-75.97249, 0.25192], [-75.96753, 0.23931], [-75.96298, 0.22009], [-75.95197, 0.20397], [-75.92712, 0.18102], [-75.86635, 0.14351], [-75.85797, 0.12976], [-75.81787, 0.1001], [-75.78971, 0.08439], [-75.77322, 0.07777], [-75.75385, 0.07302], [-75.73163, 0.07116], [-75.70863, 0.07333], [-75.66551, 0.08315], [-75.64667, 0.08542], [-75.62677, 0.07891], [-75.61096, 0.06465], [-75.59825, 0.05039], [-75.58796, 0.04387], [-75.57014, 0.03798], [-75.52311, -0.00398], [-75.48801, -0.02555], [-75.52803, -0.12271], [-75.53926, -0.12004], [-75.55329, -0.11984], [-75.57117, -0.1217], [-75.58678, -0.1187], [-75.60502, -0.11136], [-75.623, -0.10661], [-75.6376, -0.11146], [-75.64321, -0.12883], [-75.6384, -0.15095], [-75.62864, -0.17048], [-75.61957, -0.18092], [-75.61013, -0.18299], [-75.58871, -0.18133], [-75.57897, -0.18268], [-75.56683, -0.19001], [-75.55885, -0.19754], [-75.60791, -0.31663], [-76.9043, -0.50331], [-77.75024, -1.82083], [-78.27759, -1.61227], [-78.87085, -2.19398], [-79.27007, -2.2106], [-79.29932, -3.4663], [-79.18945, -3.92657], [-79.26557, -4.96681], [-79.28027, -4.96734], [-79.30322, -4.96125], [-79.31717, -4.9444], [-79.32784, -4.92326], [-79.34104, -4.90425], [-79.34986, -4.89846], [-79.36936, -4.89112], [-79.37807, -4.88482], [-79.38342, -4.87624], [-79.38993, -4.8565], [-79.39533, -4.84761], [-79.41269, -4.83479], [-79.43331, -4.82394], [-79.45057, -4.8102], [-79.45776, -4.78901], [-79.46082, -4.77046], [-79.46104, -4.76917], [-79.48721, -4.71997], [-79.49871, -4.66064], [-79.52785, -4.61806], [-79.52718, -4.59657], [-79.50414, -4.55564], [-79.50163, -4.54096], [-79.50721, -4.53156], [-79.52754, -4.51967], [-79.55163, -4.51988], [-79.55778, -4.51657], [-79.57204, -4.50603], [-79.57984, -4.50231], [-79.63033, -4.45249], [-79.65797, -4.43875], [-79.69412, -4.4436], [-79.72859, -4.46407], [-79.79574, -4.48474], [-79.83287, -4.47895], [-79.85773, -4.45332], [-79.87874, -4.422], [-79.90408, -4.39865], [-79.93034, -4.39203], [-79.95602, -4.39172], [-79.98201, -4.38862], [-80.00909, -4.37384], [-80.02927, -4.35968], [-80.06162, -4.32444], [-80.07966, -4.30904], [-80.09686, -4.30284], [-80.11722, -4.29912], [-80.13386, -4.29395], [-80.14025, -4.2831], [-80.14309, -4.28413], [-80.18384, -4.2894], [-80.19476, -4.29312], [-80.20505, -4.29819], [-80.21344, -4.3049], [-80.22195, -4.31896], [-80.2322, -4.354], [-80.23967, -4.36981], [-80.25541, -4.38676], [-80.3323, -4.44567], [-80.37326, -4.46758], [-80.38287, -4.47626], [-80.39075, -4.47699], [-80.4085, -4.4775], [-80.42511, -4.47151], [-80.46997, -4.44608], [-80.48353, -4.43399], [-80.49229, -4.41301], [-80.48855, -4.39596], [-80.35631, -4.22057], [-80.34527, -4.19845], [-80.39142, -4.20413], [-80.43472, -4.21695], [-80.46961, -4.21323], [-80.49077, -4.16899], [-80.49069, -4.15969], [-80.48684, -4.14068], [-80.48717, -4.13127], [-80.4926, -4.11846], [-80.50906, -4.09582], [-80.51407, -4.08342], [-80.51229, -4.06503], [-80.51221, -4.06419], [-80.50358, -4.03908], [-80.49198, -4.0149], [-80.48108, -3.99877], [-80.46614, -3.98813], [-80.44769, -3.98275], [-80.42746, -3.98131], [-80.4071, -3.98244], [-80.38646, -3.98895], [-80.34426, -4.01159], [-80.32551, -4.01541], [-80.30463, -4.00518], [-80.28781, -3.98441], [-80.27329, -3.96126], [-80.25908, -3.94369], [-80.18115, -3.90793], [-80.16526, -3.89005], [-80.16507, -3.8807], [-80.16505, -3.8795], [-80.1711, -3.87361], [-80.18006, -3.86782], [-80.18877, -3.8577], [-80.19146, -3.84912], [-80.19146, -3.83062], [-80.19272, -3.82163], [-80.20156, -3.80147], [-80.22164, -3.76943], [-80.22631, -3.74928], [-80.22445, -3.74163], [-80.22019, -3.73471], [-80.21686, -3.72695], [-80.21786, -3.71714], [-80.22399, -3.69843], [-80.22494, -3.69068], [-80.22494, -3.68065], [-80.22329, -3.67187], [-80.21678, -3.65244], [-80.2152, -3.64252], [-80.21639, -3.63156], [-80.22213, -3.61244], [-80.22228, -3.60128], [-80.225, -3.59187], [-80.23368, -3.58784], [-80.24355, -3.58464], [-80.24998, -3.57771], [-80.2499, -3.56996], [-80.24213, -3.54299], [-80.24026, -3.52387], [-80.24029, -3.51405], [-80.24267, -3.50516], [-80.24908, -3.49792], [-80.26556, -3.4911], [-80.27163, -3.48552], [-80.27388, -3.46464], [-80.26778, -3.44387], [-80.26566, -3.4264], [-80.27975, -3.41555], [-80.31763, -3.40553], [-80.3339, -3.39705], [-80.34073, -3.3935], [-80.34288, -3.38633], [-80.34411, -3.37884], [-80.34105, -3.36858], [-80.32763, -3.36053], [-80.32144, -3.34873], [-80.31648, -3.33473], [-80.30687, -3.32073], [-80.31701, -3.34881], [-80.32055, -3.35556], [-80.31432, -3.37607], [-80.30232, -3.3668], [-80.2967, -3.33538], [-80.28645, -3.32073], [-80.2591, -3.34808], [-80.24551, -3.34238], [-80.17317, -3.32757], [-80.16071, -3.32879], [-80.1525, -3.33082], [-80.14517, -3.33123], [-80.13557, -3.32757], [-80.11278, -3.30071], [-80.10827, -3.29681], [-80.07046, -3.21819], [-80.05988, -3.20403], [-80.03751, -3.20827], [-80.03287, -3.23211], [-80.03995, -3.27988], [-80.02921, -3.27353], [-80.02257, -3.26385], [-80.01692, -3.2527], [-80.00894, -3.24188], [-79.99983, -3.23463], [-79.96801, -3.21461], [-79.9532, -3.19744], [-79.94347, -3.17653], [-79.93798, -3.15399], [-79.93334, -3.11541], [-79.91706, -3.07928], [-79.88341, -3.02549], [-79.87487, -3.00547], [-79.88484, -2.98805], [-79.88121, -2.96543], [-79.86803, -2.92637], [-79.86583, -2.90879], [-79.83458, -2.80682], [-79.81347, -2.76898], [-79.81119, -2.76238], [-79.80138, -2.74098], [-79.79768, -2.71771], [-79.77644, -2.65944], [-79.76496, -2.64227], [-79.73498, -2.61159], [-79.72643, -2.59384], [-79.72509, -2.56976], [-79.73152, -2.52508], [-79.74502, -2.49017], [-79.74828, -2.48463], [-79.77017, -2.48594], [-79.78148, -2.48496], [-79.78954, -2.48105], [-79.80163, -2.46258], [-79.82091, -2.40895], [-79.8334, -2.38925], [-79.83947, -2.37705], [-79.8413, -2.36289], [-79.84044, -2.30462], [-79.84716, -2.25807], [-79.84756, -2.24505], [-79.84142, -2.22308], [-79.83983, -2.20957], [-79.84447, -2.20355], [-79.8461, -2.19948], [-79.8588, -2.18239], [-79.86189, -2.17962], [-79.86339, -2.17278], [-79.86636, -2.16774], [-79.86864, -2.1609], [-79.86803, -2.14886], [-79.86303, -2.13787], [-79.85644, -2.12933], [-79.85411, -2.12029], [-79.86189, -2.108], [-79.84642, -2.09173], [-79.83064, -2.08709], [-79.81835, -2.07985], [-79.81347, -2.05641], [-79.8059, -2.04518], [-79.78938, -2.03769], [-79.77286, -2.02663], [-79.76561, -2.00498], [-79.82494, -2.03867], [-79.83137, -2.04355], [-79.83397, -2.05234], [-79.83458, -2.07], [-79.84191, -2.07317], [-79.87434, -2.07537], [-79.8817, -2.08375], [-79.88341, -2.09157], [-79.89196, -2.1159], [-79.90046, -2.15594], [-79.90184, -2.18483], [-79.89574, -2.2138], [-79.86531, -2.26678], [-79.86303, -2.29713], [-79.87857, -2.49188], [-79.88915, -2.53248], [-79.89611, -2.54339], [-79.92349, -2.57391], [-79.93322, -2.58026], [-79.94933, -2.58514], [-79.984, -2.60516], [-79.9984, -2.60817], [-80.00845, -2.6032], [-80.01431, -2.58978], [-80.02229, -2.58709], [-80.04369, -2.58945], [-80.05085, -2.58701], [-80.06359, -2.57724], [-80.06892, -2.56081], [-80.05553, -2.54518], [-80.02571, -2.52508], [-80.01659, -2.50408], [-80.01211, -2.48903], [-80.00178, -2.48016], [-79.97484, -2.47723], [-79.9685, -2.48138], [-79.96251, -2.48992], [-79.95494, -2.49765], [-79.94376, -2.49831], [-79.93419, -2.49261], [-79.92968, -2.48414], [-79.93041, -2.47389], [-79.93635, -2.46299], [-79.94083, -2.48398], [-79.95434, -2.47959], [-79.97794, -2.45672], [-79.99987, -2.45924], [-80.01985, -2.46942], [-80.03433, -2.47389], [-80.03995, -2.45989], [-80.03576, -2.43792], [-80.01696, -2.3952], [-80.01269, -2.37119], [-80.00894, -2.35882], [-79.99991, -2.35394], [-79.98852, -2.35174], [-79.97794, -2.34743], [-79.97037, -2.33961], [-79.95002, -2.30722], [-79.95922, -2.30967], [-79.96434, -2.31276], [-79.97484, -2.32366], [-79.98314, -2.32708], [-80.00341, -2.32545], [-80.01269, -2.32643], [-80.024, -2.33416], [-80.03287, -2.34637], [-80.07604, -2.4577], [-80.14428, -2.55332], [-80.17512, -2.58668], [-80.20759, -2.60076], [-80.21508, -2.61387], [-80.22256, -2.62322], [-80.2318, -2.62868], [-80.24136, -2.62851], [-80.24657, -2.62444], [-80.25032, -2.61826], [-80.25536, -2.61159], [-80.27001, -2.60508], [-80.27961, -2.61256], [-80.28311, -2.62908], [-80.27961, -2.64918], [-80.27579, -2.65211], [-80.24853, -2.67986], [-80.24502, -2.68817], [-80.24425, -2.69948], [-80.24543, -2.72112], [-80.25548, -2.73024], [-80.27843, -2.72715], [-80.32055, -2.71063], [-80.36278, -2.67474], [-80.37751, -2.66644], [-80.39045, -2.65374], [-80.39631, -2.64918], [-80.40258, -2.64739], [-80.4204, -2.64495], [-80.4298, -2.64235], [-80.46788, -2.61793], [-80.57409, -2.49285], [-80.65665, -2.41579], [-80.68886, -2.4053], [-80.71805, -2.39126], [-80.75051, -2.39236], [-80.80346, -2.37477], [-80.82189, -2.36639], [-80.86392, -2.32928], [-80.88598, -2.3209], [-80.90172, -2.32106], [-80.91365, -2.31878], [-80.92121, -2.30975], [-80.92711, -2.27597], [-80.9348, -2.26092], [-80.95116, -2.23756], [-80.965, -2.22332], [-81.00207, -2.19362], [-81.00617, -2.18719], [-81.01089, -2.17669], [-81.01301, -2.16692], [-81.00919, -2.16253], [-81.00121, -2.16448], [-80.99755, -2.16872], [-80.99543, -2.17344], [-80.9921, -2.1762], [-80.96666, -2.18231], [-80.95466, -2.18304], [-80.94933, -2.18621], [-80.94429, -2.20328], [-80.93129, -2.21733], [-80.90634, -2.21626], [-80.87057, -2.2033], [-80.81966, -2.16227], [-80.7807, -2.14284], [-80.74498, -2.10291], [-80.73745, -2.0435], [-80.75155, -2.0132], [-80.75951, -1.98203], [-80.76252, -1.97389], [-80.75808, -1.96346], [-80.74726, -1.96131], [-80.73319, -1.95377], [-80.73021, -1.92938], [-80.73302, -1.90399], [-80.76057, -1.79755], [-80.77562, -1.75547], [-80.78213, -1.73699], [-80.79092, -1.72161], [-80.80036, -1.71014], [-80.81225, -1.69158], [-80.83576, -1.63356], [-80.84952, -1.61582], [-80.85407, -1.60296], [-80.85558, -1.58831], [-80.85155, -1.57692], [-80.81649, -1.55225], [-80.82079, -1.5289], [-80.82055, -1.49993], [-80.81152, -1.49162], [-80.79962, -1.4808], [-80.78737, -1.47771], [-80.77086, -1.47783], [-80.76653, -1.46488], [-80.76704, -1.4506], [-80.76491, -1.43113], [-80.75978, -1.41386], [-80.76429, -1.39089], [-80.76002, -1.3766], [-80.74266, -1.36816], [-80.74426, -1.34377], [-80.77404, -1.30254], [-80.83359, -1.23124], [-80.88215, -1.14577], [-80.90325, -1.09478], [-80.91618, -1.06553], [-80.90961, -1.04492], [-80.89754, -1.03287], [-80.88351, -1.02101], [-80.87051, -1.00694], [-80.86287, -0.99715], [-80.85529, -0.98741], [-80.84236, -0.9734], [-80.83045, -0.95933], [-80.82719, -0.95067], [-80.81637, -0.94634], [-80.80228, -0.95064], [-80.7882, -0.95061], [-80.77414, -0.94196], [-80.76117, -0.93655], [-80.74602, -0.93977], [-80.73414, -0.93545], [-80.72225, -0.93113], [-80.72437, -0.93988], [-80.706, -0.94851], [-80.69088, -0.94959], [-80.67896, -0.93926], [-80.6714, -0.93602], [-80.66384, -0.9263], [-80.65304, -0.92307], [-80.64332, -0.9371], [-80.63468, -0.93925], [-80.61632, -0.94141], [-80.59149, -0.93169], [-80.56988, -0.91224], [-80.54721, -0.88849], [-80.53283, -0.82627], [-80.52904, -0.80674], [-80.51591, -0.74209], [-80.49756, -0.69244], [-80.4749, -0.64711], [-80.46247, -0.61793], [-80.45761, -0.61254], [-80.44897, -0.60606], [-80.43493, -0.6039], [-80.42199, -0.5996], [-80.41984, -0.62551], [-80.40582, -0.64603], [-80.3788, -0.65789], [-80.35287, -0.66112], [-80.29901, -0.66223], [-80.299, -0.65036], [-80.32695, -0.64276], [-80.35718, -0.63628], [-80.3777, -0.63628], [-80.39174, -0.62549], [-80.40254, -0.59742], [-80.41556, -0.57375], [-80.42958, -0.56835], [-80.43712, -0.55754], [-80.43822, -0.53382], [-80.44898, -0.50567], [-80.45206, -0.47674], [-80.46624, -0.44517], [-80.4846, -0.42359], [-80.49646, -0.38137], [-80.48565, -0.36722], [-80.46516, -0.36525], [-80.43273, -0.33919], [-80.40147, -0.29192], [-80.39135, -0.27435], [-80.38878, -0.26084], [-80.37988, -0.23902], [-80.37123, -0.22283], [-80.34966, -0.21526], [-80.3367, -0.19476], [-80.3237, -0.17317], [-80.30535, -0.18937], [-80.28372, -0.17858], [-80.25994, -0.16022], [-80.23185, -0.1397], [-80.17234, -0.07488], [-80.12483, -0.0136], [-80.1079, 0.00707], [-80.10082, 0.02692], [-80.09879, 0.03921], [-80.09382, 0.04344], [-80.08727, 0.0456], [-80.06646, 0.05221], [-80.05135, 0.08999], [-80.04272, 0.12346], [-80.03698, 0.17597], [-80.0384, 0.20002], [-80.04621, 0.24262], [-80.04623, 0.24333], [-79.80469, 0.06773], [-80.14526, -0.70098]]], [[[-80.01452, -2.66424], [-79.94579, -2.70664], [-79.90282, -2.71746], [-79.90441, -2.72519], [-79.90722, -2.73235], [-79.91124, -2.73887], [-79.91649, -2.74481], [-79.92764, -2.75416], [-79.97794, -2.77581], [-79.98111, -2.7846], [-79.99519, -2.79803], [-79.9984, -2.8034], [-80.00446, -2.81878], [-80.01269, -2.83416], [-80.02098, -2.84287], [-80.0231, -2.84303], [-80.03371, -2.86123], [-80.04572, -2.88523], [-80.05832, -2.90804], [-80.06493, -2.92424], [-80.08115, -2.93085], [-80.09437, -2.94586], [-80.09376, -2.96927], [-80.109, -2.98358], [-80.1151, -2.99798], [-80.13103, -3.02092], [-80.16682, -3.01735], [-80.18676, -3.02899], [-80.20373, -3.03411], [-80.2281, -3.03216], [-80.25158, -3.02606], [-80.26594, -3.01849], [-80.27185, -2.99641], [-80.2658, -2.96095], [-80.2622, -2.84085], [-80.25866, -2.82733], [-80.22496, -2.76531], [-80.21068, -2.72487], [-80.1964, -2.71461], [-80.13557, -2.69695], [-80.08088, -2.66985], [-80.05988, -2.66277], [-80.01452, -2.66424]]], [[[-79.80901, -2.51168], [-79.78472, -2.52077], [-79.77257, -2.54199], [-79.79381, -2.57384], [-79.8287, -2.59205], [-79.83324, -2.63602], [-79.85751, -2.65119], [-79.87724, -2.64968], [-79.8818, -2.62694], [-79.86816, -2.58903], [-79.84694, -2.53444], [-79.81964, -2.48591], [-79.80901, -2.51168]]]]}, "properties": {"id": "vWms", "status": "validé", "pieces": [{"kind": "polygon", "ring": [[-80.04639, 0.24344], [-79.80469, 0.06773], [-80.14526, -0.70098], [-79.42017, -0.87667], [-79.25537, -1.57934], [-79.29932, -3.4663], [-79.18945, -3.92657], [-79.26636, -4.97763], [-81.59546, -4.68217], [-82.27661, -0.98647]]}, {"kind": "clip"}, {"kind": "polygon", "ring": [[-77.98096, 1.01212], [-78.62915, 0.53994], [-78.8269, -0.12994], [-78.81592, -0.71196], [-78.80493, -1.06333], [-79.43115, -1.71107], [-79.39819, -2.21593], [-78.87085, -2.19398], [-78.27759, -1.61227], [-77.75024, -1.82083], [-76.9043, -0.50331], [-75.60791, -0.31663], [-75.30029, 0.43013], [-77.26685, 1.06702]]}]}}, {"type": "Feature", "geometry": null, "properties": {"id": "ynOS", "status": "validé", "pieces": [{"kind": "country"}]}}]}