{"type": "FeatureCollection", "features": [{"type": "Feature", "geometry": null, "properties": {"id": "0aRY", "status": "validé", "pieces": [{"kind": "country"}]}}, {"type": "Feature", "geometry": null, "properties": {"id": "9WKW", "status": "validé", "pieces": [{"kind": "country"}]}}, {"type": "Feature", "geometry": null, "properties": {"id": "Amwu", "status": "validé", "pieces": [{"kind": "country"}]}}, {"type": "Feature", "geometry": {"type": "Polygon", "coordinates": [[[23.938, 58.13727], [23.95533, 58.1518], [23.98422, 58.15713], [24.01336, 58.15351], [24.02215, 58.12987], [24.00245, 58.10855], [23.97071, 58.0996], [23.94337, 58.11319], [23.938, 58.13727]]]}, "properties": {"id": "BgPO", "status": "validé", "pieces": [{"kind": "rect", "bounds": [23.9035, 58.08455, 24.07928, 58.16285]}, {"kind": "clip"}]}}, {"type": "Feature", "geometry": null, "properties": {"id": "DexW", "status": "validé", "pieces": [{"kind": "country"}]}}, {"type": "Feature", "geometry": null, "properties": {"id": "KNav", "status": "validé", "pieces": [{"kind": "country"}]}}, {"type": "Feature", "geometry": null, "properties": {"id": "KPZE", "status": "validé", "pieces": [{"kind": "country"}]}}, {"type": "Feature", "geometry": null, "properties": {"id": "Kvsf", "status": "validé", "pieces": [{"kind": "country"}]}}, {"type": "Feature", "geometry": null, "properties": {"id": "N5Yh", "status": "validé", "pieces": [{"kind": "country"}]}}, {"type": "Feature", "geometry": null, "properties": {"id": "N6Ec", "status": "validé", "pieces": [{"kind": "country"}]}}, {"type": "Feature", "geometry": null, "properties": {"id": "SRyp", "status": "validé", "pieces": [{"kind": "country"}]}}, {"type": "Feature", "geometry": null, "properties": {"id": "UV37", "status": "validé", "pieces": [{"kind": "country"}]}}, {"type": "Feature", "geometry": null, "properties": {"id": "VLAz", "status": "validé", "pieces": [{"kind": "country"}]}}, {"type": "Feature", "geometry": null, "properties": {"id": "XXzb", "status": "validé", "pieces": [{"kind": "country"}]}}, {"type": "Feature", "geometry": null, "properties": {"id": "YCqH", "status": "validé", "pieces": [{"kind": "country"}]}}, {"type": "Feature", "geometry": null, "properties": {"id": "ZNTy", "status": "validé", "pieces": [{"kind": "country"}]}}, {"type": "Feature", "geometry": null, "properties": {"id": "ZYAH", "status": "validé", "pieces": [{"kind": "country"}]}}, {"type": "Feature", "geometry": null, "properties": {"id": "bdr3", "status": "validé", "pieces": [{"kind": "country"}]}}, {"type": "Feature", "geometry": null, "properties": {"id": "eXbS", "status": "validé", "pieces": [{"kind": "country"}]}}, {"type": "Feature", "geometry": null, "properties": {"id": "hkpv", "status": "validé", "pieces": [{"kind": "country"}]}}, {"type": "Feature", "geometry": null, "properties": {"id": "ki6y", "status": "rejeté", "pieces": []}}, {"type": "Feature", "geometry": {"type": "Polygon", "coordinates": [[[27.26807, 58.95349], [27.3796, 59.45081], [27.40903, 59.45189], [27.56316, 59.43207], [27.71705, 59.42715], [27.8733, 59.40762], [27.91472, 59.41454], [27.95346, 59.42817], [27.98316, 59.44697], [28.01905, 59.48176], [28.03858, 59.46299], [28.08343, 59.45089], [28.10483, 59.43921], [28.12839, 59.40945], [28.1378, 59.40035], [28.14958, 59.39317], [28.17536, 59.38186], [28.18648, 59.37493], [28.18182, 59.35607], [28.15754, 59.36403], [28.11356, 59.34542], [28.03238, 59.34196], [28.00065, 59.33374], [28.0732, 59.31896], [28.09687, 59.31943], [28.07661, 59.30527], [27.95972, 59.30646], [27.90391, 59.29039], [27.88231, 59.27566], [27.89078, 59.25804], [27.87352, 59.23649], [27.84241, 59.1612], [27.78433, 59.07717], [27.76717, 59.05593], [27.72439, 59.01443], [27.71333, 58.9919], [27.69589, 58.97718], [27.69441, 58.97594], [27.62952, 58.9459], [27.26807, 58.95349]]]}, "properties": {"id": "lh3B", "status": "validé", "pieces": [{"kind": "polygon", "ring": [[27.38342, 59.46784], [27.26807, 58.95349], [28.48206, 58.92799], [28.40515, 59.51801]]}, {"kind": "clip"}]}}, {"type": "Feature", "geometry": {"type": "Polygon", "coordinates": [[[24.82086, 59.40747], [24.82086, 59.45495], [24.71924, 59.45495], [24.71924, 59.40747], [24.82086, 59.40747]]]}, "properties": {"id": "nAUS", "status": "validé", "pieces": [{"kind": "rect", "bounds": [24.71924, 59.40747, 24.82086, 59.45495]}]}}, {"type": "Feature", "geometry": null, "properties": {"id": "vr14", "status": "validé", "pieces": [{"kind": "country"}]}}, {"type": "Feature", "geometry": null, "properties": {"id": "xf22", "status": "validé", "pieces": [{"kind": "country"}]}}]}