{"type": "FeatureCollection", "features": [{"type": "Feature", "geometry": null, "properties": {"id": "1Wd7", "status": "rejeté", "pieces": []}}, {"type": "Feature", "geometry": {"type": "Polygon", "coordinates": [[[-6.78011, 61.94752], [-6.78011, 61.95962], [-6.80826, 61.95962], [-6.80826, 61.94752], [-6.78011, 61.94752]]]}, "properties": {"id": "9qa5", "status": "validé", "pieces": [{"kind": "rect", "bounds": [-6.80826, 61.94752, -6.78011, 61.95962]}]}}, {"type": "Feature", "geometry": null, "properties": {"id": "AtU1", "status": "validé", "pieces": [{"kind": "country"}]}}, {"type": "Feature", "geometry": null, "properties": {"id": "COV6", "status": "validé", "pieces": [{"kind": "country"}]}}, {"type": "Feature", "geometry": null, "properties": {"id": "Le4A", "status": "rejeté", "pieces": []}}, {"type": "Feature", "geometry": null, "properties": {"id": "MWOi", "status": "rejeté", "pieces": []}}, {"type": "Feature", "geometry": null, "properties": {"id": "RQyZ", "status": "rejeté", "pieces": []}}, {"type": "Feature", "geometry": null, "properties": {"id": "RbUF", "status": "validé", "pieces": [{"kind": "country"}]}}, {"type": "Feature", "geometry": null, "properties": {"id": "V3eT", "status": "rejeté", "pieces": []}}, {"type": "Feature", "geometry": null, "properties": {"id": "XXhd", "status": "rejeté", "pieces": []}}, {"type": "Feature", "geometry": {"type": "MultiPolygon", "coordinates": [[[[-6.84448, 62.01703], [-6.84448, 62.02685], [-6.82714, 62.02685], [-6.82714, 62.01703], [-6.84448, 62.01703]]], [[[-6.71402, 62.07689], [-6.69823, 62.07689], [-6.69823, 62.06467], [-6.71402, 62.06467], [-6.71402, 62.07689]]], [[[-7.11296, 62.1597], [-7.08275, 62.1597], [-7.08275, 62.1472], [-7.11296, 62.1472], [-7.11296, 62.1597]]]]}, "properties": {"id": "awY5", "status": "validé", "pieces": [{"kind": "rect", "bounds": [-6.84448, 62.01703, -6.82714, 62.02685]}, {"kind": "rect", "bounds": [-6.71402, 62.06467, -6.69823, 62.07689]}, {"kind": "rect", "bounds": [-7.11296, 62.1472, -7.08275, 62.1597]}]}}, {"type": "Feature", "geometry": null, "properties": {"id": "ddcl", "status": "validé", "pieces": [{"kind": "country"}]}}, {"type": "Feature", "geometry": null, "properties": {"id": "g4Xq", "status": "validé", "pieces": [{"kind": "country"}]}}, {"type": "Feature", "geometry": null, "properties": {"id": "ggio", "status": "validé", "pieces": [{"kind": "country"}]}}, {"type": "Feature", "geometry": {"type": "Polygon", "coordinates": [[[-6.56742, 62.2176], [-6.56742, 62.24126], [-6.60725, 62.24126], [-6.60725, 62.2176], [-6.56742, 62.2176]]]}, "properties": {"id": "iisY", "status": "validé", "pieces": [{"kind": "rect", "bounds": [-6.60725, 62.2176, -6.56742, 62.24126]}]}}, {"type": "Feature", "geometry": null, "properties": {"id": "q4k2", "status": "validé", "pieces": [{"kind": "country"}]}}, {"type": "Feature", "geometry": null, "properties": {"id": "q721", "status": "validé", "pieces": [{"kind": "country"}]}}, {"type": "Feature", "geometry": null, "properties": {"id": "u8Th", "status": "validé", "pieces": [{"kind": "country"}]}}, {"type": "Feature", "geometry": {"type": "Polygon", "coordinates": [[[-6.81427, 61.98646], [-6.81427, 62.04379], [-6.73874, 62.04379], [-6.73874, 61.98646], [-6.81427, 61.98646]]]}, "properties": {"id": "vpGT", "status": "validé", "pieces": [{"kind": "rect", "bounds": [-6.81427, 61.98646, -6.73874, 62.04379]}, {"kind": "clip"}]}}]}