{"type": "FeatureCollection", "features": [{"type": "Feature", "geometry": null, "properties": {"id": "3ug2", "status": "validé", "pieces": [{"kind": "country"}]}}, {"type": "Feature", "geometry": {"type": "Polygon", "coordinates": [[[-2.7562, 5.29824], [-2.71912, 5.26202], [-2.68066, 5.2046], [-2.68478, 5.16154], [-2.7253, 5.1964], [-2.74933, 5.25792], [-2.76718, 5.28526], [-2.7562, 5.29824]]]}, "properties": {"id": "4Awi", "status": "validé", "pieces": [{"kind": "polygon", "ring": [[-2.7562, 5.29824], [-2.71912, 5.26202], [-2.68066, 5.2046], [-2.68478, 5.16154], [-2.7253, 5.1964], [-2.74933, 5.25792], [-2.76718, 5.28526]]}]}}, {"type": "Feature", "geometry": null, "properties": {"id": "4IA8", "status": "validé", "pieces": [{"kind": "country"}]}}, {"type": "Feature", "geometry": {"type": "Polygon", "coordinates": [[[-1.97205, 10.1863], [-1.97205, 11.00129], [-2.96082, 11.00129], [-2.96082, 10.1863], [-1.97205, 10.1863]]]}, "properties": {"id": "74In", "status": "validé", "pieces": [{"kind": "rect", "bounds": [-2.96082, 10.1863, -1.97205, 11.00129]}]}}, {"type": "Feature", "geometry": {"type": "MultiPolygon", "coordinates": [[[[-2.83997, 5.63874], [-2.95532, 5.62781], [-3.01025, 5.72616], [-3.17505, 6.26679], [-3.26843, 6.61599], [-3.20251, 6.83956], [-3.01575, 7.09573], [-2.12036, 6.93769], [-1.85669, 6.65417], [-1.13159, 6.72506], [-1.01074, 6.6378], [-0.61523, 6.64871], [-0.42297, 6.53416], [-0.21423, 6.30499], [0.13184, 6.25041], [-0.02197, 5.90643], [-0.50537, 5.77533], [-0.77454, 5.51851], [-1.74683, 5.24518], [-2.15332, 5.19596], [-2.74109, 5.26158], [-2.83997, 5.63874]]], [[[0.23071, 6.62144], [0.26917, 6.95404], [0.27466, 7.4661], [0.23071, 7.8144], [0.20874, 7.92862], [0.58777, 8.5264], [0.73608, 8.33086], [0.59875, 8.17871], [0.62073, 7.68926], [0.53833, 7.61307], [0.52185, 7.40076], [0.65918, 7.37354], [0.59875, 7.03579], [0.53833, 6.94859], [0.45044, 6.32137], [0.12634, 6.25587], [0.23071, 6.62144]]]]}, "properties": {"id": "7ooz", "status": "validé", "pieces": [{"kind": "polygon", "ring": [[-2.74109, 5.26158], [-2.15332, 5.19596], [-1.74683, 5.24518], [-0.77454, 5.51851], [-0.50537, 5.77533], [-0.02197, 5.90643], [0.13184, 6.25041], [-0.21423, 6.30499], [-0.42297, 6.53416], [-0.61523, 6.64871], [-1.01074, 6.6378], [-1.13159, 6.72506], [-1.85669, 6.65417], [-2.12036, 6.93769], [-3.01575, 7.09573], [-3.20251, 6.83956], [-3.26843, 6.61599], [-3.17505, 6.26679], [-3.01025, 5.72616], [-2.95532, 5.62781], [-2.83997, 5.63874]]}, {"kind": "polygon", "ring": [[0.12634, 6.25587], [0.23071, 6.62144], [0.26917, 6.95404], [0.27466, 7.4661], [0.23071, 7.8144], [0.20874, 7.92862], [0.58777, 8.5264], [0.73608, 8.33086], [0.59875, 8.17871], [0.62073, 7.68926], [0.53833, 7.61307], [0.52185, 7.40076], [0.65918, 7.37354], [0.59875, 7.03579], [0.53833, 6.94859], [0.45044, 6.32137]]}]}}, {"type": "Feature", "geometry": null, "properties": {"id": "EktN", "status": "validé", "pieces": [{"kind": "country"}]}}, {"type": "Feature", "geometry": null, "properties": {"id": "Grzs", "status": "validé", "pieces": [{"kind": "country"}]}}, {"type": "Feature", "geometry": null, "properties": {"id": "H3ol", "status": "validé", "pieces": [{"kind": "country"}]}}, {"type": "Feature", "geometry": {"type": "Polygon", "coordinates": [[[-3.09814, 5.0754], [-2.36755, 4.92771], [-2.11487, 4.72527], [-1.95007, 4.73621], [-1.53809, 5.0207], [-1.64246, 5.14103], [-1.80176, 5.22305], [-2.27417, 5.10821], [-2.74658, 5.19025], [-2.7356, 5.13556], [-3.14758, 5.1465], [-3.09814, 5.0754]]]}, "properties": {"id": "H4D5", "status": "validé", "pieces": [{"kind": "polygon", "ring": [[-3.09814, 5.0754], [-2.36755, 4.92771], [-2.11487, 4.72527], [-1.95007, 4.73621], [-1.53809, 5.0207], [-1.64246, 5.14103], [-1.80176, 5.22305], [-2.27417, 5.10821], [-2.74658, 5.19025], [-2.7356, 5.13556], [-3.14758, 5.1465]]}]}}, {"type": "Feature", "geometry": {"type": "Polygon", "coordinates": [[[-2.8125, 10.97531], [-2.96631, 10.58694], [-2.76855, 10.02511], [-2.7356, 9.20222], [-2.64771, 8.866], [0.38452, 8.72492], [0.53833, 8.866], [0.52734, 9.44063], [0.12085, 9.47312], [0.37354, 10.26293], [0.01099, 11.12621], [-0.39551, 11.18008], [-0.62622, 10.99687], [-2.72461, 11.11543], [-2.8125, 10.97531]]]}, "properties": {"id": "JppT", "status": "validé", "pieces": [{"kind": "polygon", "ring": [[-2.8125, 10.97531], [-2.96631, 10.58694], [-2.76855, 10.02511], [-2.7356, 9.20222], [-2.64771, 8.866], [0.38452, 8.72492], [0.53833, 8.866], [0.52734, 9.44063], [0.12085, 9.47312], [0.37354, 10.26293], [0.01099, 11.12621], [-0.39551, 11.18008], [-0.62622, 10.99687], [-2.72461, 11.11543]]}]}}, {"type": "Feature", "geometry": null, "properties": {"id": "Kg6Q", "status": "rejeté", "pieces": []}}, {"type": "Feature", "geometry": {"type": "Polygon", "coordinates": [[[-0.53833, 8.93431], [-0.43945, 8.92347], [-0.49438, 8.51369], [-0.6015, 8.52184], [-0.53833, 8.93431]]]}, "properties": {"id": "KrKW", "status": "validé", "pieces": [{"kind": "polygon", "ring": [[-0.53833, 8.93431], [-0.43945, 8.92347], [-0.49438, 8.51369], [-0.6015, 8.52184]]}]}}, {"type": "Feature", "geometry": null, "properties": {"id": "Tx1K", "status": "validé", "pieces": [{"kind": "country"}]}}, {"type": "Feature", "geometry": {"type": "MultiPolygon", "coordinates": [[[[-0.84045, 6.88358], [-0.63721, 6.82906], [-0.19775, 6.58911], [-0.03845, 6.45273], [-0.02747, 6.28356], [0.09888, 6.48547], [0.08789, 6.22352], [0.07141, 5.90137], [-0.21973, 5.69925], [-0.49988, 5.73749], [-0.49988, 5.9396], [-0.5603, 6.35997], [-0.75256, 6.44727], [-0.98877, 6.45273], [-1.24695, 6.5673], [-1.10413, 6.73637], [-0.84045, 6.88358]]], [[[0.30212, 6.58911], [0.27466, 6.93264], [0.21423, 7.61892], [0.19775, 7.91271], [0.59875, 8.18998], [0.67566, 7.99971], [0.66467, 7.30859], [0.62622, 6.71456], [0.30212, 6.58911]]]]}, "properties": {"id": "VFa6", "status": "validé", "pieces": [{"kind": "polygon", "ring": [[-1.10413, 6.73637], [-1.24695, 6.5673], [-0.98877, 6.45273], [-0.75256, 6.44727], [-0.5603, 6.35997], [-0.49988, 5.9396], [-0.49988, 5.73749], [-0.21973, 5.69925], [0.07141, 5.90137], [0.08789, 6.22352], [0.09888, 6.48547], [-0.02747, 6.28356], [-0.03845, 6.45273], [-0.19775, 6.58911], [-0.63721, 6.82906], [-0.84045, 6.88358]]}, {"kind": "polygon", "ring": [[0.62622, 6.71456], [0.30212, 6.58911], [0.27466, 6.93264], [0.21423, 7.61892], [0.19775, 7.91271], [0.59875, 8.18998], [0.67566, 7.99971], [0.66467, 7.30859]]}]}}, {"type": "Feature", "geometry": null, "properties": {"id": "Y6Tn", "status": "rejeté", "pieces": []}}, {"type": "Feature", "geometry": {"type": "Polygon", "coordinates": [[[1.04645, 5.75885], [1.04645, 6.07563], [0.77728, 6.07563], [0.77728, 5.75885], [1.04645, 5.75885]]]}, "properties": {"id": "Yl0l", "status": "validé", "pieces": [{"kind": "rect", "bounds": [0.77728, 5.75885, 1.04645, 6.07563]}]}}, {"type": "Feature", "geometry": null, "properties": {"id": "bJXr", "status": "validé", "pieces": [{"kind": "country"}]}}, {"type": "Feature", "geometry": {"type": "Polygon", "coordinates": [[[0.50262, 8.22948], [0.13733, 8.68977], [0.18539, 8.73183], [0.55344, 8.28925], [0.5603, 8.25937], [0.50262, 8.22948]]]}, "properties": {"id": "c7W9", "status": "validé", "pieces": [{"kind": "polygon", "ring": [[0.50262, 8.22948], [0.13733, 8.68977], [0.18539, 8.73183], [0.55344, 8.28925], [0.5603, 8.25937]]}]}}, {"type": "Feature", "geometry": null, "properties": {"id": "dAJp", "status": "validé", "pieces": [{"kind": "country"}]}}, {"type": "Feature", "geometry": null, "properties": {"id": "hLru", "status": "rejeté", "pieces": []}}, {"type": "Feature", "geometry": {"type": "Polygon", "coordinates": [[[-2.62367, 5.17111], [-2.7404, 5.29209], [-2.59552, 5.41646], [-2.47604, 5.38913], [-2.45888, 5.18957], [-2.62367, 5.17111]]]}, "properties": {"id": "hyou", "status": "validé", "pieces": [{"kind": "polygon", "ring": [[-2.62367, 5.17111], [-2.7404, 5.29209], [-2.59552, 5.41646], [-2.47604, 5.38913], [-2.45888, 5.18957]]}]}}, {"type": "Feature", "geometry": {"type": "Polygon", "coordinates": [[[-2.41425, 9.23004], [-1.97479, 9.17312], [-1.87592, 9.13518], [-1.81, 9.02131], [-1.2854, 9.11891], [-1.26068, 9.1921], [-1.58752, 9.20023], [-1.78253, 9.11891], [-1.86218, 9.29236], [-2.40326, 9.29236], [-2.41425, 9.23004]]]}, "properties": {"id": "lK0K", "status": "validé", "pieces": [{"kind": "polygon", "ring": [[-2.41425, 9.23004], [-1.97479, 9.17312], [-1.87592, 9.13518], [-1.81, 9.02131], [-1.2854, 9.11891], [-1.26068, 9.1921], [-1.58752, 9.20023], [-1.78253, 9.11891], [-1.86218, 9.29236], [-2.40326, 9.29236]]}]}}, {"type": "Feature", "geometry": null, "properties": {"id": "m5GG", "status": "validé", "pieces": [{"kind": "country"}]}}, {"type": "Feature", "geometry": {"type": "Polygon", "coordinates": [[[-1.80038, 7.77163], [-1.72005, 7.68525], [-1.65756, 7.73966], [-1.69258, 7.86139], [-1.74545, 7.86479], [-1.80038, 7.77163]]]}, "properties": {"id": "nHMr", "status": "validé", "pieces": [{"kind": "polygon", "ring": [[-1.80038, 7.77163], [-1.72005, 7.68525], [-1.65756, 7.73966], [-1.69258, 7.86139], [-1.74545, 7.86479]]}]}}, {"type": "Feature", "geometry": null, "properties": {"id": "sHFU", "status": "validé", "pieces": [{"kind": "country"}]}}, {"type": "Feature", "geometry": null, "properties": {"id": "trbc", "status": "validé", "pieces": [{"kind": "country"}]}}, {"type": "Feature", "geometry": {"type": "Polygon", "coordinates": [[[-0.02197, 5.70096], [0.10025, 5.82525], [0.33783, 5.91691], [0.53284, 5.91418], [0.68115, 5.8104], [0.63721, 5.77216], [0.50812, 5.85683], [0.37903, 5.83498], [0.39001, 5.79401], [0.14008, 5.68748], [-0.02197, 5.70096]]]}, "properties": {"id": "yRvT", "status": "validé", "pieces": [{"kind": "polygon", "ring": [[-0.02197, 5.70096], [0.10025, 5.82525], [0.33783, 5.91691], [0.53284, 5.91418], [0.68115, 5.8104], [0.63721, 5.77216], [0.50812, 5.85683], [0.37903, 5.83498], [0.39001, 5.79401], [0.14008, 5.68748]]}]}}, {"type": "Feature", "geometry": {"type": "Polygon", "coordinates": [[[0.12497, 6.37296], [0.16891, 6.51482], [0.27328, 6.643], [0.31998, 6.73162], [0.38315, 6.73162], [0.39963, 6.66482], [0.29114, 6.523], [0.21423, 6.44253], [0.21561, 6.34567], [0.12497, 6.37296]]]}, "properties": {"id": "zy0V", "status": "validé", "pieces": [{"kind": "polygon", "ring": [[0.12497, 6.37296], [0.16891, 6.51482], [0.27328, 6.643], [0.31998, 6.73162], [0.38315, 6.73162], [0.39963, 6.66482], [0.29114, 6.523], [0.21423, 6.44253], [0.21561, 6.34567]]}]}}]}