{"type": "FeatureCollection", "features": [{"type": "Feature", "geometry": null, "properties": {"id": "0Ld2", "status": "validé", "pieces": [{"kind": "country"}]}}, {"type": "Feature", "geometry": null, "properties": {"id": "4qh7", "status": "validé", "pieces": [{"kind": "country"}]}}, {"type": "Feature", "geometry": null, "properties": {"id": "9WAS", "status": "validé", "pieces": [{"kind": "country"}]}}, {"type": "Feature", "geometry": null, "properties": {"id": "DOTU", "status": "validé", "pieces": [{"kind": "country"}]}}, {"type": "Feature", "geometry": null, "properties": {"id": "H71R", "status": "rejeté", "pieces": []}}, {"type": "Feature", "geometry": null, "properties": {"id": "Qaw3", "status": "validé", "pieces": [{"kind": "country"}]}}, {"type": "Feature", "geometry": null, "properties": {"id": "d95Z", "status": "validé", "pieces": [{"kind": "country"}]}}, {"type": "Feature", "geometry": null, "properties": {"id": "iBNT", "status": "validé", "pieces": [{"kind": "country"}]}}, {"type": "Feature", "geometry": null, "properties": {"id": "iUcf", "status": "validé", "pieces": [{"kind": "country"}]}}, {"type": "Feature", "geometry": {"type": "Polygon", "coordinates": [[[-5.34285, 36.10788], [-5.34285, 36.11427], [-5.35101, 36.11427], [-5.35101, 36.10788], [-5.34285, 36.10788]]]}, "properties": {"id": "sCLF", "status": "validé", "pieces": [{"kind": "rect", "bounds": [-5.35101, 36.10788, -5.34285, 36.11427]}]}}]}