{"type": "FeatureCollection", "features": [{"type": "Feature", "geometry": {"type": "Polygon", "coordinates": [[[-22.1402, 74.59821], [-21.75568, 74.40675], [-20.55542, 74.41707], [-20.17365, 74.25921], [-19.81384, 74.32981], [-20.28351, 74.5024], [-21.64581, 74.52219], [-21.95892, 74.60768], [-22.1402, 74.59821]]]}, "properties": {"id": "32Hd", "status": "validé", "pieces": [{"kind": "polygon", "ring": [[-22.1402, 74.59821], [-21.75568, 74.40675], [-20.55542, 74.41707], [-20.17365, 74.25921], [-19.81384, 74.32981], [-20.28351, 74.5024], [-21.64581, 74.52219], [-21.95892, 74.60768]]}]}}, {"type": "Feature", "geometry": null, "properties": {"id": "35Vi", "status": "rejeté", "pieces": []}}, {"type": "Feature", "geometry": {"type": "Polygon", "coordinates": [[[-37.92755, 66.15213], [-37.4469, 66.15438], [-37.51007, 65.89949], [-38.11844, 65.9359], [-37.92755, 66.15213]]]}, "properties": {"id": "3zSm", "status": "validé", "pieces": [{"kind": "polygon", "ring": [[-37.92755, 66.15213], [-37.4469, 66.15438], [-37.51007, 65.89949], [-38.11844, 65.9359]]}]}}, {"type": "Feature", "geometry": {"type": "Polygon", "coordinates": [[[-53.92365, 69.47563], [-53.92365, 69.49205], [-53.97686, 69.49205], [-53.97686, 69.47563], [-53.92365, 69.47563]]]}, "properties": {"id": "560C", "status": "validé", "pieces": [{"kind": "rect", "bounds": [-53.97686, 69.47563, -53.92365, 69.49205]}]}}, {"type": "Feature", "geometry": {"type": "Polygon", "coordinates": [[[-69.05731, 77.444], [-69.05731, 77.49582], [-69.41917, 77.49582], [-69.41917, 77.444], [-69.05731, 77.444]]]}, "properties": {"id": "70nR", "status": "validé", "pieces": [{"kind": "rect", "bounds": [-69.41917, 77.444, -69.05731, 77.49582]}]}}, {"type": "Feature", "geometry": null, "properties": {"id": "7jL5", "status": "rejeté", "pieces": []}}, {"type": "Feature", "geometry": null, "properties": {"id": "9o2x", "status": "rejeté", "pieces": []}}, {"type": "Feature", "geometry": {"type": "Polygon", "coordinates": [[[-46.00353, 60.70751], [-46.00353, 60.72984], [-46.07769, 60.72984], [-46.07769, 60.70751], [-46.00353, 60.70751]]]}, "properties": {"id": "9zdx", "status": "validé", "pieces": [{"kind": "rect", "bounds": [-46.07769, 60.70751, -46.00353, 60.72984]}]}}, {"type": "Feature", "geometry": {"type": "Polygon", "coordinates": [[[-50.70671, 67.02147], [-50.73555, 67.00217], [-50.98343, 66.96567], [-51.75934, 66.8561], [-52.46521, 66.9143], [-53.20404, 66.91107], [-53.56659, 66.91], [-53.58444, 66.93617], [-53.56659, 66.98881], [-52.32788, 67.15344], [-51.44348, 67.13425], [-50.80627, 67.05518], [-50.70671, 67.02147]]]}, "properties": {"id": "9zpv", "status": "validé", "pieces": [{"kind": "polygon", "ring": [[-50.70671, 67.02147], [-50.73555, 67.00217], [-50.98343, 66.96567], [-51.75934, 66.8561], [-52.46521, 66.9143], [-53.20404, 66.91107], [-53.56659, 66.91], [-53.58444, 66.93617], [-53.56659, 66.98881], [-52.32788, 67.15344], [-51.44348, 67.13425], [-50.80627, 67.05518]]}]}}, {"type": "Feature", "geometry": {"type": "Polygon", "coordinates": [[[-50.62981, 66.95619], [-50.62981, 67.03934], [-50.9697, 67.03934], [-50.9697, 66.95619], [-50.62981, 66.95619]]]}, "properties": {"id": "BnZs", "status": "validé", "pieces": [{"kind": "rect", "bounds": [-50.9697, 66.95619, -50.62981, 67.03934]}]}}, {"type": "Feature", "geometry": {"type": "Polygon", "coordinates": [[[-45.49438, 61.12737], [-45.49438, 61.17457], [-45.63927, 61.17457], [-45.63927, 61.12737], [-45.49438, 61.12737]]]}, "properties": {"id": "C6JG", "status": "validé", "pieces": [{"kind": "rect", "bounds": [-45.63927, 61.12737, -45.49438, 61.17457]}]}}, {"type": "Feature", "geometry": null, "properties": {"id": "ECUX", "status": "rejeté", "pieces": []}}, {"type": "Feature", "geometry": null, "properties": {"id": "EyQH", "status": "rejeté", "pieces": []}}, {"type": "Feature", "geometry": {"type": "Polygon", "coordinates": [[[-45.35603, 61.13945], [-45.35603, 61.18464], [-45.46349, 61.18464], [-45.46349, 61.13945], [-45.35603, 61.13945]]]}, "properties": {"id": "FXn2", "status": "validé", "pieces": [{"kind": "rect", "bounds": [-45.46349, 61.13945, -45.35603, 61.18464]}]}}, {"type": "Feature", "geometry": null, "properties": {"id": "FkCT", "status": "rejeté", "pieces": []}}, {"type": "Feature", "geometry": {"type": "Polygon", "coordinates": [[[-52.65747, 68.67115], [-52.65747, 68.74492], [-53.02002, 68.74492], [-53.02002, 68.67115], [-52.65747, 68.67115]]]}, "properties": {"id": "KNcY", "status": "validé", "pieces": [{"kind": "rect", "bounds": [-53.02002, 68.67115, -52.65747, 68.74492]}]}}, {"type": "Feature", "geometry": {"type": "Polygon", "coordinates": [[[-53.64092, 70.78438], [-53.64092, 70.7955], [-53.67662, 70.7955], [-53.67662, 70.78438], [-53.64092, 70.78438]]]}, "properties": {"id": "M8Aj", "status": "validé", "pieces": [{"kind": "rect", "bounds": [-53.67662, 70.78438, -53.64092, 70.7955]}]}}, {"type": "Feature", "geometry": null, "properties": {"id": "Mbzc", "status": "validé", "pieces": [{"kind": "country"}]}}, {"type": "Feature", "geometry": {"type": "Polygon", "coordinates": [[[-45.99804, 60.89158], [-45.99804, 60.92679], [-46.08353, 60.92679], [-46.08353, 60.89158], [-45.99804, 60.89158]]]}, "properties": {"id": "Mja8", "status": "validé", "pieces": [{"kind": "rect", "bounds": [-46.08353, 60.89158, -45.99804, 60.92679]}]}}, {"type": "Feature", "geometry": null, "properties": {"id": "TjyY", "status": "rejeté", "pieces": []}}, {"type": "Feature", "geometry": {"type": "Polygon", "coordinates": [[[-37.26837, 65.56164], [-37.18048, 65.58633], [-37.10838, 65.5886], [-37.02393, 65.56278], [-37.015, 65.53607], [-37.11044, 65.5119], [-37.21893, 65.5119], [-37.26837, 65.56164]]]}, "properties": {"id": "UFUr", "status": "validé", "pieces": [{"kind": "polygon", "ring": [[-37.26837, 65.56164], [-37.18048, 65.58633], [-37.10838, 65.5886], [-37.02393, 65.56278], [-37.015, 65.53607], [-37.11044, 65.5119], [-37.21893, 65.5119]]}]}}, {"type": "Feature", "geometry": {"type": "Polygon", "coordinates": [[[-53.42051, 68.29794], [-53.42051, 68.3266], [-53.48436, 68.3266], [-53.48436, 68.29794], [-53.42051, 68.29794]]]}, "properties": {"id": "W79I", "status": "validé", "pieces": [{"kind": "rect", "bounds": [-53.48436, 68.29794, -53.42051, 68.3266]}]}}, {"type": "Feature", "geometry": {"type": "Polygon", "coordinates": [[[-56.10134, 72.77593], [-56.10134, 72.80096], [-56.17464, 72.80096], [-56.17464, 72.77593], [-56.10134, 72.77593]]]}, "properties": {"id": "XJSY", "status": "validé", "pieces": [{"kind": "rect", "bounds": [-56.17464, 72.77593, -56.10134, 72.80096]}]}}, {"type": "Feature", "geometry": {"type": "Polygon", "coordinates": [[[-48.82874, 66.7339], [-48.82874, 67.20222], [-50.89417, 67.20222], [-50.89417, 66.7339], [-48.82874, 66.7339]]]}, "properties": {"id": "bFc4", "status": "validé", "pieces": [{"kind": "rect", "bounds": [-50.89417, 66.7339, -48.82874, 67.20222]}]}}, {"type": "Feature", "geometry": null, "properties": {"id": "c8bS", "status": "validé", "pieces": [{"kind": "country"}]}}, {"type": "Feature", "geometry": {"type": "Polygon", "coordinates": [[[-51.50322, 64.10648], [-51.50322, 64.21746], [-51.78543, 64.21746], [-51.78543, 64.10648], [-51.50322, 64.10648]]]}, "properties": {"id": "cDtt", "status": "validé", "pieces": [{"kind": "rect", "bounds": [-51.78543, 64.10648, -51.50322, 64.21746]}]}}, {"type": "Feature", "geometry": {"type": "Polygon", "coordinates": [[[-49.60808, 61.97223], [-49.60808, 62.0196], [-49.70043, 62.0196], [-49.70043, 61.97223], [-49.60808, 61.97223]]]}, "properties": {"id": "dIwn", "status": "validé", "pieces": [{"kind": "rect", "bounds": [-49.70043, 61.97223, -49.60808, 62.0196]}]}}, {"type": "Feature", "geometry": {"type": "Polygon", "coordinates": [[[-37.59418, 65.59888], [-37.59418, 65.6229], [-37.65512, 65.6229], [-37.65512, 65.59888], [-37.59418, 65.59888]]]}, "properties": {"id": "dUCI", "status": "validé", "pieces": [{"kind": "rect", "bounds": [-37.65512, 65.59888, -37.59418, 65.6229]}]}}, {"type": "Feature", "geometry": {"type": "Polygon", "coordinates": [[[-70.58647, 77.77828], [-70.58647, 77.79135], [-70.67505, 77.79135], [-70.67505, 77.77828], [-70.58647, 77.77828]]]}, "properties": {"id": "efSj", "status": "validé", "pieces": [{"kind": "rect", "bounds": [-70.67505, 77.77828, -70.58647, 77.79135]}]}}, {"type": "Feature", "geometry": null, "properties": {"id": "elNN", "status": "rejeté", "pieces": []}}, {"type": "Feature", "geometry": null, "properties": {"id": "fhpx", "status": "rejeté", "pieces": []}}, {"type": "Feature", "geometry": null, "properties": {"id": "gioP", "status": "validé", "pieces": [{"kind": "country"}]}}, {"type": "Feature", "geometry": {"type": "Polygon", "coordinates": [[[-51.34615, 64.12736], [-51.34615, 64.13904], [-51.39181, 64.13904], [-51.39181, 64.12736], [-51.34615, 64.12736]]]}, "properties": {"id": "hpPA", "status": "validé", "pieces": [{"kind": "rect", "bounds": [-51.39181, 64.12736, -51.34615, 64.13904]}]}}, {"type": "Feature", "geometry": {"type": "Polygon", "coordinates": [[[-50.9024, 69.17509], [-50.9024, 69.2681], [-51.21826, 69.2681], [-51.21826, 69.17509], [-50.9024, 69.17509]]]}, "properties": {"id": "i8tg", "status": "validé", "pieces": [{"kind": "rect", "bounds": [-51.21826, 69.17509, -50.9024, 69.2681]}]}}, {"type": "Feature", "geometry": {"type": "Polygon", "coordinates": [[[-53.32626, 69.21606], [-53.32626, 69.30404], [-53.67508, 69.30404], [-53.67508, 69.21606], [-53.32626, 69.21606]]]}, "properties": {"id": "iCnR", "status": "validé", "pieces": [{"kind": "rect", "bounds": [-53.67508, 69.21606, -53.32626, 69.30404]}]}}, {"type": "Feature", "geometry": null, "properties": {"id": "jUZV", "status": "rejeté", "pieces": []}}, {"type": "Feature", "geometry": {"type": "Polygon", "coordinates": [[[-36.02692, 65.75908], [-36.02692, 66.00477], [-36.79321, 66.00477], [-36.79321, 65.75908], [-36.02692, 65.75908]]]}, "properties": {"id": "kJuo", "status": "validé", "pieces": [{"kind": "rect", "bounds": [-36.79321, 65.75908, -36.02692, 66.00477]}]}}, {"type": "Feature", "geometry": null, "properties": {"id": "kijo", "status": "rejeté", "pieces": []}}, {"type": "Feature", "geometry": {"type": "Polygon", "coordinates": [[[-21.74744, 70.44077], [-21.74744, 70.53728], [-22.08183, 70.53728], [-22.08183, 70.44077], [-21.74744, 70.44077]]]}, "properties": {"id": "mBWE", "status": "validé", "pieces": [{"kind": "rect", "bounds": [-22.08183, 70.44077, -21.74744, 70.53728]}]}}, {"type": "Feature", "geometry": {"type": "Polygon", "coordinates": [[[-52.05116, 70.65751], [-52.05116, 70.7154], [-52.21252, 70.7154], [-52.21252, 70.65751], [-52.05116, 70.65751]]]}, "properties": {"id": "mCK8", "status": "validé", "pieces": [{"kind": "rect", "bounds": [-52.21252, 70.65751, -52.05116, 70.7154]}]}}, {"type": "Feature", "geometry": {"type": "Polygon", "coordinates": [[[-53.55423, 66.91071], [-53.55423, 66.95709], [-53.74649, 66.95709], [-53.74649, 66.91071], [-53.55423, 66.91071]]]}, "properties": {"id": "mRxQ", "status": "validé", "pieces": [{"kind": "rect", "bounds": [-53.74649, 66.91071, -53.55423, 66.95709]}]}}, {"type": "Feature", "geometry": null, "properties": {"id": "mmU2", "status": "rejeté", "pieces": []}}, {"type": "Feature", "geometry": {"type": "Polygon", "coordinates": [[[-50.22074, 64.42195], [-50.22074, 64.4418], [-50.28648, 64.4418], [-50.28648, 64.42195], [-50.22074, 64.42195]]]}, "properties": {"id": "nAfG", "status": "validé", "pieces": [{"kind": "rect", "bounds": [-50.28648, 64.42195, -50.22074, 64.4418]}]}}, {"type": "Feature", "geometry": {"type": "Polygon", "coordinates": [[[-52.83703, 65.39248], [-52.83703, 65.43289], [-52.96543, 65.43289], [-52.96543, 65.39248], [-52.83703, 65.39248]]]}, "properties": {"id": "o1St", "status": "validé", "pieces": [{"kind": "rect", "bounds": [-52.96543, 65.39248, -52.83703, 65.43289]}]}}, {"type": "Feature", "geometry": null, "properties": {"id": "otNH", "status": "validé", "pieces": [{"kind": "country"}]}}, {"type": "Feature", "geometry": {"type": "Polygon", "coordinates": [[[-51.28049, 70.49375], [-51.28049, 70.50901], [-51.3198, 70.50901], [-51.3198, 70.49375], [-51.28049, 70.49375]]]}, "properties": {"id": "qRJx", "status": "validé", "pieces": [{"kind": "rect", "bounds": [-51.3198, 70.49375, -51.28049, 70.50901]}]}}, {"type": "Feature", "geometry": null, "properties": {"id": "tksi", "status": "rejeté", "pieces": []}}, {"type": "Feature", "geometry": null, "properties": {"id": "tycC", "status": "rejeté", "pieces": []}}, {"type": "Feature", "geometry": {"type": "Polygon", "coordinates": [[[-51.58184, 70.79777], [-51.58184, 70.81549], [-51.65359, 70.81549], [-51.65359, 70.79777], [-51.58184, 70.79777]]]}, "properties": {"id": "uLDZ", "status": "validé", "pieces": [{"kind": "rect", "bounds": [-51.65359, 70.79777, -51.58184, 70.81549]}]}}, {"type": "Feature", "geometry": null, "properties": {"id": "w021", "status": "rejeté", "pieces": []}}, {"type": "Feature", "geometry": {"type": "Polygon", "coordinates": [[[-45.33852, 60.96318], [-45.33852, 61.04636], [-45.5088, 61.04636], [-45.5088, 60.96318], [-45.33852, 60.96318]]]}, "properties": {"id": "w6MY", "status": "validé", "pieces": [{"kind": "rect", "bounds": [-45.5088, 60.96318, -45.33852, 61.04636]}]}}, {"type": "Feature", "geometry": {"type": "Polygon", "coordinates": [[[-51.8644, 71.03606], [-51.8644, 71.06136], [-51.90662, 71.06136], [-51.90662, 71.03606], [-51.8644, 71.03606]]]}, "properties": {"id": "yWnN", "status": "validé", "pieces": [{"kind": "rect", "bounds": [-51.90662, 71.03606, -51.8644, 71.06136]}]}}, {"type": "Feature", "geometry": null, "properties": {"id": "yr0f", "status": "rejeté", "pieces": []}}]}