{"type": "FeatureCollection", "features": [{"type": "Feature", "geometry": null, "properties": {"id": "04NE", "status": "validé", "pieces": [{"kind": "country"}]}}, {"type": "Feature", "geometry": {"type": "Polygon", "coordinates": [[[144.72433, 13.48172], [144.72877, 13.48558], [144.78346, 13.51667], [144.79412, 13.52709], [144.80323, 13.53913], [144.81121, 13.55362], [144.8322, 13.62067], [144.83863, 13.63276], [144.85043, 13.64374], [144.86671, 13.65302], [144.88063, 13.65412], [144.8864, 13.6402], [144.89666, 13.61799], [144.91432, 13.60541], [144.93442, 13.59984], [144.95192, 13.59858], [144.95216, 13.58686], [144.93767, 13.56053], [144.90699, 13.51667], [144.87184, 13.48517], [144.80828, 13.44579], [144.80034, 13.43769], [144.72433, 13.48172]]]}, "properties": {"id": "59r8", "status": "validé", "pieces": [{"kind": "polygon", "ring": [[144.72153, 13.48334], [144.85062, 13.40858], [145.0264, 13.59678], [144.81766, 13.7035]]}, {"kind": "clip"}]}}, {"type": "Feature", "geometry": null, "properties": {"id": "793A", "status": "validé", "pieces": [{"kind": "country"}]}}, {"type": "Feature", "geometry": {"type": "Polygon", "coordinates": [[[144.74354, 13.40996], [144.74354, 13.42081], [144.7317, 13.42081], [144.7317, 13.40996], [144.74354, 13.40996]]]}, "properties": {"id": "D0Zu", "status": "validé", "pieces": [{"kind": "rect", "bounds": [144.7317, 13.40996, 144.74354, 13.42081]}]}}, {"type": "Feature", "geometry": null, "properties": {"id": "Gyzt", "status": "validé", "pieces": [{"kind": "country"}]}}, {"type": "Feature", "geometry": null, "properties": {"id": "I0mE", "status": "rejeté", "pieces": []}}, {"type": "Feature", "geometry": null, "properties": {"id": "KSIf", "status": "validé", "pieces": [{"kind": "country"}]}}, {"type": "Feature", "geometry": null, "properties": {"id": "a1Iu", "status": "validé", "pieces": [{"kind": "country"}]}}, {"type": "Feature", "geometry": null, "properties": {"id": "eTI3", "status": "validé", "pieces": [{"kind": "country"}]}}, {"type": "Feature", "geometry": {"type": "Polygon", "coordinates": [[[144.68522, 13.38363], [144.68522, 13.40124], [144.66411, 13.40124], [144.66411, 13.38363], [144.68522, 13.38363]]]}, "properties": {"id": "hxXB", "status": "validé", "pieces": [{"kind": "rect", "bounds": [144.66411, 13.38363, 144.68522, 13.40124]}]}}, {"type": "Feature", "geometry": {"type": "Polygon", "coordinates": [[[144.6704, 13.4482], [144.71485, 13.47346], [144.72728, 13.48428], [144.78539, 13.47517], [144.80539, 13.44284], [144.78346, 13.42048], [144.76938, 13.37914], [144.7601, 13.28563], [144.73561, 13.24917], [144.71803, 13.24185], [144.69752, 13.24103], [144.68068, 13.24677], [144.67042, 13.26484], [144.65675, 13.28205], [144.65357, 13.28701], [144.64747, 13.3249], [144.6443, 13.33161], [144.6395, 13.33747], [144.63364, 13.34211], [144.62631, 13.34536], [144.63657, 13.35541], [144.64308, 13.36571], [144.64649, 13.37848], [144.647, 13.38761], [144.6508, 13.39306], [144.6704, 13.4482]]]}, "properties": {"id": "qvj3", "status": "validé", "pieces": [{"kind": "polygon", "ring": [[144.6508, 13.39306], [144.6769, 13.46649], [144.72153, 13.48518], [144.78539, 13.47517], [144.84032, 13.38638], [144.78333, 13.17529], [144.5533, 13.25347]]}, {"kind": "clip"}]}}, {"type": "Feature", "geometry": null, "properties": {"id": "w6da", "status": "rejeté", "pieces": []}}]}