{"type": "FeatureCollection", "features": [{"type": "Feature", "geometry": null, "properties": {"id": "5dX0", "status": "validé", "pieces": [{"kind": "country"}]}}, {"type": "Feature", "geometry": null, "properties": {"id": "79X3", "status": "validé", "pieces": [{"kind": "admin1", "code": "HRV-1592"}]}}, {"type": "Feature", "geometry": {"type": "Polygon", "coordinates": [[[18.07028, 42.66491], [18.06993, 42.64837], [18.11182, 42.6355], [18.12744, 42.63676], [18.12263, 42.65304], [18.08229, 42.66718], [18.07028, 42.66491]]]}, "properties": {"id": "7sgJ", "status": "validé", "pieces": [{"kind": "polygon", "ring": [[18.07028, 42.66491], [18.06993, 42.64837], [18.11182, 42.6355], [18.12744, 42.63676], [18.12263, 42.65304], [18.08229, 42.66718]]}]}}, {"type": "Feature", "geometry": {"type": "Polygon", "coordinates": [[[15.82581, 45.789], [15.88898, 45.75261], [15.85602, 45.72962], [15.79559, 45.73537], [15.79285, 45.69895], [15.67749, 45.59915], [15.53192, 45.60107], [15.49896, 45.64139], [15.45227, 45.68936], [15.40283, 45.71045], [15.34515, 45.74303], [15.34173, 45.75498], [15.42906, 45.77529], [15.42976, 45.77569], [15.44105, 45.78217], [15.4395, 45.79168], [15.43557, 45.80212], [15.44033, 45.81147], [15.45128, 45.81514], [15.46255, 45.81421], [15.47392, 45.81157], [15.48539, 45.81018], [15.49531, 45.81266], [15.51392, 45.82341], [15.52353, 45.82682], [15.54975, 45.82369], [15.5873, 45.81922], [15.62605, 45.8202], [15.64559, 45.82413], [15.66605, 45.83167], [15.67608, 45.8417], [15.67546, 45.85596], [15.66367, 45.87606], [15.65944, 45.88883], [15.66336, 45.90082], [15.67039, 45.91265], [15.67556, 45.92516], [15.67711, 45.9418], [15.67538, 45.97249], [15.67422, 45.99316], [15.67432, 45.99332], [15.68197, 46.01352], [15.69365, 46.02577], [15.69799, 46.03621], [15.69288, 46.04164], [15.68393, 46.05114], [15.67173, 46.0574], [15.64373, 46.06551], [15.63153, 46.07057], [15.6236, 46.07641], [15.60383, 46.09099], [15.58988, 46.11352], [15.58998, 46.13868], [15.60435, 46.167], [15.62285, 46.1917], [15.62657, 46.19521], [15.6398, 46.20767], [15.6613, 46.21532], [15.67797, 46.21446], [15.74977, 46.21077], [15.76889, 46.21935], [15.78914, 46.24307], [15.79953, 46.24861], [15.8031, 46.25051], [15.81829, 46.25552], [15.83421, 46.25837], [15.87932, 46.25931], [15.8819, 46.25501], [15.88361, 46.24617], [15.88377, 46.23832], [15.88748, 46.23268], [15.89498, 46.22803], [15.93792, 46.21806], [15.94412, 46.21506], [15.94882, 46.21103], [15.95131, 46.2041], [15.95255, 46.19894], [15.95534, 46.19563], [15.95999, 46.19367], [15.96944, 46.193], [15.98324, 46.19346], [15.99146, 46.19253], [16.01957, 46.1854], [16.03073, 46.18426], [16.03957, 46.18462], [16.0512, 46.18819], [16.05745, 46.18943], [16.06458, 46.19005], [16.07915, 46.18943], [16.09466, 46.1902], [16.10892, 46.19268], [16.11636, 46.19284], [16.1254, 46.19212], [16.13982, 46.18788], [16.15811, 46.18757], [16.16385, 46.18922], [16.16979, 46.19196], [16.17476, 46.19615], [16.18297, 46.20545], [16.18793, 46.20979], [16.19491, 46.21243], [16.20065, 46.21227], [16.207, 46.20777], [16.21088, 46.20328], [16.21615, 46.19584], [16.22204, 46.19294], [16.22932, 46.19181], [16.24193, 46.19253], [16.24565, 46.19098], [16.24736, 46.18762], [16.2424, 46.17511], [16.2424, 46.16943], [16.24689, 46.16204], [16.25372, 46.15315], [16.25449, 46.15191], [16.25511, 46.14819], [16.25511, 46.14302], [16.25093, 46.12948], [16.25031, 46.12065], [16.2486, 46.11259], [16.25589, 46.06106], [16.24178, 46.0637], [16.24007, 46.06375], [16.23868, 46.0636], [16.23465, 46.06256], [16.22064, 46.05703], [16.21723, 46.05667], [16.2132, 46.05688], [16.19863, 46.05988], [16.19413, 46.05998], [16.19041, 46.05853], [16.18793, 46.05528], [16.18824, 46.04939], [16.19041, 46.04628], [16.19336, 46.04427], [16.19894, 46.04246], [16.20266, 46.0407], [16.20545, 46.03895], [16.2084, 46.03636], [16.20809, 46.03337], [16.20483, 46.03021], [16.18979, 46.02432], [16.18623, 46.02205], [16.18809, 46.01807], [16.18979, 46.01621], [16.19894, 46.01145], [16.20173, 46.00934], [16.20468, 46.0066], [16.20468, 46.00422], [16.20173, 46.00236], [16.19212, 46.00071], [16.18762, 46.00045], [16.18437, 46.00066], [16.17832, 46.00272], [16.17424, 46.0036], [16.17021, 46.00401], [16.16695, 46.00396], [16.16509, 46.00381], [16.16401, 46.00241], [16.16277, 46.00003], [16.1623, 45.99409], [16.16308, 45.99099], [16.16447, 45.98867], [16.1699, 45.9852], [16.17145, 45.98407], [16.17207, 45.98288], [16.16912, 45.9804], [16.16602, 45.97833], [16.13626, 45.97037], [16.12168, 45.96939], [16.10985, 45.962], [16.09109, 45.95823], [15.96557, 45.91105], [15.9558, 45.9142], [15.95224, 45.91864], [15.95193, 45.92423], [15.95038, 45.92691], [15.93947, 45.93384], [15.93529, 45.94097], [15.92583, 45.95291], [15.91963, 45.95709], [15.91188, 45.96024], [15.86516, 45.96969], [15.82031, 45.90183], [15.82581, 45.789]], [[15.82821, 45.98024], [15.82248, 45.98205], [15.81442, 45.98221], [15.81369, 45.98202], [15.83156, 45.97882], [15.82821, 45.98024]]]}, "properties": {"id": "9d6r", "status": "validé", "pieces": [{"kind": "admin1", "code": "HRV-1582"}, {"kind": "polygon", "ring": [[15.867, 45.97248], [15.82031, 45.90183], [15.82581, 45.789], [15.88898, 45.75261], [15.85602, 45.72962], [15.79559, 45.73537], [15.79285, 45.69895], [15.67749, 45.59915], [15.53192, 45.60107], [15.49896, 45.64139], [15.45227, 45.68936], [15.40283, 45.71045], [15.34515, 45.74303], [15.33691, 45.77177], [15.29022, 45.96485], [15.68573, 46.00491]]}, {"kind": "clip"}]}}, {"type": "Feature", "geometry": {"type": "Polygon", "coordinates": [[[19.2144, 45.2589], [19.25991, 45.24297], [19.28975, 45.23631], [19.37807, 45.22959], [19.3973, 45.22329], [19.40784, 45.20313], [19.40536, 45.17967], [19.39393, 45.17162], [19.39068, 45.16934], [19.30428, 45.16655], [19.29942, 45.16898], [19.29136, 45.17771], [19.28671, 45.17952], [19.27947, 45.17724], [19.27575, 45.17285], [19.27276, 45.16835], [19.26779, 45.16582], [19.22594, 45.16195], [19.2144, 45.16245], [19.2144, 45.2589]]]}, "properties": {"id": "AwCI", "status": "validé", "pieces": [{"kind": "rect", "bounds": [19.2144, 45.13661, 19.47876, 45.27202]}, {"kind": "clip"}]}}, {"type": "Feature", "geometry": {"type": "MultiPolygon", "coordinates": [[[[16.25489, 43.06855], [16.25213, 43.0624], [16.24545, 43.05777], [16.23373, 43.0515], [16.22193, 43.04027], [16.2103, 43.03327], [16.12135, 43.01337], [16.08717, 43.01146], [16.06316, 43.0174], [16.08448, 43.02595], [16.08709, 43.04141], [16.07911, 43.05329], [16.06935, 43.0515], [16.06316, 43.0515], [16.04884, 43.06517], [16.05299, 43.06831], [16.0573, 43.07022], [16.06227, 43.07127], [16.06935, 43.07197], [16.09254, 43.08275], [16.13022, 43.08845], [16.17018, 43.08771], [16.19972, 43.07941], [16.19467, 43.07441], [16.19288, 43.07197], [16.21583, 43.07917], [16.2282, 43.07868], [16.24122, 43.07197], [16.24545, 43.07636], [16.24985, 43.07941], [16.25343, 43.07787], [16.25489, 43.06855]]], [[[16.42628, 43.32518], [16.42677, 43.33149], [16.4297, 43.33246], [16.43434, 43.33173], [16.43979, 43.33271], [16.43426, 43.33991], [16.43491, 43.34642], [16.44166, 43.35122], [16.45346, 43.35318], [16.43971, 43.37092], [16.42628, 43.39411], [16.44703, 43.39484], [16.45346, 43.39411], [16.49391, 43.38231], [16.68767, 43.37702], [16.80983, 43.35318], [16.80983, 43.34638], [16.79615, 43.34638], [16.80681, 43.34248], [16.81625, 43.34024], [16.82423, 43.34101], [16.83033, 43.34638], [16.83937, 43.34089], [16.85816, 43.32518], [16.86899, 43.32258], [16.8777, 43.32343], [16.8851, 43.32197], [16.89234, 43.3122], [16.87957, 43.29393], [16.87233, 43.28799], [16.86443, 43.29169], [16.8462, 43.27338], [16.81316, 43.26777], [16.62827, 43.26374], [16.56397, 43.27009], [16.50074, 43.28425], [16.42189, 43.31757], [16.40577, 43.33271], [16.41383, 43.32884], [16.41944, 43.32518], [16.42628, 43.32518]]], [[[16.20704, 43.38727], [16.20639, 43.39179], [16.20777, 43.39313], [16.2103, 43.39321], [16.21323, 43.39411], [16.20338, 43.39997], [16.20045, 43.40705], [16.20558, 43.41291], [16.22006, 43.41523], [16.27703, 43.41193], [16.29819, 43.40363], [16.30275, 43.38727], [16.32984, 43.38972], [16.34864, 43.37832], [16.36671, 43.36115], [16.39145, 43.34638], [16.37599, 43.33344], [16.34864, 43.33869], [16.28175, 43.36937], [16.23227, 43.38447], [16.20704, 43.38727]]], [[[16.28199, 43.48794], [16.26734, 43.48688], [16.2588, 43.48355], [16.24643, 43.48143], [16.23064, 43.48322], [16.21827, 43.48631], [16.21144, 43.49006], [16.21176, 43.49555], [16.21892, 43.49775], [16.22332, 43.49738], [16.22999, 43.49616], [16.2435, 43.49494], [16.25221, 43.49994], [16.24806, 43.50829], [16.26441, 43.51288], [16.31031, 43.50776], [16.33416, 43.50153], [16.37525, 43.49018], [16.37078, 43.48432], [16.33334, 43.48139], [16.28199, 43.48794]]], [[[15.61964, 43.66893], [15.60377, 43.67471], [15.61134, 43.68212], [15.61549, 43.67699], [15.61964, 43.67544], [15.62108, 43.67533], [15.62108, 43.67533], [15.65016, 43.67304], [15.66163, 43.66547], [15.66969, 43.65575], [15.67888, 43.64802], [15.74041, 43.62751], [15.68133, 43.64033], [15.67205, 43.63744], [15.6631, 43.6457], [15.61964, 43.66893]]], [[[14.46899, 45.31736], [14.55484, 45.29457], [14.55193, 45.28807], [14.54331, 45.28384], [14.53305, 45.28388], [14.52443, 45.28876], [14.51051, 45.29975], [14.4667, 45.31549], [14.46899, 45.31736]]], [[[14.76013, 45.24008], [15.07324, 45.1046], [15.11169, 44.92993], [15.19409, 44.75863], [15.36438, 44.622], [15.66101, 44.43803], [16.00708, 44.41058], [16.20538, 44.3468], [16.20318, 44.33306], [16.19966, 44.32469], [16.18953, 44.30851], [16.18664, 44.29761], [16.18757, 44.28241], [16.19708, 44.25115], [16.21579, 44.20815], [16.23212, 44.191], [16.27552, 44.15736], [16.28999, 44.13912], [16.31221, 44.1], [16.32689, 44.08237], [16.34611, 44.06847], [16.35738, 44.06217], [16.3672, 44.05814], [16.37795, 44.05736], [16.40399, 44.05876], [16.41402, 44.05581], [16.42694, 44.04052], [16.43148, 44.02579], [16.43965, 44.01401], [16.48347, 44.00254], [16.50104, 43.99272], [16.51654, 43.97954], [16.52745, 43.96786], [16.55582, 43.93747], [16.6048, 43.90107], [16.63736, 43.86841], [16.6786, 43.84068], [16.68614, 43.82614], [16.68976, 43.80932], [16.69824, 43.78808], [16.7126, 43.77152], [16.82381, 43.70731], [16.98194, 43.58969], [17.03052, 43.54848], [17.06231, 43.52775], [17.08457, 43.51324], [17.14276, 43.48934], [17.2395, 43.47841], [17.2705, 43.46321], [17.28642, 43.43738], [17.26761, 43.35332], [17.28993, 43.30343], [17.32869, 43.26036], [17.36941, 43.23256], [17.38967, 43.2231], [17.40021, 43.21605], [17.40682, 43.20543], [17.4152, 43.18496], [17.42677, 43.16571], [17.44207, 43.15243], [17.45091, 43.14815], [17.58738, 43.08213], [17.59802, 43.0729], [17.62841, 43.04657], [17.659, 42.99366], [17.65911, 42.99363], [17.65921, 42.99345], [17.65931, 42.9934], [17.66272, 42.9657], [17.63451, 42.9504], [17.58066, 42.94208], [17.58009, 42.94233], [17.54965, 42.95531], [17.53452, 42.95063], [17.51564, 42.95889], [17.49855, 42.97215], [17.48829, 42.98261], [17.47462, 43.00117], [17.47088, 43.01341], [17.47918, 43.02241], [17.50196, 43.03099], [17.48797, 43.03498], [17.47169, 43.03046], [17.45338, 43.02277], [17.4336, 43.0174], [17.44068, 43.01996], [17.46022, 43.03099], [17.45045, 43.03115], [17.44068, 43.03229], [17.4323, 43.0362], [17.42612, 43.04462], [17.4336, 43.0515], [17.42742, 43.06086], [17.42612, 43.06517], [17.40455, 43.0515], [17.37086, 43.07388], [17.31625, 43.12727], [17.17237, 43.18183], [17.13803, 43.20234], [17.12135, 43.20881], [17.11394, 43.2132], [17.10776, 43.22639], [17.10027, 43.23168], [17.09018, 43.23517], [17.08009, 43.23652], [17.0735, 43.23896], [17.06666, 43.24486], [17.05633, 43.25699], [17.05445, 43.26122], [17.05112, 43.27424], [17.04949, 43.27802], [17.04509, 43.27977], [17.0324, 43.28238], [17.02817, 43.28425], [16.93393, 43.3736], [16.90602, 43.38727], [16.89576, 43.3946], [16.88852, 43.40119], [16.88063, 43.40595], [16.75245, 43.4195], [16.69386, 43.4383], [16.62582, 43.44904], [16.53484, 43.49714], [16.53346, 43.4997], [16.53256, 43.50434], [16.53004, 43.50877], [16.52467, 43.51081], [16.51856, 43.50971], [16.50953, 43.50507], [16.5044, 43.50397], [16.46656, 43.51081], [16.39145, 43.51081], [16.39145, 43.51765], [16.41139, 43.51781], [16.43426, 43.52188], [16.4559, 43.52896], [16.4734, 43.53815], [16.4568, 43.54588], [16.43385, 43.54975], [16.33676, 43.55117], [16.32496, 43.54853], [16.30633, 43.53994], [16.29933, 43.53815], [16.2811, 43.53604], [16.23959, 43.52656], [16.11769, 43.52448], [16.11769, 43.51765], [16.15073, 43.51138], [16.16489, 43.5041], [16.17237, 43.48969], [16.11085, 43.48969], [16.11313, 43.47891], [16.09848, 43.48005], [16.06617, 43.48969], [16.03956, 43.49079], [16.02833, 43.49494], [16.01401, 43.50397], [16.0128, 43.50397], [16.00782, 43.50397], [16.00782, 43.49714], [15.99578, 43.50336], [15.97348, 43.50312], [15.96632, 43.51081], [15.96551, 43.5091], [15.96559, 43.50617], [15.96437, 43.50389], [15.95948, 43.50397], [15.96127, 43.51504], [15.96656, 43.51691], [15.97438, 43.51675], [15.98365, 43.52106], [15.98699, 43.52729], [15.98422, 43.53205], [15.98227, 43.5373], [15.98732, 43.54491], [15.97096, 43.54352], [15.9651, 43.54194], [15.95948, 43.53815], [15.95623, 43.54792], [15.94809, 43.55288], [15.9253, 43.55858], [15.94191, 43.56], [15.94418, 43.56672], [15.93539, 43.57294], [15.91798, 43.5729], [15.91798, 43.57909], [15.92262, 43.58112], [15.92758, 43.5843], [15.93214, 43.58658], [15.92213, 43.59199], [15.91798, 43.59333], [15.9253, 43.59956], [15.91798, 43.60639], [15.9253, 43.61384], [15.91896, 43.62873], [15.92953, 43.63422], [15.96632, 43.63373], [15.96632, 43.64118], [15.9214, 43.64814], [15.9048, 43.64802], [15.91676, 43.65363], [15.92661, 43.65302], [15.93483, 43.64985], [15.94239, 43.64802], [15.95297, 43.65087], [15.95143, 43.65742], [15.94264, 43.66429], [15.93214, 43.66844], [15.94597, 43.67231], [15.9524, 43.67976], [15.95045, 43.68854], [15.93897, 43.69644], [15.93971, 43.67764], [15.93116, 43.6765], [15.90675, 43.69147], [15.89291, 43.70051], [15.886, 43.70034], [15.8768, 43.70165], [15.87078, 43.70319], [15.86451, 43.70816], [15.85076, 43.72394], [15.844, 43.72993], [15.80348, 43.74641], [15.79217, 43.75446], [15.77101, 43.75995], [15.70631, 43.76341], [15.69264, 43.7746], [15.68214, 43.79719], [15.65846, 43.80508], [15.63299, 43.81045], [15.61744, 43.82551], [15.64731, 43.81586], [15.6631, 43.81297], [15.67888, 43.81184], [15.67888, 43.81928], [15.67303, 43.82123], [15.66896, 43.82099], [15.66676, 43.81997], [15.66578, 43.81928], [15.63884, 43.83613], [15.57407, 43.85952], [15.54689, 43.87657], [15.54518, 43.87763], [15.52491, 43.90046], [15.51222, 43.91108], [15.49773, 43.91551], [15.48243, 43.91714], [15.47364, 43.91913], [15.46608, 43.9217], [15.45509, 43.92805], [15.44972, 43.93439], [15.44565, 43.94135], [15.43873, 43.94965], [15.38404, 43.99738], [15.35808, 44.0257], [15.33961, 44.03937], [15.31951, 44.04523], [15.2776, 44.08234], [15.27833, 44.0856], [15.23325, 44.12092], [15.22202, 44.12564], [15.2129, 44.13105], [15.20883, 44.13817], [15.21274, 44.14826], [15.19695, 44.15648], [15.14454, 44.19546], [15.16041, 44.2132], [15.15219, 44.2353], [15.13152, 44.25462], [15.11036, 44.26435], [15.12224, 44.27481], [15.14064, 44.28246], [15.15756, 44.28034], [15.16505, 44.26122], [15.17661, 44.24994], [15.19793, 44.25731], [15.20777, 44.27277], [15.18539, 44.28539], [15.19304, 44.28685], [15.19418, 44.28864], [15.19459, 44.2888], [15.19907, 44.28539], [15.20655, 44.28539], [15.20118, 44.29751], [15.19809, 44.30166], [15.24757, 44.27798], [15.2684, 44.25845], [15.27955, 44.25178], [15.29526, 44.25068], [15.28175, 44.28539], [15.29054, 44.28742], [15.29493, 44.29023], [15.29786, 44.29401], [15.30274, 44.29914], [15.28932, 44.30219], [15.27817, 44.3098], [15.26889, 44.32046], [15.26124, 44.33259], [15.28053, 44.32754], [15.3086, 44.30927], [15.33693, 44.30166], [15.40854, 44.27228], [15.42449, 44.26797], [15.50359, 44.25922], [15.52524, 44.26069], [15.52866, 44.2718], [15.51482, 44.27851], [15.44923, 44.28539], [15.44418, 44.28848], [15.41407, 44.31656], [15.40602, 44.32062], [15.30795, 44.3544], [15.29379, 44.36481], [15.15504, 44.4667], [15.10808, 44.51386], [15.08009, 44.53608], [15.05201, 44.54548], [15.04786, 44.55036], [15.01531, 44.56908], [15.00733, 44.56973], [15.00131, 44.57852], [14.90138, 44.69017], [14.8838, 44.72362], [14.89519, 44.73615], [14.89389, 44.75096], [14.88746, 44.76838], [14.8838, 44.78876], [14.88136, 44.84406], [14.8838, 44.86148], [14.90528, 44.92463], [14.91489, 44.93993], [14.92164, 44.95881], [14.91432, 44.98143], [14.85646, 45.07648], [14.85279, 45.09365], [14.84254, 45.10554], [14.8274, 45.11396], [14.76596, 45.13736], [14.65789, 45.1966], [14.6067, 45.24437], [14.59278, 45.24982], [14.57602, 45.26227], [14.56861, 45.27595], [14.58221, 45.28535], [14.57797, 45.28843], [14.76013, 45.24008]]], [[[18.45492, 42.46472], [18.46774, 42.45338], [18.47549, 42.44981], [18.49285, 42.44237], [18.49782, 42.43116], [18.49643, 42.41633], [18.47446, 42.44135], [18.46095, 42.44794], [18.42758, 42.45527], [18.4131, 42.46186], [18.41188, 42.47602], [18.23894, 42.55907], [18.22055, 42.57917], [18.22088, 42.58832], [18.22315, 42.60212], [18.22348, 42.61469], [18.21754, 42.6201], [18.16603, 42.62694], [18.12485, 42.6446], [18.10865, 42.64741], [18.09164, 42.64826], [18.07602, 42.65131], [18.06397, 42.65762], [18.05738, 42.66791], [18.07732, 42.66791], [18.05592, 42.68301], [18.04786, 42.69062], [18.04322, 42.70205], [18.02833, 42.69131], [18.00327, 42.70067], [17.96119, 42.7294], [17.90162, 42.7519], [17.88071, 42.76874], [17.89283, 42.79084], [17.86508, 42.78994], [17.83497, 42.8072], [17.80665, 42.81192], [17.80006, 42.81098], [17.79233, 42.80854], [17.78565, 42.80516], [17.78012, 42.79694], [17.77377, 42.79857], [17.76775, 42.80231], [17.76539, 42.80443], [17.7588, 42.8076], [17.73512, 42.82197], [17.72096, 42.82624], [17.73959, 42.81306], [17.74871, 42.80341], [17.76189, 42.77871], [17.76189, 42.77432], [17.75514, 42.77094], [17.74871, 42.77204], [17.74871, 42.77814], [17.75025, 42.78571], [17.74887, 42.79084], [17.72877, 42.80077], [17.67856, 42.81623], [17.63347, 42.82294], [17.58009, 42.84125], [17.52524, 42.84862], [17.44044, 42.87336], [17.44272, 42.89863], [17.41725, 42.9112], [17.35092, 42.92178], [17.27133, 42.96337], [17.23748, 42.97138], [17.22153, 42.9798], [17.21388, 42.98261], [17.20191, 42.98432], [17.09539, 42.98444], [17.06251, 42.99006], [17.04615, 42.99506], [17.02752, 43.00357], [17.01791, 43.01382], [17.02817, 43.02416], [17.02817, 43.03099], [17.01881, 43.03408], [17.01295, 43.03921], [17.00807, 43.04532], [17.00164, 43.0515], [17.02312, 43.04865], [17.05568, 43.02896], [17.07325, 43.02416], [17.1587, 43.03099], [17.24025, 43.02277], [17.39047, 42.97773], [17.42579, 42.96088], [17.45411, 42.94229], [17.45574, 42.93842], [17.4559, 42.93293], [17.4568, 42.92699], [17.46022, 42.92178], [17.46485, 42.92072], [17.47657, 42.92243], [17.48146, 42.92178], [17.49928, 42.91185], [17.50766, 42.90908], [17.51889, 42.90815], [17.52263, 42.91022], [17.52215, 42.91962], [17.52613, 42.92178], [17.53207, 42.9206], [17.54152, 42.91547], [17.54656, 42.91429], [17.55893, 42.91283], [17.56813, 42.90908], [17.58375, 42.9007], [17.62289, 42.8913], [17.64161, 42.88447], [17.65268, 42.87336], [17.65895, 42.87336], [17.67368, 42.87507], [17.71599, 42.84418], [17.74147, 42.83926], [17.71095, 42.85663], [17.70191, 42.86848], [17.71363, 42.88081], [17.70737, 42.88703], [17.67872, 42.87938], [17.65333, 42.89094], [17.66593, 42.90516], [17.67947, 42.91568], [17.70159, 42.9195], [17.7236, 42.91625], [17.76546, 42.90413], [17.78675, 42.90139], [17.79471, 42.90459], [17.80267, 42.90963], [17.81176, 42.90986], [17.82334, 42.89836], [17.82623, 42.88865], [17.82509, 42.86454], [17.82716, 42.85312], [17.85847, 42.81697], [17.86943, 42.81181], [17.90447, 42.80455], [17.92886, 42.7908], [17.97185, 42.75496], [17.99532, 42.74044], [18.04937, 42.71476], [18.22414, 42.62807], [18.25711, 42.61489], [18.31157, 42.60122], [18.33865, 42.60252], [18.34961, 42.59629], [18.36978, 42.57439], [18.37048, 42.57363], [18.38527, 42.56652], [18.42103, 42.56363], [18.43736, 42.55921], [18.44201, 42.54301], [18.43642, 42.51076], [18.43715, 42.4934], [18.44428, 42.47792], [18.45492, 42.46472]]], [[[17.37379, 42.76], [17.35377, 42.76667], [17.33448, 42.78034], [17.32374, 42.79084], [17.34156, 42.7934], [17.37379, 42.80264], [17.39234, 42.8017], [17.38738, 42.80024], [17.38201, 42.79784], [17.37159, 42.79084], [17.38266, 42.79165], [17.39332, 42.79116], [17.40349, 42.78876], [17.41245, 42.784], [17.41993, 42.79084], [17.43686, 42.78262], [17.48601, 42.78217], [17.52369, 42.76484], [17.57447, 42.75751], [17.5975, 42.74982], [17.59441, 42.74775], [17.59352, 42.74722], [17.59067, 42.74299], [17.6482, 42.73851], [17.65895, 42.74299], [17.67937, 42.72989], [17.73048, 42.71345], [17.74887, 42.69457], [17.38592, 42.77094], [17.37379, 42.76]]], [[[16.90545, 42.73176], [16.88494, 42.7294], [16.88217, 42.7364], [16.87403, 42.73762], [16.85816, 42.74299], [16.84767, 42.73359], [16.83432, 42.73094], [16.82081, 42.73607], [16.80983, 42.74982], [16.82228, 42.75511], [16.82407, 42.76407], [16.81886, 42.76935], [16.80983, 42.76349], [16.80299, 42.76349], [16.81023, 42.77534], [16.82814, 42.78095], [16.85816, 42.784], [16.92107, 42.77717], [16.93393, 42.77094], [16.93637, 42.75552], [16.92465, 42.7414], [16.90545, 42.73176]]], [[[17.17433, 42.92202], [17.15309, 42.92113], [17.10743, 42.91429], [17.01531, 42.92862], [16.97291, 42.9267], [16.89869, 42.90583], [16.85141, 42.9007], [16.73976, 42.91718], [16.69142, 42.92821], [16.67286, 42.92674], [16.67262, 42.92178], [16.65545, 42.92626], [16.63844, 42.93476], [16.7068, 42.9621], [16.7068, 42.96955], [16.68775, 42.97394], [16.64829, 42.97777], [16.63168, 42.98261], [16.65268, 42.99238], [16.67481, 42.99291], [16.69752, 42.99018], [16.72047, 42.99006], [16.74138, 42.98062], [16.76856, 42.97223], [16.82407, 42.9621], [16.87867, 42.9621], [16.89259, 42.96532], [16.91554, 42.97451], [17.03207, 42.98261], [17.11109, 42.9643], [17.13185, 42.96955], [17.14869, 42.95258], [17.16432, 42.94147], [17.20021, 42.92178], [17.19337, 42.91429], [17.17433, 42.92202]]], [[[16.42726, 43.17988], [16.41603, 43.18183], [16.37159, 43.1955], [16.37582, 43.19994], [16.38038, 43.20197], [16.39145, 43.20234], [16.40398, 43.19717], [16.41529, 43.19847], [16.43979, 43.20978], [16.44606, 43.20234], [16.44907, 43.20649], [16.4603, 43.21597], [16.4603, 43.20978], [16.49643, 43.21809], [16.52703, 43.20429], [16.55494, 43.18793], [16.58326, 43.18867], [16.55592, 43.20978], [16.52931, 43.22163], [16.52052, 43.22899], [16.535, 43.22773], [16.56275, 43.22899], [16.58326, 43.21597], [16.58709, 43.21625], [16.59693, 43.22175], [16.60377, 43.22346], [16.61638, 43.22354], [16.64601, 43.21992], [16.65952, 43.21597], [16.66627, 43.21084], [16.67254, 43.20303], [16.68068, 43.19477], [16.69313, 43.18867], [16.69361, 43.18403], [16.69223, 43.18281], [16.68946, 43.18281], [16.68629, 43.18183], [16.70582, 43.1708], [16.72771, 43.16462], [16.75123, 43.16193], [16.84815, 43.16234], [16.86443, 43.16885], [16.87843, 43.15884], [16.89674, 43.15477], [16.95875, 43.15241], [17.01856, 43.14086], [17.10987, 43.14379], [17.15528, 43.14033], [17.19337, 43.12727], [16.94325, 43.12727], [16.69313, 43.12727], [16.67018, 43.12547], [16.55983, 43.14297], [16.47535, 43.16649], [16.44516, 43.1708], [16.42726, 43.17988]]], [[[15.26637, 43.857], [15.34246, 43.81184], [15.35434, 43.80036], [15.36736, 43.79011], [15.39568, 43.77241], [15.38697, 43.77684], [15.32797, 43.79633], [15.30893, 43.80561], [15.28842, 43.82551], [15.26124, 43.83979], [15.24789, 43.84903], [15.23341, 43.86221], [15.22779, 43.87446], [15.24073, 43.88076], [15.26124, 43.86709], [15.26637, 43.857]]], [[[15.29713, 43.9781], [15.27019, 44.00031], [15.26124, 44.01105], [15.28028, 44.01081], [15.2964, 44.0056], [15.34995, 43.9763], [15.37859, 43.97167], [15.38404, 43.97016], [15.38657, 43.96442], [15.38941, 43.94766], [15.39161, 43.94221], [15.39763, 43.9372], [15.41114, 43.93293], [15.41879, 43.92914], [15.42677, 43.92207], [15.43539, 43.91128], [15.44272, 43.89908], [15.44606, 43.88752], [15.43873, 43.89069], [15.43141, 43.89277], [15.42368, 43.89399], [15.41505, 43.89444], [15.40707, 43.89614], [15.40358, 43.90021], [15.40154, 43.90477], [15.39772, 43.90811], [15.37208, 43.91389], [15.35865, 43.91938], [15.34995, 43.92914], [15.35434, 43.93146], [15.35678, 43.93537], [15.34352, 43.93964], [15.32545, 43.94843], [15.30958, 43.95844], [15.30274, 43.96638], [15.29713, 43.9781]]], [[[15.24187, 44.02778], [15.23227, 44.04145], [15.22332, 44.05028], [15.21274, 44.04523], [15.20655, 44.04523], [15.20533, 44.04975], [15.20338, 44.05248], [15.20143, 44.055], [15.19907, 44.05882], [15.18914, 44.0478], [15.16969, 44.05866], [15.14877, 44.07636], [15.12184, 44.09223], [15.08709, 44.12373], [15.0687, 44.13398], [15.07081, 44.13764], [15.07114, 44.13849], [15.07203, 44.13882], [15.07553, 44.14082], [15.07146, 44.14639], [15.06251, 44.16193], [15.22576, 44.06623], [15.24708, 44.0467], [15.25441, 44.01789], [15.24187, 44.02778]]], [[[14.85043, 44.15225], [14.85727, 44.15205], [14.86378, 44.14814], [14.86915, 44.14053], [14.85613, 44.13687], [14.83522, 44.14167], [14.81983, 44.15302], [14.82244, 44.16869], [14.8274, 44.1579], [14.83546, 44.15103], [14.84278, 44.14826], [14.85043, 44.15225]]], [[[15.21681, 43.91279], [15.22022, 43.90119], [15.19549, 43.89521], [15.14552, 43.9239], [15.13331, 43.92121], [15.13771, 43.91787], [15.14031, 43.91303], [15.14454, 43.90811], [15.16969, 43.89496], [15.17555, 43.89094], [15.18344, 43.88695], [15.19109, 43.88752], [15.19679, 43.88638], [15.19907, 43.87763], [15.19451, 43.87263], [15.18458, 43.8771], [15.17514, 43.88426], [15.17237, 43.88752], [15.13649, 43.90302], [15.12135, 43.91258], [15.10662, 43.92544], [15.06691, 43.96955], [15.04282, 43.99042], [15.0031, 44.05231], [14.98308, 44.06631], [14.95509, 44.07559], [14.87013, 44.14082], [14.86785, 44.15205], [14.86297, 44.16104], [14.84962, 44.1756], [14.85524, 44.1765], [14.85963, 44.17601], [14.86329, 44.1756], [14.88282, 44.15917], [14.93914, 44.12714], [14.94418, 44.12027], [14.94874, 44.11115], [14.95444, 44.10322], [14.96266, 44.09984], [14.97633, 44.09667], [14.98512, 44.09097], [14.99383, 44.08784], [15.00733, 44.093], [15.00278, 44.08316], [15.0005, 44.07941], [15.01441, 44.07795], [15.02272, 44.07221], [15.0267, 44.06232], [15.02784, 44.04865], [15.03191, 44.03636], [15.04135, 44.02643], [15.08823, 43.98965], [15.09913, 43.98509], [15.11378, 43.98379], [15.11695, 43.97883], [15.14454, 43.94965], [15.21681, 43.91279]]], [[[14.8659, 44.56635], [14.76149, 44.65864], [14.74366, 44.68049], [14.73365, 44.70319], [14.73813, 44.70311], [14.74122, 44.70161], [14.77996, 44.6695], [14.84522, 44.60053], [14.8838, 44.57966], [14.88014, 44.6092], [14.90406, 44.61001], [14.93824, 44.59414], [14.96632, 44.57343], [14.98911, 44.54662], [15.00392, 44.53608], [15.04119, 44.52749], [15.05177, 44.51618], [15.0617, 44.50072], [15.07553, 44.48408], [15.05592, 44.48623], [15.02817, 44.50316], [15.00733, 44.50454], [15.01173, 44.51488], [15.01417, 44.51874], [14.97291, 44.53612], [14.95289, 44.54149], [14.94207, 44.54743], [14.92856, 44.55231], [14.91114, 44.55231], [14.91114, 44.54548], [14.96599, 44.52387], [15.04803, 44.43944], [15.09669, 44.41519], [15.08082, 44.42455], [15.06495, 44.43793], [15.05104, 44.45527], [15.04152, 44.47663], [15.08326, 44.46186], [15.17661, 44.3913], [15.19907, 44.38105], [15.21323, 44.36921], [15.24138, 44.35106], [15.25441, 44.34003], [15.23512, 44.33625], [15.21176, 44.34614], [15.18735, 44.35981], [15.16505, 44.36738], [15.16505, 44.36054], [15.18287, 44.35786], [15.20045, 44.34951], [15.21583, 44.33812], [15.22706, 44.32636], [15.20655, 44.32636], [15.20826, 44.32075], [15.21095, 44.31733], [15.21502, 44.31493], [15.22022, 44.31273], [15.1989, 44.31704], [15.15455, 44.331], [15.13087, 44.33259], [15.13087, 44.32636], [15.17237, 44.30533], [15.17237, 44.29914], [15.14926, 44.30317], [15.12875, 44.312], [15.11118, 44.32461], [15.09669, 44.34003], [15.09669, 44.34626], [15.11036, 44.34626], [15.11036, 44.3537], [15.10231, 44.35716], [15.09718, 44.36131], [15.0892, 44.37421], [15.09978, 44.3736], [15.10694, 44.37519], [15.11215, 44.37958], [15.1172, 44.38719], [15.09164, 44.39936], [15.08302, 44.40152], [15.07358, 44.40046], [15.05779, 44.39419], [15.049, 44.39468], [15.03834, 44.40327], [15.02076, 44.43], [14.95883, 44.4667], [14.94972, 44.46809], [14.89747, 44.49091], [14.89747, 44.49706], [14.90317, 44.49848], [14.91285, 44.50275], [14.91863, 44.50454], [14.90626, 44.5209], [14.87762, 44.55134], [14.87696, 44.55976], [14.8659, 44.56635]]], [[[14.52662, 44.50373], [14.53435, 44.48408], [14.51197, 44.48224], [14.48504, 44.50064], [14.45191, 44.53189], [14.43816, 44.53864], [14.43816, 44.54548], [14.45924, 44.54116], [14.46608, 44.53864], [14.438, 44.56464], [14.42262, 44.57388], [14.40406, 44.57966], [14.39698, 44.56916], [14.38657, 44.56562], [14.37468, 44.56757], [14.36305, 44.57343], [14.36305, 44.57966], [14.36988, 44.57966], [14.36988, 44.57982], [14.36866, 44.58202], [14.36476, 44.58723], [14.38258, 44.60326], [14.37599, 44.62303], [14.34938, 44.65534], [14.34457, 44.66852], [14.33709, 44.69965], [14.33578, 44.71678], [14.35572, 44.7071], [14.38111, 44.69864], [14.39747, 44.68561], [14.39039, 44.66218], [14.39519, 44.65339], [14.39959, 44.63752], [14.40406, 44.61034], [14.41, 44.60098], [14.44557, 44.56598], [14.52662, 44.50373]]], [[[14.74049, 44.77049], [14.74293, 44.76577], [14.75408, 44.75776], [14.7409, 44.76439], [14.72495, 44.76765], [14.70997, 44.76789], [14.69947, 44.7652], [14.65789, 44.79877], [14.67042, 44.79951], [14.68287, 44.79877], [14.69483, 44.79645], [14.70574, 44.79255], [14.70574, 44.79877], [14.70232, 44.80215], [14.70143, 44.80435], [14.70134, 44.80732], [14.69947, 44.81306], [14.71583, 44.80317], [14.71998, 44.79877], [14.72682, 44.79877], [14.71412, 44.81843], [14.70582, 44.82685], [14.69207, 44.83348], [14.68979, 44.83674], [14.6858, 44.84715], [14.7068, 44.84496], [14.72682, 44.84028], [14.72413, 44.84443], [14.71998, 44.85464], [14.73902, 44.85342], [14.75327, 44.84585], [14.75611, 44.83568], [14.74049, 44.82665], [14.74049, 44.8205], [14.74806, 44.8168], [14.78736, 44.78925], [14.81153, 44.7792], [14.82244, 44.77143], [14.85125, 44.73729], [14.85906, 44.71735], [14.84962, 44.70319], [14.82146, 44.72065], [14.77296, 44.76032], [14.74049, 44.77827], [14.74049, 44.77049]]], [[[14.50807, 44.65331], [14.50856, 44.64533], [14.51498, 44.64216], [14.52752, 44.64789], [14.53435, 44.63426], [14.52735, 44.62714], [14.52036, 44.62153], [14.51336, 44.61884], [14.50229, 44.62027], [14.47299, 44.62027], [14.42791, 44.65656], [14.39454, 44.70759], [14.39723, 44.75161], [14.39275, 44.75251], [14.3899, 44.75406], [14.38738, 44.75581], [14.38356, 44.75776], [14.37452, 44.75385], [14.36818, 44.76105], [14.36427, 44.7744], [14.36305, 44.80654], [14.36158, 44.81598], [14.35662, 44.81977], [14.34604, 44.8205], [14.32985, 44.83393], [14.31414, 44.89379], [14.2942, 44.90864], [14.29518, 44.91307], [14.29623, 44.91592], [14.30152, 44.92231], [14.29249, 44.94033], [14.30152, 44.94343], [14.32521, 44.93651], [14.33229, 44.9322], [14.35027, 44.91291], [14.35963, 44.90864], [14.37713, 44.90815], [14.38738, 44.909], [14.39324, 44.91478], [14.39723, 44.9291], [14.39357, 44.93476], [14.38901, 44.95034], [14.39031, 44.96039], [14.40406, 44.94953], [14.41139, 44.95637], [14.39145, 44.96943], [14.37672, 44.98688], [14.34669, 45.04755], [14.34083, 45.05561], [14.28745, 45.10106], [14.27849, 45.11335], [14.27768, 45.128], [14.28858, 45.14883], [14.29957, 45.16234], [14.31365, 45.17243], [14.33188, 45.17585], [14.35621, 45.16926], [14.36411, 45.15762], [14.36053, 45.11762], [14.36305, 45.09357], [14.36964, 45.07551], [14.38771, 45.03905], [14.41228, 45.00365], [14.41765, 44.99799], [14.43084, 44.9903], [14.45387, 44.98798], [14.46608, 44.98371], [14.47348, 44.97142], [14.47104, 44.95392], [14.46258, 44.93598], [14.45191, 44.92231], [14.45924, 44.91543], [14.44996, 44.89802], [14.4485, 44.88373], [14.45191, 44.8509], [14.46485, 44.82144], [14.46656, 44.80484], [14.45191, 44.79877], [14.45704, 44.78775], [14.46925, 44.7731], [14.47291, 44.7652], [14.47389, 44.75454], [14.46762, 44.74213], [14.46608, 44.7298], [14.47218, 44.70795], [14.48561, 44.69208], [14.50131, 44.67817], [14.51393, 44.66218], [14.50807, 44.65331]]], [[[14.70639, 44.94672], [14.65789, 44.97004], [14.62892, 44.97818], [14.62452, 44.9855], [14.62379, 45.00141], [14.62631, 45.03726], [14.62086, 45.0456], [14.60328, 45.03897], [14.60328, 45.03217], [14.61695, 45.02464], [14.59067, 45.02326], [14.51051, 45.03217], [14.48536, 45.03803], [14.46013, 45.05239], [14.43873, 45.0705], [14.42506, 45.08735], [14.43312, 45.09585], [14.44158, 45.0998], [14.45118, 45.10102], [14.46266, 45.10102], [14.46648, 45.10529], [14.46583, 45.11469], [14.46705, 45.12409], [14.47633, 45.12836], [14.51401, 45.12906], [14.53012, 45.13483], [14.52125, 45.14883], [14.53419, 45.16218], [14.53956, 45.1704], [14.54176, 45.1789], [14.5394, 45.18684], [14.5359, 45.19416], [14.53688, 45.20173], [14.54803, 45.21027], [14.54982, 45.22142], [14.54884, 45.23017], [14.54379, 45.23575], [14.53435, 45.23754], [14.54884, 45.24873], [14.56332, 45.24974], [14.59588, 45.23754], [14.58546, 45.23786], [14.58221, 45.23754], [14.58399, 45.23017], [14.58717, 45.22435], [14.59132, 45.21988], [14.59588, 45.2165], [14.61069, 45.19806], [14.62379, 45.17548], [14.59742, 45.16645], [14.61256, 45.15925], [14.64373, 45.15681], [14.66529, 45.16181], [14.67091, 45.14346], [14.65895, 45.10834], [14.66529, 45.08735], [14.67807, 45.07746], [14.69597, 45.07343], [14.74049, 45.07306], [14.74, 45.04434], [14.79982, 45.00519], [14.81495, 44.97748], [14.80877, 44.97748], [14.79721, 44.97134], [14.78468, 44.96931], [14.77223, 44.97134], [14.76092, 44.97748], [14.74724, 44.97004], [14.74724, 44.96381], [14.76075, 44.95515], [14.75685, 44.94872], [14.74203, 44.94473], [14.7234, 44.94335], [14.70639, 44.94672]]], [[[14.77345, 44.28514], [14.79168, 44.27253], [14.78972, 44.26691], [14.7754, 44.26659], [14.76596, 44.26504], [14.75994, 44.25983], [14.74855, 44.26166], [14.73813, 44.27212], [14.73959, 44.28018], [14.74968, 44.28022], [14.75318, 44.28352], [14.75318, 44.291], [14.75978, 44.29206], [14.77345, 44.28514]]], [[[14.64357, 44.32575], [14.66139, 44.30866], [14.6574, 44.30524], [14.6408, 44.31184], [14.59889, 44.33906], [14.59506, 44.34711], [14.61346, 44.34081], [14.64357, 44.32575]]], [[[14.80568, 44.36783], [14.81121, 44.35004], [14.80104, 44.34309], [14.78517, 44.34687], [14.77418, 44.35248], [14.7562, 44.364], [14.75782, 44.37226], [14.76824, 44.38422], [14.76344, 44.41535], [14.7671, 44.41665], [14.77166, 44.41787], [14.78289, 44.41893], [14.79477, 44.4145], [14.80323, 44.4055], [14.80502, 44.39574], [14.79965, 44.38764], [14.79672, 44.38129], [14.79786, 44.37767], [14.80568, 44.36783]]], [[[14.2658, 44.67951], [14.28045, 44.67756], [14.28004, 44.66779], [14.27418, 44.66169], [14.26092, 44.65949], [14.25945, 44.65819], [14.25733, 44.65672], [14.25685, 44.65306], [14.25847, 44.64785], [14.25636, 44.6424], [14.25668, 44.63703], [14.25904, 44.6341], [14.2658, 44.62539], [14.27117, 44.61254], [14.26401, 44.61156], [14.25221, 44.61685], [14.23976, 44.61986], [14.23259, 44.62604], [14.23357, 44.63483], [14.23561, 44.64224], [14.24415, 44.66144], [14.2658, 44.67951]]]]}, "properties": {"id": "ELIq", "status": "validé", "pieces": [{"kind": "admin1", "code": "HRV-1490"}, {"kind": "admin1", "code": "HRV-1492"}, {"kind": "admin1", "code": "HRV-1491"}, {"kind": "polygon", "ring": [[14.46899, 45.31736], [14.76013, 45.24008], [15.07324, 45.1046], [15.11169, 44.92993], [15.19409, 44.75863], [15.36438, 44.622], [15.66101, 44.43803], [16.00708, 44.41058], [16.33667, 44.30458], [16.82007, 43.83511], [15.12268, 43.60891], [14.02405, 44.092], [14.07898, 44.76253], [14.26025, 45.14721]]}, {"kind": "clip"}]}}, {"type": "Feature", "geometry": null, "properties": {"id": "FJLL", "status": "validé", "pieces": [{"kind": "country"}]}}, {"type": "Feature", "geometry": null, "properties": {"id": "FWfo", "status": "rejeté", "pieces": []}}, {"type": "Feature", "geometry": null, "properties": {"id": "KLL9", "status": "validé", "pieces": [{"kind": "country"}]}}, {"type": "Feature", "geometry": {"type": "Polygon", "coordinates": [[[16.91345, 46.18056], [16.80359, 46.08924], [16.65527, 45.93288], [16.60583, 45.80289], [16.44653, 45.74544], [16.29272, 45.77609], [16.16089, 45.77991], [16.00159, 45.70711], [15.86426, 45.66491], [15.65002, 45.74161], [15.58707, 45.81925], [15.5873, 45.81922], [15.62605, 45.8202], [15.64559, 45.82413], [15.66605, 45.83167], [15.67608, 45.8417], [15.67546, 45.85596], [15.66367, 45.87606], [15.65944, 45.88883], [15.66336, 45.90082], [15.67039, 45.91265], [15.67556, 45.92516], [15.67711, 45.9418], [15.67538, 45.97249], [15.67422, 45.99316], [15.67432, 45.99332], [15.68197, 46.01352], [15.69365, 46.02577], [15.69799, 46.03621], [15.69288, 46.04164], [15.68393, 46.05114], [15.67173, 46.0574], [15.64373, 46.06551], [15.63153, 46.07057], [15.6236, 46.07641], [15.60383, 46.09099], [15.58988, 46.11352], [15.58998, 46.13868], [15.60435, 46.167], [15.62285, 46.1917], [15.62657, 46.19521], [15.6398, 46.20767], [15.6613, 46.21532], [15.67797, 46.21446], [15.74977, 46.21077], [15.76889, 46.21935], [15.78914, 46.24307], [15.79953, 46.24861], [15.8031, 46.25051], [15.81829, 46.25552], [15.83421, 46.25837], [15.87932, 46.25931], [15.8809, 46.25934], [15.88371, 46.2594], [15.9189, 46.27283], [15.94872, 46.2842], [15.982, 46.28834], [15.99367, 46.29061], [15.99843, 46.29154], [16.01921, 46.29883], [16.03895, 46.30844], [16.04992, 46.31674], [16.05238, 46.3186], [16.05962, 46.33232], [16.05972, 46.34531], [16.05745, 46.35965], [16.05796, 46.37753], [16.08865, 46.37309], [16.09435, 46.37226], [16.10602, 46.37373], [16.11553, 46.37929], [16.12318, 46.38688], [16.13155, 46.39306], [16.14385, 46.39471], [16.15357, 46.39143], [16.17754, 46.37559], [16.19181, 46.36978], [16.20865, 46.36709], [16.21713, 46.36735], [16.25278, 46.37342], [16.27563, 46.37317], [16.28028, 46.37621], [16.27994, 46.37866], [16.27873, 46.38735], [16.27408, 46.39211], [16.25702, 46.39991], [16.25092, 46.405], [16.24824, 46.41334], [16.2501, 46.42944], [16.24938, 46.43753], [16.23749, 46.46507], [16.23366, 46.47874], [16.23419, 46.48489], [16.23491, 46.49334], [16.26093, 46.51358], [16.26395, 46.51592], [16.29537, 46.52445], [16.31066, 46.53099], [16.32999, 46.53545], [16.34028, 46.54383], [16.34415, 46.54698], [16.35125, 46.53992], [16.35169, 46.53949], [16.35789, 46.54698], [16.36947, 46.54057], [16.38218, 46.53938], [16.3949, 46.54011], [16.40626, 46.53949], [16.41515, 46.53556], [16.432, 46.52321], [16.44037, 46.51902], [16.44905, 46.51835], [16.47076, 46.52026], [16.4813, 46.51902], [16.49112, 46.51515], [16.5153, 46.50171], [16.52109, 46.49853], [16.56429, 46.47993], [16.57762, 46.47065], [16.58372, 46.47065], [16.58806, 46.47957], [16.59426, 46.48298], [16.60212, 46.48205], [16.61111, 46.47807], [16.63767, 46.47448], [16.65927, 46.46419], [16.67746, 46.44869], [16.69358, 46.42962], [16.7124, 46.41267], [16.74289, 46.39962], [16.75508, 46.38187], [16.7619, 46.38187], [16.76934, 46.39611], [16.77647, 46.39288], [16.80345, 46.38869], [16.80789, 46.38735], [16.81234, 46.38502], [16.81658, 46.38198], [16.82092, 46.3781], [16.82753, 46.37402], [16.83022, 46.37735], [16.83239, 46.38193], [16.83766, 46.38187], [16.85047, 46.37306], [16.85941, 46.36476], [16.86546, 46.35914], [16.87507, 46.34286], [16.87177, 46.3272], [16.87931, 46.31206], [16.88923, 46.29216], [16.89605, 46.28627], [16.90329, 46.28193], [16.9407, 46.25149], [16.9653, 46.21945], [16.97481, 46.21057], [16.97549, 46.21018], [16.91345, 46.18056]]]}, "properties": {"id": "KPaC", "status": "validé", "pieces": [{"kind": "admin1", "code": "HRV-1609"}, {"kind": "admin1", "code": "HRV-1610"}, {"kind": "admin1", "code": "HRV-1582"}, {"kind": "polygon", "ring": [[15.57861, 45.82968], [15.65002, 45.74161], [15.86426, 45.66491], [16.00159, 45.70711], [16.16089, 45.77991], [16.29272, 45.77609], [16.44653, 45.74544], [16.60583, 45.80289], [16.65527, 45.93288], [16.80359, 46.08924], [16.91345, 46.18056], [17.14417, 46.2907], [16.13892, 46.67258], [15.21057, 46.07781]]}, {"kind": "clip"}]}}, {"type": "Feature", "geometry": null, "properties": {"id": "M3t0", "status": "validé", "pieces": [{"kind": "country"}]}}, {"type": "Feature", "geometry": null, "properties": {"id": "MZYL", "status": "validé", "pieces": [{"kind": "country"}]}}, {"type": "Feature", "geometry": {"type": "Polygon", "coordinates": [[[16.09909, 45.7495], [16.09909, 45.85286], [15.867, 45.85286], [15.867, 45.7495], [16.09909, 45.7495]]]}, "properties": {"id": "O1bS", "status": "validé", "pieces": [{"kind": "rect", "bounds": [15.867, 45.7495, 16.09909, 45.85286]}]}}, {"type": "Feature", "geometry": null, "properties": {"id": "OmRw", "status": "validé", "pieces": [{"kind": "country"}]}}, {"type": "Feature", "geometry": null, "properties": {"id": "R9QL", "status": "validé", "pieces": [{"kind": "country"}]}}, {"type": "Feature", "geometry": null, "properties": {"id": "asMp", "status": "validé", "pieces": [{"kind": "country"}]}}, {"type": "Feature", "geometry": null, "properties": {"id": "b8co", "status": "rejeté", "pieces": []}}, {"type": "Feature", "geometry": {"type": "Polygon", "coordinates": [[[16.30028, 45.42355], [16.30028, 45.45052], [16.26183, 45.45052], [16.26183, 45.42355], [16.30028, 45.42355]]]}, "properties": {"id": "cTVj", "status": "validé", "pieces": [{"kind": "rect", "bounds": [16.26183, 45.42355, 16.30028, 45.45052]}]}}, {"type": "Feature", "geometry": null, "properties": {"id": "eUrn", "status": "validé", "pieces": [{"kind": "country"}]}}, {"type": "Feature", "geometry": {"type": "Polygon", "coordinates": [[[14.49646, 45.30296], [14.49646, 45.35193], [14.39861, 45.35193], [14.39861, 45.30296], [14.49646, 45.30296]]]}, "properties": {"id": "ffan", "status": "validé", "pieces": [{"kind": "rect", "bounds": [14.39861, 45.30296, 14.49646, 45.35193]}]}}, {"type": "Feature", "geometry": null, "properties": {"id": "fguV", "status": "validé", "pieces": [{"kind": "admin1", "code": "HRV-1592"}]}}, {"type": "Feature", "geometry": {"type": "MultiPolygon", "coordinates": [[[[15.61964, 43.668931], [15.60377, 43.674709], [15.611339, 43.682115], [15.615489, 43.676988], [15.61964, 43.675442], [15.650157, 43.673041], [15.661632, 43.665473], [15.669688, 43.655748], [15.678884, 43.648017], [15.740408, 43.627509], [15.681326, 43.640326], [15.672048, 43.637437], [15.663097, 43.645697], [15.61964, 43.668931]]], [[[15.386974, 43.776842], [15.327973, 43.796332], [15.30893, 43.805609], [15.288422, 43.825507], [15.261241, 43.839789], [15.247895, 43.849026], [15.233409, 43.862209], [15.227794, 43.874457], [15.240733, 43.880764], [15.261241, 43.867092], [15.266368, 43.857001], [15.342459, 43.811835], [15.35434, 43.80036], [15.367361, 43.790107], [15.395681, 43.772406], [15.386974, 43.776842]]], [[[15.349946, 43.976304], [15.378591, 43.971666], [15.384044, 43.97016], [15.386567, 43.964423], [15.389415, 43.947659], [15.391612, 43.942206], [15.397634, 43.937201], [15.411143, 43.932929], [15.418793, 43.929145], [15.426768, 43.922065], [15.435395, 43.911282], [15.442719, 43.899075], [15.446056, 43.887519], [15.438731, 43.890692], [15.431407, 43.892768], [15.423676, 43.893988], [15.41505, 43.894436], [15.407074, 43.896145], [15.403575, 43.900214], [15.401541, 43.904771], [15.397716, 43.908108], [15.372081, 43.913886], [15.358653, 43.919379], [15.349946, 43.929145], [15.35434, 43.931464], [15.356781, 43.93537], [15.343516, 43.939643], [15.32545, 43.948432], [15.309581, 43.958441], [15.302745, 43.966376], [15.29713, 43.978095], [15.270193, 44.000312], [15.261241, 44.011054], [15.280284, 44.01081], [15.296397, 44.005601], [15.349946, 43.976304]]], [[[15.133311, 43.92121], [15.137706, 43.917873], [15.14031, 43.913031], [15.144542, 43.908108], [15.169688, 43.894965], [15.175548, 43.890937], [15.183442, 43.886949], [15.191091, 43.887519], [15.196788, 43.886379], [15.199067, 43.877631], [15.194509, 43.872626], [15.184581, 43.877102], [15.175141, 43.884263], [15.172374, 43.887519], [15.136485, 43.903022], [15.121349, 43.912584], [15.106619, 43.925442], [15.066905, 43.96955], [15.042817, 43.990424], [15.003103, 44.052314], [14.983084, 44.066311], [14.955089, 44.075588], [14.870128, 44.140815], [14.867849, 44.152045], [14.862966, 44.161038], [14.84962, 44.175605], [14.855235, 44.1765], [14.85963, 44.176011], [14.863292, 44.175605], [14.882823, 44.159166], [14.939138, 44.127143], [14.944184, 44.120266], [14.948741, 44.111151], [14.954438, 44.103217], [14.962657, 44.09984], [14.976329, 44.096666], [14.985118, 44.090969], [14.993826, 44.087836], [15.007335, 44.093004], [15.002778, 44.083157], [15.000499, 44.079413], [15.014415, 44.077948], [15.020844358616175, 44.07350453169727], [15.022716, 44.072211], [15.026703, 44.062323], [15.027843, 44.048651], [15.031912, 44.036363], [15.041352, 44.026435], [15.088227, 43.989651], [15.099132, 43.985093], [15.11378, 43.983791], [15.116954, 43.978827], [15.144542, 43.949652], [15.216807, 43.912787], [15.220225, 43.90119], [15.195486, 43.895209], [15.145518, 43.923896], [15.133311, 43.92121]]], [[[13.931651, 44.820502], [13.929698, 44.816352], [13.929535, 44.815253], [13.924815, 44.813056], [13.918712, 44.829047], [13.909679, 44.830959], [13.899587, 44.829047], [13.890147, 44.833482], [13.883149, 44.826646], [13.893891, 44.823391], [13.904307, 44.817288], [13.909353, 44.808987], [13.90447, 44.798774], [13.913422, 44.782416], [13.917979, 44.778266], [13.903168, 44.772406], [13.899425, 44.781968], [13.89975, 44.798285], [13.896983, 44.813056], [13.889659, 44.817084], [13.860037, 44.82567], [13.849132, 44.826646], [13.851248, 44.830024], [13.853852, 44.837063], [13.855968, 44.840277], [13.852794, 44.840766], [13.845551, 44.840155], [13.842296, 44.840277], [13.849132, 44.847154], [13.842296, 44.854641], [13.831391, 44.852729], [13.815684, 44.856594], [13.799327, 44.864569], [13.78712, 44.875067], [13.794607, 44.881293], [13.804861, 44.870592], [13.819591, 44.867662], [13.833751, 44.873358], [13.842296, 44.888129], [13.815278, 44.883531], [13.804861, 44.885403], [13.794607, 44.894965], [13.794607, 44.901109], [13.798676, 44.903957], [13.803477, 44.910631], [13.808116, 44.915432], [13.796723, 44.924872], [13.774099, 44.963813], [13.732758, 44.99494], [13.681326, 45.046373], [13.67335, 45.051093], [13.660818, 45.061225], [13.643809, 45.070502], [13.62322, 45.073065], [13.627696, 45.079413], [13.633067, 45.089423], [13.636892, 45.093573], [13.612559, 45.117865], [13.63852, 45.130032], [13.726248, 45.134508], [13.706716, 45.141099], [13.683604, 45.143378], [13.636892, 45.142035], [13.61199, 45.136786], [13.600597, 45.137274], [13.595958, 45.145413], [13.597911, 45.155951], [13.600597, 45.164618], [13.599376, 45.171291], [13.589122, 45.175482], [13.593761, 45.182278], [13.594412, 45.187323], [13.590587, 45.191799], [13.582286, 45.196601], [13.582286, 45.202826], [13.590505, 45.206488], [13.594493, 45.212633], [13.594249, 45.220771], [13.589122, 45.230699], [13.595714, 45.240546], [13.595225, 45.2508], [13.588227, 45.259589], [13.57545, 45.264879], [13.578787, 45.270982], [13.584239, 45.276068], [13.592052, 45.27912], [13.602712, 45.27912], [13.602712, 45.285346], [13.59254, 45.288804], [13.584646, 45.293199], [13.578949, 45.299018], [13.57545, 45.306464], [13.585704, 45.307807], [13.594493, 45.311103], [13.609548, 45.320136], [13.597911, 45.324368], [13.571056, 45.325019], [13.561778, 45.326361], [13.550629, 45.334296], [13.54127, 45.346137], [13.540538, 45.356757], [13.554942, 45.36107], [13.554942, 45.367336], [13.543142, 45.376166], [13.513357, 45.436225], [13.515391, 45.438137], [13.518565, 45.440334], [13.520763, 45.44302], [13.515961, 45.447455], [13.515636, 45.448147], [13.517833, 45.449774], [13.520763, 45.457261], [13.504568, 45.483873], [13.501475, 45.498603], [13.507091, 45.511908], [13.513357, 45.511908], [13.523123, 45.506252], [13.568614, 45.49079], [13.589529, 45.488837], [13.624107, 45.462745], [13.64282, 45.459448], [13.64292, 45.45943], [13.65997, 45.459978], [13.759294, 45.463169], [13.806526, 45.442137], [13.819859, 45.432628], [13.835568, 45.429114], [13.889002, 45.423637], [13.899647, 45.429218], [13.908432, 45.438881], [13.923005, 45.448958], [13.969824, 45.462963], [13.98264, 45.475313], [13.961452, 45.493142], [13.961452, 45.50389], [13.964966, 45.51097], [13.971891, 45.514226], [13.987476, 45.511909], [14.013956, 45.507973], [14.028322, 45.50265], [14.041551, 45.493193], [14.066665, 45.480274], [14.092917, 45.473918], [14.116747, 45.472998], [14.117321, 45.472976], [14.119686, 45.472884], [14.145524, 45.476243], [14.193066, 45.491901], [14.218698, 45.497172], [14.240608, 45.493348], [14.280399, 45.481101], [14.326805, 45.4749], [14.372797, 45.477845], [14.411244, 45.493193], [14.429744, 45.505389], [14.449171427181819, 45.515409963626375], [14.458007812500002, 45.514088569569054], [14.793090820312502, 45.42166880520625], [15.012817382812502, 45.174475248899014], [15.159175391085244, 45.106649302989396], [15.184272, 45.124119], [15.190319, 45.126858], [15.194194, 45.125773], [15.199155, 45.121277], [15.202721, 45.116781], [15.207527, 45.111769], [15.212953, 45.107014], [15.221531, 45.101588], [15.225562, 45.098488], [15.231763, 45.091977], [15.236414, 45.088153], [15.24246, 45.084742], [15.376509, 45.026296], [15.379764, 45.023815], [15.38364, 45.020095], [15.387565597642816, 45.01384474456528], [15.552581112609003, 44.94916137628436], [15.558565, 44.950125], [15.567402, 44.948781], [15.588796, 44.94289], [15.610345, 44.929816], [15.618303, 44.928782], [15.63179, 44.932968], [15.637837, 44.935604], [15.65613, 44.947644], [15.660316, 44.948058], [15.665638, 44.947128], [15.688738, 44.936069], [15.703621, 44.933227], [15.707031, 44.932038], [15.711372, 44.929661], [15.718814, 44.929093], [15.725376, 44.929403], [15.733438, 44.934053], [15.734108, 44.93444], [15.730853, 44.927233], [15.734264, 44.902118], [15.74801, 44.882016], [15.76095849606718, 44.86748086861572], [15.760958496067182, 44.86748086861572], [15.76403, 44.864033], [15.773435, 44.845016], [15.76868, 44.827342], [15.751214, 44.821555], [15.730647, 44.817007], [15.716074, 44.80321], [15.717314, 44.786466], [15.728476, 44.769103], [15.753694, 44.739286], [15.759275, 44.73417], [15.78284, 44.722594], [15.790488, 44.713396], [15.796999, 44.703267], [15.805681, 44.696653], [15.820357, 44.698255], [15.829969, 44.700528], [15.847849, 44.70151], [15.856427, 44.703577], [15.863868, 44.709985], [15.869243, 44.718564], [15.876271, 44.724816], [15.888776, 44.724248], [15.895598, 44.718564], [15.899318, 44.70921], [15.902006, 44.698823], [15.905416, 44.690141], [15.913064, 44.684509], [15.921539, 44.686111], [15.929808, 44.68947], [15.937352, 44.688953], [15.948101, 44.678101], [15.955646, 44.653193], [15.968978, 44.63924], [15.979107, 44.634383], [15.991613, 44.631437], [16.016004, 44.628957], [16.028303, 44.624719], [16.036158, 44.615314], [16.041119, 44.602808], [16.044736, 44.589372], [16.043186, 44.588442], [16.034917, 44.585393], [16.030473, 44.572216], [16.013937, 44.557023], [16.006082, 44.541003], [16.026649, 44.52519], [16.04732, 44.52333], [16.0837, 44.534905], [16.104887, 44.532373], [16.116463, 44.52147], [16.123077, 44.5039], [16.128348, 44.484314], [16.152946, 44.435067], [16.159664, 44.416101], [16.159871, 44.400702], [16.153877, 44.39357], [16.145402, 44.389591], [16.138787, 44.385406], [16.13827, 44.377602], [16.141991, 44.380755], [16.153153, 44.380445], [16.171343, 44.377086], [16.192117, 44.367422], [16.202866, 44.359774], [16.205644, 44.350531], [16.205863, 44.349801], [16.203176, 44.333057], [16.199662, 44.324686], [16.189533, 44.308511], [16.186639, 44.297607], [16.18757, 44.282414], [16.197078, 44.25115], [16.215785, 44.208155], [16.232115, 44.190999], [16.275523, 44.157357], [16.289992, 44.139116], [16.312213, 44.099997], [16.326889, 44.082375], [16.346113, 44.068474], [16.357378, 44.062169], [16.367197, 44.058139], [16.377946, 44.057364], [16.403991, 44.058759], [16.414016, 44.055813], [16.426935, 44.040517], [16.431482, 44.025789], [16.439647, 44.014007], [16.483469, 44.002535], [16.501039, 43.992716], [16.516542, 43.979539], [16.527446, 43.967859], [16.555816, 43.937474], [16.604805, 43.901068], [16.637361, 43.868409], [16.678599, 43.840684], [16.686144, 43.826137], [16.689761, 43.809317], [16.698236, 43.788078], [16.712602, 43.771515], [16.82381, 43.707307], [16.98194, 43.589692], [17.030516, 43.54848], [17.062314, 43.527747], [17.084569, 43.513237], [17.142757, 43.489336], [17.239495, 43.478407], [17.270501, 43.463214], [17.286417, 43.437376], [17.267607, 43.353324], [17.289931, 43.30343], [17.328689, 43.260358], [17.36941, 43.232556], [17.389667, 43.223099], [17.400209, 43.216045], [17.406823, 43.205426], [17.415195, 43.184962], [17.42677, 43.165713], [17.442067, 43.152432], [17.450913, 43.148152], [17.587381, 43.082126], [17.598025, 43.072902], [17.628412, 43.046573], [17.659004, 42.993656], [17.659108, 42.99363], [17.659211, 42.993449], [17.659314, 42.993398], [17.662725, 42.965699], [17.63451, 42.950403], [17.580658, 42.942084], [17.580089, 42.942328], [17.549653, 42.955308], [17.534516, 42.950629], [17.515636, 42.958889], [17.498546, 42.972154], [17.488292, 42.982611], [17.47462, 43.001166], [17.470876, 43.013414], [17.479177, 43.022406], [17.501964, 43.030992], [17.487966, 43.03498], [17.47169, 43.030463], [17.45338, 43.022773], [17.433604, 43.017401], [17.440684, 43.019965], [17.460216, 43.030992], [17.45045, 43.031155], [17.440684, 43.032294], [17.432302, 43.0362], [17.426117, 43.044623], [17.433604, 43.0515], [17.427419, 43.060858], [17.426117, 43.065172], [17.404552, 43.0515], [17.37086, 43.073879], [17.316254, 43.127265], [17.172374, 43.18183], [17.138031, 43.202338], [17.121349, 43.208808], [17.113943, 43.213202], [17.107758, 43.226386], [17.100271, 43.231676], [17.09018, 43.235175], [17.080089, 43.236518], [17.073497, 43.238959], [17.066661, 43.244859], [17.056326, 43.256985], [17.054454, 43.261217], [17.051117, 43.274237], [17.04949, 43.278022], [17.045095, 43.279771], [17.0324, 43.282375], [17.028168, 43.284247], [16.93393, 43.373603], [16.906016, 43.387274], [16.895763, 43.394599], [16.88852, 43.40119], [16.880626, 43.405951], [16.752452, 43.419501], [16.693858, 43.4383], [16.625824, 43.449042], [16.534841, 43.497138], [16.533458, 43.499701], [16.532563, 43.50434], [16.53004, 43.508775], [16.524669, 43.51081], [16.518565, 43.509711], [16.509532, 43.505072], [16.504405, 43.503974], [16.466563, 43.51081], [16.391449, 43.51081], [16.391449, 43.517646], [16.411388, 43.517808], [16.434255, 43.521877], [16.455903, 43.528957], [16.473399, 43.538153], [16.456798, 43.545885], [16.433849, 43.54975], [16.336762, 43.551174], [16.324962, 43.548529], [16.306326, 43.539944], [16.299327, 43.538153], [16.281098, 43.536038], [16.239594, 43.526557], [16.117686, 43.524482], [16.117686, 43.517646], [16.150727, 43.511379], [16.164887, 43.504096], [16.172374, 43.489691], [16.11085, 43.489691], [16.113129, 43.478909], [16.098481, 43.480048], [16.066173, 43.489691], [16.039561, 43.49079], [16.028331, 43.49494], [16.014008, 43.503974], [16.012796, 43.503974], [16.007823, 43.503974], [16.007823, 43.497138], [15.995779, 43.503363], [15.973481, 43.503119], [15.966319, 43.51081], [15.965505, 43.509101], [15.965587, 43.506171], [15.964366, 43.503892], [15.959483, 43.503974], [15.961274, 43.515041], [15.966563, 43.516913], [15.974376, 43.51675], [15.983653, 43.521064], [15.98699, 43.527289], [15.984223, 43.53205], [15.98227, 43.537299], [15.987315, 43.544908], [15.970958, 43.543524], [15.965099, 43.541938], [15.959483, 43.538153], [15.956228, 43.547919], [15.94809, 43.552883], [15.925304, 43.55858], [15.941905, 43.560004], [15.944184, 43.566718], [15.935395, 43.572943], [15.917979, 43.572903], [15.917979, 43.579088], [15.922618, 43.581122], [15.927582, 43.584296], [15.93214, 43.586575], [15.92213, 43.591986], [15.917979, 43.593329], [15.925304, 43.599555], [15.917979, 43.606391], [15.925304, 43.613837], [15.918956, 43.62873], [15.929535, 43.634223], [15.966319, 43.633734], [15.966319, 43.641181], [15.921397, 43.648139], [15.904796, 43.648017], [15.916759, 43.653632], [15.926606, 43.653022], [15.934825, 43.649848], [15.942393, 43.648017], [15.952973, 43.650865], [15.951427, 43.657416], [15.942638, 43.664293], [15.93214, 43.668443], [15.945974, 43.672309], [15.952403, 43.679755], [15.95045, 43.688544], [15.938975, 43.696438], [15.939708, 43.677639], [15.931163, 43.6765], [15.906749, 43.691474], [15.892914, 43.700507], [15.885997, 43.700344], [15.876801, 43.701646], [15.870779, 43.703192], [15.864513, 43.708157], [15.850759, 43.723944], [15.844005, 43.729926], [15.803477, 43.746405], [15.792166, 43.754462], [15.771007, 43.759955], [15.706309, 43.763414], [15.692638, 43.774604], [15.68214, 43.797187], [15.658458, 43.80508], [15.632986, 43.810452], [15.617442, 43.825507], [15.647309, 43.815863], [15.663097, 43.812974], [15.678884, 43.811835], [15.678884, 43.819281], [15.673025, 43.821234], [15.668956, 43.82099], [15.666759, 43.819973], [15.665782, 43.819281], [15.638845, 43.836127], [15.574067, 43.859524], [15.546886, 43.876573], [15.545177, 43.877631], [15.524913, 43.900458], [15.512218, 43.911078], [15.497732, 43.915513], [15.482432, 43.917141], [15.473643, 43.919135], [15.466075, 43.921698], [15.455089, 43.928046], [15.449718, 43.934394], [15.445649, 43.941352], [15.438731, 43.949652], [15.384044, 43.997382], [15.358084, 44.025702], [15.33961, 44.039374], [15.319509, 44.045233], [15.277599, 44.082343], [15.278331, 44.085598], [15.233246, 44.120917], [15.222016, 44.125637], [15.212901, 44.131049], [15.208832, 44.13817], [15.212738, 44.148261], [15.196951, 44.15648], [15.144542, 44.195461], [15.160411, 44.213202], [15.152192, 44.235297], [15.131521, 44.254625], [15.110362, 44.26435], [15.122244, 44.274807], [15.140636, 44.282457], [15.157563, 44.280341], [15.16505, 44.261217], [15.176606, 44.249945], [15.197927, 44.25731], [15.207774, 44.272773], [15.185395, 44.285386], [15.193044, 44.286851], [15.194184, 44.288642], [15.194591, 44.288804], [15.199067, 44.285386], [15.206554, 44.285386], [15.201182, 44.297512], [15.19809, 44.301663], [15.247569, 44.277981], [15.268403, 44.25845], [15.279552, 44.251776], [15.295258, 44.250678], [15.281749, 44.285386], [15.290538, 44.287421], [15.294932, 44.290229], [15.297862, 44.294013], [15.302745, 44.29914], [15.289317, 44.302191], [15.278168, 44.309801], [15.268891, 44.320461], [15.261241, 44.332587], [15.280528, 44.327541], [15.308604, 44.309272], [15.336925, 44.301663], [15.408539, 44.272284], [15.42449, 44.267971], [15.503591, 44.259223], [15.525238, 44.260688], [15.528656, 44.271796], [15.514822, 44.27851], [15.449229, 44.285386], [15.444184, 44.288479], [15.414073, 44.316555], [15.406016, 44.320624], [15.367279120755066, 44.33396502182005], [15.367279120755065, 44.33396502182005], [15.307953, 44.354397], [15.293793, 44.364814], [15.15504, 44.466702], [15.108084, 44.513861], [15.080089, 44.536078], [15.052013, 44.545478], [15.047862, 44.55036], [15.01531, 44.569078], [15.007335, 44.569729], [15.001313, 44.578518], [14.901378, 44.690172], [14.8838, 44.723619], [14.895193, 44.736151], [14.893891, 44.750963], [14.887462, 44.768378], [14.8838, 44.788764], [14.881358, 44.844062], [14.8838, 44.861477], [14.905284, 44.924628], [14.914887, 44.939927], [14.921641, 44.958808], [14.914317, 44.981431], [14.856456, 45.076483], [14.852794, 45.093655], [14.84254, 45.105536], [14.827403, 45.113959], [14.765961, 45.137356], [14.657888, 45.196601], [14.6067, 45.244371], [14.592784, 45.249823], [14.57602, 45.262274], [14.568614, 45.275946], [14.582205, 45.285346], [14.570811, 45.293647], [14.534353, 45.31269], [14.552257, 45.297675], [14.555431, 45.295885], [14.551931, 45.288072], [14.543305, 45.28384], [14.533051, 45.283881], [14.524425, 45.288764], [14.510509, 45.29975], [14.402354, 45.338609], [14.363617, 45.344631], [14.345876, 45.35163], [14.329763, 45.35399], [14.311534, 45.34398], [14.290782, 45.320502], [14.271983, 45.290107], [14.258474, 45.255764], [14.247732, 45.186469], [14.234711, 45.154568], [14.23406, 45.153062], [14.232595, 45.149359], [14.209239, 45.12637], [14.179373, 45.134508], [14.195323, 45.120592], [14.193126, 45.105618], [14.180431, 45.091457], [14.164399, 45.079901], [14.158214, 45.087348], [14.154307, 45.078925], [14.154063, 45.071967], [14.158214, 45.053209], [14.154307, 45.054999], [14.147472, 45.057278], [14.143891, 45.059394], [14.143891, 45.053209], [14.159434, 45.040351], [14.166189, 45.018948], [14.163748, 44.995754], [14.151378, 44.977484], [14.139903, 44.97134], [14.131847, 44.972073], [14.124197, 44.975409], [14.113292, 44.977484], [14.101329, 44.97427], [14.089692, 44.966498], [14.080414, 44.957261], [14.075694, 44.94953], [14.068858, 44.94953], [14.071625, 44.969062], [14.0796, 44.977932], [14.083832, 44.986396], [14.075694, 45.004828], [14.054535, 45.018459], [14.051524, 45.026028], [14.053071, 45.033149], [14.051931, 45.038031], [14.040294, 45.038967], [14.044119, 45.027167], [14.039887, 45.009426], [14.044281, 45.00141], [14.054698, 44.996527], [14.064138, 44.995754], [14.071544, 44.993354], [14.075694, 44.98371], [14.064789, 44.976142], [14.050792, 44.956488], [14.044444, 44.951402], [14.040294, 44.956366], [14.034679, 44.956366], [14.038748, 44.949408], [14.040212, 44.941067], [14.039073, 44.93183], [14.034679, 44.922309], [14.026622, 44.924058], [14.022472, 44.923489], [14.022634, 44.9206], [14.027843, 44.915432], [14.027843, 44.908637], [14.022716, 44.908271], [14.021495, 44.907375], [14.021739, 44.905097], [14.020518, 44.901109], [14.01059, 44.90526], [13.988455, 44.900784], [13.972667, 44.901109], [13.980724, 44.896552], [13.98585, 44.892076], [13.993012, 44.881293], [13.986176, 44.881293], [13.986176, 44.875067], [13.993012, 44.875067], [13.993012, 44.867621], [13.98585, 44.864163], [13.981293, 44.859809], [13.972667, 44.847154], [13.97462, 44.839667], [13.976329, 44.83747], [13.976248, 44.834906], [13.972667, 44.826646], [13.983246, 44.827053], [13.989431, 44.8251], [13.993988, 44.820502], [14.000011, 44.813056], [13.963878, 44.811835], [13.9463, 44.813788], [13.931651, 44.820502]], [[15.637216, 44.527412], [15.631735885768286, 44.53279188955802], [15.631735885768284, 44.53279188955802], [15.637216, 44.527412]], [[15.420525241617877, 44.37399712094151], [15.494124, 44.368765], [15.420525241617879, 44.37399712094151], [15.420525241617877, 44.37399712094151]]], [[[15.247081, 44.046698], [15.254405, 44.01789], [15.241873, 44.027777], [15.23227, 44.041449], [15.223318, 44.050279], [15.212738, 44.045233], [15.206554, 44.045233], [15.205333, 44.04975], [15.20338, 44.052476], [15.201427, 44.054999], [15.199067, 44.058824], [15.189138, 44.047797], [15.169688, 44.058661], [15.148774, 44.076361], [15.121837, 44.092231], [15.087338595277647, 44.12349697865686], [15.087338595277645, 44.12349697865686], [15.087087, 44.123725], [15.068696, 44.133979], [15.070811, 44.137641], [15.071137, 44.138495], [15.072032, 44.138821], [15.075531, 44.140815], [15.071462, 44.146389], [15.062511, 44.161933], [15.225759, 44.06623], [15.247081, 44.046698]]], [[[18.454925, 42.464722], [18.467741, 42.453379], [18.475492, 42.449813], [18.492855, 42.442372], [18.497816, 42.431158], [18.49643, 42.416327], [18.474457, 42.441352], [18.460948, 42.447943], [18.427582, 42.455268], [18.413097, 42.461859], [18.411876, 42.47602], [18.238943, 42.559068], [18.220551, 42.579169], [18.220876, 42.588324], [18.223155, 42.602118], [18.223481, 42.614691], [18.21754, 42.620103], [18.166026, 42.626939], [18.124848, 42.644599], [18.108653, 42.647406], [18.091645, 42.648261], [18.07602, 42.651313], [18.063975, 42.65762], [18.057384, 42.667914], [18.077322, 42.667914], [18.055919, 42.68301], [18.047862, 42.690619], [18.043224, 42.702053], [18.028331, 42.691311], [18.003266, 42.70067], [17.961192, 42.729397], [17.901622, 42.751899], [17.880707, 42.768744], [17.892833, 42.790839], [17.865082, 42.789944], [17.834972, 42.807196], [17.806651, 42.811916], [17.800059, 42.810981], [17.792328, 42.808539], [17.785655, 42.805162], [17.780121, 42.796942], [17.773774, 42.79857], [17.767751, 42.802314], [17.765391, 42.804429], [17.7588, 42.807603], [17.735118, 42.821967], [17.720958, 42.826239], [17.739594, 42.813056], [17.748709, 42.803412], [17.761892, 42.778713], [17.761892, 42.774319], [17.755138, 42.770941], [17.748709, 42.77204], [17.748709, 42.778144], [17.750255, 42.785712], [17.748871, 42.790839], [17.72877, 42.800767], [17.678559, 42.81623], [17.633474, 42.822943], [17.580089, 42.841254], [17.525238, 42.848619], [17.44044, 42.873358], [17.442719, 42.898627], [17.417247, 42.9112], [17.350922, 42.92178], [17.271332, 42.963365], [17.237478, 42.971381], [17.221528, 42.979804], [17.213878, 42.982611], [17.201915, 42.98432], [17.095388, 42.984442], [17.062511, 42.990058], [17.046153, 42.995063], [17.027517, 43.003567], [17.017914, 43.013821], [17.028168, 43.024156], [17.028168, 43.030992], [17.018809, 43.034084], [17.01295, 43.039211], [17.008067, 43.045315], [17.001638, 43.0515], [17.023123, 43.048651], [17.055675, 43.028957], [17.073253, 43.024156], [17.158702, 43.030992], [17.240245, 43.022773], [17.390473, 42.977729], [17.425792, 42.960883], [17.454112, 42.942288], [17.45574, 42.938422], [17.455903, 42.932929], [17.456798, 42.926988], [17.460216, 42.92178], [17.464854, 42.920722], [17.476573, 42.922431], [17.481456, 42.92178], [17.499278, 42.911851], [17.50766, 42.909084], [17.518891, 42.908149], [17.522634, 42.910224], [17.522146, 42.919623], [17.526134, 42.92178], [17.532074, 42.9206], [17.541515, 42.915473], [17.54656, 42.914293], [17.55893, 42.912828], [17.568126, 42.909084], [17.583751, 42.900702], [17.622895, 42.891303], [17.641612, 42.884467], [17.65268, 42.873358], [17.658946, 42.873358], [17.673676, 42.875067], [17.715994, 42.844184], [17.741466, 42.83926], [17.710948, 42.856635], [17.701915, 42.868476], [17.713634, 42.880805], [17.707367, 42.88703], [17.678722, 42.879381], [17.653331, 42.890937], [17.665929, 42.90516], [17.679468, 42.915676], [17.701586, 42.9195], [17.7236, 42.916245], [17.765458, 42.904126], [17.786748, 42.901388], [17.794707, 42.904592], [17.802665, 42.90963], [17.81176, 42.909863], [17.823335, 42.898365], [17.826229, 42.888649], [17.825092, 42.864542], [17.827159, 42.853122], [17.858475, 42.816974], [17.869431, 42.811807], [17.904467, 42.804546], [17.928859, 42.7908], [17.971853, 42.754962], [17.995315, 42.740441], [18.049368, 42.714758], [18.224138, 42.628071], [18.257107, 42.614893], [18.311574, 42.601225], [18.338653, 42.602517], [18.349608, 42.59629], [18.369783, 42.574393], [18.370485, 42.57363], [18.385265, 42.566524], [18.421025, 42.56363], [18.437355, 42.559212], [18.442006, 42.543012], [18.436425, 42.510765], [18.437148, 42.493402], [18.444279, 42.477925], [18.454925, 42.464722]]], [[[17.35377, 42.766669], [17.334483, 42.780341], [17.323741, 42.790839], [17.341563, 42.793402], [17.37379, 42.802639], [17.392345, 42.801703], [17.38738, 42.800238], [17.382009, 42.797838], [17.371593, 42.790839], [17.38266, 42.791653], [17.393321, 42.791164], [17.403494, 42.788764], [17.412446, 42.784003], [17.419932, 42.790839], [17.43686, 42.78262], [17.486013, 42.782172], [17.523692, 42.764838], [17.574474, 42.757514], [17.597504, 42.749823], [17.594412, 42.747748], [17.593516, 42.747219], [17.590668, 42.742987], [17.648204, 42.738511], [17.658946, 42.742987], [17.679373, 42.729885], [17.730479, 42.713446], [17.748871, 42.694566], [17.385916, 42.770941], [17.37379, 42.759996], [17.35377, 42.766669]]], [[[16.884939, 42.729397], [16.882172, 42.736396], [16.874034, 42.737616], [16.858165, 42.742987], [16.847667, 42.733588], [16.834321, 42.730943], [16.820811, 42.73607], [16.809825, 42.749823], [16.822276, 42.755113], [16.824067, 42.764065], [16.818858, 42.769355], [16.809825, 42.763495], [16.802989, 42.763495], [16.810232, 42.775336], [16.828136, 42.780951], [16.858165, 42.784003], [16.921072, 42.777167], [16.93393, 42.770941], [16.936371, 42.75552], [16.924653, 42.7414], [16.905447, 42.731757], [16.884939, 42.729397]]], [[[17.174327, 42.922024], [17.153087, 42.921129], [17.107432, 42.914293], [17.01531, 42.928616], [16.972911, 42.926703], [16.898692, 42.905829], [16.85141, 42.900702], [16.739757, 42.917182], [16.691417, 42.928209], [16.672862, 42.926744], [16.672618, 42.92178], [16.655447, 42.926256], [16.638438, 42.93476], [16.706798, 42.962104], [16.706798, 42.96955], [16.687755, 42.973944], [16.648285, 42.977769], [16.631684, 42.982611], [16.65268, 42.992377], [16.674815, 42.992906], [16.69752, 42.99018], [16.72047, 42.990058], [16.741384, 42.980618], [16.768565, 42.972235], [16.824067, 42.962104], [16.878673, 42.962104], [16.892589, 42.965318], [16.915538, 42.974514], [17.032074, 42.982611], [17.111095, 42.964301], [17.131847, 42.96955], [17.148692, 42.952582], [17.164317, 42.941474], [17.200206, 42.92178], [17.19337, 42.914293], [17.174327, 42.922024]]], [[[16.245453, 43.057766], [16.233735, 43.0515], [16.221934, 43.040269], [16.210297, 43.033271], [16.121349, 43.013373], [16.087169, 43.011461], [16.063162, 43.017401], [16.084483, 43.025946], [16.087087, 43.041409], [16.079112, 43.05329], [16.069347, 43.0515], [16.063162, 43.0515], [16.048839, 43.065172], [16.052989, 43.068305], [16.057302, 43.070217], [16.062266, 43.071275], [16.069347, 43.071967], [16.09254, 43.08275], [16.130219, 43.088446], [16.170177, 43.087714], [16.199718, 43.079413], [16.194672, 43.074408], [16.192882, 43.071967], [16.215831, 43.079169], [16.228201, 43.078681], [16.241222, 43.071967], [16.245453, 43.076361], [16.249848, 43.079413], [16.253429, 43.077867], [16.254893, 43.068549], [16.252126, 43.062405], [16.245453, 43.057766]]], [[[16.427257, 43.179877], [16.416026, 43.18183], [16.371593, 43.195502], [16.375824, 43.199937], [16.380382, 43.201972], [16.391449, 43.202338], [16.403982, 43.19717], [16.415294, 43.198472], [16.439789, 43.209784], [16.446056, 43.202338], [16.449067, 43.206488], [16.460297, 43.215969], [16.460297, 43.209784], [16.49643, 43.218085], [16.527029, 43.204291], [16.554942, 43.187934], [16.583263, 43.188666], [16.555919, 43.209784], [16.529307, 43.221625], [16.520518, 43.22899], [16.535004, 43.227729], [16.562755, 43.22899], [16.583263, 43.215969], [16.587087, 43.216254], [16.596934, 43.221747], [16.60377, 43.223456], [16.616384, 43.223538], [16.646007, 43.219916], [16.659516, 43.215969], [16.66627, 43.210842], [16.672537, 43.20303], [16.680675, 43.19477], [16.693126, 43.188666], [16.693614, 43.184027], [16.692231, 43.182807], [16.689464, 43.182807], [16.68629, 43.18183], [16.705821, 43.170803], [16.727712, 43.164618], [16.751231, 43.161933], [16.848155, 43.16234], [16.864431, 43.16885], [16.878429, 43.15884], [16.896739, 43.154771], [16.958751, 43.152411], [17.018565, 43.140855], [17.109874, 43.143785], [17.155284, 43.140326], [17.19337, 43.127265], [16.943248, 43.127265], [16.693126, 43.127265], [16.670177, 43.125474], [16.559825, 43.142971], [16.475352, 43.16649], [16.44516, 43.170803], [16.427257, 43.179877]]], [[[16.426768, 43.331488], [16.429698, 43.332465], [16.434337, 43.331732], [16.439789, 43.332709], [16.434255, 43.339911], [16.434906, 43.346422], [16.441661, 43.351223], [16.453461, 43.353176], [16.439708, 43.370917], [16.42628, 43.39411], [16.447032, 43.394843], [16.453461, 43.39411], [16.493907, 43.38231], [16.687673, 43.377021], [16.809825, 43.353176], [16.809825, 43.346381], [16.796153, 43.346381], [16.806814, 43.342475], [16.816254, 43.340237], [16.824229, 43.34101], [16.830333, 43.346381], [16.839366, 43.340888], [16.858165, 43.325181], [16.868988, 43.322577], [16.877696, 43.323432], [16.885102, 43.321967], [16.892345, 43.312201], [16.879568, 43.293931], [16.872325, 43.287991], [16.864431, 43.291693], [16.846202, 43.273383], [16.813162, 43.267768], [16.628266, 43.263739], [16.563975, 43.270087], [16.500743, 43.284247], [16.421886, 43.317572], [16.405772, 43.332709], [16.413829, 43.328843], [16.419444, 43.325181], [16.42628, 43.325181], [16.426768, 43.331488]]], [[[16.206391, 43.391791], [16.207774, 43.393134], [16.210297, 43.393215], [16.213227, 43.39411], [16.20338, 43.39997], [16.20045, 43.40705], [16.205577, 43.412909], [16.220063, 43.415229], [16.277029, 43.411933], [16.298188, 43.403632], [16.302745, 43.387274], [16.329845, 43.389716], [16.348643, 43.378323], [16.36671, 43.361151], [16.391449, 43.346381], [16.375987, 43.333441], [16.348643, 43.33869], [16.281749, 43.369371], [16.23227, 43.384467], [16.207042, 43.387274], [16.206391, 43.391791]]], [[[16.267345, 43.486884], [16.2588, 43.483547], [16.24643, 43.481431], [16.230642, 43.483222], [16.218272, 43.486314], [16.211436, 43.490058], [16.211762, 43.495551], [16.218923, 43.497748], [16.223318, 43.497382], [16.229991, 43.496161], [16.2435, 43.49494], [16.252208, 43.499945], [16.248057, 43.508287], [16.264415, 43.512885], [16.310313, 43.507758], [16.334158, 43.501532], [16.375255, 43.49018], [16.370779, 43.48432], [16.333344, 43.481391], [16.281993, 43.487942], [16.267345, 43.486884]]], [[[14.850434, 44.152248], [14.85727, 44.152045], [14.86378, 44.148139], [14.869151, 44.14053], [14.85613, 44.136868], [14.835216, 44.141669], [14.819835, 44.153022], [14.822439, 44.168687], [14.827403, 44.157904], [14.83546, 44.151028], [14.842784, 44.148261], [14.850434, 44.152248]]], [[[14.865896, 44.566352], [14.761485, 44.658637], [14.743663, 44.680487], [14.733653, 44.703192], [14.738129, 44.703111], [14.741222, 44.701606], [14.779959, 44.669501], [14.845225, 44.600531], [14.8838, 44.579657], [14.880138, 44.609198], [14.904063, 44.610012], [14.938243, 44.594143], [14.966319, 44.573432], [14.989106, 44.546617], [15.003917, 44.536078], [15.041189, 44.527493], [15.051768, 44.516181], [15.061697, 44.500718], [15.075531, 44.484076], [15.055919, 44.486233], [15.028168, 44.50316], [15.007335, 44.504543], [15.011729, 44.514879], [15.014171, 44.518744], [14.972911, 44.536119], [14.952891, 44.54149], [14.942068, 44.547431], [14.928559, 44.552314], [14.911143, 44.552314], [14.911143, 44.545478], [14.965994, 44.523871], [15.048025, 44.439439], [15.09669, 44.415188], [15.080821, 44.424547], [15.064952, 44.437934], [15.051036, 44.455268], [15.041515, 44.47663], [15.083263, 44.461859], [15.176606, 44.391303], [15.199067, 44.381049], [15.213227, 44.369208], [15.241384, 44.35106], [15.254405, 44.340033], [15.235118, 44.336249], [15.211762, 44.346137], [15.187348, 44.359809], [15.16505, 44.367377], [15.16505, 44.360541], [15.182872, 44.357856], [15.20045, 44.349514], [15.215831, 44.338121], [15.227061, 44.326361], [15.206554, 44.326361], [15.208263, 44.320746], [15.210948, 44.317328], [15.215017, 44.314927], [15.220225, 44.31273], [15.198904, 44.317043], [15.154552, 44.331], [15.13087, 44.332587], [15.13087, 44.326361], [15.172374, 44.305325], [15.172374, 44.29914], [15.149262, 44.303168], [15.128754, 44.311998], [15.111176, 44.324612], [15.09669, 44.340033], [15.09669, 44.346259], [15.110362, 44.346259], [15.110362, 44.353705], [15.102306, 44.357164], [15.097179, 44.361314], [15.089203, 44.374213], [15.099783, 44.373603], [15.106944, 44.37519], [15.112153, 44.379584], [15.117198, 44.387193], [15.091645, 44.399359], [15.083018, 44.401516], [15.073578, 44.400458], [15.057791, 44.394192], [15.049001, 44.39468], [15.038341, 44.403266], [15.020763, 44.429999], [14.958832, 44.466702], [14.949718, 44.468085], [14.897472, 44.490912], [14.897472, 44.497056], [14.903168, 44.498481], [14.912852, 44.502753], [14.91863, 44.504543], [14.906261, 44.520901], [14.877615, 44.551337], [14.876964, 44.55976], [14.865896, 44.566352]]], [[[14.526622, 44.50373], [14.534353, 44.484076], [14.511974, 44.482245], [14.485037, 44.500637], [14.451915, 44.531887], [14.438162, 44.538642], [14.438162, 44.545478], [14.459239, 44.541164], [14.466075, 44.538642], [14.437999, 44.564643], [14.422618, 44.573879], [14.404063, 44.579657], [14.396983, 44.569159], [14.386567, 44.565619], [14.374685, 44.567572], [14.363048, 44.573432], [14.363048, 44.579657], [14.369884, 44.579657], [14.369884, 44.57982], [14.368663, 44.582017], [14.364757, 44.587226], [14.382579, 44.603258], [14.375987, 44.623033], [14.349376, 44.655341], [14.344574, 44.668524], [14.337087, 44.699652], [14.335785, 44.716783], [14.355724, 44.707099], [14.381114, 44.698635], [14.397472, 44.685614], [14.390391, 44.662177], [14.395193, 44.653388], [14.399587, 44.637519], [14.404063, 44.610338], [14.410004, 44.600979], [14.445567, 44.565985], [14.526622, 44.50373]]], [[[14.740489, 44.770494], [14.742931, 44.765774], [14.75408, 44.757758], [14.740896, 44.76439], [14.724946, 44.767646], [14.709972, 44.76789], [14.699474, 44.765204], [14.657888, 44.798774], [14.670421, 44.799506], [14.682872, 44.798774], [14.694835, 44.796454], [14.70574, 44.792548], [14.70574, 44.798774], [14.702322, 44.802151], [14.701427, 44.804348], [14.701345, 44.807318], [14.699474, 44.813056], [14.715831, 44.803168], [14.719981, 44.798774], [14.726817, 44.798774], [14.714122, 44.818427], [14.705821, 44.82685], [14.692068, 44.833482], [14.689789, 44.836737], [14.685802, 44.847154], [14.706798, 44.844957], [14.726817, 44.840277], [14.724132, 44.844428], [14.719981, 44.854641], [14.739024, 44.85342], [14.753266, 44.845852], [14.756114, 44.835679], [14.740489, 44.826646], [14.740489, 44.820502], [14.748057, 44.816799], [14.787364, 44.789252], [14.811534, 44.779202], [14.822439, 44.77143], [14.851248, 44.737291], [14.85906, 44.717353], [14.84962, 44.703192], [14.821462, 44.720649], [14.77296, 44.760321], [14.740489, 44.778266], [14.740489, 44.770494]]], [[[14.508067, 44.653306], [14.508556, 44.645331], [14.514985, 44.642157], [14.527517, 44.647895], [14.534353, 44.634263], [14.527354, 44.627143], [14.520356, 44.621527], [14.513357, 44.618842], [14.502289, 44.620266], [14.472992, 44.620266], [14.427908, 44.656562], [14.394542, 44.707587], [14.397227, 44.751614], [14.392751, 44.752509], [14.389903, 44.754055], [14.38738, 44.755805], [14.383556, 44.757758], [14.374522, 44.753852], [14.368175, 44.761054], [14.364268, 44.7744], [14.363048, 44.806545], [14.361583, 44.815985], [14.356619, 44.81977], [14.346039, 44.820502], [14.329845, 44.83393], [14.314138, 44.893785], [14.2942, 44.908637], [14.295177, 44.913072], [14.296235, 44.91592], [14.301524, 44.922309], [14.292491, 44.940334], [14.301524, 44.943427], [14.325206, 44.93651], [14.332286, 44.932196], [14.350271, 44.912909], [14.35963, 44.908637], [14.377126, 44.908149], [14.38738, 44.909003], [14.39324, 44.914781], [14.397227, 44.929104], [14.393565, 44.93476], [14.389008, 44.950344], [14.39031, 44.960395], [14.404063, 44.94953], [14.411388, 44.956366], [14.391449, 44.969428], [14.37672, 44.986884], [14.34669, 45.047553], [14.340831, 45.055609], [14.287446, 45.10106], [14.278494, 45.113349], [14.27768, 45.127997], [14.288585, 45.14883], [14.299571, 45.16234], [14.31365, 45.172431], [14.331879, 45.175849], [14.356212, 45.169257], [14.364106, 45.15762], [14.360525, 45.117621], [14.363048, 45.093573], [14.36964, 45.075507], [14.387706, 45.039049], [14.412283, 45.003648], [14.417654, 44.997992], [14.430837, 44.990302], [14.453868, 44.987982], [14.466075, 44.98371], [14.473481, 44.971422], [14.471039, 44.953925], [14.462576, 44.935981], [14.451915, 44.922309], [14.459239, 44.915432], [14.449962, 44.898017], [14.448497, 44.883734], [14.451915, 44.850898], [14.464854, 44.821438], [14.466563, 44.804836], [14.451915, 44.798774], [14.457042, 44.787746], [14.469249, 44.773098], [14.472911, 44.765204], [14.473888, 44.754543], [14.467621, 44.742133], [14.466075, 44.729804], [14.472179, 44.707953], [14.485606, 44.692084], [14.501313, 44.678168], [14.513927, 44.662177], [14.508067, 44.653306]]], [[[14.706391, 44.946723], [14.657888, 44.970038], [14.628917, 44.978176], [14.624522, 44.9855], [14.62379, 45.00141], [14.626313, 45.037258], [14.62086, 45.0456], [14.603282, 45.038967], [14.603282, 45.032172], [14.616954, 45.024644], [14.590668, 45.023261], [14.510509, 45.032172], [14.485362, 45.038031], [14.460134, 45.052395], [14.438731, 45.070502], [14.425059, 45.087348], [14.433116, 45.095852], [14.44158, 45.099799], [14.451182, 45.10102], [14.462657, 45.10102], [14.466482, 45.105292], [14.465831, 45.114691], [14.467052, 45.124091], [14.476329, 45.128363], [14.514008, 45.129055], [14.530121, 45.134833], [14.521251, 45.14883], [14.53419, 45.162177], [14.539561, 45.170396], [14.541759, 45.1789], [14.539399, 45.186835], [14.535899, 45.194159], [14.536876, 45.201728], [14.548025, 45.210273], [14.549815, 45.221422], [14.548839, 45.23017], [14.543793, 45.235745], [14.534353, 45.237535], [14.548839, 45.248725], [14.563324, 45.249742], [14.595876, 45.237535], [14.58546, 45.23786], [14.582205, 45.237535], [14.583995, 45.23017], [14.587169, 45.224351], [14.591319, 45.219875], [14.595876, 45.216498], [14.610688, 45.198065], [14.62379, 45.175482], [14.597423, 45.166449], [14.612559, 45.159247], [14.643728, 45.156806], [14.665294, 45.161811], [14.670909, 45.143459], [14.658946, 45.108344], [14.665294, 45.087348], [14.678071, 45.07746], [14.695974, 45.073432], [14.740489, 45.073065], [14.740001, 45.044338], [14.799815, 45.005194], [14.814952, 44.977484], [14.808767, 44.977484], [14.797211, 44.97134], [14.784679, 44.969306], [14.772227, 44.97134], [14.760916, 44.977484], [14.747244, 44.970038], [14.747244, 44.963813], [14.760753, 44.955146], [14.756847, 44.948717], [14.742035, 44.944729], [14.723399, 44.943345], [14.706391, 44.946723]]], [[[14.773448, 44.285142], [14.791677, 44.272528], [14.789724, 44.266913], [14.775401, 44.266588], [14.765961, 44.265041], [14.759939, 44.259833], [14.748546, 44.261664], [14.738129, 44.272121], [14.739594, 44.280178], [14.749685, 44.280219], [14.753184, 44.283515], [14.753184, 44.291002], [14.759776, 44.29206], [14.773448, 44.285142]]], [[[14.643565, 44.325751], [14.661388, 44.308661], [14.6574, 44.305243], [14.640798, 44.311835], [14.598888, 44.339057], [14.595063, 44.347113], [14.613455, 44.340806], [14.643565, 44.325751]]], [[[14.805675, 44.367825], [14.811209, 44.350043], [14.801036, 44.343085], [14.785167, 44.346869], [14.774181, 44.352484], [14.756196, 44.364], [14.757823, 44.37226], [14.76824, 44.384223], [14.763438, 44.415351], [14.7671, 44.416653], [14.771658, 44.417873], [14.782888, 44.418931], [14.79477, 44.414496], [14.803233, 44.405504], [14.805024, 44.395738], [14.799653, 44.387641], [14.796723, 44.381293], [14.797862, 44.377672], [14.805675, 44.367825]]], [[[14.265798, 44.679511], [14.280447, 44.677558], [14.28004, 44.667792], [14.274181, 44.661689], [14.260916, 44.659491], [14.259451, 44.658189], [14.257335, 44.656724], [14.256847, 44.653062], [14.258474, 44.647854], [14.256358, 44.642401], [14.256684, 44.63703], [14.259044, 44.634101], [14.265798, 44.625393], [14.271169, 44.612535], [14.264008, 44.611558], [14.252208, 44.616848], [14.239757, 44.619859], [14.232595, 44.626044], [14.233572, 44.634833], [14.235606, 44.642239], [14.244151, 44.661444], [14.265798, 44.679511]]]]}, "properties": {"id": "hHNn", "status": "validé", "pieces": [{"kind": "admin1", "code": "HRV-1492"}, {"kind": "admin1", "code": "HRV-1490"}, {"kind": "admin1", "code": "HRV-1491"}, {"kind": "admin1", "code": "HRV-1493"}, {"kind": "admin1", "code": "HRV-1584"}, {"kind": "admin1", "code": "HRV-1592"}, {"kind": "polygon", "ring": [[14.45801, 45.51409], [14.79309, 45.42167], [15.01282, 45.17448], [15.20508, 45.08538], [15.96863, 44.78608], [14.92493, 44.00139], [14.07349, 44.20642], [13.99658, 44.70808], [13.76587, 45.29434], [13.81531, 45.6102]]}, {"kind": "clip"}]}}, {"type": "Feature", "geometry": null, "properties": {"id": "hPMC", "status": "validé", "pieces": [{"kind": "admin1", "code": "HRV-1490"}]}}, {"type": "Feature", "geometry": {"type": "Polygon", "coordinates": [[[19.3973, 45.22329], [19.40784, 45.20313], [19.40536, 45.17967], [19.39393, 45.17162], [19.39068, 45.16934], [19.30428, 45.16655], [19.29942, 45.16898], [19.29136, 45.17771], [19.28671, 45.17952], [19.27947, 45.17724], [19.27575, 45.17285], [19.27276, 45.16835], [19.26779, 45.16582], [19.25343, 45.16449], [19.22594, 45.16195], [19.20454, 45.16288], [19.18532, 45.16804], [19.17457, 45.1758], [19.15576, 45.19497], [19.14388, 45.19952], [19.12186, 45.19579], [19.12879, 45.18107], [19.14171, 45.16215], [19.13767, 45.14603], [19.11607, 45.14288], [19.06006, 45.14686], [19.04486, 45.13725], [19.04621, 45.12836], [19.05417, 45.12061], [19.06409, 45.11358], [19.07153, 45.10707], [19.07918, 45.09461], [19.08228, 45.08495], [19.086, 45.06092], [19.09427, 45.03141], [19.0954, 45.02092], [19.09323, 45.01152], [19.08848, 44.99948], [19.08517, 44.98728], [19.08724, 44.9771], [19.09809, 44.97002], [19.11855, 44.97555], [19.12765, 44.96842], [19.13168, 44.95318], [19.12455, 44.94594], [19.11308, 44.94243], [19.10879, 44.94054], [19.10879, 44.94054], [19.10357, 44.93824], [19.08786, 44.91933], [19.07866, 44.91085], [19.06667, 44.90568], [19.0521, 44.90698], [19.03194, 44.92263], [19.01841, 44.92568], [18.99143, 44.91493], [18.99432, 44.89483], [19.01582, 44.86563], [19.00497, 44.86331], [18.97492, 44.86276], [18.88963, 44.86119], [18.85872, 44.86853], [18.84213, 44.87624], [18.8178, 44.88755], [18.78338, 44.91374], [18.77263, 44.94248], [18.77987, 44.95224], [18.80157, 44.96397], [18.80457, 44.97384], [18.80302, 44.97731], [18.79795, 44.98222], [18.79578, 44.98506], [18.79516, 44.988], [18.79516, 44.99333], [18.79465, 44.99545], [18.79175, 45.00154], [18.78896, 45.00573], [18.78493, 45.00847], [18.77801, 45.01033], [18.7501, 45.01224], [18.73832, 45.01591], [18.72633, 45.02614], [18.68902, 45.08025], [18.68406, 45.08479], [18.67817, 45.08738], [18.67135, 45.08686], [18.66607, 45.08299], [18.66328, 45.07715], [18.66122, 45.0711], [18.65812, 45.06629], [18.64871, 45.06268], [18.64055, 45.06536], [18.63362, 45.07198], [18.62794, 45.08004], [18.62112, 45.09311], [18.61667, 45.09766], [18.60913, 45.10009], [18.60251, 45.09926], [18.58856, 45.09322], [18.58184, 45.09136], [18.57378, 45.09156], [18.55766, 45.09441], [18.5496, 45.09477], [18.53492, 45.09043], [18.5348, 45.08841], [18.5344, 45.08154], [18.53926, 45.06934], [18.54112, 45.05529], [18.51704, 45.05586], [18.49079, 45.06278], [18.48171, 45.06692], [18.46609, 45.07405], [18.45183, 45.08496], [18.42929, 45.10221], [18.41203, 45.11244], [18.39291, 45.11864], [18.32232, 45.12288], [18.30744, 45.12753], [18.26197, 45.15068], [18.23788, 45.15745], [18.21329, 45.15378], [18.20876, 45.14977], [18.18346, 45.23], [18.13422, 45.24292], [18.12554, 45.2467], [18.12244, 45.24897], [18.12151, 45.24995], [18.12073, 45.25057], [18.08161, 45.2715], [18.10818, 45.30235], [18.10957, 45.31227], [18.10709, 45.31543], [18.10446, 45.31972], [18.10167, 45.32783], [18.09934, 45.33268], [18.09671, 45.33656], [18.09391, 45.33899], [18.08523, 45.34261], [18.07696, 45.34514], [18.07572, 45.34824], [18.07588, 45.35057], [18.0781, 45.35258], [18.08058, 45.35465], [18.08337, 45.35635], [18.08663, 45.35801], [18.09004, 45.3593], [18.09407, 45.36028], [18.10104, 45.36121], [18.10632, 45.36333], [18.11159, 45.36746], [18.12446, 45.38426], [18.12895, 45.38886], [18.1378, 45.39502], [18.11646, 45.49986], [17.89673, 45.67662], [17.62207, 45.71497], [17.34741, 45.87577], [17.14966, 45.96744], [16.76514, 46.16554], [16.54541, 46.21116], [16.19385, 46.30228], [16.0576, 46.36489], [16.05796, 46.37753], [16.08865, 46.37309], [16.09435, 46.37226], [16.10602, 46.37373], [16.11553, 46.37929], [16.12318, 46.38688], [16.13155, 46.39306], [16.14385, 46.39471], [16.15357, 46.39143], [16.17754, 46.37559], [16.19181, 46.36978], [16.20865, 46.36709], [16.21713, 46.36735], [16.25278, 46.37342], [16.27563, 46.37317], [16.28028, 46.37621], [16.27994, 46.37866], [16.27873, 46.38735], [16.27408, 46.39211], [16.25702, 46.39991], [16.25092, 46.405], [16.24824, 46.41334], [16.2501, 46.42944], [16.24938, 46.43753], [16.23749, 46.46507], [16.23366, 46.47874], [16.23419, 46.48489], [16.23491, 46.49334], [16.26093, 46.51358], [16.26395, 46.51592], [16.29537, 46.52445], [16.31066, 46.53099], [16.32999, 46.53545], [16.34028, 46.54383], [16.34415, 46.54698], [16.35125, 46.53992], [16.35169, 46.53949], [16.35789, 46.54698], [16.36947, 46.54057], [16.38218, 46.53938], [16.3949, 46.54011], [16.40626, 46.53949], [16.41515, 46.53556], [16.432, 46.52321], [16.44037, 46.51902], [16.44905, 46.51835], [16.47076, 46.52026], [16.4813, 46.51902], [16.49112, 46.51515], [16.5153, 46.50171], [16.52109, 46.49853], [16.56429, 46.47993], [16.57762, 46.47065], [16.58372, 46.47065], [16.58806, 46.47957], [16.59426, 46.48298], [16.60212, 46.48205], [16.61111, 46.47807], [16.63767, 46.47448], [16.65927, 46.46419], [16.67746, 46.44869], [16.69358, 46.42962], [16.7124, 46.41267], [16.74289, 46.39962], [16.75508, 46.38187], [16.7619, 46.38187], [16.76934, 46.39611], [16.77647, 46.39288], [16.80345, 46.38869], [16.80789, 46.38735], [16.81234, 46.38502], [16.81658, 46.38198], [16.82092, 46.3781], [16.82753, 46.37402], [16.83022, 46.37735], [16.83239, 46.38193], [16.83766, 46.38187], [16.85047, 46.37306], [16.85941, 46.36476], [16.86546, 46.35914], [16.87507, 46.34286], [16.87177, 46.3272], [16.87931, 46.31206], [16.88923, 46.29216], [16.89605, 46.28627], [16.90329, 46.28193], [16.9407, 46.25149], [16.9653, 46.21945], [16.97481, 46.21057], [17.02803, 46.18049], [17.0363, 46.173], [17.04126, 46.1622], [17.05294, 46.15346], [17.10121, 46.12819], [17.1162, 46.12313], [17.19733, 46.12116], [17.20859, 46.11657], [17.24859, 46.08024], [17.25407, 46.07083], [17.26657, 46.03879], [17.26895, 46.02872], [17.27587, 46.01203], [17.29148, 46.00794], [17.30781, 46.00639], [17.3168, 45.99766], [17.30936, 45.99663], [17.29696, 45.99265], [17.29014, 45.99146], [17.29014, 45.98464], [17.30481, 45.98102], [17.30661, 45.97991], [17.3166, 45.97378], [17.32714, 45.97203], [17.33789, 45.98464], [17.34368, 45.96753], [17.34212, 45.95864], [17.34533, 45.9557], [17.36528, 45.95673], [17.38915, 45.96309], [17.39969, 45.95994], [17.4062, 45.94366], [17.41158, 45.9466], [17.4154, 45.9497], [17.41819, 45.95301], [17.42667, 45.95673], [17.51193, 45.95394], [17.55431, 45.94779], [17.5911, 45.93621], [17.63844, 45.90133], [17.64578, 45.89182], [17.64691, 45.88371], [17.65208, 45.86883], [17.65322, 45.85736], [17.65467, 45.85211], [17.65652, 45.84542], [17.66469, 45.84165], [17.68732, 45.84061], [17.80918, 45.81441], [17.83822, 45.79964], [17.85796, 45.77586], [17.85806, 45.77173], [17.87005, 45.77349], [17.87573, 45.78067], [17.88049, 45.78852], [17.88979, 45.79214], [17.90623, 45.79214], [17.97537, 45.79214], [18.08048, 45.77173], [18.09205, 45.77173], [18.1029, 45.77462], [18.12017, 45.78341], [18.12895, 45.78537], [18.21122, 45.78537], [18.22982, 45.78124], [18.26052, 45.76512], [18.28326, 45.76491], [18.30052, 45.75183], [18.31767, 45.74729], [18.33493, 45.75199], [18.35116, 45.7584], [18.36718, 45.75819], [18.38382, 45.7432], [18.38413, 45.7431], [18.39074, 45.74181], [18.39756, 45.74134], [18.40439, 45.74181], [18.41172, 45.7432], [18.43074, 45.75364], [18.46547, 45.78372], [18.4818, 45.79142], [18.50422, 45.78403], [18.53027, 45.79085], [18.57347, 45.81669], [18.58546, 45.82692], [18.60737, 45.85668], [18.62215, 45.86842], [18.6236, 45.86867], [18.62628, 45.87482], [18.62928, 45.88686], [18.633, 45.89193], [18.65564, 45.90759], [18.67434, 45.91038], [18.72385, 45.89844], [18.76333, 45.88397], [18.77552, 45.88283], [18.78596, 45.88692], [18.79041, 45.89389], [18.79485, 45.90304], [18.80488, 45.91363], [18.8178, 45.90547], [18.82245, 45.90558], [18.82834, 45.90573], [18.84539, 45.91394], [18.86544, 45.91808], [18.8766, 45.92242], [18.88653, 45.93043], [18.90131, 45.9312], [18.90699, 45.9157], [18.88983, 45.9079], [18.88198, 45.90263], [18.87288, 45.89524], [18.89345, 45.88387], [18.90399, 45.8757], [18.90699, 45.86795], [18.89975, 45.86139], [18.88715, 45.85948], [18.85531, 45.85736], [18.85242, 45.83007], [18.85035, 45.82423], [18.84673, 45.81999], [18.84498, 45.81571], [18.8487, 45.80956], [18.86399, 45.79855], [18.87113, 45.78997], [18.90017, 45.76491], [18.90482, 45.74977], [18.90895, 45.71943], [18.91733, 45.70656], [18.93107, 45.69892], [18.94813, 45.69204], [18.9627, 45.68305], [18.96849, 45.66874], [18.9629, 45.66011], [18.93541, 45.63339], [18.92446, 45.62771], [18.91237, 45.61923], [18.90823, 45.60042], [18.90699, 45.58166], [18.90358, 45.57308], [18.91205, 45.56823], [18.932, 45.54554], [18.94172, 45.53893], [18.96022, 45.53913], [18.97314, 45.54626], [18.98316, 45.55474], [19.00063, 45.5612], [19.00921, 45.56549], [19.01809, 45.5674], [19.02719, 45.5626], [19.03339, 45.55464], [19.03649, 45.54947], [19.04094, 45.54503], [19.05096, 45.53893], [19.06781, 45.5334], [19.08228, 45.53117], [19.09509, 45.52606], [19.10626, 45.51164], [19.07721, 45.49164], [19.01793, 45.49781], [19.00962, 45.49867], [18.99639, 45.47382], [18.99714, 45.45552], [19.00228, 45.44369], [19.01643, 45.43356], [19.03132, 45.4162], [19.02262, 45.40239], [18.99735, 45.39977], [18.97553, 45.39113], [18.97749, 45.37121], [18.99569, 45.36226], [18.99643, 45.36209], [19.00752, 45.35953], [19.01416, 45.35342], [19.03024, 45.34514], [19.05294, 45.3454], [19.0672, 45.34343], [19.08296, 45.33922], [19.09623, 45.32912], [19.09881, 45.31987], [19.10415, 45.29873], [19.15848, 45.27617], [19.19718, 45.26492], [19.25991, 45.24297], [19.28975, 45.23631], [19.37807, 45.22959], [19.3973, 45.22329]]]}, "properties": {"id": "iF5g", "status": "validé", "pieces": [{"kind": "admin1", "code": "HRV-1605"}, {"kind": "admin1", "code": "HRV-1603"}, {"kind": "polygon", "ring": [[18.25928, 44.98955], [18.14941, 45.33799], [18.11646, 45.49986], [17.89673, 45.67662], [17.62207, 45.71497], [17.34741, 45.87577], [17.14966, 45.96744], [16.76514, 46.16554], [16.54541, 46.21116], [16.19385, 46.30228], [15.76538, 46.49918], [16.50146, 46.71796], [18.13843, 46.44624], [19.74243, 45.92162], [18.86353, 44.56079]]}, {"kind": "clip"}]}}, {"type": "Feature", "geometry": {"type": "Polygon", "coordinates": [[[15.43922, 44.07879], [15.43922, 44.2216], [15.2758, 44.2216], [15.2758, 44.07879], [15.43922, 44.07879]]]}, "properties": {"id": "kv7I", "status": "validé", "pieces": [{"kind": "rect", "bounds": [15.2758, 44.07879, 15.43922, 44.2216]}]}}, {"type": "Feature", "geometry": null, "properties": {"id": "m4wI", "status": "validé", "pieces": [{"kind": "country"}]}}, {"type": "Feature", "geometry": {"type": "MultiPolygon", "coordinates": [[[[17.518674925908844, 42.76714607511601], [17.523692, 42.764838], [17.574474, 42.757514], [17.597504, 42.749823], [17.594412, 42.747748], [17.593516, 42.747219], [17.590668, 42.742987], [17.648204, 42.738511], [17.658946, 42.742987], [17.679373, 42.729885], [17.730479, 42.713446], [17.748871, 42.694566], [17.5040462884337, 42.746083370874835], [17.518674925908844, 42.76714607511601]]], [[[17.607476635579893, 42.89500515632497], [17.622895, 42.891303], [17.641612, 42.884467], [17.65268, 42.873358], [17.658946, 42.873358], [17.673676, 42.875067], [17.715994, 42.844184], [17.741466, 42.83926], [17.710948, 42.856635], [17.701915, 42.868476], [17.713634, 42.880805], [17.707367, 42.88703], [17.678722, 42.879381], [17.653331, 42.890937], [17.665929, 42.90516], [17.679468, 42.915676], [17.701586, 42.9195], [17.7236, 42.916245], [17.765458, 42.904126], [17.786748, 42.901388], [17.794707, 42.904592], [17.802665, 42.90963], [17.81176, 42.909863], [17.823335, 42.898365], [17.826229, 42.888649], [17.825092, 42.864542], [17.827159, 42.853122], [17.858475, 42.816974], [17.869431, 42.811807], [17.904467, 42.804546], [17.928859, 42.7908], [17.971853, 42.754962], [17.995315, 42.740441], [18.049368, 42.714758], [18.224138, 42.628071], [18.257107, 42.614893], [18.311574, 42.601225], [18.338653, 42.602517], [18.349608, 42.59629], [18.369783, 42.574393], [18.370485, 42.57363], [18.385265, 42.566524], [18.421025, 42.56363], [18.437355, 42.559212], [18.442006, 42.543012], [18.436425, 42.510765], [18.437148, 42.493402], [18.444279, 42.477925], [18.454925, 42.464722], [18.467741, 42.453379], [18.475492, 42.449813], [18.492855, 42.442372], [18.497816, 42.431158], [18.49643, 42.416327], [18.474457, 42.441352], [18.460948, 42.447943], [18.427582, 42.455268], [18.413097, 42.461859], [18.411876, 42.47602], [18.238943, 42.559068], [18.220551, 42.579169], [18.220876, 42.588324], [18.223155, 42.602118], [18.223481, 42.614691], [18.21754, 42.620103], [18.166026, 42.626939], [18.124848, 42.644599], [18.108653, 42.647406], [18.091645, 42.648261], [18.07602, 42.651313], [18.063975, 42.65762], [18.057384, 42.667914], [18.077322, 42.667914], [18.055919, 42.68301], [18.047862, 42.690619], [18.043224, 42.702053], [18.028331, 42.691311], [18.003266, 42.70067], [17.961192, 42.729397], [17.901622, 42.751899], [17.880707, 42.768744], [17.892833, 42.790839], [17.865082, 42.789944], [17.834972, 42.807196], [17.806651, 42.811916], [17.800059, 42.810981], [17.792328, 42.808539], [17.785655, 42.805162], [17.780121, 42.796942], [17.773774, 42.79857], [17.767751, 42.802314], [17.765391, 42.804429], [17.7588, 42.807603], [17.735118, 42.821967], [17.720958, 42.826239], [17.739594, 42.813056], [17.748709, 42.803412], [17.761892, 42.778713], [17.761892, 42.774319], [17.755138, 42.770941], [17.748709, 42.77204], [17.748709, 42.778144], [17.750255, 42.785712], [17.748871, 42.790839], [17.72877, 42.800767], [17.678559, 42.81623], [17.633474, 42.822943], [17.580089, 42.841254], [17.57099319418393, 42.84247531975416], [17.607476635579893, 42.89500515632497]]]]}, "properties": {"id": "man-7ca7", "status": "validé", "pieces": [{"kind": "polygon", "ring": [[17.48199, 42.71433], [17.62756, 42.92393], [17.95441, 42.93399], [18.53119, 42.53643], [18.59711, 42.32349], [17.95441, 42.3174], [17.45178, 42.72443]]}, {"kind": "clip"}]}}, {"type": "Feature", "geometry": null, "properties": {"id": "man-c2d5", "status": "validé", "pieces": [{"kind": "country"}]}}, {"type": "Feature", "geometry": null, "properties": {"id": "mubM", "status": "validé", "pieces": [{"kind": "country"}]}}, {"type": "Feature", "geometry": {"type": "MultiPolygon", "coordinates": [[[[18.65616, 45.53676], [18.65616, 45.57232], [18.75023, 45.57232], [18.75023, 45.53676], [18.65616, 45.53676]]], [[[15.82855, 45.73891], [15.82855, 45.88722], [16.10046, 45.88722], [16.10046, 45.73891], [15.82855, 45.73891]]]]}, "properties": {"id": "qQB2", "status": "validé", "pieces": [{"kind": "rect", "bounds": [18.65616, 45.53676, 18.75023, 45.57232]}, {"kind": "rect", "bounds": [15.82855, 45.73891, 16.10046, 45.88722]}]}}, {"type": "Feature", "geometry": null, "properties": {"id": "qtTT", "status": "validé", "pieces": [{"kind": "country"}]}}, {"type": "Feature", "geometry": null, "properties": {"id": "sx0i", "status": "rejeté", "pieces": []}}, {"type": "Feature", "geometry": null, "properties": {"id": "t3Rl", "status": "validé", "pieces": [{"kind": "country"}]}}, {"type": "Feature", "geometry": null, "properties": {"id": "uILw", "status": "validé", "pieces": [{"kind": "country"}]}}, {"type": "Feature", "geometry": null, "properties": {"id": "x9Iz", "status": "validé", "pieces": [{"kind": "country"}]}}]}