{"type": "FeatureCollection", "features": [{"type": "Feature", "geometry": null, "properties": {"id": "1skP", "status": "validé", "pieces": [{"kind": "country"}]}}, {"type": "Feature", "geometry": null, "properties": {"id": "1y8d", "status": "rejeté", "pieces": []}}, {"type": "Feature", "geometry": null, "properties": {"id": "3LxD", "status": "validé", "pieces": [{"kind": "country"}]}}, {"type": "Feature", "geometry": null, "properties": {"id": "8FCa", "status": "validé", "pieces": [{"kind": "admin1", "code": "HUN-4923"}, {"kind": "admin1", "code": "HUN-3169"}]}}, {"type": "Feature", "geometry": null, "properties": {"id": "94Xz", "status": "validé", "pieces": [{"kind": "country"}]}}, {"type": "Feature", "geometry": null, "properties": {"id": "A2Fx", "status": "validé", "pieces": [{"kind": "country"}]}}, {"type": "Feature", "geometry": {"type": "Polygon", "coordinates": [[[17.30347, 47.40641], [17.63855, 47.31342], [17.80884, 47.32459], [17.86377, 47.47326], [17.92419, 47.54744], [18.078, 47.55114], [18.18237, 47.46955], [18.33618, 47.46955], [18.42407, 47.63261], [18.47665, 47.78688], [18.55259, 47.79285], [18.59745, 47.79065], [18.63383, 47.77982], [18.6637, 47.7759], [18.69284, 47.77796], [18.71723, 47.78812], [18.75031, 47.81362], [18.76767, 47.8223], [18.79031, 47.82633], [18.81492, 47.83219], [18.81645, 47.83256], [18.77801, 47.85145], [18.74876, 47.87072], [18.74225, 47.88945], [18.74473, 47.91051], [18.75475, 47.9518], [18.75144, 47.96335], [18.74452, 47.96736], [18.74318, 47.97105], [18.7562, 47.98183], [18.76529, 47.98539], [18.78472, 47.98761], [18.79423, 47.99314], [18.821, 48.03045], [18.83847, 48.04001], [18.9336, 48.05435], [18.98182, 48.06162], [18.99649, 48.06621], [19.01902, 48.0655], [19.03866, 48.06487], [19.0985, 48.07074], [19.22253, 48.06058], [19.23348, 48.06208], [19.29322, 48.08776], [19.4282, 48.08585], [19.48174, 48.11133], [19.48329, 48.1165], [19.4838, 48.12177], [19.48329, 48.12719], [19.48174, 48.13267], [19.48143, 48.13334], [19.48122, 48.13396], [19.48143, 48.13443], [19.48174, 48.13489], [19.49362, 48.15071], [19.50303, 48.18941], [19.51398, 48.20396], [19.53124, 48.21065], [19.62323, 48.22701], [19.63387, 48.22677], [19.6439, 48.22481], [19.65526, 48.21835], [19.67697, 48.20039], [19.68699, 48.1969], [19.73309, 48.2029], [19.75655, 48.20032], [19.77433, 48.1859], [19.77484, 48.17608], [19.76916, 48.16745], [19.76668, 48.159], [19.77608, 48.14952], [19.78559, 48.14869], [19.82166, 48.15791], [19.84626, 48.15267], [19.8843, 48.12962], [19.90507, 48.1243], [19.92863, 48.13009], [19.9739, 48.15838], [19.99695, 48.16791], [20.03498, 48.17587], [20.0383, 48.17723], [20.07808, 48.19355], [20.09699, 48.19843], [20.10526, 48.2028], [20.1126, 48.21173], [20.11808, 48.22972], [20.12201, 48.23675], [20.13451, 48.24667], [20.14309, 48.2478], [20.15332, 48.24527], [20.17089, 48.24403], [20.18764, 48.24899], [20.21782, 48.2676], [20.22908, 48.2709], [20.24903, 48.26419], [20.26029, 48.25589], [20.27238, 48.25246], [20.29523, 48.26042], [20.32427, 48.27995], [20.34928, 48.30548], [20.37016, 48.33434], [20.40902, 48.41371], [20.42059, 48.42924], [20.43558, 48.44239], [20.46597, 48.46379], [20.46824, 48.46539], [20.48167, 48.47875], [20.4825, 48.48226], [20.48291, 48.48583], [20.48281, 48.48937], [20.48219, 48.49288], [20.48023, 48.51022], [20.48054, 48.51854], [20.48167, 48.52608], [20.51051, 48.53378], [20.57252, 48.53657], [20.78409, 48.56905], [20.80031, 48.56923], [20.81581, 48.56381], [20.84548, 48.54582], [20.85995, 48.54332], [20.89137, 48.54109], [20.94583, 48.51898], [20.98149, 48.51686], [21.0065, 48.51815], [21.03596, 48.51464], [21.06386, 48.50624], [21.08402, 48.49301], [21.10934, 48.48911], [21.18675, 48.51371], [21.21992, 48.51872], [21.23801, 48.51345], [21.25041, 48.5065], [21.26178, 48.50319], [21.27656, 48.50872], [21.28824, 48.51993], [21.29393, 48.53058], [21.3023, 48.53991], [21.32183, 48.54758], [21.33857, 48.54985], [21.37268, 48.55035], [21.42456, 48.56128], [21.43914, 48.55833], [21.47273, 48.545], [21.49081, 48.54027], [21.49939, 48.53507], [21.506, 48.5265], [21.5151, 48.50712], [21.52182, 48.50009], [21.53773, 48.49523], [21.57463, 48.49557], [21.59168, 48.49301], [21.60037, 48.48164], [21.61339, 48.44035], [21.62155, 48.42965], [21.6326, 48.41836], [21.54419, 48.33467], [21.22559, 47.98304], [20.99487, 47.79895], [20.23682, 47.68818], [19.72046, 47.67339], [19.70947, 47.5327], [19.78638, 47.34701], [19.9292, 47.13078], [19.80835, 46.98864], [19.53369, 46.98864], [19.40186, 47.16813], [19.25903, 47.33957], [19.11621, 47.36189], [18.91846, 47.34701], [18.97339, 46.98115], [18.87451, 46.82358], [18.89648, 46.69569], [18.74268, 46.46925], [18.57788, 46.20388], [18.24829, 45.97539], [17.8418, 46.02116], [17.47925, 46.21908], [17.16064, 46.33293], [16.87367, 46.33624], [16.87507, 46.34286], [16.86546, 46.35914], [16.85941, 46.36476], [16.85047, 46.37306], [16.83766, 46.38187], [16.83239, 46.38193], [16.83022, 46.37735], [16.82753, 46.37402], [16.82092, 46.3781], [16.81658, 46.38198], [16.81234, 46.38502], [16.80789, 46.38735], [16.80345, 46.38869], [16.77647, 46.39288], [16.76934, 46.39611], [16.7619, 46.38187], [16.75508, 46.38187], [16.74289, 46.39962], [16.7124, 46.41267], [16.69358, 46.42962], [16.67746, 46.44869], [16.65927, 46.46419], [16.63767, 46.47448], [16.61111, 46.47807], [16.60212, 46.48205], [16.59426, 46.48298], [16.58806, 46.47957], [16.58372, 46.47065], [16.57762, 46.47065], [16.56429, 46.47993], [16.52109, 46.49853], [16.5153, 46.50171], [16.50083, 46.54481], [16.46714, 46.5647], [16.43024, 46.60439], [16.39458, 46.61902], [16.37639, 46.62909], [16.37225, 46.63634], [16.36844, 46.64299], [16.37764, 46.65286], [16.39665, 46.65914], [16.40261, 46.66311], [16.4105, 46.66837], [16.40502, 46.68726], [16.39004, 46.69415], [16.37143, 46.69493], [16.36622, 46.69647], [16.36538, 46.69671], [16.35759, 46.69901], [16.35728, 46.71583], [16.34343, 46.71418], [16.33412, 46.72175], [16.32555, 46.73327], [16.31418, 46.74332], [16.30043, 46.77208], [16.29816, 46.7758], [16.29949, 46.77951], [16.30219, 46.78702], [16.3111, 46.79752], [16.3149, 46.802], [16.32183, 46.81327], [16.32751, 46.82546], [16.32978, 46.8344], [16.32534, 46.83944], [16.31066, 46.84001], [16.30188, 46.84321], [16.29739, 46.84703], [16.28224, 46.85993], [16.27201, 46.86396], [16.17949, 46.85847], [16.13538, 46.85585], [16.13025, 46.85671], [16.09404, 46.86277], [16.11005, 46.86792], [16.12287, 46.87636], [16.15915, 46.91032], [16.17072, 46.91853], [16.19615, 46.9313], [16.21702, 46.9374], [16.22395, 46.94106], [16.23067, 46.94835], [16.23118, 46.95442], [16.23036, 46.95998], [16.23294, 46.96607], [16.24307, 46.97202], [16.25299, 46.97352], [16.26105, 46.97809], [16.26539, 46.99326], [16.2749, 47.00431], [16.28854, 47.00558], [16.32586, 47.00044], [16.36658, 47.00382], [16.38776, 47.00204], [16.40502, 46.99315], [16.4104, 46.99041], [16.41557, 46.98943], [16.42042, 46.99026], [16.42476, 46.993], [16.42476, 46.9931], [16.4414, 46.99522], [16.46745, 46.99543], [16.48636, 46.99855], [16.48192, 47.00938], [16.46755, 47.01842], [16.45329, 47.02168], [16.42466, 47.02408], [16.43717, 47.03178], [16.48192, 47.04421], [16.49318, 47.04915], [16.49722, 47.05462], [16.4937, 47.05982], [16.48192, 47.0639], [16.46176, 47.0685], [16.45432, 47.0817], [16.46083, 47.0963], [16.48192, 47.10524], [16.50476, 47.12583], [16.50951, 47.13754], [16.49732, 47.14968], [16.48089, 47.15077], [16.44709, 47.13971], [16.43365, 47.14575], [16.43396, 47.15128], [16.44213, 47.16834], [16.44182, 47.17712], [16.4351, 47.18358], [16.42673, 47.18412], [16.41877, 47.18366], [16.41278, 47.18717], [16.40926, 47.20368], [16.42466, 47.22559], [16.42135, 47.24303], [16.42135, 47.24314], [16.45246, 47.25458], [16.46662, 47.26342], [16.47324, 47.27681], [16.46921, 47.29324], [16.43882, 47.33657], [16.43613, 47.33856], [16.43169, 47.33972], [16.42714, 47.34137], [16.42435, 47.3452], [16.42497, 47.35112], [16.42931, 47.3538], [16.43427, 47.35556], [16.43644, 47.35851], [16.43396, 47.39685], [16.44409, 47.40951], [16.4566, 47.41184], [16.46993, 47.40553], [16.48192, 47.3923], [16.58941, 47.42563], [16.62697, 47.44555], [16.64088, 47.45292], [16.63685, 47.4932], [16.64821, 47.50155], [16.67736, 47.50987], [16.688, 47.52263], [16.68914, 47.53803], [16.68139, 47.55056], [16.66754, 47.5601], [16.65059, 47.56656], [16.65617, 47.58593], [16.6477, 47.60614], [16.63023, 47.622], [16.60842, 47.62877], [16.57545, 47.62495], [16.50962, 47.64314], [16.48192, 47.63895], [16.4259, 47.65428], [16.40781, 47.66133], [16.4166, 47.66882], [16.43179, 47.68546], [16.43913, 47.69047], [16.44492, 47.68554], [16.44988, 47.68241], [16.45453, 47.68177], [16.46114, 47.68453], [16.47303, 47.69177], [16.51292, 47.706], [16.5214, 47.71153], [16.52688, 47.72014], [16.52512, 47.73331], [16.53111, 47.74298], [16.5678, 47.75419], [16.60977, 47.75063], [16.68987, 47.72957], [16.70247, 47.7236], [16.70785, 47.71461], [16.71157, 47.70407], [16.71922, 47.69373], [16.73038, 47.6859], [16.74113, 47.68146], [16.79745, 47.67546], [16.80624, 47.67688], [16.8173, 47.68425], [16.83694, 47.70536], [16.85017, 47.71293], [16.86474, 47.68673], [16.90267, 47.68203], [16.94483, 47.68916], [17.30347, 47.40641]]]}, "properties": {"id": "Ad5o", "status": "validé", "pieces": [{"kind": "polygon", "ring": [[16.89697, 47.72689], [17.30347, 47.40641], [17.63855, 47.31342], [17.80884, 47.32459], [17.86377, 47.47326], [17.92419, 47.54744], [18.078, 47.55114], [18.18237, 47.46955], [18.33618, 47.46955], [18.42407, 47.63261], [18.4845, 47.80992], [19.25354, 48.43668], [20.64331, 48.74186], [21.85181, 48.62585], [21.54419, 48.33467], [21.22559, 47.98304], [20.99487, 47.79895], [20.23682, 47.68818], [19.72046, 47.67339], [19.70947, 47.5327], [19.78638, 47.34701], [19.9292, 47.13078], [19.80835, 46.98864], [19.53369, 46.98864], [19.40186, 47.16813], [19.25903, 47.33957], [19.11621, 47.36189], [18.91846, 47.34701], [18.97339, 46.98115], [18.87451, 46.82358], [18.89648, 46.69569], [18.74268, 46.46925], [18.57788, 46.20388], [18.24829, 45.97539], [17.8418, 46.02116], [17.47925, 46.21908], [17.16064, 46.33293], [16.50146, 46.34052], [15.23804, 46.80103], [15.17212, 47.3842], [16.3916, 47.95363]]}, {"kind": "clip"}]}}, {"type": "Feature", "geometry": {"type": "Polygon", "coordinates": [[[17.28699, 46.83078], [17.1167, 46.7142], [17.22656, 46.64639], [17.45728, 46.65016], [17.80334, 46.74807], [18.11646, 46.83454], [18.2428, 46.96211], [18.2428, 47.05945], [18.03955, 47.123], [17.8418, 47.01829], [17.66602, 46.92837], [17.49573, 46.8796], [17.28699, 46.83078]]]}, "properties": {"id": "C5sq", "status": "validé", "pieces": [{"kind": "polygon", "ring": [[17.28699, 46.83078], [17.1167, 46.7142], [17.22656, 46.64639], [17.45728, 46.65016], [17.80334, 46.74807], [18.11646, 46.83454], [18.2428, 46.96211], [18.2428, 47.05945], [18.03955, 47.123], [17.8418, 47.01829], [17.66602, 46.92837], [17.49573, 46.8796]]}]}}, {"type": "Feature", "geometry": null, "properties": {"id": "GR8q", "status": "validé", "pieces": [{"kind": "country"}]}}, {"type": "Feature", "geometry": null, "properties": {"id": "N7yw", "status": "validé", "pieces": [{"kind": "country"}]}}, {"type": "Feature", "geometry": null, "properties": {"id": "NJDC", "status": "validé", "pieces": [{"kind": "country"}]}}, {"type": "Feature", "geometry": null, "properties": {"id": "PvaK", "status": "validé", "pieces": [{"kind": "country"}]}}, {"type": "Feature", "geometry": null, "properties": {"id": "Tbty", "status": "validé", "pieces": [{"kind": "country"}]}}, {"type": "Feature", "geometry": null, "properties": {"id": "Vhaj", "status": "validé", "pieces": [{"kind": "country"}]}}, {"type": "Feature", "geometry": null, "properties": {"id": "XwNR", "status": "validé", "pieces": [{"kind": "country"}]}}, {"type": "Feature", "geometry": {"type": "Polygon", "coordinates": [[[20.78862, 48.55963], [20.80321, 48.56537], [20.81935, 48.56883], [20.82793, 48.57031], [20.83652, 48.57468], [20.83815, 48.57383], [20.83102, 48.56963], [20.82278, 48.56775], [20.80296, 48.56321], [20.79085, 48.55821], [20.78862, 48.55963]]]}, "properties": {"id": "ZEB9", "status": "validé", "pieces": [{"kind": "polygon", "ring": [[20.78862, 48.55963], [20.80321, 48.56537], [20.81935, 48.56883], [20.82793, 48.57031], [20.83652, 48.57468], [20.83815, 48.57383], [20.83102, 48.56963], [20.82278, 48.56775], [20.80296, 48.56321], [20.79085, 48.55821]]}]}}, {"type": "Feature", "geometry": null, "properties": {"id": "bxAw", "status": "validé", "pieces": [{"kind": "country"}]}}, {"type": "Feature", "geometry": {"type": "Polygon", "coordinates": [[[21.28052, 47.32444], [21.07178, 47.2574], [20.91797, 47.26486], [20.79163, 47.40255], [20.70374, 47.551], [20.75867, 47.73228], [21.00037, 47.91293], [21.20361, 47.97913], [21.3739, 48.0122], [21.70349, 48.00853], [21.79688, 47.92397], [21.85181, 47.82821], [21.78589, 47.66206], [21.67603, 47.53617], [21.52771, 47.41369], [21.28052, 47.32444]]]}, "properties": {"id": "d5CC", "status": "validé", "pieces": [{"kind": "polygon", "ring": [[21.28052, 47.32444], [21.07178, 47.2574], [20.91797, 47.26486], [20.79163, 47.40255], [20.70374, 47.551], [20.75867, 47.73228], [21.00037, 47.91293], [21.20361, 47.97913], [21.3739, 48.0122], [21.70349, 48.00853], [21.79688, 47.92397], [21.85181, 47.82821], [21.78589, 47.66206], [21.67603, 47.53617], [21.52771, 47.41369]]}]}}, {"type": "Feature", "geometry": null, "properties": {"id": "dM2y", "status": "validé", "pieces": [{"kind": "country"}]}}, {"type": "Feature", "geometry": null, "properties": {"id": "eBWy", "status": "validé", "pieces": [{"kind": "country"}]}}, {"type": "Feature", "geometry": null, "properties": {"id": "g7PT", "status": "validé", "pieces": [{"kind": "country"}]}}, {"type": "Feature", "geometry": null, "properties": {"id": "gMof", "status": "validé", "pieces": [{"kind": "country"}]}}, {"type": "Feature", "geometry": null, "properties": {"id": "jEV4", "status": "validé", "pieces": [{"kind": "country"}]}}, {"type": "Feature", "geometry": null, "properties": {"id": "ktc7", "status": "validé", "pieces": [{"kind": "country"}]}}, {"type": "Feature", "geometry": null, "properties": {"id": "s2B8", "status": "validé", "pieces": [{"kind": "country"}]}}, {"type": "Feature", "geometry": null, "properties": {"id": "s76v", "status": "validé", "pieces": [{"kind": "country"}]}}, {"type": "Feature", "geometry": {"type": "Polygon", "coordinates": [[[17.24859, 46.08024], [17.20859, 46.11657], [17.19733, 46.12116], [17.1162, 46.12313], [17.10121, 46.12819], [17.05294, 46.15346], [17.04126, 46.1622], [17.0363, 46.173], [17.02803, 46.18049], [16.97481, 46.21057], [16.9653, 46.21945], [16.9407, 46.25149], [16.90329, 46.28193], [16.89605, 46.28627], [16.88923, 46.29216], [16.87931, 46.31206], [16.87177, 46.3272], [16.87507, 46.34286], [16.86546, 46.35914], [16.85941, 46.36476], [16.85047, 46.37306], [16.83766, 46.38187], [16.83239, 46.38193], [16.83022, 46.37735], [16.82753, 46.37402], [16.82092, 46.3781], [16.81658, 46.38198], [16.81234, 46.38502], [16.80789, 46.38735], [16.80345, 46.38869], [16.77647, 46.39288], [16.76934, 46.39611], [16.7619, 46.38187], [16.75508, 46.38187], [16.74289, 46.39962], [16.7124, 46.41267], [16.69358, 46.42962], [16.67746, 46.44869], [16.65927, 46.46419], [16.63767, 46.47448], [16.61111, 46.47807], [16.60212, 46.48205], [16.59426, 46.48298], [16.58806, 46.47957], [16.58372, 46.47065], [16.57762, 46.47065], [16.56429, 46.47993], [16.52109, 46.49853], [16.5153, 46.50171], [16.50083, 46.54481], [16.46714, 46.5647], [16.43024, 46.60439], [16.39458, 46.61902], [16.37639, 46.62909], [16.37225, 46.63634], [16.36844, 46.64299], [16.37764, 46.65286], [16.39665, 46.65914], [16.40261, 46.66311], [16.4105, 46.66837], [16.40502, 46.68726], [16.39004, 46.69415], [16.37143, 46.69493], [16.36622, 46.69647], [16.36538, 46.69671], [16.35759, 46.69901], [16.35728, 46.71583], [16.34343, 46.71418], [16.33412, 46.72175], [16.32555, 46.73327], [16.31418, 46.74332], [16.30043, 46.77208], [16.29816, 46.7758], [16.29949, 46.77951], [16.30219, 46.78702], [16.3111, 46.79752], [16.3149, 46.802], [16.32183, 46.81327], [16.32751, 46.82546], [16.32978, 46.8344], [16.32534, 46.83944], [16.31066, 46.84001], [16.30188, 46.84321], [16.29739, 46.84703], [16.28224, 46.85993], [16.27201, 46.86396], [16.17949, 46.85847], [16.13538, 46.85585], [16.13025, 46.85671], [16.09404, 46.86277], [16.11005, 46.86792], [16.12287, 46.87636], [16.15915, 46.91032], [16.17072, 46.91853], [16.19615, 46.9313], [16.21702, 46.9374], [16.22395, 46.94106], [16.23067, 46.94835], [16.23118, 46.95442], [16.23036, 46.95998], [16.23294, 46.96607], [16.24307, 46.97202], [16.25299, 46.97352], [16.26105, 46.97809], [16.26539, 46.99326], [16.2749, 47.00431], [16.28854, 47.00558], [16.32586, 47.00044], [16.36658, 47.00382], [16.38776, 47.00204], [16.40502, 46.99315], [16.4104, 46.99041], [16.41557, 46.98943], [16.42042, 46.99026], [16.42476, 46.993], [16.42476, 46.9931], [16.4414, 46.99522], [16.46745, 46.99543], [16.48636, 46.99855], [16.48192, 47.00938], [16.46755, 47.01842], [16.45329, 47.02168], [16.42466, 47.02408], [16.43717, 47.03178], [16.48192, 47.04421], [16.49318, 47.04915], [16.49722, 47.05462], [16.4937, 47.05982], [16.48192, 47.0639], [16.46176, 47.0685], [16.45432, 47.0817], [16.46083, 47.0963], [16.48192, 47.10524], [16.50476, 47.12583], [16.50951, 47.13754], [16.49732, 47.14968], [16.48089, 47.15077], [16.44709, 47.13971], [16.43365, 47.14575], [16.43396, 47.15128], [16.44213, 47.16834], [16.44182, 47.17712], [16.4351, 47.18358], [16.42673, 47.18412], [16.41877, 47.18366], [16.41278, 47.18717], [16.40926, 47.20368], [16.42466, 47.22559], [16.42135, 47.24303], [16.42135, 47.24314], [16.45246, 47.25458], [16.46662, 47.26342], [16.47324, 47.27681], [16.46921, 47.29324], [16.43882, 47.33657], [16.43613, 47.33856], [16.43169, 47.33972], [16.42714, 47.34137], [16.42435, 47.3452], [16.42497, 47.35112], [16.42931, 47.3538], [16.43427, 47.35556], [16.43644, 47.35851], [16.43396, 47.39685], [16.44409, 47.40951], [16.4566, 47.41184], [16.46993, 47.40553], [16.48192, 47.3923], [16.58941, 47.42563], [16.62697, 47.44555], [16.64088, 47.45292], [16.63685, 47.4932], [16.64821, 47.50155], [16.67736, 47.50987], [16.688, 47.52263], [16.68914, 47.53803], [16.68139, 47.55056], [16.66754, 47.5601], [16.65059, 47.56656], [16.65617, 47.58593], [16.6477, 47.60614], [16.63023, 47.622], [16.60842, 47.62877], [16.57545, 47.62495], [16.55775, 47.62984], [16.5908, 47.64719], [16.6284, 47.64782], [16.68417, 47.63842], [16.69169, 47.64719], [16.68793, 47.671], [16.71678, 47.69702], [16.71922, 47.69373], [16.73038, 47.6859], [16.74113, 47.68146], [16.79745, 47.67546], [16.80624, 47.67688], [16.8173, 47.68425], [16.83694, 47.70536], [16.85017, 47.71293], [16.86474, 47.68673], [16.90267, 47.68203], [16.98194, 47.69544], [17.0548, 47.70202], [17.07537, 47.70848], [17.064, 47.71329], [17.05553, 47.72091], [17.05057, 47.73099], [17.04871, 47.76365], [17.04199, 47.78391], [17.04064, 47.80111], [17.05563, 47.81235], [17.04912, 47.81868], [17.03951, 47.83736], [17.03165, 47.84134], [17.01067, 47.84788], [17.00437, 47.85238], [17.00406, 47.86328], [17.01656, 47.8677], [17.05119, 47.87289], [17.06762, 47.88163], [17.07754, 47.89173], [17.08333, 47.90483], [17.08746, 47.92263], [17.0854, 47.92462], [17.08012, 47.92576], [17.07516, 47.92777], [17.07413, 47.93211], [17.07682, 47.93496], [17.08612, 47.93922], [17.08808, 47.9409], [17.09087, 47.94948], [17.09573, 47.95573], [17.09614, 47.96193], [17.0856, 47.97015], [17.14834, 48.00544], [17.18482, 48.02027], [17.22089, 48.01505], [17.26232, 48.00728], [17.27267, 48.00534], [17.33789, 47.99873], [17.36941, 47.98121], [17.47204, 47.88881], [17.48186, 47.88271], [17.49219, 47.87982], [17.51731, 47.87625], [17.52661, 47.87212], [17.56041, 47.83799], [17.5726, 47.82954], [17.58294, 47.82979], [17.59296, 47.8331], [17.60423, 47.83424], [17.61911, 47.82923], [17.63988, 47.8192], [17.65838, 47.80732], [17.66624, 47.79703], [17.67668, 47.78918], [17.71925, 47.77367], [17.742, 47.76538], [17.82571, 47.75001], [17.88353, 47.75252], [18.03612, 47.75916], [18.04779, 47.61937], [17.90977, 47.56846], [17.92907, 47.54997], [17.9178, 47.53255], [17.89558, 47.53793], [17.88669, 47.53188], [17.89785, 47.50382], [17.88245, 47.47503], [17.88245, 47.45478], [17.88545, 47.42646], [17.87904, 47.39881], [17.91708, 47.38848], [17.94932, 47.38502], [17.95511, 47.36388], [17.96638, 47.34569], [17.98922, 47.34243], [18.10322, 47.35918], [18.1365, 47.31504], [18.10084, 47.30825], [18.09484, 47.28104], [18.10652, 47.25425], [18.14921, 47.2259], [18.18548, 47.16978], [18.21329, 47.15841], [18.22745, 47.13392], [18.21918, 47.06793], [18.22962, 47.0425], [18.21525, 46.99357], [18.17711, 46.9531], [18.19902, 46.91424], [18.21918, 46.88864], [18.2167, 46.88195], [18.21215, 46.87579], [18.21132, 46.81874], [18.21632, 46.79788], [18.41309, 46.80472], [18.55591, 46.66171], [18.70422, 46.63156], [18.80859, 46.62024], [18.99536, 46.66171], [19.08875, 46.6391], [19.05579, 46.56742], [18.84155, 46.48053], [18.42407, 46.19241], [18.27026, 45.99821], [18.21081, 45.78537], [18.12895, 45.78537], [18.12017, 45.78341], [18.1029, 45.77462], [18.09205, 45.77173], [18.08048, 45.77173], [17.97537, 45.79214], [17.90623, 45.79214], [17.88979, 45.79214], [17.88049, 45.78852], [17.87573, 45.78067], [17.87005, 45.77349], [17.85806, 45.77173], [17.85796, 45.77586], [17.83822, 45.79964], [17.80918, 45.81441], [17.68732, 45.84061], [17.66469, 45.84165], [17.65652, 45.84542], [17.65467, 45.85211], [17.65322, 45.85736], [17.65208, 45.86883], [17.64691, 45.88371], [17.64578, 45.89182], [17.63844, 45.90133], [17.5911, 45.93621], [17.55431, 45.94779], [17.51193, 45.95394], [17.42667, 45.95673], [17.41819, 45.95301], [17.4154, 45.9497], [17.41158, 45.9466], [17.4062, 45.94366], [17.39969, 45.95994], [17.38915, 45.96309], [17.36528, 45.95673], [17.34533, 45.9557], [17.34212, 45.95864], [17.34368, 45.96753], [17.33789, 45.98464], [17.32714, 45.97203], [17.3166, 45.97378], [17.30661, 45.97991], [17.30481, 45.98102], [17.29014, 45.98464], [17.29014, 45.99146], [17.29696, 45.99265], [17.30936, 45.99663], [17.3168, 45.99766], [17.30781, 46.00639], [17.29148, 46.00794], [17.27587, 46.01203], [17.26895, 46.02872], [17.26657, 46.03879], [17.25407, 46.07083], [17.24859, 46.08024]]]}, "properties": {"id": "xpQW", "status": "validé", "pieces": [{"kind": "admin1", "code": "HUN-3156"}, {"kind": "admin1", "code": "HUN-4905"}, {"kind": "admin1", "code": "HUN-3138"}, {"kind": "admin1", "code": "HUN-4903"}, {"kind": "admin1", "code": "HUN-3159"}, {"kind": "admin1", "code": "HUN-3157"}, {"kind": "admin1", "code": "HUN-4912"}, {"kind": "admin1", "code": "HUN-4911"}, {"kind": "admin1", "code": "HUN-4910"}, {"kind": "admin1", "code": "HUN-3158"}, {"kind": "admin1", "code": "HUN-4909"}, {"kind": "polygon", "ring": [[18.03406, 47.78381], [18.04779, 47.61937], [17.90222, 47.56568], [17.82806, 47.56382], [17.83905, 47.84834]]}, {"kind": "clip"}, {"kind": "polygon", "ring": [[18.19336, 45.72289], [18.27026, 45.99821], [18.42407, 46.19241], [18.84155, 46.48053], [19.05579, 46.56742], [19.08875, 46.6391], [18.99536, 46.66171], [18.80859, 46.62024], [18.70422, 46.63156], [18.55591, 46.66171], [18.41309, 46.80472], [18.08899, 46.79345], [17.29248, 46.16579], [17.1936, 45.73822]]}]}}, {"type": "Feature", "geometry": null, "properties": {"id": "zgXE", "status": "validé", "pieces": [{"kind": "country"}]}}]}