{"type": "FeatureCollection", "features": [{"type": "Feature", "geometry": null, "properties": {"id": "0fVq", "status": "validé", "pieces": [{"kind": "admin1", "code": "IDN-1931"}, {"kind": "admin1", "code": "IDN-1234"}]}}, {"type": "Feature", "geometry": null, "properties": {"id": "0rmy", "status": "validé", "pieces": [{"kind": "admin1", "code": "IDN-513"}, {"kind": "admin1", "code": "IDN-1235"}, {"kind": "admin1", "code": "IDN-1228"}, {"kind": "admin1", "code": "IDN-381"}]}}, {"type": "Feature", "geometry": {"type": "Polygon", "coordinates": [[[119.5697, -9.39317], [120.15198, -9.6964], [120.5365, -10.14533], [120.65186, -10.2318], [120.93201, -10.10209], [120.73975, -9.81005], [120.42114, -9.5015], [119.96521, -9.25771], [119.5697, -9.39317]]]}, "properties": {"id": "2YZ4", "status": "validé", "pieces": [{"kind": "polygon", "ring": [[119.5697, -9.39317], [120.15198, -9.6964], [120.5365, -10.14533], [120.65186, -10.2318], [120.93201, -10.10209], [120.73975, -9.81005], [120.42114, -9.5015], [119.96521, -9.25771]]}]}}, {"type": "Feature", "geometry": null, "properties": {"id": "2dyw", "status": "validé", "pieces": [{"kind": "admin1", "code": "IDN-1236"}, {"kind": "admin1", "code": "IDN-557"}, {"kind": "admin1", "code": "IDN-513"}, {"kind": "admin1", "code": "IDN-1837"}, {"kind": "admin1", "code": "IDN-1237"}, {"kind": "admin1", "code": "IDN-556"}, {"kind": "admin1", "code": "IDN-1185"}, {"kind": "admin1", "code": "IDN-1931"}, {"kind": "admin1", "code": "IDN-1228"}, {"kind": "admin1", "code": "IDN-1234"}, {"kind": "admin1", "code": "IDN-1229"}, {"kind": "admin1", "code": "IDN-1230"}, {"kind": "admin1", "code": "IDN-1930"}, {"kind": "admin1", "code": "IDN-1225"}, {"kind": "admin1", "code": "IDN-381"}, {"kind": "admin1", "code": "IDN-1136"}, {"kind": "admin1", "code": "IDN-492"}, {"kind": "admin1", "code": "IDN-539"}, {"kind": "admin1", "code": "IDN-1231"}, {"kind": "admin1", "code": "IDN-1235"}]}}, {"type": "Feature", "geometry": null, "properties": {"id": "32xY", "status": "validé", "pieces": [{"kind": "admin1", "code": "IDN-1237"}, {"kind": "admin1", "code": "IDN-1236"}, {"kind": "admin1", "code": "IDN-556"}, {"kind": "admin1", "code": "IDN-557"}, {"kind": "admin1", "code": "IDN-1837"}, {"kind": "admin1", "code": "IDN-513"}]}}, {"type": "Feature", "geometry": null, "properties": {"id": "3RMB", "status": "rejeté", "pieces": []}}, {"type": "Feature", "geometry": null, "properties": {"id": "4NsT", "status": "validé", "pieces": [{"kind": "admin1", "code": "IDN-1236"}, {"kind": "admin1", "code": "IDN-556"}, {"kind": "admin1", "code": "IDN-1237"}, {"kind": "admin1", "code": "IDN-557"}]}}, {"type": "Feature", "geometry": null, "properties": {"id": "5XRu", "status": "validé", "pieces": [{"kind": "admin1", "code": "IDN-1232"}]}}, {"type": "Feature", "geometry": null, "properties": {"id": "69xY", "status": "validé", "pieces": [{"kind": "country"}]}}, {"type": "Feature", "geometry": null, "properties": {"id": "78MF", "status": "validé", "pieces": [{"kind": "country"}]}}, {"type": "Feature", "geometry": null, "properties": {"id": "8gpa", "status": "validé", "pieces": [{"kind": "admin1", "code": "IDN-1224"}, {"kind": "admin1", "code": "IDN-1233"}, {"kind": "admin1", "code": "IDN-540"}, {"kind": "admin1", "code": "IDN-1223"}, {"kind": "admin1", "code": "IDN-1226"}, {"kind": "admin1", "code": "IDN-1227"}]}}, {"type": "Feature", "geometry": null, "properties": {"id": "8rxH", "status": "rejeté", "pieces": []}}, {"type": "Feature", "geometry": null, "properties": {"id": "C0wR", "status": "validé", "pieces": [{"kind": "admin1", "code": "IDN-557"}, {"kind": "admin1", "code": "IDN-1236"}, {"kind": "admin1", "code": "IDN-1237"}, {"kind": "admin1", "code": "IDN-556"}, {"kind": "admin1", "code": "IDN-1837"}, {"kind": "admin1", "code": "IDN-513"}]}}, {"type": "Feature", "geometry": null, "properties": {"id": "E9E9", "status": "validé", "pieces": [{"kind": "country"}]}}, {"type": "Feature", "geometry": null, "properties": {"id": "EKlp", "status": "validé", "pieces": [{"kind": "admin1", "code": "IDN-557"}, {"kind": "admin1", "code": "IDN-513"}, {"kind": "admin1", "code": "IDN-1837"}]}}, {"type": "Feature", "geometry": null, "properties": {"id": "H5BA", "status": "validé", "pieces": [{"kind": "admin1", "code": "IDN-1796"}, {"kind": "admin1", "code": "IDN-492"}, {"kind": "admin1", "code": "IDN-1226"}, {"kind": "admin1", "code": "IDN-1223"}]}}, {"type": "Feature", "geometry": {"type": "Polygon", "coordinates": [[[96.93237, 1.46779], [97.41577, 0.50154], [97.97058, 0.45213], [98.18481, 0.83098], [97.97058, 1.52268], [97.41028, 1.83004], [96.93237, 1.46779]]]}, "properties": {"id": "H5zf", "status": "validé", "pieces": [{"kind": "polygon", "ring": [[96.93237, 1.46779], [97.41577, 0.50154], [97.97058, 0.45213], [98.18481, 0.83098], [97.97058, 1.52268], [97.41028, 1.83004]]}]}}, {"type": "Feature", "geometry": {"type": "Polygon", "coordinates": [[[120.90454, -1.46989], [120.89905, -2.17899], [121.64063, -2.50817], [121.77795, -2.65079], [121.68457, -2.88114], [121.6571, -3.0292], [122.27783, -3.33073], [122.53601, -3.24302], [122.60742, -2.9963], [121.77795, -2.10217], [122.91504, -1.07029], [123.57971, -1.04833], [123.52478, -0.47733], [122.90955, -0.42242], [121.39893, -0.82323], [120.90454, -1.46989]]]}, "properties": {"id": "Hl5V", "status": "validé", "pieces": [{"kind": "polygon", "ring": [[120.90454, -1.46989], [120.89905, -2.17899], [121.64063, -2.50817], [121.77795, -2.65079], [121.68457, -2.88114], [121.6571, -3.0292], [122.27783, -3.33073], [122.53601, -3.24302], [122.60742, -2.9963], [121.77795, -2.10217], [122.91504, -1.07029], [123.57971, -1.04833], [123.52478, -0.47733], [122.90955, -0.42242], [121.39893, -0.82323]]}]}}, {"type": "Feature", "geometry": null, "properties": {"id": "HlrS", "status": "rejeté", "pieces": []}}, {"type": "Feature", "geometry": null, "properties": {"id": "HsTd", "status": "validé", "pieces": [{"kind": "admin1", "code": "IDN-1234"}, {"kind": "admin1", "code": "IDN-1185"}, {"kind": "admin1", "code": "IDN-1931"}, {"kind": "admin1", "code": "IDN-1228"}, {"kind": "admin1", "code": "IDN-1235"}, {"kind": "admin1", "code": "IDN-555"}]}}, {"type": "Feature", "geometry": null, "properties": {"id": "K7j1", "status": "validé", "pieces": [{"kind": "admin1", "code": "IDN-1226"}, {"kind": "admin1", "code": "IDN-1223"}, {"kind": "admin1", "code": "IDN-1229"}, {"kind": "admin1", "code": "IDN-1224"}, {"kind": "admin1", "code": "IDN-1233"}, {"kind": "admin1", "code": "IDN-540"}, {"kind": "admin1", "code": "IDN-1227"}, {"kind": "admin1", "code": "IDN-1236"}]}}, {"type": "Feature", "geometry": null, "properties": {"id": "L4lX", "status": "validé", "pieces": [{"kind": "country"}]}}, {"type": "Feature", "geometry": null, "properties": {"id": "Lrxl", "status": "validé", "pieces": [{"kind": "admin1", "code": "IDN-381"}]}}, {"type": "Feature", "geometry": null, "properties": {"id": "M7aC", "status": "validé", "pieces": [{"kind": "country"}]}}, {"type": "Feature", "geometry": null, "properties": {"id": "MAU0", "status": "validé", "pieces": [{"kind": "country"}]}}, {"type": "Feature", "geometry": null, "properties": {"id": "NAMC", "status": "validé", "pieces": [{"kind": "country"}]}}, {"type": "Feature", "geometry": null, "properties": {"id": "PPGB", "status": "validé", "pieces": [{"kind": "admin1", "code": "IDN-1224"}, {"kind": "admin1", "code": "IDN-540"}]}}, {"type": "Feature", "geometry": null, "properties": {"id": "QclR", "status": "validé", "pieces": [{"kind": "country"}]}}, {"type": "Feature", "geometry": null, "properties": {"id": "SYxy", "status": "rejeté", "pieces": []}}, {"type": "Feature", "geometry": null, "properties": {"id": "Sl44", "status": "validé", "pieces": [{"kind": "country"}]}}, {"type": "Feature", "geometry": {"type": "Polygon", "coordinates": [[[119.96796, -3.20333], [119.96796, -2.91821], [119.70291, -2.91821], [119.70291, -3.20333], [119.96796, -3.20333]]]}, "properties": {"id": "UJod", "status": "validé", "pieces": [{"kind": "rect", "bounds": [119.70291, -3.20333, 119.96796, -2.91821]}]}}, {"type": "Feature", "geometry": null, "properties": {"id": "Ue6l", "status": "rejeté", "pieces": []}}, {"type": "Feature", "geometry": {"type": "Polygon", "coordinates": [[[115.72723, -3.13202], [115.62836, -3.28004], [115.61737, -3.41434], [115.68329, -3.45545], [115.78491, -3.42256], [115.85083, -3.30745], [115.91675, -3.16217], [115.88928, -3.06074], [115.72723, -3.13202]]]}, "properties": {"id": "VrBB", "status": "validé", "pieces": [{"kind": "polygon", "ring": [[115.72723, -3.13202], [115.62836, -3.28004], [115.61737, -3.41434], [115.68329, -3.45545], [115.78491, -3.42256], [115.85083, -3.30745], [115.91675, -3.16217], [115.88928, -3.06074]]}]}}, {"type": "Feature", "geometry": null, "properties": {"id": "W7JT", "status": "validé", "pieces": [{"kind": "admin1", "code": "IDN-557"}]}}, {"type": "Feature", "geometry": null, "properties": {"id": "WGZd", "status": "validé", "pieces": [{"kind": "country"}]}}, {"type": "Feature", "geometry": null, "properties": {"id": "YrUA", "status": "validé", "pieces": [{"kind": "admin1", "code": "IDN-381"}]}}, {"type": "Feature", "geometry": null, "properties": {"id": "YwXJ", "status": "validé", "pieces": [{"kind": "country"}]}}, {"type": "Feature", "geometry": {"type": "MultiPolygon", "coordinates": [[[[121.06691, -7.3025], [121.05689, -7.32106], [121.02564, -7.33164], [120.99269, -7.33359], [120.97739, -7.32635], [120.96388, -7.3139], [120.9004, -7.30389], [120.88136, -7.29502], [120.86411, -7.30194], [120.84018, -7.30446], [120.81625, -7.30242], [120.79933, -7.29502], [120.79396, -7.28769], [120.79233, -7.27947], [120.79428, -7.27117], [120.79965, -7.26385], [120.81568, -7.2575], [120.83465, -7.26051], [120.8711, -7.27353], [120.96046, -7.282], [121.01987, -7.28037], [121.04998, -7.28582], [121.06691, -7.3025]]], [[[120.78517, -7.07244], [120.78305, -7.08864], [120.77377, -7.11582], [120.7715, -7.13055], [120.74226, -7.13493], [120.70558, -7.13338], [120.68336, -7.12428], [120.68189, -7.13942], [120.67035, -7.15096], [120.63349, -7.13153], [120.62041, -7.10867], [120.62417, -7.09396], [120.59842, -7.09803], [120.58092, -7.09182], [120.56291, -7.09454], [120.55625, -7.07289], [120.56586, -7.06705], [120.59111, -7.07959], [120.6137, -7.06982], [120.61989, -7.04424], [120.61573, -7.02256], [120.62126, -6.99824], [120.63551, -7.00701], [120.65362, -7.01011], [120.67767, -7.04367], [120.73023, -7.06715], [120.74496, -7.07415], [120.75782, -7.07594], [120.77263, -7.05885], [120.78126, -7.05592], [120.78517, -7.07244]]], [[[120.5586, -6.06634], [120.55299, -6.11012], [120.5298, -6.17311], [120.52621, -6.19549], [120.53207, -6.24831], [120.53012, -6.28729], [120.52247, -6.33652], [120.51498, -6.35247], [120.50262, -6.37347], [120.50099, -6.39251], [120.50514, -6.43174], [120.50001, -6.45159], [120.49049, -6.47145], [120.48129, -6.47731], [120.47511, -6.4345], [120.46567, -6.40276], [120.46363, -6.38388], [120.47088, -6.27516], [120.46811, -6.26434], [120.46046, -6.2597], [120.44825, -6.25652], [120.44483, -6.24847], [120.44508, -6.23773], [120.4437, -6.22617], [120.43084, -6.19451], [120.42945, -6.18581], [120.43336, -6.17401], [120.44695, -6.15447], [120.44996, -6.1408], [120.45216, -6.08082], [120.44142, -5.97763], [120.44825, -5.84393], [120.45737, -5.80104], [120.47047, -5.76686], [120.48048, -5.76409], [120.48862, -5.76727], [120.49439, -5.77451], [120.49708, -5.7833], [120.49562, -5.80641], [120.50343, -5.82269], [120.51336, -5.8366], [120.51808, -5.85263], [120.5215, -5.87469], [120.54615, -5.93816], [120.55519, -5.97942], [120.55934, -6.02256], [120.5586, -6.06634]]], [[[121.05934, -2.86207], [121.05323, -2.86207], [121.04811, -2.85125], [121.04103, -2.82439], [121.03272, -2.81422], [121.02442, -2.82269], [121.01677, -2.84287], [121.01173, -2.8484], [121.00172, -2.84808], [120.99301, -2.84173], [120.98683, -2.83262], [120.98439, -2.82391], [120.99073, -2.81162], [121.00489, -2.80836], [121.01889, -2.80185], [121.02524, -2.7789], [121.04168, -2.78387], [121.0525, -2.7776], [121.06691, -2.75221], [121.07065, -2.7553], [121.07374, -2.75661], [121.07683, -2.75742], [121.08041, -2.75905], [121.04819, -2.69899], [121.0359, -2.69012], [121.03647, -2.68646], [121.02931, -2.6784], [121.01539, -2.66595], [121.00587, -2.66082], [120.88502, -2.64235], [120.87241, -2.64414], [120.86256, -2.64666], [120.85377, -2.64617], [120.84376, -2.6386], [120.83277, -2.62786], [120.8235, -2.62152], [120.81324, -2.61793], [120.79933, -2.615], [120.77605, -2.61492], [120.761, -2.622], [120.74871, -2.63063], [120.7339, -2.63494], [120.71258, -2.63689], [120.6963, -2.64219], [120.6421, -2.67034], [120.62672, -2.67474], [120.6045, -2.67645], [120.58448, -2.68206], [120.57472, -2.69598], [120.5687, -2.7138], [120.55983, -2.73113], [120.54298, -2.74725], [120.29225, -2.90301], [120.25294, -2.93646], [120.23162, -2.95037], [120.20346, -2.9577], [120.209, -2.97039], [120.22641, -2.98805], [120.23023, -3.00172], [120.23121, -3.01434], [120.23439, -3.02654], [120.24, -3.0359], [120.24781, -3.03965], [120.2614, -3.05039], [120.2754, -3.10272], [120.28541, -3.12217], [120.27866, -3.12526], [120.27426, -3.12949], [120.26433, -3.14202], [120.28533, -3.16253], [120.30681, -3.17352], [120.35377, -3.19036], [120.38307, -3.20908], [120.38787, -3.21461], [120.38941, -3.22332], [120.39389, -3.23724], [120.4004, -3.25091], [120.40821, -3.25937], [120.42579, -3.25612], [120.42156, -3.26751], [120.40919, -3.28411], [120.40211, -3.29681], [120.40398, -3.30722], [120.40699, -3.31846], [120.40854, -3.32903], [120.40284, -3.34564], [120.39527, -3.38226], [120.39772, -3.39219], [120.40626, -3.41237], [120.40821, -3.42376], [120.40772, -3.43336], [120.40317, -3.44964], [120.39894, -3.50091], [120.40016, -3.51784], [120.41782, -3.56357], [120.42189, -3.58245], [120.42205, -3.66644], [120.42506, -3.67303], [120.4437, -3.69069], [120.44654, -3.72869], [120.43002, -3.76678], [120.38787, -3.82789], [120.37143, -3.86045], [120.35971, -3.89422], [120.35353, -3.93084], [120.3519, -4.10027], [120.35564, -4.11647], [120.37721, -4.15276], [120.38136, -4.16725], [120.3816, -4.2077], [120.38054, -4.21795], [120.37525, -4.23773], [120.3742, -4.24928], [120.37582, -4.26328], [120.38787, -4.29404], [120.38624, -4.32928], [120.36231, -4.38698], [120.36736, -4.42441], [120.39177, -4.45289], [120.4026, -4.4721], [120.39869, -4.48919], [120.39275, -4.50628], [120.39308, -4.53167], [120.39715, -4.55722], [120.40211, -4.57448], [120.41424, -4.59287], [120.4441, -4.62664], [120.44996, -4.64658], [120.44662, -4.65667], [120.43849, -4.66513], [120.4192, -4.68076], [120.41586, -4.6889], [120.39617, -4.78721], [120.39527, -4.81097], [120.38657, -4.82928], [120.36638, -4.83563], [120.34343, -4.8375], [120.32643, -4.84206], [120.30942, -4.87127], [120.30665, -4.99285], [120.28403, -5.11159], [120.27564, -5.13388], [120.26433, -5.15], [120.30665, -5.21136], [120.31495, -5.22894], [120.3283, -5.26873], [120.33692, -5.28379], [120.38111, -5.33734], [120.38787, -5.35223], [120.38893, -5.37168], [120.43295, -5.5276], [120.43629, -5.5652], [120.4406, -5.57399], [120.45932, -5.60198], [120.46363, -5.62021], [120.45834, -5.62607], [120.43051, -5.61395], [120.41635, -5.61679], [120.37965, -5.57635], [120.3742, -5.5652], [120.37127, -5.55389], [120.35499, -5.52239], [120.3475, -5.5136], [120.32325, -5.50953], [120.29786, -5.51898], [120.27345, -5.5324], [120.25196, -5.54095], [120.20672, -5.54778], [120.19923, -5.55055], [120.17555, -5.56894], [120.15691, -5.57684], [120.11866, -5.58799], [120.10043, -5.59564], [120.094, -5.59075], [120.0879, -5.58929], [120.07309, -5.5888], [120.01027, -5.57781], [119.99806, -5.57195], [119.98658, -5.56422], [119.9607, -5.56259], [119.93263, -5.56471], [119.91489, -5.56894], [119.89918, -5.57936], [119.85719, -5.62021], [119.85125, -5.63055], [119.84816, -5.65203], [119.84352, -5.66106], [119.8235, -5.67938], [119.80567, -5.69248], [119.77223, -5.70127], [119.72364, -5.70379], [119.67693, -5.69703], [119.64796, -5.67881], [119.64405, -5.66009], [119.64243, -5.63698], [119.63404, -5.61745], [119.60971, -5.60914], [119.59034, -5.62054], [119.57985, -5.64227], [119.57, -5.65594], [119.55242, -5.64332], [119.54713, -5.63177], [119.54762, -5.60817], [119.54566, -5.59564], [119.53834, -5.58522], [119.52898, -5.57968], [119.52117, -5.57252], [119.51759, -5.55804], [119.50278, -5.55584], [119.47413, -5.56081], [119.45533, -5.57383], [119.4699, -5.59564], [119.44825, -5.59499], [119.43328, -5.58782], [119.42481, -5.57334], [119.42213, -5.5512], [119.42596, -5.54176], [119.43328, -5.53216], [119.43751, -5.52174], [119.43238, -5.51035], [119.42481, -5.50124], [119.41472, -5.48235], [119.38014, -5.43401], [119.36036, -5.39642], [119.35279, -5.35564], [119.36061, -5.30755], [119.36964, -5.27679], [119.37525, -5.21152], [119.37989, -5.19166], [119.39471, -5.15683], [119.40366, -5.12412], [119.40846, -5.11582], [119.417, -5.10947], [119.43735, -5.09881], [119.44597, -5.09246], [119.45997, -5.0735], [119.46567, -5.0556], [119.4699, -5.0202], [119.48325, -4.98626], [119.51979, -4.91668], [119.52516, -4.88307], [119.49122, -4.75408], [119.49708, -4.71795], [119.50213, -4.71356], [119.51905, -4.70355], [119.52516, -4.69801], [119.53883, -4.66668], [119.54184, -4.65293], [119.58497, -4.5792], [119.59108, -4.56414], [119.60621, -4.42034], [119.6233, -4.35223], [119.6268, -4.31455], [119.62582, -4.30446], [119.62159, -4.28688], [119.62062, -4.27663], [119.61752, -4.26507], [119.60336, -4.25164], [119.60011, -4.24245], [119.6045, -4.22291], [119.6233, -4.18377], [119.6268, -4.16302], [119.61842, -4.12103], [119.61354, -4.11297], [119.60865, -4.10768], [119.60629, -4.10467], [119.60816, -4.09319], [119.6172, -4.07676], [119.62062, -4.06683], [119.6211, -4.05706], [119.61842, -4.03851], [119.62062, -4.02646], [119.64308, -3.99277], [119.64698, -3.97796], [119.63063, -3.97186], [119.60711, -3.97584], [119.60043, -3.98699], [119.59962, -4.00416], [119.59343, -4.02646], [119.58774, -4.00888], [119.58522, -3.97031], [119.56609, -3.93987], [119.51987, -3.82635], [119.49741, -3.79388], [119.48569, -3.75408], [119.45672, -3.71453], [119.45427, -3.70013], [119.4699, -3.66961], [119.48365, -3.61492], [119.49399, -3.59759], [119.50896, -3.57773], [119.51401, -3.56308], [119.51197, -3.54762], [119.49757, -3.49529], [119.49399, -3.48838], [119.49093, -3.48654], [119.49088, -3.48614], [119.48302, -3.42744], [119.46385, -3.36987], [119.4608, -3.35571], [119.45791, -3.31819], [119.45295, -3.28094], [119.45062, -3.27597], [119.44303, -3.26595], [119.4176, -3.23624], [119.41424, -3.22724], [119.41192, -3.21469], [119.41424, -3.2043], [119.42111, -3.1934], [119.43, -3.18735], [119.43972, -3.18518], [119.44923, -3.18642], [119.46545, -3.19154], [119.47512, -3.19304], [119.48938, -3.18921], [119.50783, -3.18063], [119.54111, -3.1565], [119.56219, -3.14503], [119.58188, -3.13691], [119.62637, -3.12715], [119.63919, -3.12095], [119.64136, -3.1103], [119.63526, -3.09681], [119.60705, -3.05914], [119.54323, -2.9069], [119.53863, -2.88773], [119.53718, -2.86866], [119.53749, -2.84732], [119.54245, -2.82722], [119.54359, -2.8144], [119.54173, -2.80288], [119.51516, -2.75869], [119.53336, -2.75058], [119.56043, -2.7465], [119.5793, -2.74557], [119.59805, -2.74727], [119.63645, -2.75647], [119.66125, -2.75823], [119.72776, -2.73782], [119.76683, -2.71787], [119.77799, -2.70728], [119.78564, -2.69503], [119.78688, -2.68686], [119.78347, -2.68004], [119.77706, -2.67353], [119.77045, -2.66537], [119.76704, -2.65534], [119.76828, -2.64402], [119.77365, -2.62449], [119.77479, -2.61338], [119.73898, -2.56527], [119.73489, -2.52729], [119.73768, -2.50228], [119.73453, -2.48662], [119.72843, -2.47453], [119.71856, -2.46037], [119.71567, -2.44998], [119.71639, -2.43882], [119.729, -2.41303], [119.73252, -2.39629], [119.729, -2.38435], [119.72166, -2.372], [119.70709, -2.35391], [119.67247, -2.32466], [119.66032, -2.3181], [119.63759, -2.30895], [119.62689, -2.30182], [119.62358, -2.29356], [119.6241, -2.28038], [119.62751, -2.26182], [119.63123, -2.2131], [119.63526, -2.19397], [119.64627, -2.1764], [119.7535, -2.08178], [119.76673, -2.07693], [119.77763, -2.07858], [119.7891, -2.07796], [119.8015, -2.07166], [119.81386, -2.06049], [119.82502, -2.04623], [119.87349, -1.95538], [119.90884, -1.93833], [119.96542, -1.90236], [120.04805, -1.86149], [120.06862, -1.85451], [120.10128, -1.85265], [120.15678, -1.8604], [120.29238, -1.90019], [120.32349, -1.90355], [120.34457, -1.89988], [120.35232, -1.89182], [120.35708, -1.88309], [120.36617, -1.86097], [120.37299, -1.84934], [120.38354, -1.84071], [120.40488, -1.83767], [120.42653, -1.84712], [120.44761, -1.86624], [120.55324, -2.02504], [120.58833, -2.06747], [120.62497, -2.10421], [120.76362, -2.21749], [120.80418, -2.23857], [121.34978, -2.34849], [121.39846, -2.36378], [121.4489, -2.38848], [121.47117, -2.40295], [121.48941, -2.4181], [121.54636, -2.48419], [121.60827, -2.53814], [121.63803, -2.55793], [121.74201, -2.61007], [121.76371, -2.6279], [121.77684, -2.64682], [121.78738, -2.67012], [121.79368, -2.69524], [121.79637, -2.7171], [121.79549, -2.73746], [121.79203, -2.75849], [121.78495, -2.77678], [121.7725, -2.80091], [121.61623, -2.96049], [121.59804, -2.97284], [121.53654, -3.00922], [121.51535, -3.01754], [121.50233, -3.02095], [121.48848, -3.02209], [121.47525, -3.01976], [121.43246, -2.99418], [121.35009, -2.927], [121.27764, -2.87894], [121.2608, -2.8715], [121.24374, -2.86727], [121.22628, -2.86556], [121.20566, -2.86649], [121.16354, -2.87347], [121.12788, -2.88561], [121.08685, -2.9099], [121.08637, -2.91018], [121.08725, -2.90456], [121.08172, -2.87233], [121.07081, -2.85101], [121.05934, -2.86207]]], [[[121.37146, -1.62604], [121.60217, -1.72484], [121.68457, -1.87302], [121.5033, -2.1035], [121.27808, -2.17483], [121.1792, -1.94985], [121.20117, -1.70288], [121.37146, -1.62604]]], [[[119.92676, -1.01672], [119.7345, -1.01672], [119.70703, -0.81907], [119.64661, -0.53356], [119.78394, -0.48964], [119.91577, -0.61043], [119.95972, -0.90692], [119.92676, -1.01672]]], [[[121.81031, -7.40423], [121.77589, -7.41692], [121.75904, -7.41578], [121.7518, -7.3943], [121.75408, -7.37908], [121.75994, -7.36354], [121.76889, -7.35076], [121.7798, -7.34344], [121.81821, -7.33359], [121.83709, -7.35654], [121.83481, -7.38828], [121.81031, -7.40423]]], [[[122.01416, -4.72874], [122.10754, -4.80535], [122.01965, -4.88742], [121.9043, -4.88195], [122.01416, -4.72874]]], [[[121.47583, -4.4496], [121.44836, -4.2525], [121.60767, -4.20322], [121.6626, -4.30726], [121.64063, -4.42223], [121.47583, -4.4496]]], [[[121.65161, -4.17583], [121.25061, -3.84719], [121.34949, -3.77048], [121.73401, -3.98962], [121.76147, -4.12655], [121.65161, -4.17583]]], [[[122.12952, -1.58213], [122.12952, -1.67544], [121.77246, -1.7907], [121.69006, -1.61507], [121.93176, -1.51078], [122.08557, -1.51078], [122.12952, -1.58213]]]]}, "properties": {"id": "a0Zq", "status": "validé", "pieces": [{"kind": "admin1", "code": "IDN-1236"}, {"kind": "polygon", "ring": [[121.25061, -3.84719], [121.34949, -3.77048], [121.73401, -3.98962], [121.76147, -4.12655], [121.65161, -4.17583]]}, {"kind": "polygon", "ring": [[121.60767, -4.20322], [121.6626, -4.30726], [121.64063, -4.42223], [121.47583, -4.4496], [121.44836, -4.2525]]}, {"kind": "polygon", "ring": [[122.01416, -4.72874], [121.9043, -4.88195], [122.01965, -4.88742], [122.10754, -4.80535]]}, {"kind": "polygon", "ring": [[121.5033, -2.1035], [121.27808, -2.17483], [121.1792, -1.94985], [121.20117, -1.70288], [121.37146, -1.62604], [121.60217, -1.72484], [121.68457, -1.87302]]}, {"kind": "polygon", "ring": [[121.77246, -1.7907], [121.69006, -1.61507], [121.93176, -1.51078], [122.08557, -1.51078], [122.12952, -1.58213], [122.12952, -1.67544]]}, {"kind": "polygon", "ring": [[119.78394, -0.48964], [119.91577, -0.61043], [119.95972, -0.90692], [119.92676, -1.01672], [119.7345, -1.01672], [119.70703, -0.81907], [119.64661, -0.53356]]}]}}, {"type": "Feature", "geometry": null, "properties": {"id": "b5h6", "status": "validé", "pieces": [{"kind": "admin1", "code": "IDN-1235"}, {"kind": "admin1", "code": "IDN-555"}]}}, {"type": "Feature", "geometry": null, "properties": {"id": "bXHT", "status": "validé", "pieces": [{"kind": "admin1", "code": "IDN-1931"}]}}, {"type": "Feature", "geometry": null, "properties": {"id": "bas1", "status": "validé", "pieces": [{"kind": "admin1", "code": "IDN-1185"}, {"kind": "admin1", "code": "IDN-1234"}, {"kind": "admin1", "code": "IDN-1931"}]}}, {"type": "Feature", "geometry": null, "properties": {"id": "cPPJ", "status": "validé", "pieces": [{"kind": "country"}]}}, {"type": "Feature", "geometry": null, "properties": {"id": "dZoK", "status": "validé", "pieces": [{"kind": "admin1", "code": "IDN-539"}]}}, {"type": "Feature", "geometry": null, "properties": {"id": "dZp8", "status": "validé", "pieces": [{"kind": "admin1", "code": "IDN-1226"}, {"kind": "admin1", "code": "IDN-1223"}]}}, {"type": "Feature", "geometry": null, "properties": {"id": "dxow", "status": "validé", "pieces": [{"kind": "admin1", "code": "IDN-1228"}, {"kind": "admin1", "code": "IDN-1931"}, {"kind": "admin1", "code": "IDN-1234"}, {"kind": "admin1", "code": "IDN-1185"}, {"kind": "admin1", "code": "IDN-1930"}, {"kind": "admin1", "code": "IDN-1230"}, {"kind": "admin1", "code": "IDN-1231"}, {"kind": "admin1", "code": "IDN-492"}, {"kind": "admin1", "code": "IDN-539"}, {"kind": "admin1", "code": "IDN-381"}, {"kind": "admin1", "code": "IDN-1136"}]}}, {"type": "Feature", "geometry": null, "properties": {"id": "hOwL", "status": "validé", "pieces": [{"kind": "country"}]}}, {"type": "Feature", "geometry": null, "properties": {"id": "hYSj", "status": "validé", "pieces": [{"kind": "admin1", "code": "IDN-1235"}, {"kind": "admin1", "code": "IDN-555"}]}}, {"type": "Feature", "geometry": null, "properties": {"id": "hewR", "status": "validé", "pieces": [{"kind": "admin1", "code": "IDN-1230"}, {"kind": "admin1", "code": "IDN-1229"}, {"kind": "admin1", "code": "IDN-1231"}, {"kind": "admin1", "code": "IDN-1136"}, {"kind": "admin1", "code": "IDN-1236"}, {"kind": "admin1", "code": "IDN-556"}]}}, {"type": "Feature", "geometry": {"type": "Polygon", "coordinates": [[[98.49243, 2.845], [98.46497, 2.71886], [98.5968, 2.44459], [98.83301, 2.2416], [99.02527, 2.21416], [99.20105, 2.29098], [99.18457, 2.7024], [98.95935, 2.85048], [98.66821, 2.98209], [98.45398, 2.97113], [98.49243, 2.845]]]}, "properties": {"id": "hhbb", "status": "validé", "pieces": [{"kind": "polygon", "ring": [[98.49243, 2.845], [98.46497, 2.71886], [98.5968, 2.44459], [98.83301, 2.2416], [99.02527, 2.21416], [99.20105, 2.29098], [99.18457, 2.7024], [98.95935, 2.85048], [98.66821, 2.98209], [98.45398, 2.97113]]}]}}, {"type": "Feature", "geometry": null, "properties": {"id": "iDjC", "status": "validé", "pieces": [{"kind": "admin1", "code": "IDN-1236"}, {"kind": "admin1", "code": "IDN-1931"}, {"kind": "admin1", "code": "IDN-1234"}, {"kind": "admin1", "code": "IDN-492"}]}}, {"type": "Feature", "geometry": null, "properties": {"id": "l5TB", "status": "validé", "pieces": [{"kind": "admin1", "code": "IDN-1837"}]}}, {"type": "Feature", "geometry": null, "properties": {"id": "p091", "status": "validé", "pieces": [{"kind": "admin1", "code": "IDN-1231"}]}}, {"type": "Feature", "geometry": {"type": "Polygon", "coordinates": [[[119.98718, -1.06462], [119.98718, -0.53754], [119.64661, -0.53754], [119.64661, -1.06462], [119.98718, -1.06462]]]}, "properties": {"id": "qYf4", "status": "validé", "pieces": [{"kind": "rect", "bounds": [119.64661, -1.06462, 119.98718, -0.53754]}]}}, {"type": "Feature", "geometry": null, "properties": {"id": "r8SA", "status": "validé", "pieces": [{"kind": "admin1", "code": "IDN-1232"}]}}, {"type": "Feature", "geometry": null, "properties": {"id": "rHW9", "status": "validé", "pieces": [{"kind": "admin1", "code": "IDN-1232"}]}}, {"type": "Feature", "geometry": null, "properties": {"id": "u0Sw", "status": "validé", "pieces": [{"kind": "country"}]}}, {"type": "Feature", "geometry": {"type": "Polygon", "coordinates": [[[118.78967, -9.28029], [118.78418, -10.15164], [120.49255, -10.48657], [121.09131, -10.09759], [120.73425, -9.28029], [119.27307, -9.02008], [118.78967, -9.28029]]]}, "properties": {"id": "xYgP", "status": "validé", "pieces": [{"kind": "polygon", "ring": [[118.78967, -9.28029], [118.78418, -10.15164], [120.49255, -10.48657], [121.09131, -10.09759], [120.73425, -9.28029], [119.27307, -9.02008]]}]}}, {"type": "Feature", "geometry": null, "properties": {"id": "xaSG", "status": "validé", "pieces": [{"kind": "admin1", "code": "IDN-1229"}, {"kind": "admin1", "code": "IDN-1226"}, {"kind": "admin1", "code": "IDN-1223"}, {"kind": "admin1", "code": "IDN-1230"}, {"kind": "admin1", "code": "IDN-1224"}, {"kind": "admin1", "code": "IDN-1233"}, {"kind": "admin1", "code": "IDN-540"}, {"kind": "admin1", "code": "IDN-1227"}, {"kind": "admin1", "code": "IDN-1232"}]}}, {"type": "Feature", "geometry": null, "properties": {"id": "yzpd", "status": "validé", "pieces": [{"kind": "admin1", "code": "IDN-1236"}, {"kind": "admin1", "code": "IDN-1237"}, {"kind": "admin1", "code": "IDN-556"}, {"kind": "admin1", "code": "IDN-557"}, {"kind": "admin1", "code": "IDN-1837"}, {"kind": "admin1", "code": "IDN-513"}]}}]}