{"type": "FeatureCollection", "features": [{"type": "Feature", "geometry": {"type": "Polygon", "coordinates": [[[-6.41052, 53.27217], [-6.55334, 53.14721], [-6.62476, 52.96239], [-6.56433, 52.87303], [-6.46545, 52.83656], [-6.25122, 52.83656], [-6.17981, 53.02852], [-6.1908, 53.17687], [-6.24573, 53.2722], [-6.41052, 53.27217]]]}, "properties": {"id": "0oal", "status": "validé", "pieces": [{"kind": "polygon", "ring": [[-6.41052, 53.27217], [-6.55334, 53.14721], [-6.62476, 52.96239], [-6.56433, 52.87303], [-6.46545, 52.83656], [-6.25122, 52.83656], [-6.17981, 53.02852], [-6.1908, 53.17687], [-6.24573, 53.2722]]}]}}, {"type": "Feature", "geometry": {"type": "MultiPolygon", "coordinates": [[[[-9.52515, 52.53779], [-9.12964, 52.3101], [-8.95386, 52.08798], [-8.9978, 51.73571], [-9.15419, 51.52257], [-9.1586, 51.52204], [-9.18456, 51.52619], [-9.19253, 51.5246], [-9.18961, 51.51459], [-9.18961, 51.50837], [-9.20397, 51.508], [-9.21085, 51.50169], [-9.21573, 51.49348], [-9.22378, 51.48729], [-9.23473, 51.48648], [-9.24376, 51.48933], [-9.25304, 51.49116], [-9.26476, 51.48729], [-9.26537, 51.49413], [-9.26749, 51.49885], [-9.27009, 51.503], [-9.27213, 51.50837], [-9.29947, 51.4975], [-9.30175, 51.48871], [-9.30744, 51.48729], [-9.3153, 51.48762], [-9.32372, 51.48383], [-9.33532, 51.477], [-9.34923, 51.47403], [-9.38142, 51.47362], [-9.36994, 51.47858], [-9.36071, 51.48383], [-9.35314, 51.49087], [-9.34667, 51.50092], [-9.36116, 51.49457], [-9.37291, 51.49128], [-9.37686, 51.49462], [-9.36779, 51.50837], [-9.35709, 51.51716], [-9.33239, 51.52766], [-9.31994, 51.53506], [-9.32291, 51.53734], [-9.32413, 51.53803], [-9.32506, 51.53913], [-9.32746, 51.54255], [-9.33581, 51.53726], [-9.36779, 51.52509], [-9.37169, 51.51935], [-9.38109, 51.5124], [-9.40184, 51.50092], [-9.41389, 51.51114], [-9.41259, 51.5207], [-9.40587, 51.53172], [-9.40184, 51.54597], [-9.40884, 51.55219], [-9.42504, 51.55756], [-9.44327, 51.55952], [-9.45653, 51.55557], [-9.44799, 51.54365], [-9.47655, 51.53506], [-9.54748, 51.52529], [-9.55138, 51.52123], [-9.5528, 51.51146], [-9.5563, 51.50812], [-9.57388, 51.50898], [-9.58072, 51.50837], [-9.59996, 51.49689], [-9.61132, 51.49384], [-9.62841, 51.49409], [-9.62963, 51.50406], [-9.64184, 51.5152], [-9.65591, 51.52017], [-9.66267, 51.51146], [-9.71719, 51.48041], [-9.71081, 51.47598], [-9.70808, 51.47456], [-9.70352, 51.47362], [-9.77184, 51.45311], [-9.76895, 51.4643], [-9.77794, 51.46223], [-9.80663, 51.4457], [-9.81339, 51.45311], [-9.82022, 51.4457], [-9.81892, 51.45848], [-9.81701, 51.46312], [-9.81339, 51.46743], [-9.81339, 51.47362], [-9.82217, 51.47541], [-9.82632, 51.47773], [-9.83389, 51.48729], [-9.812, 51.49152], [-9.79381, 51.49966], [-9.75817, 51.52204], [-9.74006, 51.52977], [-9.70499, 51.53571], [-9.68309, 51.54255], [-9.6654, 51.55158], [-9.62165, 51.58283], [-9.60277, 51.59199], [-9.56676, 51.60228], [-9.54589, 51.61078], [-9.59203, 51.61371], [-9.78502, 51.55248], [-9.84752, 51.54938], [-9.80529, 51.56672], [-9.79605, 51.56924], [-9.78637, 51.57347], [-9.77929, 51.58283], [-9.77033, 51.59223], [-9.73119, 51.6009], [-9.60798, 51.6424], [-9.59455, 51.6555], [-9.56188, 51.65815], [-9.52473, 51.67032], [-9.4879, 51.67573], [-9.45861, 51.68399], [-9.45653, 51.70014], [-9.45177, 51.70498], [-9.44742, 51.71088], [-9.44294, 51.71381], [-9.44294, 51.72004], [-9.45726, 51.7246], [-9.47281, 51.71882], [-9.48982, 51.71455], [-9.51281, 51.7259], [-9.52147, 51.72553], [-9.52546, 51.72687], [-9.52644, 51.73078], [-9.52453, 51.74339], [-9.52546, 51.7473], [-9.53173, 51.75153], [-9.54027, 51.75593], [-9.55012, 51.75951], [-9.56021, 51.76162], [-9.5559, 51.74868], [-9.55728, 51.73945], [-9.55663, 51.7309], [-9.54589, 51.72004], [-9.56607, 51.7167], [-9.57966, 51.7106], [-9.60733, 51.69269], [-9.62682, 51.68505], [-9.64806, 51.68081], [-9.71349, 51.67646], [-9.74795, 51.66743], [-9.87414, 51.65619], [-9.91535, 51.6446], [-9.93008, 51.63744], [-9.93187, 51.63471], [-9.93212, 51.63105], [-9.93293, 51.62727], [-9.93635, 51.62385], [-9.94188, 51.62132], [-10.00475, 51.60855], [-10.0288, 51.5965], [-10.04027, 51.59764], [-10.05993, 51.60277], [-10.07006, 51.60395], [-10.11612, 51.60029], [-10.13866, 51.5939], [-10.15608, 51.58283], [-10.16283, 51.59028], [-10.15526, 51.59382], [-10.15323, 51.59931], [-10.1527, 51.60541], [-10.14924, 51.61078], [-10.1433, 51.61359], [-10.07506, 51.62539], [-10.0598, 51.63129], [-10.0598, 51.63569], [-10.06103, 51.63666], [-10.06347, 51.63646], [-10.06664, 51.63744], [-10.06265, 51.64985], [-10.07067, 51.65705], [-10.08532, 51.6599], [-10.10082, 51.65925], [-10.08812, 51.67162], [-10.0664, 51.67438], [-10.02575, 51.67227], [-10.00377, 51.67805], [-9.95686, 51.70637], [-9.95686, 51.71381], [-9.99779, 51.71381], [-9.9807, 51.73188], [-9.94937, 51.74702], [-9.91491, 51.75755], [-9.88854, 51.76162], [-9.89167, 51.75702], [-9.89704, 51.74673], [-9.90225, 51.74116], [-9.88451, 51.74339], [-9.86791, 51.7486], [-9.85652, 51.75861], [-9.8544, 51.77529], [-9.8413, 51.76972], [-9.8238, 51.76781], [-9.78551, 51.7685], [-9.78551, 51.77529], [-9.79336, 51.77619], [-9.81339, 51.78213], [-9.81339, 51.78827], [-9.79988, 51.79377], [-9.77432, 51.8122], [-9.75451, 51.81908], [-9.74291, 51.83246], [-9.73766, 51.83674], [-9.72985, 51.83804], [-9.70352, 51.83674], [-9.67105, 51.843], [-9.61254, 51.86351], [-9.58072, 51.87018], [-9.58072, 51.87767], [-9.65315, 51.87177], [-9.75805, 51.84699], [-9.77717, 51.83975], [-9.78551, 51.83332], [-9.79174, 51.82681], [-9.8247, 51.82685], [-9.84008, 51.82368], [-9.83389, 51.81623], [-9.86384, 51.80427], [-9.87487, 51.80256], [-9.87271, 51.80732], [-9.86994, 51.81867], [-9.86803, 51.82368], [-9.88219, 51.82368], [-9.89049, 51.81957], [-9.89611, 51.81411], [-9.90225, 51.81], [-9.91422, 51.80732], [-9.9383, 51.805], [-9.94994, 51.80256], [-9.99364, 51.78095], [-10.01675, 51.77464], [-10.03938, 51.78213], [-10.05944, 51.7687], [-10.08454, 51.75593], [-10.1112, 51.74604], [-10.13561, 51.74116], [-10.12975, 51.75434], [-10.22435, 51.78213], [-10.18615, 51.78962], [-10.17707, 51.81367], [-10.1942, 51.8391], [-10.23461, 51.85102], [-10.24608, 51.84561], [-10.27123, 51.82168], [-10.28262, 51.81623], [-10.29475, 51.8124], [-10.32575, 51.79418], [-10.34105, 51.78827], [-10.34659, 51.80109], [-10.33471, 51.83027], [-10.34105, 51.84357], [-10.3557, 51.84561], [-10.37589, 51.84443], [-10.3889, 51.84618], [-10.38195, 51.85716], [-10.38248, 51.86196], [-10.38484, 51.86335], [-10.38736, 51.86343], [-10.38878, 51.864], [-10.38671, 51.86774], [-10.38463, 51.87018], [-10.3828, 51.87287], [-10.38195, 51.87767], [-10.38537, 51.878], [-10.39224, 51.87751], [-10.39562, 51.87767], [-10.39562, 51.88451], [-10.36266, 51.88719], [-10.27961, 51.90559], [-10.2622, 51.90559], [-10.25414, 51.90868], [-10.25089, 51.91551], [-10.25158, 51.92235], [-10.25503, 51.92548], [-10.26919, 51.93081], [-10.27782, 51.94196], [-10.28799, 51.95185], [-10.30687, 51.95344], [-10.30687, 51.95962], [-10.29532, 51.96426], [-10.27058, 51.96971], [-10.25845, 51.97386], [-10.26623, 51.98847], [-10.24543, 51.99506], [-10.21736, 51.99893], [-10.1918, 52.00983], [-10.12816, 52.02851], [-10.03327, 52.04108], [-9.99267, 52.05589], [-9.97106, 52.08991], [-9.96361, 52.08991], [-9.96373, 52.07197], [-9.95434, 52.06415], [-9.94034, 52.06232], [-9.92638, 52.06269], [-9.9296, 52.07193], [-9.90844, 52.13093], [-9.87751, 52.11953], [-9.84618, 52.11856], [-9.77184, 52.1247], [-9.77892, 52.12857], [-9.78751, 52.1354], [-9.79296, 52.13837], [-9.75817, 52.15205], [-9.95686, 52.14521], [-9.94376, 52.1247], [-9.95006, 52.11323], [-9.95466, 52.10879], [-9.9606, 52.12494], [-9.97033, 52.13166], [-9.98351, 52.13589], [-9.99779, 52.13837], [-10.02807, 52.13963], [-10.16242, 52.11872], [-10.18627, 52.10944], [-10.19713, 52.11542], [-10.20702, 52.12507], [-10.21752, 52.13093], [-10.2279, 52.1284], [-10.23461, 52.12238], [-10.24206, 52.11978], [-10.26773, 52.13581], [-10.27892, 52.13638], [-10.30687, 52.13093], [-10.30687, 52.1247], [-10.29699, 52.12474], [-10.28856, 52.12324], [-10.27208, 52.11791], [-10.27208, 52.11172], [-10.29743, 52.11441], [-10.34488, 52.12466], [-10.36832, 52.1247], [-10.36742, 52.11799], [-10.36437, 52.11489], [-10.35407, 52.11172], [-10.37572, 52.11127], [-10.41527, 52.09968], [-10.43659, 52.0974], [-10.46076, 52.10301], [-10.46752, 52.11514], [-10.46931, 52.13202], [-10.47818, 52.15205], [-10.46947, 52.1551], [-10.45092, 52.16572], [-10.45092, 52.17194], [-10.46129, 52.18], [-10.4497, 52.18891], [-10.42821, 52.19636], [-10.40929, 52.19977], [-10.41666, 52.18618], [-10.3946, 52.17479], [-10.38207, 52.17194], [-10.37206, 52.1756], [-10.36925, 52.18366], [-10.37267, 52.19062], [-10.37316, 52.19782], [-10.36148, 52.20669], [-10.37157, 52.21158], [-10.3758, 52.21284], [-10.36657, 52.22822], [-10.35473, 52.23224], [-10.33975, 52.23188], [-10.32055, 52.23457], [-10.30899, 52.24189], [-10.28698, 52.26362], [-10.27579, 52.26813], [-10.17186, 52.28681], [-10.15608, 52.27863], [-10.1682, 52.24067], [-10.16625, 52.23457], [-10.10082, 52.24079], [-10.07144, 52.25129], [-10.04491, 52.26927], [-10.03604, 52.29035], [-10.0598, 52.30964], [-10.02477, 52.31013], [-10.01354, 52.30634], [-10.0183, 52.29605], [-10.01358, 52.28148], [-10.01281, 52.26586], [-10.00878, 52.25336], [-9.99437, 52.24824], [-9.97814, 52.24641], [-9.9475, 52.23762], [-9.91369, 52.23306], [-9.87222, 52.23265], [-9.85806, 52.2377], [-9.83723, 52.2543], [-9.82559, 52.25825], [-9.81339, 52.25507], [-9.82022, 52.25194], [-9.82649, 52.24824], [-9.81005, 52.24213], [-9.73766, 52.24824], [-9.75341, 52.25829], [-9.76765, 52.26097], [-9.79918, 52.2613], [-9.83178, 52.27265], [-9.84679, 52.27497], [-9.86189, 52.26813], [-9.86937, 52.27314], [-9.87491, 52.27924], [-9.87877, 52.28681], [-9.88109, 52.29605], [-9.86897, 52.28876], [-9.85961, 52.28473], [-9.84923, 52.28473], [-9.83389, 52.28921], [-9.84679, 52.29389], [-9.85334, 52.2954], [-9.86189, 52.29605], [-9.86189, 52.30345], [-9.85192, 52.30366], [-9.82649, 52.30964], [-9.83764, 52.3264], [-9.83446, 52.37523], [-9.85098, 52.38544], [-9.90372, 52.39155], [-9.93175, 52.39985], [-9.94994, 52.4121], [-9.93497, 52.42154], [-9.91588, 52.4256], [-9.84838, 52.42841], [-9.74893, 52.45673], [-9.73559, 52.46361], [-9.72061, 52.47724], [-9.70352, 52.48355], [-9.6774, 52.48314], [-9.65136, 52.47895], [-9.63463, 52.47358], [-9.63878, 52.48713], [-9.6505, 52.49384], [-9.66637, 52.4958], [-9.68309, 52.49462], [-9.67732, 52.4997], [-9.6752, 52.50483], [-9.67711, 52.51008], [-9.68309, 52.51512], [-9.68309, 52.52196], [-9.67492, 52.52802], [-9.67321, 52.53388], [-9.67565, 52.54584], [-9.67195, 52.55292], [-9.64831, 52.57038], [-9.64281, 52.56733], [-9.63646, 52.57014], [-9.62853, 52.57477], [-9.61791, 52.57722], [-9.57697, 52.57038], [-9.5323, 52.57038], [-9.52515, 52.53779]]], [[[-7.73438, 54.16581], [-8.38257, 54.21721], [-8.97583, 54.09503], [-9.07471, 53.9531], [-9.09119, 53.7393], [-8.97034, 53.55378], [-8.78906, 53.2559], [-8.84399, 53.08804], [-9.18457, 52.99891], [-9.31641, 52.83734], [-9.53839, 52.64542], [-9.53844, 52.64545], [-9.53327, 52.66096], [-9.54418, 52.66665], [-9.58072, 52.66596], [-9.58072, 52.65913], [-9.57136, 52.65713], [-9.56339, 52.65306], [-9.557, 52.64704], [-9.5528, 52.63931], [-9.62841, 52.61758], [-9.67272, 52.61164], [-9.69441, 52.60562], [-9.70352, 52.59431], [-9.70686, 52.58023], [-9.71451, 52.5786], [-9.72362, 52.58226], [-9.73082, 52.58405], [-9.75748, 52.57197], [-9.93635, 52.55671], [-9.93635, 52.56293], [-9.9182, 52.5681], [-9.87564, 52.58682], [-9.82409, 52.59516], [-9.62165, 52.71377], [-9.62426, 52.71748], [-9.62841, 52.72744], [-9.61754, 52.73062], [-9.60318, 52.73774], [-9.59366, 52.74103], [-9.58072, 52.74335], [-9.54939, 52.74103], [-9.5382, 52.74226], [-9.51952, 52.7473], [-9.50837, 52.74848], [-9.49865, 52.75251], [-9.49462, 52.76203], [-9.49132, 52.77334], [-9.4838, 52.78266], [-9.48917, 52.78681], [-9.48933, 52.78734], [-9.48668, 52.78876], [-9.4838, 52.79572], [-9.49128, 52.80317], [-9.48062, 52.80683], [-9.4698, 52.81318], [-9.45946, 52.82136], [-9.45035, 52.83047], [-9.44449, 52.83934], [-9.4414, 52.84715], [-9.43749, 52.85346], [-9.42919, 52.85773], [-9.42919, 52.86457], [-9.42748, 52.87775], [-9.3653, 52.91413], [-9.35407, 52.9335], [-9.37287, 52.93716], [-9.4514, 52.93464], [-9.47765, 52.94033], [-9.44945, 52.95751], [-9.43757, 52.96674], [-9.40795, 52.99702], [-9.39855, 53.0041], [-9.3876, 53.00861], [-9.39509, 53.01545], [-9.34162, 53.07697], [-9.31994, 53.09113], [-9.30333, 53.1079], [-9.28966, 53.12922], [-9.27221, 53.14667], [-9.25109, 53.15192], [-9.22745, 53.14354], [-9.18053, 53.11677], [-9.1586, 53.11103], [-9.13956, 53.11542], [-9.11897, 53.12336], [-9.09667, 53.12702], [-9.07287, 53.11848], [-9.07006, 53.13447], [-9.08434, 53.14346], [-9.12816, 53.15192], [-9.12816, 53.15941], [-9.06957, 53.1662], [-9.05394, 53.16242], [-9.02343, 53.14716], [-9.00406, 53.14574], [-9.00406, 53.15192], [-9.04564, 53.1662], [-9.04564, 53.17373], [-9.02257, 53.16743], [-9.00963, 53.16608], [-8.99812, 53.1739], [-8.98668, 53.17699], [-8.97887, 53.17577], [-8.9842, 53.1662], [-8.97423, 53.15794], [-8.96349, 53.1518], [-8.95108, 53.14777], [-8.93639, 53.14574], [-8.94522, 53.16616], [-8.9501, 53.17373], [-8.95686, 53.17988], [-8.944, 53.19501], [-8.92821, 53.20588], [-8.89485, 53.22089], [-8.90539, 53.22069], [-8.92414, 53.21589], [-8.93269, 53.21467], [-9.03148, 53.21662], [-9.04564, 53.22089], [-9.02807, 53.22752], [-8.98265, 53.23444], [-8.96312, 53.23517], [-8.96312, 53.24193], [-8.99112, 53.24193], [-8.99112, 53.2482], [-8.98176, 53.25324], [-8.95588, 53.25788], [-8.94262, 53.26179], [-8.94262, 53.26862], [-9.02208, 53.27546], [-9.04223, 53.27334], [-9.07706, 53.26398], [-9.40144, 53.24799], [-9.43293, 53.23859], [-9.44787, 53.23188], [-9.47008, 53.22826], [-9.51171, 53.22834], [-9.53295, 53.23444], [-9.54442, 53.24356], [-9.55313, 53.25336], [-9.5664, 53.26179], [-9.54727, 53.27912], [-9.55456, 53.29072], [-9.57136, 53.29047], [-9.58072, 53.27204], [-9.58519, 53.25043], [-9.59683, 53.2377], [-9.61229, 53.23615], [-9.62841, 53.2482], [-9.62841, 53.2556], [-9.60912, 53.27631], [-9.6173, 53.32148], [-9.5974, 53.33006], [-9.59411, 53.32917], [-9.58422, 53.3249], [-9.57697, 53.32392], [-9.57299, 53.32608], [-9.56652, 53.33539], [-9.56339, 53.33759], [-9.56078, 53.34121], [-9.60115, 53.36489], [-9.5902, 53.37238], [-9.5528, 53.3854], [-9.58886, 53.38642], [-9.60656, 53.38471], [-9.62165, 53.37848], [-9.60851, 53.3666], [-9.6066, 53.34935], [-9.61547, 53.33466], [-9.63463, 53.33006], [-9.6525, 53.34125], [-9.64794, 53.35993], [-9.63777, 53.37751], [-9.63842, 53.3854], [-9.64415, 53.3874], [-9.64835, 53.39106], [-9.65266, 53.39281], [-9.65884, 53.38907], [-9.67252, 53.37848], [-9.68472, 53.37523], [-9.69278, 53.36762], [-9.70352, 53.35179], [-9.72753, 53.32608], [-9.74307, 53.3144], [-9.7904, 53.30158], [-9.80671, 53.30158], [-9.82335, 53.3133], [-9.84293, 53.32331], [-9.88659, 53.31721], [-9.90225, 53.32392], [-9.89786, 53.32787], [-9.89281, 53.34056], [-9.89074, 53.35187], [-9.8872, 53.3592], [-9.88028, 53.3631], [-9.87149, 53.36457], [-9.85806, 53.36489], [-9.8413, 53.36791], [-9.80053, 53.38443], [-9.78551, 53.39277], [-9.78551, 53.39899], [-9.82022, 53.39899], [-9.82022, 53.40644], [-9.79918, 53.41266], [-9.79918, 53.4195], [-9.81408, 53.4195], [-9.82518, 53.41669], [-9.84752, 53.40644], [-9.84691, 53.39936], [-9.86018, 53.39423], [-9.8754, 53.39521], [-9.88109, 53.40644], [-9.87572, 53.41543], [-9.85607, 53.42377], [-9.84752, 53.43374], [-9.86034, 53.43252], [-9.86807, 53.42748], [-9.87491, 53.42207], [-9.88476, 53.4195], [-9.89395, 53.42158], [-9.90233, 53.42524], [-9.91145, 53.42597], [-9.92268, 53.4195], [-9.92565, 53.40973], [-9.92276, 53.39842], [-9.92235, 53.38923], [-9.93322, 53.3854], [-9.94449, 53.38426], [-9.96142, 53.37958], [-10.00109, 53.37922], [-10.01415, 53.38125], [-10.02575, 53.3854], [-10.03596, 53.39374], [-10.04198, 53.40266], [-10.04931, 53.40982], [-10.06322, 53.41266], [-10.10351, 53.40843], [-10.12755, 53.40986], [-10.14175, 53.4195], [-10.14997, 53.41494], [-10.15803, 53.41283], [-10.1765, 53.41266], [-10.16759, 53.42878], [-10.15697, 53.43964], [-10.14224, 53.4457], [-10.12133, 53.44741], [-10.08316, 53.44261], [-10.06798, 53.44383], [-10.05297, 53.4536], [-10.05297, 53.46109], [-10.06456, 53.46198], [-10.07421, 53.46577], [-10.08165, 53.47236], [-10.08715, 53.48151], [-10.06534, 53.47919], [-10.04076, 53.47256], [-10.02058, 53.47044], [-10.01207, 53.48151], [-10.03185, 53.48029], [-10.06941, 53.48477], [-10.10729, 53.49445], [-10.12816, 53.50886], [-10.12914, 53.5152], [-10.13476, 53.52709], [-10.14314, 53.53852], [-10.15266, 53.54361], [-10.18175, 53.53864], [-10.19347, 53.53803], [-10.20324, 53.54361], [-10.18029, 53.55549], [-10.15697, 53.55516], [-10.1328, 53.55069], [-10.10765, 53.54979], [-10.10973, 53.55427], [-10.11303, 53.56574], [-10.1151, 53.5703], [-10.07067, 53.57001], [-10.02575, 53.56289], [-10.02001, 53.55899], [-10.00524, 53.54361], [-9.99572, 53.54621], [-9.98168, 53.55878], [-9.97106, 53.56289], [-10.03189, 53.58714], [-10.04678, 53.59927], [-10.00866, 53.60444], [-9.93074, 53.5998], [-9.90225, 53.60444], [-9.86791, 53.61738], [-9.8544, 53.61811], [-9.8439, 53.61547], [-9.82287, 53.60643], [-9.77505, 53.6013], [-9.69677, 53.59821], [-9.69677, 53.60444], [-9.7141, 53.60985], [-9.78376, 53.60627], [-9.82726, 53.6162], [-9.90844, 53.64606], [-9.92268, 53.69074], [-9.91674, 53.7121], [-9.90567, 53.7285], [-9.89953, 53.74384], [-9.90844, 53.76211], [-9.89892, 53.76606], [-9.86099, 53.77017], [-9.83389, 53.77635], [-9.81021, 53.77806], [-9.79947, 53.78026], [-9.78922, 53.78661], [-9.78344, 53.7871], [-9.76317, 53.77924], [-9.75202, 53.77635], [-9.5664, 53.79629], [-9.5664, 53.80366], [-9.58153, 53.80533], [-9.62165, 53.81733], [-9.61628, 53.8194], [-9.61213, 53.8216], [-9.60753, 53.82339], [-9.60115, 53.82416], [-9.60115, 53.831], [-9.60546, 53.83918], [-9.59484, 53.84821], [-9.56021, 53.86514], [-9.56835, 53.86555], [-9.5869, 53.87197], [-9.57893, 53.87613], [-9.57282, 53.88223], [-9.56859, 53.89008], [-9.5664, 53.89932], [-9.57311, 53.89851], [-9.57738, 53.89753], [-9.58145, 53.89574], [-9.5869, 53.89248], [-9.61547, 53.89883], [-9.75817, 53.89932], [-9.8566, 53.86628], [-9.91076, 53.85871], [-9.94376, 53.87938], [-9.93139, 53.88516], [-9.92516, 53.91303], [-9.90844, 53.92036], [-9.91128, 53.92959], [-9.91161, 53.93399], [-9.90844, 53.94086], [-9.90844, 53.94709], [-9.91588, 53.94709], [-9.91588, 53.95384], [-9.86803, 53.96137], [-9.85924, 53.95869], [-9.83707, 53.94916], [-9.82335, 53.94709], [-9.81164, 53.94172], [-9.80761, 53.91828], [-9.79605, 53.91291], [-9.78751, 53.91608], [-9.78783, 53.92426], [-9.78954, 53.93525], [-9.78551, 53.94709], [-9.79491, 53.95307], [-9.80309, 53.96052], [-9.81265, 53.9663], [-9.82649, 53.9676], [-9.82649, 53.96137], [-9.82022, 53.95384], [-9.83169, 53.95629], [-9.83853, 53.96357], [-9.85021, 53.98847], [-9.84952, 53.99331], [-9.8496, 53.9975], [-9.8544, 54.00235], [-9.86083, 54.00312], [-9.87767, 54.0019], [-9.88109, 54.00536], [-9.88439, 54.01166], [-9.89167, 54.01708], [-9.89892, 54.02534], [-9.90225, 54.04019], [-9.89769, 54.05512], [-9.88671, 54.05972], [-9.87344, 54.0622], [-9.86189, 54.07123], [-9.87589, 54.07486], [-9.87609, 54.08063], [-9.86734, 54.08674], [-9.8544, 54.09105], [-9.86189, 54.09789], [-9.83389, 54.11213], [-9.8435, 54.11701], [-9.85509, 54.11738], [-9.88109, 54.11213], [-9.87857, 54.10395], [-9.87971, 54.10025], [-9.885, 54.09894], [-9.89537, 54.09789], [-9.89537, 54.09105], [-9.88854, 54.09105], [-9.91739, 54.06973], [-9.94555, 54.06623], [-9.97069, 54.07856], [-9.99096, 54.10468], [-9.97155, 54.10423], [-9.92638, 54.11213], [-9.90844, 54.11835], [-9.93887, 54.13166], [-9.95108, 54.14126], [-9.95686, 54.15314], [-9.95035, 54.1507], [-9.93664, 54.14789], [-9.93008, 54.1457], [-9.94274, 54.15746], [-9.97728, 54.18049], [-9.96378, 54.17495], [-9.95202, 54.17463], [-9.94253, 54.1789], [-9.93635, 54.18732], [-9.98819, 54.21312], [-10.01089, 54.21833], [-10.02575, 54.20775], [-10.01146, 54.19709], [-10.017, 54.18867], [-10.0338, 54.18472], [-10.05297, 54.18732], [-10.04406, 54.17699], [-10.03938, 54.17365], [-10.03938, 54.16681], [-10.05354, 54.16804], [-10.06578, 54.16641], [-10.08715, 54.15933], [-10.08715, 54.15314], [-10.07413, 54.15021], [-10.06916, 54.14427], [-10.06664, 54.12519], [-10.07518, 54.12494], [-10.09459, 54.11835], [-10.08145, 54.11298], [-10.06908, 54.10366], [-10.06688, 54.09492], [-10.08397, 54.09105], [-10.10261, 54.09178], [-10.11742, 54.09589], [-10.12658, 54.10602], [-10.12816, 54.12519], [-10.12222, 54.13703], [-10.0996, 54.16547], [-10.09459, 54.17699], [-10.09122, 54.19497], [-10.08275, 54.20327], [-10.07144, 54.2097], [-10.0598, 54.22207], [-10.09113, 54.22248], [-10.10383, 54.22622], [-10.1151, 54.23505], [-10.09606, 54.23517], [-10.08703, 54.24433], [-10.08153, 54.25747], [-10.07348, 54.26919], [-10.06249, 54.27505], [-10.0183, 54.29027], [-10.01423, 54.2945], [-10.01183, 54.29963], [-10.00764, 54.30353], [-9.99779, 54.30394], [-9.99193, 54.30069], [-9.98973, 54.29474], [-9.98835, 54.28832], [-9.98473, 54.28352], [-9.97179, 54.27725], [-9.9545, 54.27196], [-9.93684, 54.2707], [-9.92268, 54.2766], [-9.91535, 54.26874], [-9.90722, 54.26447], [-9.89831, 54.26447], [-9.88854, 54.26919], [-9.88687, 54.26606], [-9.88703, 54.26447], [-9.88598, 54.26374], [-9.88109, 54.26301], [-9.90331, 54.23794], [-9.92715, 54.22675], [-9.95202, 54.2285], [-9.97728, 54.2425], [-9.98363, 54.22297], [-9.96813, 54.21703], [-9.94445, 54.21605], [-9.92638, 54.21113], [-9.9099, 54.20441], [-9.89611, 54.21162], [-9.88288, 54.22289], [-9.86803, 54.22822], [-9.88166, 54.24038], [-9.87515, 54.2565], [-9.859, 54.27058], [-9.84386, 54.2766], [-9.82213, 54.27293], [-9.7871, 54.25776], [-9.765, 54.25556], [-9.77086, 54.26415], [-9.77868, 54.2696], [-9.79918, 54.2766], [-9.79918, 54.28352], [-9.78942, 54.28583], [-9.78002, 54.28628], [-9.75817, 54.28352], [-9.77684, 54.28998], [-9.82921, 54.29686], [-9.84008, 54.30707], [-9.84602, 54.32144], [-9.84398, 54.32876], [-9.78551, 54.33808], [-9.76431, 54.33491], [-9.72631, 54.32079], [-9.70694, 54.31761], [-9.53539, 54.31021], [-9.52428, 54.31135], [-9.50552, 54.31639], [-9.49437, 54.31761], [-9.48571, 54.31586], [-9.47191, 54.30707], [-9.46398, 54.30394], [-9.38451, 54.29719], [-9.37483, 54.29873], [-9.36262, 54.30272], [-9.35115, 54.30817], [-9.34362, 54.31391], [-9.33422, 54.31831], [-9.32201, 54.31708], [-9.27725, 54.30459], [-9.26842, 54.30394], [-9.26098, 54.29971], [-9.25284, 54.28095], [-9.24767, 54.2766], [-9.22989, 54.27847], [-9.21964, 54.28059], [-9.2176, 54.28352], [-9.21101, 54.27562], [-9.20946, 54.26756], [-9.21199, 54.26044], [-9.2176, 54.25556], [-9.2176, 54.24873], [-9.19587, 54.2425], [-9.19587, 54.23505], [-9.21508, 54.22712], [-9.21036, 54.21784], [-9.16198, 54.19204], [-9.14932, 54.18061], [-9.14123, 54.16535], [-9.14123, 54.1457], [-9.135, 54.1457], [-9.13419, 54.16376], [-9.13036, 54.1791], [-9.1289, 54.19306], [-9.135, 54.20775], [-9.11254, 54.21332], [-9.0902, 54.22663], [-9.07299, 54.24677], [-9.06607, 54.27289], [-9.05126, 54.2895], [-9.01749, 54.2919], [-8.95686, 54.28352], [-8.94986, 54.28486], [-8.94441, 54.28824], [-8.93904, 54.28998], [-8.92756, 54.28413], [-8.91023, 54.2779], [-8.89419, 54.27448], [-8.87182, 54.26512], [-8.8566, 54.26301], [-8.80736, 54.26301], [-8.78563, 54.26683], [-8.76513, 54.2766], [-8.73746, 54.26411], [-8.67642, 54.27131], [-8.64835, 54.26301], [-8.64249, 54.25361], [-8.63956, 54.24209], [-8.63329, 54.23237], [-8.60505, 54.22565], [-8.5935, 54.21906], [-8.57266, 54.20034], [-8.55932, 54.20661], [-8.54385, 54.20864], [-8.51122, 54.20775], [-8.51122, 54.21455], [-8.52554, 54.2189], [-8.54361, 54.22215], [-8.55923, 54.22773], [-8.56583, 54.23884], [-8.57213, 54.24653], [-8.58731, 54.25235], [-8.60562, 54.25556], [-8.621, 54.25556], [-8.621, 54.26301], [-8.61425, 54.26781], [-8.60265, 54.27969], [-8.59374, 54.28352], [-8.57169, 54.27717], [-8.55822, 54.27521], [-8.55223, 54.2801], [-8.54076, 54.28437], [-8.47029, 54.2766], [-8.48595, 54.28864], [-8.50414, 54.29719], [-8.52335, 54.30223], [-8.54231, 54.30394], [-8.56265, 54.30305], [-8.56981, 54.30573], [-8.57266, 54.31391], [-8.56721, 54.32416], [-8.5548, 54.32148], [-8.53173, 54.31021], [-8.51171, 54.31737], [-8.51915, 54.32673], [-8.54052, 54.33466], [-8.56212, 54.33808], [-8.66137, 54.33804], [-8.66682, 54.34121], [-8.66828, 54.35175], [-8.66389, 54.35928], [-8.6538, 54.36587], [-8.64175, 54.37043], [-8.61286, 54.37547], [-8.49657, 54.42349], [-8.48013, 54.42683], [-8.47411, 54.43], [-8.47126, 54.43789], [-8.47029, 54.45783], [-8.4667, 54.475], [-8.45922, 54.47187], [-8.45189, 54.46101], [-8.44913, 54.45478], [-8.44514, 54.45392], [-8.44376, 54.45344], [-8.44302, 54.44733], [-8.41393, 54.45954], [-8.38419, 54.46825], [-8.38166, 54.46857], [-8.30012, 54.47797], [-8.28734, 54.47944], [-8.2421, 54.49775], [-8.21019, 54.50194], [-8.21019, 54.50943], [-8.24328, 54.5102], [-8.25797, 54.51423], [-8.27098, 54.52367], [-8.21638, 54.55036], [-8.21886, 54.56977], [-8.17252, 54.59447], [-8.1754, 54.61929], [-8.16466, 54.6153], [-8.15762, 54.61083], [-8.15005, 54.60712], [-8.13756, 54.60562], [-8.12609, 54.63788], [-8.12084, 54.64655], [-8.12389, 54.64863], [-8.12491, 54.64891], [-8.1256, 54.6496], [-8.12767, 54.65278], [-8.1468, 54.64208], [-8.16666, 54.63614], [-8.23493, 54.62938], [-8.27131, 54.61201], [-8.2921, 54.60562], [-8.2921, 54.6118], [-8.28173, 54.62055], [-8.28034, 54.62962], [-8.28726, 54.63679], [-8.30175, 54.6398], [-8.31676, 54.63544], [-8.34236, 54.61616], [-8.36783, 54.60863], [-8.41454, 54.57836], [-8.42797, 54.57172], [-8.44205, 54.56672], [-8.45661, 54.56464], [-8.45661, 54.57079], [-8.43228, 54.58779], [-8.4171, 54.59516], [-8.39818, 54.59813], [-8.38476, 54.60566], [-8.38768, 54.61986], [-8.40005, 54.62857], [-8.41503, 54.61929], [-8.42186, 54.61929], [-8.41869, 54.6413], [-8.43163, 54.6413], [-8.44831, 54.62763], [-8.45661, 54.60871], [-8.46154, 54.60285], [-8.47208, 54.60786], [-8.48176, 54.61595], [-8.4862, 54.62295], [-8.48522, 54.62739], [-8.48616, 54.63129], [-8.49413, 54.63296], [-8.5008, 54.63202], [-8.5113, 54.62775], [-8.51749, 54.62613], [-8.54174, 54.62523], [-8.55346, 54.62263], [-8.56404, 54.60883], [-8.57677, 54.61091], [-8.59691, 54.61929], [-8.6726, 54.61945], [-8.69001, 54.62613], [-8.68196, 54.63581], [-8.6914, 54.6413], [-8.77416, 54.65986], [-8.79182, 54.65961], [-8.78844, 54.6634], [-8.78637, 54.66698], [-8.78344, 54.6704], [-8.77815, 54.6739], [-8.77815, 54.68008], [-8.79109, 54.68488], [-8.79776, 54.69196], [-8.79552, 54.69843], [-8.78157, 54.70124], [-8.76696, 54.70222], [-8.7552, 54.70576], [-8.74743, 54.71308], [-8.74462, 54.72508], [-8.73327, 54.73261], [-8.6621, 54.76264], [-8.63659, 54.76846], [-8.5362, 54.76691], [-8.48371, 54.75678], [-8.45661, 54.75641], [-8.45661, 54.76264], [-8.5266, 54.77277], [-8.5454, 54.78376], [-8.5299, 54.78807], [-8.48493, 54.78937], [-8.47338, 54.78681], [-8.46081, 54.77485], [-8.44469, 54.76313], [-8.42667, 54.75723], [-8.40819, 54.76264], [-8.46129, 54.79352], [-8.49889, 54.80121], [-8.53498, 54.81647], [-8.55842, 54.81786], [-8.55435, 54.82754], [-8.54699, 54.8299], [-8.5371, 54.82978], [-8.52489, 54.83153], [-8.51513, 54.83601], [-8.50186, 54.8465], [-8.49071, 54.852], [-8.47102, 54.84052], [-8.44909, 54.83942], [-8.40197, 54.84455], [-8.34626, 54.83169], [-8.32567, 54.83153], [-8.32567, 54.83832], [-8.34325, 54.83991], [-8.36539, 54.8454], [-8.38134, 54.85594], [-8.38085, 54.8725], [-8.36669, 54.88109], [-8.32738, 54.87702], [-8.31265, 54.87934], [-8.32584, 54.88581], [-8.33703, 54.90363], [-8.35045, 54.90729], [-8.3688, 54.90819], [-8.37401, 54.90729], [-8.37816, 54.90278], [-8.37979, 54.89574], [-8.38012, 54.88923], [-8.38085, 54.88618], [-8.40929, 54.88703], [-8.43261, 54.90156], [-8.45079, 54.92207], [-8.46345, 54.94082], [-8.45043, 54.94627], [-8.44091, 54.94343], [-8.43151, 54.93769], [-8.41845, 54.93456], [-8.40461, 54.9357], [-8.39135, 54.93867], [-8.36657, 54.94819], [-8.39615, 54.95527], [-8.41861, 54.96809], [-8.45661, 54.99543], [-8.45661, 55.00288], [-8.44811, 55.00764], [-8.43773, 55.00983], [-8.42642, 55.00861], [-8.41503, 55.00288], [-8.40469, 55.01288], [-8.40197, 55.01655], [-8.40819, 55.01655], [-8.40319, 55.03067], [-8.39525, 55.03315], [-8.38532, 55.03242], [-8.37401, 55.03636], [-8.35448, 55.06053], [-8.3474, 55.06428], [-8.33788, 55.05842], [-8.33507, 55.03506], [-8.32567, 55.03022], [-8.31998, 55.03433], [-8.31359, 55.05268], [-8.30517, 55.05805], [-8.31652, 55.08747], [-8.32042, 55.10493], [-8.31603, 55.11274], [-8.30435, 55.11921], [-8.2884, 55.15013], [-8.27847, 55.16055], [-8.26301, 55.16108], [-8.20653, 55.14688], [-8.18839, 55.14899], [-8.15762, 55.15839], [-8.14127, 55.16055], [-8.14753, 55.15176], [-8.15429, 55.14525], [-8.15958, 55.13874], [-8.16173, 55.12946], [-8.15648, 55.1245], [-8.14468, 55.13019], [-8.11486, 55.15473], [-8.05427, 55.17695], [-8.03482, 55.18098], [-8.02098, 55.18879], [-8.01179, 55.20506], [-7.99958, 55.21963], [-7.9768, 55.22191], [-7.95019, 55.21027], [-7.95865, 55.1992], [-8.00414, 55.18098], [-8.00414, 55.17414], [-7.96199, 55.1872], [-7.95572, 55.18472], [-7.94904, 55.17984], [-7.93399, 55.18065], [-7.91804, 55.18452], [-7.90856, 55.18842], [-7.89489, 55.17414], [-7.89489, 55.16791], [-7.89879, 55.1564], [-7.89045, 55.15827], [-7.87556, 55.16494], [-7.8601, 55.16791], [-7.86506, 55.15815], [-7.87287, 55.1516], [-7.88297, 55.14793], [-7.89489, 55.14688], [-7.89489, 55.14008], [-7.87654, 55.14053], [-7.86522, 55.13849], [-7.85644, 55.13898], [-7.84651, 55.14688], [-7.83471, 55.16498], [-7.83755, 55.17585], [-7.8601, 55.19465], [-7.86612, 55.21491], [-7.85025, 55.2272], [-7.82396, 55.23859], [-7.7987, 55.25609], [-7.79605, 55.25104], [-7.79503, 55.25088], [-7.79125, 55.24868], [-7.8142, 55.20185], [-7.81574, 55.19465], [-7.81371, 55.19286], [-7.81046, 55.18871], [-7.80557, 55.18415], [-7.7987, 55.18098], [-7.78978, 55.18085], [-7.77994, 55.18744], [-7.77074, 55.18842], [-7.75731, 55.18476], [-7.73664, 55.17666], [-7.7176, 55.16657], [-7.7093, 55.15713], [-7.70739, 55.15347], [-7.69856, 55.14037], [-7.69563, 55.1332], [-7.69595, 55.12604], [-7.70108, 55.10814], [-7.7025, 55.09907], [-7.69473, 55.10806], [-7.67882, 55.13447], [-7.6717, 55.14008], [-7.6682, 55.1472], [-7.67471, 55.16303], [-7.68407, 55.17853], [-7.68883, 55.18472], [-7.69034, 55.19452], [-7.69506, 55.20746], [-7.7036, 55.21845], [-7.71605, 55.22191], [-7.72395, 55.21459], [-7.72199, 55.20026], [-7.7154, 55.18488], [-7.7093, 55.17414], [-7.72313, 55.17573], [-7.73282, 55.18146], [-7.74104, 55.18863], [-7.75023, 55.19465], [-7.77965, 55.19965], [-7.79174, 55.206], [-7.78816, 55.21857], [-7.76085, 55.25043], [-7.76085, 55.25609], [-7.72509, 55.25267], [-7.7093, 55.25609], [-7.67349, 55.27387], [-7.66088, 55.27656], [-7.64395, 55.27277], [-7.63329, 55.26309], [-7.62531, 55.25316], [-7.61653, 55.24868], [-7.6114, 55.2414], [-7.61319, 55.22577], [-7.6175, 55.2106], [-7.61994, 55.2049], [-7.61449, 55.19599], [-7.60147, 55.18928], [-7.57274, 55.18098], [-7.57226, 55.16918], [-7.56412, 55.15575], [-7.55248, 55.14468], [-7.54141, 55.14008], [-7.52782, 55.13255], [-7.52579, 55.11616], [-7.53161, 55.09968], [-7.54141, 55.09223], [-7.55639, 55.08975], [-7.56823, 55.08369], [-7.58641, 55.07111], [-7.64102, 55.05069], [-7.64102, 55.04385], [-7.58117, 55.05044], [-7.56184, 55.0445], [-7.57274, 55.02338], [-7.58458, 55.01606], [-7.63419, 54.99543], [-7.66755, 54.96821], [-7.68139, 54.96125], [-7.68139, 54.95441], [-7.66149, 54.95795], [-7.64338, 54.96528], [-7.54845, 55.01846], [-7.53799, 55.01992], [-7.52937, 55.03071], [-7.50927, 55.03596], [-7.48632, 55.03925], [-7.46911, 55.04385], [-7.45617, 55.05614], [-7.45002, 55.07233], [-7.45442, 55.08625], [-7.47277, 55.09223], [-7.47753, 55.09638], [-7.47338, 55.10545], [-7.46288, 55.11953], [-7.46288, 55.14346], [-7.47004, 55.14517], [-7.51008, 55.18098], [-7.53368, 55.19237], [-7.54141, 55.19806], [-7.54564, 55.20478], [-7.54955, 55.2154], [-7.54939, 55.22516], [-7.52709, 55.23676], [-7.51623, 55.25414], [-7.51358, 55.27436], [-7.52432, 55.29027], [-7.50739, 55.28913], [-7.49275, 55.28535], [-7.47859, 55.28392], [-7.46288, 55.29027], [-7.46557, 55.29361], [-7.46642, 55.29584], [-7.46703, 55.29865], [-7.46911, 55.3039], [-7.44921, 55.29401], [-7.42797, 55.28657], [-7.40591, 55.28693], [-7.36779, 55.31061], [-7.34752, 55.31428], [-7.3275, 55.3085], [-7.31208, 55.29027], [-7.33316, 55.28962], [-7.33995, 55.29027], [-7.32087, 55.28217], [-7.29882, 55.27627], [-7.2766, 55.27582], [-7.25674, 55.284], [-7.32067, 55.3133], [-7.3507, 55.33519], [-7.35302, 55.35855], [-7.37955, 55.36766], [-7.39159, 55.37373], [-7.40022, 55.38028], [-7.38443, 55.38638], [-7.36632, 55.38398], [-7.33251, 55.37279], [-7.26358, 55.35855], [-7.2473, 55.35716], [-7.20885, 55.34512], [-7.19542, 55.33861], [-7.14415, 55.29365], [-7.12906, 55.28583], [-7.07934, 55.27265], [-7.0419, 55.26887], [-6.99649, 55.25772], [-6.9757, 55.24868], [-6.95352, 55.25434], [-6.93956, 55.23908], [-6.94278, 55.21857], [-6.97256, 55.20832], [-7.00064, 55.20515], [-7.03409, 55.19685], [-7.06574, 55.18496], [-7.09976, 55.16547], [-7.13231, 55.15546], [-7.15949, 55.15078], [-7.17284, 55.1435], [-7.21662, 55.10834], [-7.23229, 55.09186], [-7.24498, 55.07343], [-7.2471, 55.06932], [-7.2665, 55.06517], [-7.27529, 55.05886], [-7.28299, 55.05183], [-7.29115, 55.04662], [-7.35502, 55.04093], [-7.36696, 55.03556], [-7.37699, 55.02889], [-7.40525, 55.00357], [-7.40112, 54.99484], [-7.40376, 54.99313], [-7.40908, 54.99204], [-7.41311, 54.98497], [-7.40742, 54.95944], [-7.40867, 54.95112], [-7.41575, 54.94437], [-7.41714, 54.94306], [-7.43698, 54.9383], [-7.44525, 54.93215], [-7.44897, 54.92032], [-7.44473, 54.89489], [-7.44473, 54.88446], [-7.45507, 54.86301], [-7.47083, 54.84528], [-7.54338, 54.79309], [-7.54974, 54.7796], [-7.55171, 54.75469], [-7.5484, 54.7472], [-7.54302, 54.74379], [-7.54307, 54.74167], [-7.55615, 54.73837], [-7.56664, 54.73868], [-7.5854, 54.74472], [-7.61537, 54.73935], [-7.64968, 54.74488], [-7.66751, 54.73878], [-7.70229, 54.71888], [-7.7366, 54.70746], [-7.7705, 54.70602], [-7.80358, 54.71614], [-7.83215, 54.73061], [-7.8459, 54.73103], [-7.88011, 54.71103], [-7.92967, 54.69671], [-7.91323, 54.68865], [-7.90714, 54.68669], [-7.91484, 54.67165], [-7.90662, 54.66132], [-7.89008, 54.65506], [-7.87277, 54.65222], [-7.86435, 54.64907], [-7.85427, 54.63641], [-7.84642, 54.63145], [-7.83804, 54.63124], [-7.82254, 54.63811], [-7.815, 54.63946], [-7.8012, 54.63481], [-7.76916, 54.61801], [-7.75355, 54.6145], [-7.73676, 54.61925], [-7.7212, 54.62587], [-7.71056, 54.62426], [-7.70795, 54.60476], [-7.70787, 54.60416], [-7.74926, 54.59615], [-7.84884, 54.54091], [-7.88714, 54.53213], [-7.92641, 54.53305], [-8.00219, 54.54344], [-8.02328, 54.5297], [-8.04356, 54.51223], [-8.05586, 54.49755], [-8.06098, 54.49332], [-8.07245, 54.48706], [-8.09705, 54.47859], [-8.15017, 54.46939], [-8.16847, 54.46348], [-8.17384, 54.46174], [-8.16118, 54.45482], [-8.15813, 54.44712], [-8.15603, 54.43906], [-8.14635, 54.43074], [-8.12242, 54.41523], [-8.07994, 54.3802], [-8.05648, 54.36588], [-8.03134, 54.35803], [-8.00219, 54.35792], [-7.98103, 54.32656], [-7.96801, 54.31219], [-7.9508, 54.30087], [-7.94207, 54.29887], [-7.93411, 54.29705], [-7.89497, 54.29359], [-7.88026, 54.28702], [-7.87365, 54.27105], [-7.86967, 54.22687], [-7.85644, 54.21142], [-7.83696, 54.20434], [-7.78208, 54.2], [-7.7226, 54.20233], [-7.70477, 54.20036], [-7.69604, 54.19651], [-7.73438, 54.16581]]], [[[-9.63834, 53.25104], [-9.65831, 53.23265], [-9.69237, 53.22639], [-9.71036, 53.23859], [-9.71361, 53.25312], [-9.71898, 53.26044], [-9.72008, 53.26606], [-9.71036, 53.27546], [-9.69888, 53.28067], [-9.68472, 53.28242], [-9.67146, 53.28075], [-9.66267, 53.27546], [-9.63834, 53.25104]]], [[[-9.95181, 53.95783], [-9.94054, 53.95995], [-9.93065, 53.95905], [-9.92268, 53.95384], [-9.92268, 53.94709], [-9.93074, 53.93928], [-9.93737, 53.92353], [-9.94017, 53.90595], [-9.93635, 53.89248], [-9.958, 53.8806], [-9.9768, 53.88687], [-9.99584, 53.90103], [-10.0183, 53.91291], [-10.03132, 53.91364], [-10.04483, 53.9121], [-10.05553, 53.91372], [-10.0598, 53.92349], [-10.05769, 53.93818], [-10.0546, 53.94953], [-10.05582, 53.95881], [-10.06664, 53.9676], [-10.08723, 53.97138], [-10.16283, 53.96137], [-10.19017, 53.96353], [-10.23949, 53.97468], [-10.26594, 53.975], [-10.26594, 53.98184], [-10.24014, 53.98237], [-10.2185, 53.98603], [-10.20149, 53.99616], [-10.18956, 54.01602], [-10.18187, 54.01016], [-10.17357, 54.00837], [-10.16491, 54.01032], [-10.15608, 54.01602], [-10.13443, 54.00031], [-10.10888, 54.00458], [-10.08373, 54.0161], [-10.06322, 54.02277], [-9.9759, 54.02114], [-9.95686, 54.01602], [-9.93635, 53.98924], [-9.95686, 53.98924], [-9.95425, 53.98111], [-9.95466, 53.97333], [-9.95783, 53.9665], [-9.96361, 53.96137], [-9.96361, 53.95384], [-9.95181, 53.95783]]], [[[-8.50902, 55.00556], [-8.49657, 55.00068], [-8.48819, 54.99177], [-8.48396, 54.97553], [-8.52741, 54.96751], [-8.54931, 54.96841], [-8.56583, 54.97553], [-8.56583, 54.98176], [-8.56339, 54.98615], [-8.56273, 54.9864], [-8.56359, 54.98774], [-8.56583, 54.99543], [-8.55093, 55.00153], [-8.5454, 55.00288], [-8.54743, 55.00536], [-8.55053, 55.008], [-8.55223, 55.00971], [-8.54353, 55.01533], [-8.53637, 55.01659], [-8.53039, 55.01435], [-8.52489, 55.00971], [-8.50902, 55.00556]]], [[[-9.8072, 51.64029], [-9.79931, 51.63679], [-9.80736, 51.62971], [-9.81355, 51.62763], [-9.89216, 51.61127], [-9.9027, 51.61433], [-9.91788, 51.61937], [-9.91552, 51.62906], [-9.90099, 51.63666], [-9.88166, 51.64106], [-9.85827, 51.6424], [-9.82409, 51.6389], [-9.81696, 51.63886], [-9.8072, 51.64029]]], [[[-10.30162, 51.92479], [-10.29768, 51.9184], [-10.30456, 51.91071], [-10.32266, 51.90327], [-10.36156, 51.89203], [-10.39623, 51.88984], [-10.40583, 51.8841], [-10.42601, 51.88227], [-10.42903, 51.88984], [-10.41202, 51.90412], [-10.36091, 51.92573], [-10.35167, 51.93114], [-10.33312, 51.93061], [-10.32604, 51.92963], [-10.31827, 51.92495], [-10.31265, 51.92552], [-10.30162, 51.92479]]], [[[-9.64509, 53.10261], [-9.64094, 53.10155], [-9.64245, 53.09382], [-9.66051, 53.09064], [-9.77872, 53.12348], [-9.81143, 53.1376], [-9.80118, 53.14647], [-9.7775, 53.1468], [-9.75219, 53.1354], [-9.74006, 53.1352], [-9.71569, 53.13825], [-9.69669, 53.13654], [-9.67105, 53.13052], [-9.66344, 53.1232], [-9.67223, 53.11591], [-9.67154, 53.1092], [-9.64835, 53.10171], [-9.64509, 53.10261]]]]}, "properties": {"id": "2Zr0", "status": "validé", "pieces": [{"kind": "polygon", "ring": [[-9.28345, 51.34639], [-8.9978, 51.73571], [-8.95386, 52.08798], [-9.12964, 52.3101], [-9.52515, 52.53779], [-9.54712, 52.63787], [-9.31641, 52.83734], [-9.18457, 52.99891], [-8.84399, 53.08804], [-8.78906, 53.2559], [-8.97034, 53.55378], [-9.09119, 53.7393], [-9.07471, 53.9531], [-8.97583, 54.09503], [-8.38257, 54.21721], [-7.73438, 54.16581], [-7.58606, 54.28458], [-6.5918, 55.1598], [-6.86096, 55.46914], [-8.94836, 55.38502], [-11.37085, 53.39096], [-11.14014, 51.76963], [-10.88745, 51.49698]]}, {"kind": "clip"}]}}, {"type": "Feature", "geometry": null, "properties": {"id": "5CWT", "status": "validé", "pieces": [{"kind": "country"}]}}, {"type": "Feature", "geometry": null, "properties": {"id": "5rT8", "status": "rejeté", "pieces": []}}, {"type": "Feature", "geometry": null, "properties": {"id": "616V", "status": "validé", "pieces": [{"kind": "country"}]}}, {"type": "Feature", "geometry": null, "properties": {"id": "7jug", "status": "validé", "pieces": [{"kind": "country"}]}}, {"type": "Feature", "geometry": null, "properties": {"id": "8zJQ", "status": "validé", "pieces": [{"kind": "country"}]}}, {"type": "Feature", "geometry": null, "properties": {"id": "Avrb", "status": "validé", "pieces": [{"kind": "country"}]}}, {"type": "Feature", "geometry": null, "properties": {"id": "DJBm", "status": "rejeté", "pieces": []}}, {"type": "Feature", "geometry": null, "properties": {"id": "FO2a", "status": "validé", "pieces": [{"kind": "country"}]}}, {"type": "Feature", "geometry": null, "properties": {"id": "Gvq4", "status": "validé", "pieces": [{"kind": "country"}]}}, {"type": "Feature", "geometry": null, "properties": {"id": "Iiqc", "status": "validé", "pieces": [{"kind": "country"}]}}, {"type": "Feature", "geometry": null, "properties": {"id": "Kiq5", "status": "validé", "pieces": [{"kind": "country"}]}}, {"type": "Feature", "geometry": null, "properties": {"id": "N93o", "status": "validé", "pieces": [{"kind": "country"}]}}, {"type": "Feature", "geometry": null, "properties": {"id": "Ottv", "status": "validé", "pieces": [{"kind": "country"}]}}, {"type": "Feature", "geometry": null, "properties": {"id": "R9jd", "status": "validé", "pieces": [{"kind": "admin1", "code": "IRL-5569"}]}}, {"type": "Feature", "geometry": {"type": "MultiPolygon", "coordinates": [[[[-6.14685, 53.11832], [-6.20178, 52.97308], [-6.31165, 52.79415], [-6.5094, 52.59782], [-6.42151, 52.57113], [-6.27869, 52.5511], [-6.2498, 52.50057], [-6.28295, 52.46711], [-6.30101, 52.45368], [-6.31774, 52.44794], [-6.33324, 52.43464], [-6.35619, 52.409], [-6.36555, 52.3935], [-6.3662, 52.37523], [-6.36437, 52.35782], [-6.36612, 52.34443], [-6.37304, 52.352], [-6.38097, 52.35676], [-6.39004, 52.35883], [-6.44807, 52.3559], [-6.46886, 52.36001], [-6.46296, 52.378], [-6.47203, 52.37592], [-6.4807, 52.37299], [-6.48876, 52.36913], [-6.49649, 52.36433], [-6.49649, 52.3581], [-6.48144, 52.35464], [-6.46752, 52.34687], [-6.45613, 52.33584], [-6.45028, 52.32559], [-6.5094, 52.31676], [-6.72363, 52.31341], [-6.91589, 52.37714], [-6.95435, 52.5344], [-6.79504, 52.64782], [-6.51489, 52.83066], [-6.38855, 52.95985], [-6.30066, 53.11503], [-6.45996, 53.16443], [-6.49841, 53.25651], [-6.47644, 53.35822], [-6.54785, 53.37787], [-6.74561, 53.39097], [-6.75659, 53.27293], [-6.98181, 53.17431], [-7.02026, 53.04576], [-7.02026, 52.94993], [-7.0697, 52.78751], [-7.20703, 52.68445], [-7.40479, 52.63449], [-7.55859, 52.6911], [-7.69043, 52.68445], [-7.85522, 52.58781], [-8.04749, 52.63116], [-8.09143, 52.69443], [-7.89917, 52.78419], [-7.74536, 52.85056], [-7.85522, 52.91021], [-7.86621, 53.00283], [-7.88818, 53.12162], [-7.74536, 53.22036], [-7.55859, 53.14468], [-7.4707, 53.02265], [-7.32788, 52.92676], [-7.14111, 52.97638], [-7.10815, 53.17431], [-6.9104, 53.34183], [-6.8335, 53.39097], [-6.86646, 53.42371], [-6.94885, 53.48256], [-6.9873, 53.53807], [-7.10266, 53.57721], [-7.13013, 53.68466], [-6.95984, 53.71717], [-6.70166, 53.69442], [-6.56433, 53.74315], [-6.54236, 53.93108], [-6.51557, 54.05958], [-6.47854, 54.06771], [-6.45089, 54.06843], [-6.45022, 54.06667], [-6.44624, 54.06244], [-6.4403, 54.05799], [-6.43389, 54.05531], [-6.42676, 54.05541], [-6.40103, 54.06089], [-6.37751, 54.06326], [-6.37116, 54.06678], [-6.36692, 54.0751], [-6.36764, 54.08342], [-6.36935, 54.09112], [-6.36811, 54.09732], [-6.35483, 54.11065], [-6.34666, 54.10988], [-6.33896, 54.10295], [-6.32713, 54.09789], [-6.3138, 54.0997], [-6.29959, 54.10404], [-6.28465, 54.10523], [-6.26989, 54.09793], [-6.20702, 54.06171], [-6.1914, 54.05695], [-6.18432, 54.05378], [-6.16991, 54.03962], [-6.16381, 54.03644], [-6.14249, 54.03522], [-6.13386, 54.03335], [-6.12654, 54.03022], [-6.10729, 54.01362], [-6.11099, 54.00129], [-6.14354, 53.97842], [-6.16076, 53.97443], [-6.18554, 53.97972], [-6.2091, 53.98859], [-6.22277, 53.99543], [-6.23705, 53.99384], [-6.30704, 54.01187], [-6.35985, 54.01602], [-6.35985, 54.00849], [-6.34781, 54.00361], [-6.35387, 53.99421], [-6.36628, 53.98102], [-6.37296, 53.96442], [-6.37828, 53.93488], [-6.37898, 53.9169], [-6.37296, 53.89932], [-6.35082, 53.88141], [-6.31729, 53.87108], [-6.24324, 53.86514], [-6.24324, 53.85765], [-6.25402, 53.83991], [-6.25499, 53.82221], [-6.24498, 53.80687], [-6.22277, 53.79629], [-6.24328, 53.78254], [-6.24844, 53.75576], [-6.2458, 53.72964], [-6.24132, 53.68561], [-6.23644, 53.67084], [-6.22989, 53.65656], [-6.22277, 53.64606], [-6.21304, 53.64057], [-6.19799, 53.63447], [-6.18708, 53.63007], [-6.16979, 53.60566], [-6.14249, 53.59447], [-6.11246, 53.58576], [-6.0924, 53.57713], [-6.08446, 53.56802], [-6.0773, 53.55463], [-6.07494, 53.53974], [-6.08153, 53.52595], [-6.0985, 53.50971], [-6.10314, 53.50316], [-6.10546, 53.49518], [-6.11278, 53.48672], [-6.12442, 53.46857], [-6.13337, 53.46109], [-6.14086, 53.47114], [-6.15836, 53.47285], [-6.17862, 53.46865], [-6.19481, 53.46109], [-6.13061, 53.44261], [-6.1258, 53.43159], [-6.12222, 53.41987], [-6.1129, 53.41266], [-6.11644, 53.40949], [-6.12296, 53.40217], [-6.12654, 53.39899], [-6.11026, 53.39403], [-6.06908, 53.39252], [-6.05085, 53.3854], [-6.062, 53.36738], [-6.07461, 53.36689], [-6.08821, 53.37397], [-6.10237, 53.37848], [-6.10644, 53.38081], [-6.11889, 53.39057], [-6.12279, 53.39277], [-6.13231, 53.39159], [-6.14977, 53.38654], [-6.15697, 53.3854], [-6.21532, 53.35806], [-6.21817, 53.34715], [-6.21133, 53.33869], [-6.18798, 53.32392], [-6.16836, 53.30634], [-6.15518, 53.29938], [-6.12711, 53.2954], [-6.11661, 53.29027], [-6.10912, 53.28913], [-6.09699, 53.28555], [-6.09699, 53.27757], [-6.10216, 53.26935], [-6.10546, 53.2652], [-6.10656, 53.24315], [-6.10489, 53.22944], [-6.09923, 53.21467], [-6.08894, 53.20409], [-6.08869, 53.2038], [-6.07698, 53.19522], [-6.07103, 53.18427], [-6.07811, 53.1662], [-6.07035, 53.15936], [-6.14685, 53.11832]]], [[[-9.40979, 53.99523], [-9.33838, 53.992], [-9.30542, 53.97262], [-9.25323, 53.99361], [-9.25873, 54.07101], [-9.245, 54.11127], [-9.20105, 54.14344], [-9.14123, 54.14663], [-9.14123, 54.1457], [-9.13876, 54.1457], [-9.09393, 54.12253], [-9.04449, 54.07584], [-9.01428, 53.99684], [-8.97034, 53.96939], [-8.95111, 53.90313], [-9.0802, 53.83028], [-9.11865, 53.77029], [-9.17084, 53.66794], [-9.26422, 53.60934], [-9.36584, 53.61422], [-9.50317, 53.70045], [-9.67896, 53.69883], [-9.78333, 53.69558], [-9.85474, 53.71508], [-9.87375, 53.76879], [-9.86099, 53.77017], [-9.83389, 53.77635], [-9.81021, 53.77806], [-9.79947, 53.78026], [-9.78922, 53.78661], [-9.78344, 53.7871], [-9.76317, 53.77924], [-9.75202, 53.77635], [-9.5664, 53.79629], [-9.5664, 53.80366], [-9.58153, 53.80533], [-9.62165, 53.81733], [-9.61628, 53.8194], [-9.61213, 53.8216], [-9.60753, 53.82339], [-9.60115, 53.82416], [-9.60115, 53.831], [-9.60546, 53.83918], [-9.59484, 53.84821], [-9.56021, 53.86514], [-9.56835, 53.86555], [-9.5869, 53.87197], [-9.57893, 53.87613], [-9.57282, 53.88223], [-9.56859, 53.89008], [-9.5664, 53.89932], [-9.57311, 53.89851], [-9.57738, 53.89753], [-9.58145, 53.89574], [-9.5869, 53.89248], [-9.61547, 53.89883], [-9.63985, 53.89891], [-9.5993, 53.9387], [-9.51141, 53.97101], [-9.40979, 53.99523]]], [[[-8.33313, 54.46706], [-8.3139, 54.43993], [-8.28644, 54.40159], [-8.25073, 54.32001], [-8.26172, 54.28156], [-8.29468, 54.17724], [-8.47046, 54.14027], [-8.59131, 54.13866], [-8.68744, 54.15796], [-8.70941, 54.18528], [-8.7204, 54.23184], [-8.70494, 54.26794], [-8.67642, 54.27131], [-8.64835, 54.26301], [-8.64249, 54.25361], [-8.63956, 54.24209], [-8.63329, 54.23237], [-8.60505, 54.22565], [-8.5935, 54.21906], [-8.57266, 54.20034], [-8.55932, 54.20661], [-8.54385, 54.20864], [-8.51122, 54.20775], [-8.51122, 54.21455], [-8.52554, 54.2189], [-8.54361, 54.22215], [-8.55923, 54.22773], [-8.56583, 54.23884], [-8.57213, 54.24653], [-8.58731, 54.25235], [-8.60562, 54.25556], [-8.621, 54.25556], [-8.621, 54.26301], [-8.61425, 54.26781], [-8.60265, 54.27969], [-8.59374, 54.28352], [-8.57169, 54.27717], [-8.55822, 54.27521], [-8.55223, 54.2801], [-8.54076, 54.28437], [-8.47029, 54.2766], [-8.48595, 54.28864], [-8.50414, 54.29719], [-8.52335, 54.30223], [-8.54231, 54.30394], [-8.56265, 54.30305], [-8.56981, 54.30573], [-8.57266, 54.31391], [-8.56721, 54.32416], [-8.5548, 54.32148], [-8.53173, 54.31021], [-8.51171, 54.31737], [-8.51915, 54.32673], [-8.54052, 54.33466], [-8.56212, 54.33808], [-8.66137, 54.33804], [-8.66682, 54.34121], [-8.66828, 54.35175], [-8.66389, 54.35928], [-8.6538, 54.36587], [-8.64175, 54.37043], [-8.61286, 54.37547], [-8.49657, 54.42349], [-8.48013, 54.42683], [-8.47411, 54.43], [-8.47126, 54.43789], [-8.47029, 54.45783], [-8.4667, 54.475], [-8.45922, 54.47187], [-8.45189, 54.46101], [-8.44913, 54.45478], [-8.44514, 54.45392], [-8.44376, 54.45344], [-8.44302, 54.44733], [-8.41393, 54.45954], [-8.38419, 54.46825], [-8.38166, 54.46857], [-8.34255, 54.47308], [-8.33313, 54.46706]]]]}, "properties": {"id": "SSZH", "status": "validé", "pieces": [{"kind": "polygon", "ring": [[-8.70392, 54.27034], [-8.7204, 54.23184], [-8.70941, 54.18528], [-8.68744, 54.15796], [-8.59131, 54.13866], [-8.47046, 54.14027], [-8.29468, 54.17724], [-8.26172, 54.28156], [-8.25073, 54.32001], [-8.28644, 54.40159], [-8.3139, 54.43993], [-8.33313, 54.46706], [-8.38806, 54.50215], [-8.76434, 54.40639], [-8.75336, 54.27835]]}, {"kind": "clip"}, {"kind": "polygon", "ring": [[-9.6405, 53.89828], [-9.5993, 53.9387], [-9.51141, 53.97101], [-9.40979, 53.99523], [-9.33838, 53.992], [-9.30542, 53.97262], [-9.25323, 53.99361], [-9.25873, 54.07101], [-9.245, 54.11127], [-9.20105, 54.14344], [-9.14063, 54.14666], [-9.09393, 54.12253], [-9.04449, 54.07584], [-9.01428, 53.99684], [-8.97034, 53.96939], [-8.95111, 53.90313], [-9.0802, 53.83028], [-9.11865, 53.77029], [-9.17084, 53.66794], [-9.26422, 53.60934], [-9.36584, 53.61422], [-9.50317, 53.70045], [-9.67896, 53.69883], [-9.78333, 53.69558], [-9.85474, 53.71508], [-9.87946, 53.78489], [-9.84375, 53.86105]]}, {"kind": "polygon", "ring": [[-6.5094, 54.08919], [-6.54236, 53.93108], [-6.56433, 53.74315], [-6.70166, 53.69442], [-6.95984, 53.71717], [-7.13013, 53.68466], [-7.10266, 53.57721], [-6.9873, 53.53807], [-6.94885, 53.48256], [-6.86646, 53.42371], [-6.8335, 53.39097], [-6.9104, 53.34183], [-7.10815, 53.17431], [-7.14111, 52.97638], [-7.32788, 52.92676], [-7.4707, 53.02265], [-7.55859, 53.14468], [-7.74536, 53.22036], [-7.88818, 53.12162], [-7.86621, 53.00283], [-7.85522, 52.91021], [-7.74536, 52.85056], [-7.89917, 52.78419], [-8.09143, 52.69443], [-8.04749, 52.63116], [-7.85522, 52.58781], [-7.69043, 52.68445], [-7.55859, 52.6911], [-7.40479, 52.63449], [-7.20703, 52.68445], [-7.0697, 52.78751], [-7.02026, 52.94993], [-7.02026, 53.04576], [-6.98181, 53.17431], [-6.75659, 53.27293], [-6.74561, 53.39097], [-6.54785, 53.37787], [-6.47644, 53.35822], [-6.49841, 53.25651], [-6.45996, 53.16443], [-6.30066, 53.11503], [-6.38855, 52.95985], [-6.51489, 52.83066], [-6.79504, 52.64782], [-6.95435, 52.5344], [-6.91589, 52.37714], [-6.72363, 52.31341], [-6.5094, 52.31676], [-6.26221, 52.35367], [-6.23474, 52.47424], [-6.27869, 52.5511], [-6.42151, 52.57113], [-6.5094, 52.59782], [-6.31165, 52.79415], [-6.20178, 52.97308], [-6.14685, 53.11832], [-6.04248, 53.17431], [-5.88867, 53.53807], [-6.02051, 53.74315], [-5.89966, 54.0215], [-6.14685, 54.22423]]}]}}, {"type": "Feature", "geometry": null, "properties": {"id": "TyH4", "status": "rejeté", "pieces": []}}, {"type": "Feature", "geometry": null, "properties": {"id": "VCo7", "status": "validé", "pieces": [{"kind": "country"}]}}, {"type": "Feature", "geometry": null, "properties": {"id": "Wp2T", "status": "validé", "pieces": [{"kind": "country"}]}}, {"type": "Feature", "geometry": null, "properties": {"id": "Xamt", "status": "validé", "pieces": [{"kind": "country"}]}}, {"type": "Feature", "geometry": {"type": "Polygon", "coordinates": [[[-8.87627, 53.02022], [-8.87627, 53.08829], [-9.00742, 53.08829], [-9.00742, 53.02022], [-8.87627, 53.02022]]]}, "properties": {"id": "Y78L", "status": "validé", "pieces": [{"kind": "rect", "bounds": [-9.00742, 53.02022, -8.87627, 53.08829]}]}}, {"type": "Feature", "geometry": {"type": "Polygon", "coordinates": [[[-8.35785, 54.29895], [-8.35785, 54.35899], [-8.5247, 54.35899], [-8.5247, 54.29895], [-8.35785, 54.29895]]]}, "properties": {"id": "k4AI", "status": "validé", "pieces": [{"kind": "rect", "bounds": [-8.5247, 54.29895, -8.35785, 54.35899]}]}}, {"type": "Feature", "geometry": null, "properties": {"id": "koXg", "status": "validé", "pieces": [{"kind": "country"}]}}, {"type": "Feature", "geometry": null, "properties": {"id": "liz2", "status": "validé", "pieces": [{"kind": "country"}]}}, {"type": "Feature", "geometry": {"type": "MultiPolygon", "coordinates": [[[[-8.118896484375002, 54.00066047697709], [-8.53302092596857, 54.20834791710053], [-8.51122, 54.20775], [-8.51122, 54.214545], [-8.525543, 54.218899], [-8.543609, 54.222154], [-8.559234, 54.227729], [-8.565826, 54.238837], [-8.572133, 54.246527], [-8.58731, 54.252346], [-8.605621, 54.255561], [-8.621002, 54.255561], [-8.621002, 54.263007], [-8.614247, 54.267808], [-8.602651, 54.27969], [-8.593739, 54.283515], [-8.571685, 54.277167], [-8.558217, 54.275214], [-8.552235, 54.280097], [-8.540761, 54.284369], [-8.470286, 54.276597], [-8.485951, 54.288642], [-8.50414, 54.297187], [-8.523346, 54.302232], [-8.542307, 54.303941], [-8.562652, 54.303046], [-8.569814, 54.305732], [-8.572662, 54.31391], [-8.567209, 54.324164], [-8.554799, 54.321479], [-8.531728, 54.310207], [-8.511708, 54.317369], [-8.519154, 54.326728], [-8.540517, 54.334662], [-8.562123, 54.33808], [-8.661366, 54.338039], [-8.666819, 54.341213], [-8.668284, 54.351752], [-8.663889, 54.35928], [-8.653798, 54.365871], [-8.641754, 54.370429], [-8.612864, 54.375474], [-8.496571, 54.423489], [-8.480133, 54.426825], [-8.47411, 54.429999], [-8.471262, 54.437893], [-8.470286, 54.457831], [-8.466705, 54.475002], [-8.459218, 54.471869], [-8.451894, 54.461005], [-8.449127, 54.454779], [-8.445139, 54.453925], [-8.443756, 54.453437], [-8.443023, 54.447333], [-8.41393, 54.45954], [-8.384185, 54.468248], [-8.381663, 54.468573], [-8.30012, 54.477973], [-8.287343, 54.479438], [-8.242096, 54.497748], [-8.210194, 54.501939], [-8.210194, 54.509426], [-8.243276, 54.510199], [-8.257965, 54.514228], [-8.270985, 54.523668], [-8.216379, 54.55036], [-8.218861, 54.56977], [-8.172515, 54.594468], [-8.175404, 54.619289], [-8.164662, 54.615302], [-8.157623, 54.610826], [-8.150054, 54.607123], [-8.137563, 54.605618], [-8.126088, 54.637885], [-8.120839, 54.646552], [-8.123891, 54.648627], [-8.124908, 54.648912], [-8.1256, 54.649604], [-8.127675, 54.652777], [-8.146799, 54.642076], [-8.166656, 54.636135], [-8.234934, 54.629381], [-8.271311, 54.612006], [-8.292104, 54.605618], [-8.292104, 54.611802], [-8.281728, 54.620551], [-8.280344, 54.629625], [-8.287262, 54.636786], [-8.301747, 54.639797], [-8.316762, 54.635443], [-8.342356, 54.616156], [-8.367828, 54.608629], [-8.41454, 54.578355], [-8.427968, 54.571723], [-8.442047, 54.566718], [-8.456614, 54.564643], [-8.456614, 54.570787], [-8.432281, 54.587795], [-8.417104, 54.59516], [-8.398183, 54.598131], [-8.384755, 54.605658], [-8.387685, 54.619859], [-8.400054, 54.628567], [-8.415028, 54.619289], [-8.421864, 54.619289], [-8.418691, 54.641303], [-8.43163, 54.641303], [-8.448313, 54.627631], [-8.456614, 54.60871], [-8.461537, 54.602851], [-8.472076, 54.607856], [-8.48176, 54.615953], [-8.486195, 54.622952], [-8.485219, 54.627387], [-8.486155, 54.631293], [-8.49413, 54.632961], [-8.500803, 54.632025], [-8.511301, 54.627753], [-8.517486, 54.626125], [-8.541737, 54.62523], [-8.553456, 54.622626], [-8.564036, 54.608832], [-8.576772, 54.610907], [-8.596913, 54.619289], [-8.672597, 54.619452], [-8.690012, 54.626125], [-8.681956, 54.63581], [-8.691396, 54.641303], [-8.774159, 54.659857], [-8.791819, 54.659613], [-8.788442, 54.663398], [-8.786366, 54.666978], [-8.783437, 54.670396], [-8.778147, 54.673896], [-8.778147, 54.68008], [-8.791086, 54.684882], [-8.79776, 54.691962], [-8.795522, 54.698432], [-8.781565, 54.701239], [-8.766957, 54.702216], [-8.755198, 54.705756], [-8.747426, 54.71308], [-8.744618, 54.725084], [-8.733266, 54.732611], [-8.662099, 54.762641], [-8.636586, 54.768459], [-8.536204, 54.766913], [-8.483713, 54.756781], [-8.456614, 54.756415], [-8.456614, 54.762641], [-8.526601, 54.772773], [-8.5454, 54.783759], [-8.529897, 54.788072], [-8.484934, 54.789374], [-8.473378, 54.786811], [-8.460805, 54.774848], [-8.444692, 54.763129], [-8.426666, 54.757229], [-8.408193, 54.762641], [-8.461293, 54.793524], [-8.498891, 54.801215], [-8.534983, 54.816474], [-8.55842, 54.817857], [-8.554351, 54.827541], [-8.546986, 54.829901], [-8.537099, 54.829779], [-8.524892, 54.831529], [-8.515126, 54.836005], [-8.501861, 54.846503], [-8.490712, 54.851996], [-8.471018, 54.840522], [-8.449086, 54.839423], [-8.401967, 54.84455], [-8.346262, 54.831692], [-8.325673, 54.831529], [-8.325673, 54.838324], [-8.343251, 54.839911], [-8.365387, 54.845404], [-8.381337, 54.855943], [-8.380849, 54.872504], [-8.366689, 54.88109], [-8.327382, 54.877021], [-8.312652, 54.87934], [-8.325836, 54.88581], [-8.337026, 54.903632], [-8.350453, 54.907294], [-8.368804, 54.908189], [-8.374013, 54.907294], [-8.378163, 54.902777], [-8.379791, 54.895738], [-8.380116, 54.889228], [-8.380849, 54.886176], [-8.409291, 54.88703], [-8.432607, 54.901557], [-8.450795, 54.922065], [-8.46345, 54.940823], [-8.450429, 54.946275], [-8.440907, 54.943427], [-8.431508, 54.93769], [-8.418446, 54.934556], [-8.404612, 54.935696], [-8.391347, 54.938666], [-8.366567, 54.948188], [-8.396148, 54.955268], [-8.418609, 54.968085], [-8.456614, 54.995429], [-8.456614, 55.002875], [-8.44811, 55.007636], [-8.437734, 55.009833], [-8.426422, 55.008612], [-8.415028, 55.002875], [-8.404693, 55.012885], [-8.401967, 55.016547], [-8.408193, 55.016547], [-8.403188, 55.030666], [-8.395253, 55.033149], [-8.385325, 55.032416], [-8.374013, 55.036363], [-8.354482, 55.060533], [-8.347401, 55.064276], [-8.33788, 55.058417], [-8.335072, 55.035061], [-8.325673, 55.030219], [-8.319976, 55.034329], [-8.313588, 55.05268], [-8.305165, 55.058051], [-8.316518, 55.08747], [-8.320424, 55.104926], [-8.316029, 55.112738], [-8.304351, 55.119208], [-8.288401, 55.150133], [-8.278472, 55.160549], [-8.26301, 55.161078], [-8.206532, 55.146877], [-8.188385, 55.148993], [-8.157623, 55.158393], [-8.141265, 55.160549], [-8.147532, 55.15176], [-8.154286, 55.14525], [-8.159576, 55.138739], [-8.161733, 55.129462], [-8.156484, 55.124498], [-8.144683, 55.130194], [-8.114858, 55.154731], [-8.05427, 55.176947], [-8.03482, 55.180976], [-8.020985, 55.188788], [-8.01179, 55.205064], [-7.999582, 55.219631], [-7.976796, 55.22191], [-7.950185, 55.210273], [-7.958648, 55.199205], [-8.00414, 55.180976], [-8.00414, 55.17414], [-7.961985, 55.187201], [-7.955719, 55.184719], [-7.949045, 55.179836], [-7.93399, 55.18065], [-7.91804, 55.184516], [-7.908559, 55.188422], [-7.894887, 55.17414], [-7.894887, 55.167914], [-7.898793, 55.156399], [-7.890452, 55.158271], [-7.875559, 55.164944], [-7.860097, 55.167914], [-7.865061, 55.158149], [-7.872874, 55.151597], [-7.882965, 55.147935], [-7.894887, 55.146877], [-7.894887, 55.140082], [-7.876536, 55.14053], [-7.865224, 55.138495], [-7.856435, 55.138983], [-7.846506, 55.146877], [-7.834706, 55.164984], [-7.837554, 55.175849], [-7.860097, 55.194648], [-7.866119, 55.214911], [-7.85025, 55.2272], [-7.823964, 55.238593], [-7.798695, 55.25609], [-7.796051, 55.251044], [-7.795033, 55.250881], [-7.791249, 55.248684], [-7.814198, 55.20185], [-7.815745, 55.194648], [-7.81371, 55.192857], [-7.810455, 55.188707], [-7.805572, 55.184149], [-7.798695, 55.180976], [-7.789784, 55.180854], [-7.779937, 55.187445], [-7.770741, 55.188422], [-7.757314, 55.18476], [-7.736643, 55.176663], [-7.7176, 55.166571], [-7.709299, 55.157131], [-7.707387, 55.153469], [-7.698557, 55.140367], [-7.695627, 55.133205], [-7.695953, 55.126044], [-7.70108, 55.10814], [-7.702504, 55.099066], [-7.694732, 55.108059], [-7.678822, 55.134467], [-7.671702, 55.140082], [-7.668202, 55.147203], [-7.674713, 55.163031], [-7.684071, 55.178534], [-7.688832, 55.184719], [-7.690338, 55.194525], [-7.695058, 55.207465], [-7.703603, 55.218451], [-7.716054, 55.22191], [-7.723948, 55.214586], [-7.721995, 55.200263], [-7.715403, 55.184882], [-7.709299, 55.17414], [-7.723134, 55.175727], [-7.732818, 55.181464], [-7.741038, 55.188625], [-7.750234, 55.194648], [-7.779652, 55.199652], [-7.791737, 55.206], [-7.788157, 55.218573], [-7.760854, 55.250434], [-7.760854, 55.25609], [-7.725087, 55.252672], [-7.709299, 55.25609], [-7.673492, 55.273871], [-7.660878, 55.276557], [-7.643951, 55.272773], [-7.63329, 55.263088], [-7.625315, 55.25316], [-7.616526, 55.248684], [-7.611399, 55.2414], [-7.613189, 55.225775], [-7.617502, 55.210598], [-7.619944, 55.204901], [-7.614491, 55.19599], [-7.601471, 55.189276], [-7.572743, 55.180976], [-7.572255, 55.169176], [-7.564117, 55.155748], [-7.55248, 55.14468], [-7.541412, 55.140082], [-7.527821, 55.132554], [-7.525787, 55.116156], [-7.531606, 55.099677], [-7.541412, 55.092231], [-7.556386, 55.089748], [-7.568227, 55.083686], [-7.586415, 55.071112], [-7.641021, 55.050686], [-7.641021, 55.04385], [-7.581166, 55.050442], [-7.561838, 55.044501], [-7.572743, 55.023383], [-7.584584, 55.016059], [-7.634185, 54.995429], [-7.667551, 54.968207], [-7.681386, 54.961249], [-7.681386, 54.954413], [-7.661488, 54.957953], [-7.643381, 54.965277], [-7.548451, 55.018459], [-7.537994, 55.019924], [-7.529368, 55.030707], [-7.509267, 55.035956], [-7.486318, 55.039252], [-7.469106, 55.04385], [-7.456166, 55.056138], [-7.450022, 55.072333], [-7.454416, 55.086249], [-7.472768, 55.092231], [-7.477528, 55.096381], [-7.473378, 55.105455], [-7.46288, 55.119534], [-7.46288, 55.143459], [-7.470041, 55.145168], [-7.510081, 55.180976], [-7.533681, 55.192369], [-7.541412, 55.198065], [-7.545644, 55.204779], [-7.54955, 55.215399], [-7.549387, 55.225165], [-7.527089, 55.236762], [-7.516225, 55.254136], [-7.51358, 55.274359], [-7.524322, 55.290269], [-7.507395, 55.28913], [-7.492747, 55.285346], [-7.478586, 55.283922], [-7.46288, 55.290269], [-7.465566, 55.293606], [-7.46642, 55.295844], [-7.46703, 55.298651], [-7.469106, 55.3039], [-7.449208, 55.294013], [-7.427968, 55.286566], [-7.405914, 55.286933], [-7.367787, 55.310614], [-7.347524, 55.314276], [-7.327504, 55.308498], [-7.312082, 55.290269], [-7.33316, 55.289618], [-7.339955, 55.290269], [-7.320872, 55.282172], [-7.298818, 55.276272], [-7.276601, 55.275824], [-7.256744, 55.284003], [-7.320668, 55.3133], [-7.350697, 55.335191], [-7.353017, 55.358547], [-7.379547, 55.367662], [-7.391591, 55.373725], [-7.400217, 55.380276], [-7.384429, 55.386379], [-7.366322, 55.383979], [-7.332509, 55.372789], [-7.26358, 55.358547], [-7.247304, 55.357164], [-7.208852, 55.34512], [-7.195424, 55.338609], [-7.144154, 55.293647], [-7.129058, 55.285834], [-7.079335, 55.27265], [-7.0419, 55.268866], [-6.99649, 55.257717], [-6.975697, 55.248684], [-6.953521, 55.25434], [-6.939565, 55.239081], [-6.942779, 55.218573], [-6.972564, 55.208319], [-7.00064, 55.205146], [-7.034088, 55.196845], [-7.065745, 55.184963], [-7.099762, 55.165473], [-7.132314, 55.155463], [-7.159495, 55.150784], [-7.172841, 55.1435], [-7.216624, 55.108344], [-7.232289, 55.091864], [-7.244985, 55.073432], [-7.2471, 55.069322], [-7.266503, 55.065167], [-7.275288, 55.058863], [-7.282987, 55.051835], [-7.291152, 55.046615], [-7.355024, 55.040931], [-7.366962, 55.035557], [-7.376987, 55.02889], [-7.405254, 55.003569], [-7.40112, 54.994836], [-7.403755, 54.99313], [-7.409078, 54.992045], [-7.413109, 54.984965], [-7.407424, 54.959437], [-7.408665, 54.951117], [-7.415755, 54.944372], [-7.417139, 54.943056], [-7.436983, 54.938301], [-7.445251, 54.932152], [-7.448972, 54.920318], [-7.444735, 54.894893], [-7.444735, 54.884455], [-7.45507, 54.863009], [-7.470831, 54.845284], [-7.543385, 54.793091], [-7.549741, 54.779603], [-7.551705, 54.754695], [-7.548398, 54.747202], [-7.543023, 54.743791], [-7.543075, 54.741673], [-7.556149, 54.738365], [-7.566639, 54.738675], [-7.585398, 54.744722], [-7.61537, 54.739347], [-7.649683, 54.744877], [-7.667512, 54.738779], [-7.70229, 54.718883], [-7.736603, 54.707463], [-7.770503, 54.706016], [-7.803576, 54.716145], [-7.832153, 54.730614], [-7.845899, 54.731027], [-7.880109, 54.711029], [-7.929666, 54.696714], [-7.913233, 54.688653], [-7.907135, 54.686689], [-7.914835, 54.671651], [-7.906619, 54.661316], [-7.890082, 54.655063], [-7.872771, 54.652221], [-7.864347, 54.649069], [-7.85427, 54.636408], [-7.846416, 54.631447], [-7.838044, 54.63124], [-7.822541, 54.638113], [-7.814996, 54.639457], [-7.801199, 54.634806], [-7.769159, 54.618011], [-7.753553, 54.614497], [-7.736758, 54.619251], [-7.721204, 54.625866], [-7.710558, 54.624264], [-7.707951, 54.604763], [-7.707871, 54.604162], [-7.749264, 54.596152], [-7.848844, 54.54091], [-7.887137, 54.532125], [-7.926411, 54.533055], [-8.002194, 54.543442], [-8.023278, 54.529696], [-8.043561, 54.512229], [-8.05586, 54.497553], [-8.060976, 54.493316], [-8.072448, 54.487063], [-8.097046, 54.478588], [-8.15017, 54.46939], [-8.168467, 54.463477], [-8.173837, 54.461741], [-8.161177, 54.454817], [-8.158128, 54.447117], [-8.156035, 54.439055], [-8.146346, 54.430736], [-8.122419, 54.415233], [-8.079941, 54.380196], [-8.05648, 54.365882], [-8.03134, 54.358027], [-8.002194, 54.357923], [-7.981033, 54.326556], [-7.96801, 54.31219], [-7.950802, 54.300873], [-7.942075, 54.298873], [-7.93411, 54.297049], [-7.894966, 54.293586], [-7.880264, 54.287023], [-7.873649, 54.271055], [-7.86967, 54.226872], [-7.856441, 54.211421], [-7.836959, 54.204341], [-7.782078, 54.2], [-7.722599, 54.202326], [-7.70477, 54.200362], [-7.632682, 54.168529], [-7.625706, 54.162173], [-7.624052, 54.153336], [-7.620796, 54.144965], [-7.609014, 54.139901], [-7.502302, 54.125121], [-7.480753, 54.127653], [-7.439619, 54.146929], [-7.414659, 54.145688], [-7.425769, 54.136955], [-7.422255, 54.135456], [-7.41223, 54.136438], [-7.403962, 54.135043], [-7.396624, 54.126258], [-7.39466, 54.121917], [-7.390216, 54.121194], [-7.375488, 54.123312], [-7.326964, 54.113597], [-7.316489, 54.11428], [-7.310324, 54.114683], [-7.333165, 54.142743], [-7.333165, 54.149409], [-7.325982, 54.154577], [-7.295545, 54.165119], [-7.292134, 54.162638], [-7.295028, 54.155404], [-7.296423, 54.146515], [-7.29632, 54.134991], [-7.297353, 54.125896], [-7.293788, 54.122021], [-7.280042, 54.126155], [-7.27074, 54.132253], [-7.263505, 54.140986], [-7.26087, 54.151166], [-7.265366, 54.16114], [-7.24578, 54.166979], [-7.247021, 54.17225], [-7.256322, 54.176901], [-7.261128, 54.18088], [-7.255496, 54.190854], [-7.249088, 54.197416], [-7.240871, 54.202326], [-7.229502, 54.207545], [-7.174725, 54.216072], [-7.153331, 54.224237], [-7.159739, 54.24067], [-7.14589, 54.25209], [-7.181495, 54.269763], [-7.1755, 54.283664], [-7.209038, 54.293431], [-7.211467, 54.30418], [-7.206661, 54.304903], [-7.199168, 54.303457], [-7.193691, 54.307539], [-7.192399, 54.307384], [-7.184647, 54.316634], [-7.185009, 54.317254], [-7.187644, 54.318804], [-7.191468, 54.323869], [-7.193949, 54.329967], [-7.19245, 54.334721], [-7.18947, 54.335692], [-7.185629, 54.336943], [-7.168059, 54.335031], [-7.159894, 54.335186], [-7.127028, 54.349759], [-7.078504, 54.394717], [-7.049255, 54.411512], [-7.017836, 54.413166], [-6.984091, 54.403089], [-6.922028, 54.372703], [-6.915051, 54.365933], [-6.905956, 54.349035], [-6.897895, 54.346193], [-6.885957, 54.345624], [-6.879705, 54.341594], [-6.870015, 54.326001], [-6.858414, 54.307332], [-6.856657, 54.292811], [-6.864667, 54.282734], [-6.882185, 54.277257], [-6.846683, 54.266456], [-6.837743, 54.260513], [-6.833196, 54.25209], [-6.829733, 54.242375], [-6.823946, 54.23235], [-6.807358, 54.21633], [-6.787824, 54.202998], [-6.766481, 54.192352], [-6.744777, 54.184187], [-6.73284, 54.183567], [-6.724779, 54.188631], [-6.717234, 54.195143], [-6.706537, 54.198915], [-6.694651, 54.197985], [-6.683954, 54.194368], [-6.663025, 54.183826], [-6.648448, 54.173665], [-6.640339, 54.168013], [-6.634552, 54.150133], [-6.643957, 54.131839], [-6.666436, 54.114786], [-6.655791, 54.103314], [-6.657082, 54.091945], [-6.672534, 54.068432], [-6.657289, 54.061146], [-6.630624, 54.041819], [-6.616465, 54.037271], [-6.610987, 54.039235], [-6.605217, 54.044475], [-6.60029, 54.04895], [-6.595071, 54.052412], [-6.587164, 54.053343], [-6.571868, 54.049519], [-6.564013, 54.04895], [-6.47854, 54.067709], [-6.450894, 54.068432], [-6.450222, 54.066675], [-6.446243, 54.062438], [-6.4403, 54.057993], [-6.433892, 54.055306], [-6.426761, 54.05541], [-6.401026, 54.060887], [-6.377513, 54.063264], [-6.371157, 54.066778], [-6.366919, 54.075098], [-6.367643, 54.083418], [-6.369348, 54.091118], [-6.368108, 54.097319], [-6.354827, 54.110652], [-6.346662, 54.109877], [-6.338962, 54.102952], [-6.327128, 54.097888], [-6.313796, 54.099696], [-6.299585, 54.104037], [-6.28465, 54.105226], [-6.269887, 54.097927], [-6.207021, 54.061713], [-6.191396, 54.056952], [-6.184316, 54.053778], [-6.169911, 54.039618], [-6.163808, 54.036444], [-6.142486, 54.035224], [-6.13386, 54.033352], [-6.126536, 54.030219], [-6.107289, 54.013617], [-6.110992, 54.001288], [-6.143544, 53.97842], [-6.160756, 53.974433], [-6.185536, 53.979722], [-6.209096, 53.988593], [-6.222768, 53.995429], [-6.23705, 53.993842], [-6.307037, 54.011868], [-6.359853, 54.016018], [-6.359853, 54.00849], [-6.347808, 54.003607], [-6.353871, 53.994208], [-6.366282, 53.981024], [-6.372955, 53.964423], [-6.378285, 53.934882], [-6.378977, 53.916897], [-6.372955, 53.899319], [-6.350819, 53.881415], [-6.317291, 53.87108], [-6.243235, 53.865139], [-6.243235, 53.857652], [-6.254018, 53.839911], [-6.254994, 53.822211], [-6.244985, 53.806871], [-6.240973533883829, 53.80496069205972], [-8.118896484375002, 54.00066047697709]]], [[[-8.509023, 55.005561], [-8.496571, 55.000678], [-8.488189, 54.991767], [-8.483957, 54.975531], [-8.527415, 54.967515], [-8.549306, 54.968411], [-8.565826, 54.975531], [-8.565826, 54.981757], [-8.563385, 54.986151], [-8.562734, 54.986396], [-8.563588, 54.987738], [-8.565826, 54.995429], [-8.550933, 55.001532], [-8.5454, 55.002875], [-8.547434, 55.005357], [-8.550526, 55.008002], [-8.552235, 55.009711], [-8.543528, 55.015326], [-8.536366, 55.016588], [-8.530385, 55.01435], [-8.524892, 55.009711], [-8.509023, 55.005561]]]]}, "properties": {"id": "man-5062", "status": "validé", "pieces": [{"kind": "polygon", "ring": [[-6.13037, 53.79343], [-8.1189, 54.00066], [-9.20654, 54.54613], [-8.18481, 55.60931], [-6.26221, 55.37271], [-4.87793, 54.42482]]}, {"kind": "clip"}]}}, {"type": "Feature", "geometry": null, "properties": {"id": "q0Q1", "status": "validé", "pieces": [{"kind": "country"}]}}, {"type": "Feature", "geometry": null, "properties": {"id": "rRE9", "status": "validé", "pieces": [{"kind": "country"}]}}, {"type": "Feature", "geometry": null, "properties": {"id": "wBpf", "status": "validé", "pieces": [{"kind": "country"}]}}, {"type": "Feature", "geometry": null, "properties": {"id": "wmsQ", "status": "validé", "pieces": [{"kind": "admin1", "code": "IRL-729"}]}}]}