{"type": "FeatureCollection", "features": [{"type": "Feature", "geometry": {"type": "Polygon", "coordinates": [[[35.23092, 31.68249], [35.23092, 31.71753], [35.182, 31.71753], [35.182, 31.68249], [35.23092, 31.68249]]]}, "properties": {"id": "0SY5", "status": "validé", "pieces": [{"kind": "rect", "bounds": [35.182, 31.68249, 35.23092, 31.71753]}]}}, {"type": "Feature", "geometry": null, "properties": {"id": "26il", "status": "validé", "pieces": [{"kind": "country"}]}}, {"type": "Feature", "geometry": null, "properties": {"id": "4Y89", "status": "rejeté", "pieces": []}}, {"type": "Feature", "geometry": null, "properties": {"id": "5SOq", "status": "validé", "pieces": [{"kind": "country"}]}}, {"type": "Feature", "geometry": {"type": "Polygon", "coordinates": [[[35.10269, 32.80924], [35.10269, 32.85999], [35.04021, 32.85999], [35.04021, 32.80924], [35.10269, 32.80924]]]}, "properties": {"id": "5VTI", "status": "validé", "pieces": [{"kind": "rect", "bounds": [35.04021, 32.80924, 35.10269, 32.85999]}]}}, {"type": "Feature", "geometry": {"type": "Polygon", "coordinates": [[[34.92554, 29.46026], [34.37622, 30.92199], [35.28259, 31.41062], [35.36499, 31.68202], [35.41992, 32.01319], [35.52979, 32.13416], [35.54077, 31.77076], [35.45288, 31.37312], [35.40344, 31.28869], [35.40344, 31.21359], [35.44739, 31.13372], [35.39246, 30.94553], [35.33203, 30.83716], [35.26062, 30.68145], [35.17822, 30.34559], [35.15076, 30.09412], [35.06836, 29.93722], [35.08484, 29.89847], [35.01892, 29.73172], [35.00244, 29.63632], [34.92554, 29.46026]]]}, "properties": {"id": "5uEB", "status": "validé", "pieces": [{"kind": "polygon", "ring": [[34.92554, 29.46026], [34.37622, 30.92199], [35.28259, 31.41062], [35.36499, 31.68202], [35.41992, 32.01319], [35.52979, 32.13416], [35.54077, 31.77076], [35.45288, 31.37312], [35.40344, 31.28869], [35.40344, 31.21359], [35.44739, 31.13372], [35.39246, 30.94553], [35.33203, 30.83716], [35.26062, 30.68145], [35.17822, 30.34559], [35.15076, 30.09412], [35.06836, 29.93722], [35.08484, 29.89847], [35.01892, 29.73172], [35.00244, 29.63632]]}]}}, {"type": "Feature", "geometry": {"type": "Polygon", "coordinates": [[[35.55656, 32.73196], [35.52361, 32.79833], [35.49751, 32.83871], [35.55313, 32.88886], [35.63278, 32.9148], [35.67467, 32.89348], [35.65475, 32.83179], [35.64857, 32.77179], [35.63622, 32.72041], [35.59914, 32.69095], [35.55794, 32.70193], [35.55656, 32.73196]]]}, "properties": {"id": "6r1q", "status": "validé", "pieces": [{"kind": "polygon", "ring": [[35.55656, 32.73196], [35.52361, 32.79833], [35.49751, 32.83871], [35.55313, 32.88886], [35.63278, 32.9148], [35.67467, 32.89348], [35.65475, 32.83179], [35.64857, 32.77179], [35.63622, 32.72041], [35.59914, 32.69095], [35.55794, 32.70193]]}]}}, {"type": "Feature", "geometry": {"type": "Polygon", "coordinates": [[[34.60968, 31.40358], [34.60968, 31.44575], [34.56024, 31.44575], [34.56024, 31.40358], [34.60968, 31.40358]]]}, "properties": {"id": "87Ha", "status": "validé", "pieces": [{"kind": "rect", "bounds": [34.56024, 31.40358, 34.60968, 31.44575]}]}}, {"type": "Feature", "geometry": {"type": "Polygon", "coordinates": [[[35.37598, 30.91457], [35.30182, 30.9499], [35.31006, 31.12163], [35.31555, 31.29304], [35.33752, 31.4501], [35.36774, 31.64195], [35.46112, 31.76575], [35.52429, 31.76575], [35.47485, 31.56245], [35.45013, 31.41027], [35.42267, 31.31415], [35.3952, 31.24611], [35.44189, 31.17332], [35.4364, 31.09812], [35.37598, 30.91457]]]}, "properties": {"id": "8SBk", "status": "validé", "pieces": [{"kind": "polygon", "ring": [[35.37598, 30.91457], [35.30182, 30.9499], [35.31006, 31.12163], [35.31555, 31.29304], [35.33752, 31.4501], [35.36774, 31.64195], [35.46112, 31.76575], [35.52429, 31.76575], [35.47485, 31.56245], [35.45013, 31.41027], [35.42267, 31.31415], [35.3952, 31.24611], [35.44189, 31.17332], [35.4364, 31.09812]]}]}}, {"type": "Feature", "geometry": {"type": "Polygon", "coordinates": [[[35.38971, 32.49857], [35.42267, 32.55181], [35.4776, 32.57263], [35.56824, 32.56801], [35.55176, 32.38504], [35.42816, 32.41285], [35.38971, 32.49857]]]}, "properties": {"id": "8gNf", "status": "validé", "pieces": [{"kind": "polygon", "ring": [[35.38971, 32.49857], [35.42267, 32.55181], [35.4776, 32.57263], [35.56824, 32.56801], [35.55176, 32.38504], [35.42816, 32.41285]]}]}}, {"type": "Feature", "geometry": {"type": "Polygon", "coordinates": [[[35.13428, 33.05274], [35.12054, 32.97216], [35.13428, 32.93761], [35.16998, 32.933], [35.21942, 32.92147], [35.24963, 32.85462], [35.26611, 32.75077], [35.31006, 32.69996], [35.38696, 32.67454], [35.46387, 32.69072], [35.48859, 32.7323], [35.48859, 32.78309], [35.46661, 32.82463], [35.4364, 32.85923], [35.44464, 32.89382], [35.46112, 32.933], [35.48584, 32.98368], [35.45837, 33.01591], [35.39246, 33.02512], [35.29358, 33.05964], [35.18921, 33.05964], [35.13428, 33.05274]]]}, "properties": {"id": "8ktx", "status": "validé", "pieces": [{"kind": "polygon", "ring": [[35.13428, 33.05274], [35.12054, 32.97216], [35.13428, 32.93761], [35.16998, 32.933], [35.21942, 32.92147], [35.24963, 32.85462], [35.26611, 32.75077], [35.31006, 32.69996], [35.38696, 32.67454], [35.46387, 32.69072], [35.48859, 32.7323], [35.48859, 32.78309], [35.46661, 32.82463], [35.4364, 32.85923], [35.44464, 32.89382], [35.46112, 32.933], [35.48584, 32.98368], [35.45837, 33.01591], [35.39246, 33.02512], [35.29358, 33.05964], [35.18921, 33.05964]]}]}}, {"type": "Feature", "geometry": null, "properties": {"id": "8sED", "status": "validé", "pieces": [{"kind": "country"}]}}, {"type": "Feature", "geometry": {"type": "Polygon", "coordinates": [[[34.81447, 31.91839], [34.81447, 31.93747], [34.78649, 31.93747], [34.78649, 31.91839], [34.81447, 31.91839]]]}, "properties": {"id": "B8PX", "status": "validé", "pieces": [{"kind": "rect", "bounds": [34.78649, 31.91839, 34.81447, 31.93747]}]}}, {"type": "Feature", "geometry": {"type": "Polygon", "coordinates": [[[35.10372, 32.9122], [35.10372, 32.94936], [35.0663, 32.94936], [35.0663, 32.9122], [35.10372, 32.9122]]]}, "properties": {"id": "BogJ", "status": "validé", "pieces": [{"kind": "rect", "bounds": [35.0663, 32.9122, 35.10372, 32.94936]}]}}, {"type": "Feature", "geometry": {"type": "Polygon", "coordinates": [[[35.42936, 32.68059], [35.42936, 32.70673], [35.4031, 32.70673], [35.4031, 32.68059], [35.42936, 32.68059]]]}, "properties": {"id": "D6Hi", "status": "validé", "pieces": [{"kind": "rect", "bounds": [35.4031, 32.68059, 35.42936, 32.70673]}]}}, {"type": "Feature", "geometry": {"type": "Polygon", "coordinates": [[[34.81567, 31.77111], [34.87061, 31.77111], [34.86511, 31.71974], [34.98596, 31.64498], [34.93652, 31.58419], [34.94202, 31.48591], [34.90906, 31.42971], [34.54102, 31.49528], [34.4696, 31.63096], [34.65088, 31.88307], [34.66712, 31.87618], [34.69321, 31.92646], [34.71193, 31.95161], [34.73389, 32.01331], [34.74334, 32.03986], [34.74399, 32.04462], [34.74269, 32.05561], [34.74334, 32.06037], [34.75701, 32.0666], [34.80443, 32.19251], [34.83766, 32.28071], [34.8678, 32.40751], [34.86829, 32.40751], [34.90942, 32.40665], [34.9209, 32.40748], [34.92307, 32.40794], [34.93268, 32.40903], [34.9825, 32.40552], [34.98575, 32.4044], [34.98994, 32.40226], [35.0058, 32.39001], [35.00906, 32.38831], [35.01107, 32.38694], [35.01231, 32.38544], [35.0134, 32.38397], [35.01448, 32.38257], [35.0213, 32.38118], [35.03226, 32.38216], [35.03273, 32.3822], [35.0288, 32.36516], [35.02156, 32.34459], [35.01784, 32.34221], [35.00451, 32.33805], [35.00068, 32.33573], [34.99655, 32.32304], [34.99304, 32.29157], [34.98994, 32.27847], [35.00244, 32.27514], [35.00937, 32.26764], [35.01112, 32.2571], [35.00761, 32.24439], [35.00027, 32.23201], [34.96141, 32.20158], [34.95822, 32.18645], [34.96268, 32.17346], [34.97704, 32.14999], [34.98694, 32.12399], [34.98422, 32.08958], [35.00724, 32.02077], [34.99677, 32.0111], [34.99883, 31.9939], [34.99784, 31.97878], [34.98669, 31.96723], [35.00122, 31.94962], [35.00773, 31.94492], [35.00378, 31.93921], [35.00542, 31.93377], [35.01635, 31.92659], [35.0299, 31.92443], [35.03901, 31.90864], [35.03432, 31.86111], [35.03011, 31.85701], [35.00657, 31.85606], [34.99854, 31.85384], [34.99238, 31.85479], [34.97127, 31.85495], [34.95919, 31.85399], [34.94331, 31.84742], [34.9313, 31.84049], [34.92133, 31.84069], [34.91128, 31.83237], [34.90865, 31.82932], [34.90121, 31.81454], [34.89485, 31.80935], [34.88865, 31.80633], [34.82778, 31.79199], [34.8068, 31.7777], [34.81567, 31.77111]], [[34.68384, 31.86909], [34.70645, 31.85228], [34.70567, 31.85671], [34.70551, 31.85818], [34.70598, 31.85971], [34.70706, 31.86087], [34.70985, 31.86343], [34.71078, 31.86519], [34.7113, 31.86754], [34.71037, 31.87211], [34.70861, 31.87387], [34.7066, 31.87454], [34.70458, 31.87402], [34.70148, 31.874], [34.69745, 31.87449], [34.68923, 31.87725], [34.68458, 31.87803], [34.68055, 31.87798], [34.67853, 31.8772], [34.66987, 31.87501], [34.68384, 31.86909]]]}, "properties": {"id": "DjZZ", "status": "validé", "pieces": [{"kind": "admin1", "code": "ISR-3055"}, {"kind": "admin1", "code": "ISR-3057"}, {"kind": "polygon", "ring": [[34.54102, 31.49528], [34.90906, 31.42971], [34.94202, 31.48591], [34.93652, 31.58419], [34.98596, 31.64498], [34.86511, 31.71974], [34.87061, 31.77111], [34.81567, 31.77111], [34.68384, 31.86909], [34.65088, 31.88307], [34.4696, 31.63096]]}]}}, {"type": "Feature", "geometry": null, "properties": {"id": "HUcN", "status": "rejeté", "pieces": []}}, {"type": "Feature", "geometry": {"type": "Polygon", "coordinates": [[[35.22354, 32.54928], [35.23178, 32.57473], [35.26611, 32.59093], [35.33066, 32.57242], [35.4007, 32.55275], [35.46387, 32.5215], [35.46661, 32.47288], [35.49957, 32.43813], [35.54901, 32.42075], [35.55725, 32.41032], [35.54901, 32.39525], [35.54352, 32.3883], [35.46799, 32.4138], [35.43777, 32.40452], [35.41443, 32.43118], [35.41718, 32.4613], [35.4007, 32.50414], [35.34851, 32.51919], [35.30045, 32.50761], [35.25238, 32.51919], [35.22354, 32.54928]]]}, "properties": {"id": "LWEc", "status": "validé", "pieces": [{"kind": "polygon", "ring": [[35.22354, 32.54928], [35.23178, 32.57473], [35.26611, 32.59093], [35.33066, 32.57242], [35.4007, 32.55275], [35.46387, 32.5215], [35.46661, 32.47288], [35.49957, 32.43813], [35.54901, 32.42075], [35.55725, 32.41032], [35.54901, 32.39525], [35.54352, 32.3883], [35.46799, 32.4138], [35.43777, 32.40452], [35.41443, 32.43118], [35.41718, 32.4613], [35.4007, 32.50414], [35.34851, 32.51919], [35.30045, 32.50761], [35.25238, 32.51919]]}]}}, {"type": "Feature", "geometry": null, "properties": {"id": "LiS4", "status": "validé", "pieces": [{"kind": "country"}]}}, {"type": "Feature", "geometry": null, "properties": {"id": "Lxx7", "status": "validé", "pieces": [{"kind": "country"}]}}, {"type": "Feature", "geometry": null, "properties": {"id": "McC9", "status": "rejeté", "pieces": []}}, {"type": "Feature", "geometry": {"type": "Polygon", "coordinates": [[[35.49099, 31.82337], [35.49099, 31.88429], [35.42336, 31.88429], [35.42336, 31.82337], [35.49099, 31.82337]]]}, "properties": {"id": "NQSw", "status": "validé", "pieces": [{"kind": "rect", "bounds": [35.42336, 31.82337, 35.49099, 31.88429]}]}}, {"type": "Feature", "geometry": null, "properties": {"id": "OiB7", "status": "validé", "pieces": [{"kind": "country"}]}}, {"type": "Feature", "geometry": {"type": "Polygon", "coordinates": [[[34.8476, 32.07461], [34.8476, 32.09365], [34.82288, 32.09365], [34.82288, 32.07461], [34.8476, 32.07461]]]}, "properties": {"id": "OyOI", "status": "validé", "pieces": [{"kind": "rect", "bounds": [34.82288, 32.07461, 34.8476, 32.09365]}]}}, {"type": "Feature", "geometry": null, "properties": {"id": "QlFr", "status": "validé", "pieces": [{"kind": "country"}]}}, {"type": "Feature", "geometry": null, "properties": {"id": "SBtu", "status": "rejeté", "pieces": []}}, {"type": "Feature", "geometry": {"type": "Polygon", "coordinates": [[[34.97669, 29.53707], [34.97669, 29.57856], [34.91798, 29.57856], [34.91798, 29.53707], [34.97669, 29.53707]]]}, "properties": {"id": "TTYJ", "status": "validé", "pieces": [{"kind": "rect", "bounds": [34.91798, 29.53707, 34.97669, 29.57856]}]}}, {"type": "Feature", "geometry": null, "properties": {"id": "UXde", "status": "validé", "pieces": [{"kind": "country"}]}}, {"type": "Feature", "geometry": {"type": "Polygon", "coordinates": [[[34.91695, 32.43302], [34.91695, 32.4782], [34.88228, 32.4782], [34.88228, 32.43302], [34.91695, 32.43302]]]}, "properties": {"id": "WRHe", "status": "validé", "pieces": [{"kind": "rect", "bounds": [34.88228, 32.43302, 34.91695, 32.4782]}]}}, {"type": "Feature", "geometry": null, "properties": {"id": "XZS5", "status": "validé", "pieces": [{"kind": "admin1", "code": "ISR-3056"}]}}, {"type": "Feature", "geometry": null, "properties": {"id": "Xg52", "status": "validé", "pieces": [{"kind": "country"}]}}, {"type": "Feature", "geometry": {"type": "Polygon", "coordinates": [[[34.83215, 29.81981], [34.93378, 29.86029], [35.04913, 29.84601], [35.01068, 29.68395], [35.01068, 29.65294], [34.92279, 29.45471], [34.89258, 29.47622], [34.83215, 29.81981]]]}, "properties": {"id": "YgqZ", "status": "validé", "pieces": [{"kind": "polygon", "ring": [[34.83215, 29.81981], [34.93378, 29.86029], [35.04913, 29.84601], [35.01068, 29.68395], [35.01068, 29.65294], [34.92279, 29.45471], [34.89258, 29.47622]]}]}}, {"type": "Feature", "geometry": null, "properties": {"id": "aDf0", "status": "rejeté", "pieces": []}}, {"type": "Feature", "geometry": null, "properties": {"id": "algU", "status": "rejeté", "pieces": []}}, {"type": "Feature", "geometry": {"type": "Polygon", "coordinates": [[[34.98047, 29.59828], [35.00519, 29.80337], [35.08759, 30.20043], [35.12054, 30.43269], [35.15625, 30.60061], [35.24689, 30.79655], [35.29907, 30.93324], [35.31281, 31.06738], [35.3183, 31.1567], [35.32379, 31.29287], [35.34851, 31.51782], [35.37872, 31.68384], [35.45837, 31.80058], [35.49133, 31.8519], [35.4776, 32.01764], [35.50781, 32.2362], [35.49957, 32.46349], [35.52704, 32.69967], [35.57648, 32.80126], [35.60669, 32.91196], [35.66986, 32.89583], [35.69733, 32.81049], [35.66162, 32.71122], [35.62866, 32.67887], [35.57098, 32.63958], [35.57098, 32.57019], [35.56961, 32.4346], [35.55862, 32.26877], [35.53665, 32.06658], [35.53528, 31.90707], [35.55038, 31.7683], [35.46387, 31.37852], [35.39658, 31.25773], [35.44601, 31.14736], [35.37598, 30.9849], [35.41443, 30.96843], [35.4007, 30.92722], [35.36636, 30.92251], [35.32928, 30.83415], [35.25375, 30.656], [35.16312, 30.43256], [35.18921, 30.34463], [35.15076, 30.28894], [35.15625, 30.06947], [35.07111, 29.93394], [35.04089, 29.77441], [35.01343, 29.63132], [34.98047, 29.59828]]]}, "properties": {"id": "bTSZ", "status": "validé", "pieces": [{"kind": "polygon", "ring": [[34.98047, 29.59828], [35.00519, 29.80337], [35.08759, 30.20043], [35.12054, 30.43269], [35.15625, 30.60061], [35.24689, 30.79655], [35.29907, 30.93324], [35.31281, 31.06738], [35.3183, 31.1567], [35.32379, 31.29287], [35.34851, 31.51782], [35.37872, 31.68384], [35.45837, 31.80058], [35.49133, 31.8519], [35.4776, 32.01764], [35.50781, 32.2362], [35.49957, 32.46349], [35.52704, 32.69967], [35.57648, 32.80126], [35.60669, 32.91196], [35.66986, 32.89583], [35.69733, 32.81049], [35.66162, 32.71122], [35.62866, 32.67887], [35.57098, 32.63958], [35.57098, 32.57019], [35.56961, 32.4346], [35.55862, 32.26877], [35.53665, 32.06658], [35.53528, 31.90707], [35.55038, 31.7683], [35.46387, 31.37852], [35.39658, 31.25773], [35.44601, 31.14736], [35.37598, 30.9849], [35.41443, 30.96843], [35.4007, 30.92722], [35.36636, 30.92251], [35.32928, 30.83415], [35.25375, 30.656], [35.16312, 30.43256], [35.18921, 30.34463], [35.15076, 30.28894], [35.15625, 30.06947], [35.07111, 29.93394], [35.04089, 29.77441], [35.01343, 29.63132]]}]}}, {"type": "Feature", "geometry": {"type": "Polygon", "coordinates": [[[35.26843, 32.75907], [35.26843, 32.77458], [35.2432, 32.77458], [35.2432, 32.75907], [35.26843, 32.75907]]]}, "properties": {"id": "bhS4", "status": "validé", "pieces": [{"kind": "rect", "bounds": [35.2432, 32.75907, 35.26843, 32.77458]}]}}, {"type": "Feature", "geometry": null, "properties": {"id": "cUXB", "status": "validé", "pieces": [{"kind": "admin1", "code": "ISR-3058"}]}}, {"type": "Feature", "geometry": null, "properties": {"id": "cY6B", "status": "validé", "pieces": [{"kind": "country"}]}}, {"type": "Feature", "geometry": null, "properties": {"id": "cn98", "status": "validé", "pieces": [{"kind": "country"}]}}, {"type": "Feature", "geometry": null, "properties": {"id": "dPE9", "status": "validé", "pieces": [{"kind": "admin1", "code": "ISR-3057"}, {"kind": "admin1", "code": "ISR-3055"}]}}, {"type": "Feature", "geometry": {"type": "Polygon", "coordinates": [[[34.78374, 31.3619], [34.78374, 31.40614], [34.72469, 31.40614], [34.72469, 31.3619], [34.78374, 31.3619]]]}, "properties": {"id": "fagW", "status": "validé", "pieces": [{"kind": "rect", "bounds": [34.72469, 31.3619, 34.78374, 31.40614]}]}}, {"type": "Feature", "geometry": {"type": "Polygon", "coordinates": [[[35.61768, 33.23993], [35.61493, 33.15033], [35.5957, 33.12045], [35.57236, 33.08595], [35.52704, 33.10435], [35.52292, 33.11815], [35.5394, 33.19744], [35.53802, 33.22615], [35.56549, 33.29273], [35.61768, 33.23993]]]}, "properties": {"id": "gafP", "status": "validé", "pieces": [{"kind": "polygon", "ring": [[35.61768, 33.23993], [35.61493, 33.15033], [35.5957, 33.12045], [35.57236, 33.08595], [35.52704, 33.10435], [35.52292, 33.11815], [35.5394, 33.19744], [35.53802, 33.22615], [35.56549, 33.29273]]}]}}, {"type": "Feature", "geometry": {"type": "Polygon", "coordinates": [[[34.8064, 32.03462], [34.8064, 32.09104], [34.76727, 32.09104], [34.76727, 32.03462], [34.8064, 32.03462]]]}, "properties": {"id": "hFUY", "status": "validé", "pieces": [{"kind": "rect", "bounds": [34.76727, 32.03462, 34.8064, 32.09104]}]}}, {"type": "Feature", "geometry": null, "properties": {"id": "ik9R", "status": "validé", "pieces": [{"kind": "country"}]}}, {"type": "Feature", "geometry": {"type": "Polygon", "coordinates": [[[35.46661, 31.49469], [35.56, 31.76586], [35.55725, 32.38698], [35.42267, 32.40321], [35.39795, 32.51209], [35.31006, 32.50746], [35.21942, 32.55607], [35.0766, 32.47041], [35.04364, 32.38463], [35.00793, 32.29068], [35.02029, 32.26979], [34.99832, 32.21174], [34.9585, 32.17573], [34.98871, 32.1025], [34.99832, 31.97683], [35.04089, 31.91509], [35.03265, 31.86614], [35.06149, 31.85448], [35.12604, 31.82066], [35.20844, 31.87197], [35.27435, 31.82649], [35.25513, 31.73898], [35.24139, 31.71913], [35.13153, 31.72964], [34.94614, 31.57422], [34.8967, 31.40683], [34.9173, 31.34471], [35.15213, 31.35058], [35.46661, 31.49469]]]}, "properties": {"id": "isW8", "status": "validé", "pieces": [{"kind": "polygon", "ring": [[35.46661, 31.49469], [35.56, 31.76586], [35.55725, 32.38698], [35.42267, 32.40321], [35.39795, 32.51209], [35.31006, 32.50746], [35.21942, 32.55607], [35.0766, 32.47041], [35.04364, 32.38463], [35.00793, 32.29068], [35.02029, 32.26979], [34.99832, 32.21174], [34.9585, 32.17573], [34.98871, 32.1025], [34.99832, 31.97683], [35.04089, 31.91509], [35.03265, 31.86614], [35.06149, 31.85448], [35.12604, 31.82066], [35.20844, 31.87197], [35.27435, 31.82649], [35.25513, 31.73898], [35.24139, 31.71913], [35.13153, 31.72964], [34.94614, 31.57422], [34.8967, 31.40683], [34.9173, 31.34471], [35.15213, 31.35058]]}]}}, {"type": "Feature", "geometry": {"type": "Polygon", "coordinates": [[[35.48584, 31.49261], [35.39246, 31.49261], [35.23315, 31.36376], [34.90906, 31.35439], [34.88983, 31.39658], [34.93652, 31.50197], [34.953, 31.59322], [35.12054, 31.72409], [35.25238, 31.71708], [35.27435, 31.84544], [35.23315, 31.88042], [35.12604, 31.83378], [35.02991, 31.93402], [34.96674, 32.16905], [35.04364, 32.35478], [35.29633, 32.28749], [35.55725, 32.22016], [35.5188, 32.04114], [35.52979, 31.92936], [35.54077, 31.76611], [35.48584, 31.49261]]]}, "properties": {"id": "jBWo", "status": "validé", "pieces": [{"kind": "polygon", "ring": [[35.48584, 31.49261], [35.39246, 31.49261], [35.23315, 31.36376], [34.90906, 31.35439], [34.88983, 31.39658], [34.93652, 31.50197], [34.953, 31.59322], [35.12054, 31.72409], [35.25238, 31.71708], [35.27435, 31.84544], [35.23315, 31.88042], [35.12604, 31.83378], [35.02991, 31.93402], [34.96674, 32.16905], [35.04364, 32.35478], [35.29633, 32.28749], [35.55725, 32.22016], [35.5188, 32.04114], [35.52979, 31.92936], [35.54077, 31.76611]]}]}}, {"type": "Feature", "geometry": {"type": "Polygon", "coordinates": [[[35.15488, 31.73072], [35.15076, 31.81825], [35.16037, 31.87655], [35.24002, 31.90452], [35.29083, 31.87772], [35.31418, 31.78208], [35.31006, 31.71671], [35.27435, 31.67233], [35.16174, 31.677], [35.15488, 31.73072]]]}, "properties": {"id": "l6Gd", "status": "validé", "pieces": [{"kind": "polygon", "ring": [[35.15488, 31.73072], [35.15076, 31.81825], [35.16037, 31.87655], [35.24002, 31.90452], [35.29083, 31.87772], [35.31418, 31.78208], [35.31006, 31.71671], [35.27435, 31.67233], [35.16174, 31.677]]}]}}, {"type": "Feature", "geometry": null, "properties": {"id": "laqT", "status": "rejeté", "pieces": []}}, {"type": "Feature", "geometry": {"type": "Polygon", "coordinates": [[[35.24929, 31.88082], [35.24929, 31.9286], [35.16243, 31.9286], [35.16243, 31.88082], [35.24929, 31.88082]]]}, "properties": {"id": "n3eR", "status": "validé", "pieces": [{"kind": "rect", "bounds": [35.16243, 31.88082, 35.24929, 31.9286]}]}}, {"type": "Feature", "geometry": {"type": "Polygon", "coordinates": [[[35.36499, 31.45681], [35.34027, 31.15891], [35.36774, 31.09311], [35.27985, 30.97548], [35.20294, 30.72564], [35.12604, 30.39467], [35.12466, 30.20952], [35.07111, 30.02191], [35.09583, 29.97948], [35.14252, 30.0635], [35.16037, 30.14307], [35.15076, 30.29608], [35.1947, 30.3423], [35.18509, 30.44886], [35.25238, 30.70886], [35.33066, 30.95992], [35.4158, 31.08129], [35.3801, 31.23165], [35.4158, 31.37123], [35.40344, 31.49421], [35.36499, 31.45681]]]}, "properties": {"id": "nIuy", "status": "validé", "pieces": [{"kind": "polygon", "ring": [[35.36499, 31.45681], [35.34027, 31.15891], [35.36774, 31.09311], [35.27985, 30.97548], [35.20294, 30.72564], [35.12604, 30.39467], [35.12466, 30.20952], [35.07111, 30.02191], [35.09583, 29.97948], [35.14252, 30.0635], [35.16037, 30.14307], [35.15076, 30.29608], [35.1947, 30.3423], [35.18509, 30.44886], [35.25238, 30.70886], [35.33066, 30.95992], [35.4158, 31.08129], [35.3801, 31.23165], [35.4158, 31.37123], [35.40344, 31.49421]]}]}}, {"type": "Feature", "geometry": {"type": "Polygon", "coordinates": [[[34.67491, 31.76469], [34.67491, 31.82391], [34.61655, 31.82391], [34.61655, 31.76469], [34.67491, 31.76469]]]}, "properties": {"id": "o2lV", "status": "validé", "pieces": [{"kind": "rect", "bounds": [34.61655, 31.76469, 34.67491, 31.82391]}]}}, {"type": "Feature", "geometry": {"type": "Polygon", "coordinates": [[[34.89429, 32.16839], [34.89429, 32.19715], [34.84383, 32.19715], [34.84383, 32.16839], [34.89429, 32.16839]]]}, "properties": {"id": "ohFr", "status": "validé", "pieces": [{"kind": "rect", "bounds": [34.84383, 32.16839, 34.89429, 32.19715]}]}}, {"type": "Feature", "geometry": {"type": "Polygon", "coordinates": [[[35.05943, 29.90095], [35.05943, 29.9866], [34.98047, 29.9866], [34.98047, 29.90095], [35.05943, 29.90095]]]}, "properties": {"id": "pTNG", "status": "validé", "pieces": [{"kind": "rect", "bounds": [34.98047, 29.90095, 35.05943, 29.9866]}]}}, {"type": "Feature", "geometry": null, "properties": {"id": "q6eN", "status": "validé", "pieces": [{"kind": "country"}]}}, {"type": "Feature", "geometry": null, "properties": {"id": "qG8X", "status": "rejeté", "pieces": []}}, {"type": "Feature", "geometry": {"type": "Polygon", "coordinates": [[[34.93652, 29.56226], [35.04913, 30.01497], [35.09583, 30.01734], [35.05188, 29.82937], [35.00793, 29.63626], [34.99146, 29.56465], [34.93652, 29.56226]]]}, "properties": {"id": "qZaS", "status": "validé", "pieces": [{"kind": "polygon", "ring": [[34.93652, 29.56226], [35.04913, 30.01497], [35.09583, 30.01734], [35.05188, 29.82937], [35.00793, 29.63626], [34.99146, 29.56465]]}]}}, {"type": "Feature", "geometry": {"type": "Polygon", "coordinates": [[[35.16518, 31.80828], [35.16518, 31.73651], [35.23727, 31.71257], [35.25993, 31.74701], [35.26405, 31.82636], [35.22148, 31.88116], [35.20844, 31.84735], [35.16518, 31.80828]]]}, "properties": {"id": "rMis", "status": "validé", "pieces": [{"kind": "polygon", "ring": [[35.16518, 31.80828], [35.16518, 31.73651], [35.23727, 31.71257], [35.25993, 31.74701], [35.26405, 31.82636], [35.22148, 31.88116], [35.20844, 31.84735]]}]}}, {"type": "Feature", "geometry": {"type": "Polygon", "coordinates": [[[35.05188, 32.81407], [35.07111, 32.73327], [35.06424, 32.6836], [35.04913, 32.62697], [34.95987, 32.60963], [34.92004, 32.61657], [34.91455, 32.7044], [34.94751, 32.8406], [34.98734, 32.85213], [35.05188, 32.81407]]]}, "properties": {"id": "vYUO", "status": "validé", "pieces": [{"kind": "polygon", "ring": [[35.05188, 32.81407], [35.07111, 32.73327], [35.06424, 32.6836], [35.04913, 32.62697], [34.95987, 32.60963], [34.92004, 32.61657], [34.91455, 32.7044], [34.94751, 32.8406], [34.98734, 32.85213]]}]}}, {"type": "Feature", "geometry": {"type": "Polygon", "coordinates": [[[35.16861, 31.71323], [35.13702, 31.66534], [35.16312, 31.6221], [35.23865, 31.62677], [35.31693, 31.64197], [35.35538, 31.72374], [35.32379, 31.83226], [35.32654, 31.87074], [35.33615, 31.92319], [35.34439, 31.96745], [35.27435, 31.98026], [35.1796, 31.99307], [35.1178, 31.9756], [35.10681, 31.93134], [35.10681, 31.91969], [35.14389, 31.90221], [35.22217, 31.89755], [35.26611, 31.88706], [35.28397, 31.81477], [35.26886, 31.75876], [35.25101, 31.71673], [35.24002, 31.6887], [35.16861, 31.71323]]]}, "properties": {"id": "vqbJ", "status": "validé", "pieces": [{"kind": "polygon", "ring": [[35.16861, 31.71323], [35.13702, 31.66534], [35.16312, 31.6221], [35.23865, 31.62677], [35.31693, 31.64197], [35.35538, 31.72374], [35.32379, 31.83226], [35.32654, 31.87074], [35.33615, 31.92319], [35.34439, 31.96745], [35.27435, 31.98026], [35.1796, 31.99307], [35.1178, 31.9756], [35.10681, 31.93134], [35.10681, 31.91969], [35.14389, 31.90221], [35.22217, 31.89755], [35.26611, 31.88706], [35.28397, 31.81477], [35.26886, 31.75876], [35.25101, 31.71673], [35.24002, 31.6887]]}]}}, {"type": "Feature", "geometry": {"type": "Polygon", "coordinates": [[[34.97463, 32.08235], [34.97463, 32.10881], [34.93515, 32.10881], [34.93515, 32.08235], [34.97463, 32.08235]]]}, "properties": {"id": "wUDq", "status": "validé", "pieces": [{"kind": "rect", "bounds": [34.93515, 32.08235, 34.97463, 32.10881]}]}}, {"type": "Feature", "geometry": {"type": "Polygon", "coordinates": [[[35.07969, 32.49255], [35.07969, 32.5131], [35.0366, 32.5131], [35.0366, 32.49255], [35.07969, 32.49255]]]}, "properties": {"id": "x53j", "status": "validé", "pieces": [{"kind": "rect", "bounds": [35.0366, 32.49255, 35.07969, 32.5131]}]}}, {"type": "Feature", "geometry": {"type": "Polygon", "coordinates": [[[35.11574, 32.99299], [35.11574, 33.02652], [35.08329, 33.02652], [35.08329, 32.99299], [35.11574, 32.99299]]]}, "properties": {"id": "xiPx", "status": "validé", "pieces": [{"kind": "rect", "bounds": [35.08329, 32.99299, 35.11574, 33.02652]}]}}, {"type": "Feature", "geometry": {"type": "Polygon", "coordinates": [[[35.06836, 32.32454], [35.27435, 32.21311], [35.42816, 32.06432], [35.44189, 31.97121], [35.41168, 31.84303], [35.39246, 31.73802], [35.27985, 31.59314], [35.17548, 31.42461], [35.10132, 31.36368], [34.93103, 31.34258], [34.88159, 31.40118], [34.94202, 31.49487], [34.97223, 31.62353], [35.13977, 31.74268], [35.2359, 31.71466], [35.28534, 31.74035], [35.25238, 31.83603], [35.22491, 31.878], [35.18921, 31.81737], [35.10132, 31.84069], [34.98596, 31.82437], [35.00519, 31.85235], [35.0354, 31.88033], [35.02991, 31.92695], [35.00793, 31.95724], [34.99695, 32.07828], [34.99146, 32.13177], [34.96399, 32.1922], [35.01892, 32.23169], [35.06836, 32.32454]]]}, "properties": {"id": "yoLh", "status": "validé", "pieces": [{"kind": "polygon", "ring": [[35.06836, 32.32454], [35.27435, 32.21311], [35.42816, 32.06432], [35.44189, 31.97121], [35.41168, 31.84303], [35.39246, 31.73802], [35.27985, 31.59314], [35.17548, 31.42461], [35.10132, 31.36368], [34.93103, 31.34258], [34.88159, 31.40118], [34.94202, 31.49487], [34.97223, 31.62353], [35.13977, 31.74268], [35.2359, 31.71466], [35.28534, 31.74035], [35.25238, 31.83603], [35.22491, 31.878], [35.18921, 31.81737], [35.10132, 31.84069], [34.98596, 31.82437], [35.00519, 31.85235], [35.0354, 31.88033], [35.02991, 31.92695], [35.00793, 31.95724], [34.99695, 32.07828], [34.99146, 32.13177], [34.96399, 32.1922], [35.01892, 32.23169]]}]}}, {"type": "Feature", "geometry": {"type": "Polygon", "coordinates": [[[34.99146, 32.12712], [35.11642, 32.15036], [35.2002, 32.18871], [35.23041, 32.25606], [35.20294, 32.33845], [35.15762, 32.3744], [35.06836, 32.43582], [35.04639, 32.38483], [35.06012, 32.36164], [35.02853, 32.30597], [35.02853, 32.27696], [35.00656, 32.2282], [34.96124, 32.18755], [34.99146, 32.12712]]]}, "properties": {"id": "z5QI", "status": "validé", "pieces": [{"kind": "polygon", "ring": [[34.99146, 32.12712], [35.11642, 32.15036], [35.2002, 32.18871], [35.23041, 32.25606], [35.20294, 32.33845], [35.15762, 32.3744], [35.06836, 32.43582], [35.04639, 32.38483], [35.06012, 32.36164], [35.02853, 32.30597], [35.02853, 32.27696], [35.00656, 32.2282], [34.96124, 32.18755]]}]}}]}