{"type": "FeatureCollection", "features": [{"type": "Feature", "geometry": {"type": "Polygon", "coordinates": [[[-4.61213, 54.05695], [-4.62076, 54.06965], [-4.63126, 54.07062], [-4.64322, 54.0666], [-4.6564, 54.06379], [-4.67101, 54.06704], [-4.68969, 54.08153], [-4.7045, 54.08487], [-4.72598, 54.07901], [-4.74559, 54.06737], [-4.76623, 54.05923], [-4.79015, 54.06379], [-4.79015, 54.07123], [-4.78482, 54.07306], [-4.78132, 54.07477], [-4.77709, 54.07624], [-4.76968, 54.07746], [-4.77086, 54.09683], [-4.73717, 54.1249], [-4.72814, 54.14256], [-4.72765, 54.17259], [-4.72379, 54.18545], [-4.71447, 54.20034], [-4.71109, 54.20991], [-4.71227, 54.21662], [-4.71028, 54.22065], [-4.68814, 54.22378], [-4.66397, 54.23355], [-4.64306, 54.24942], [-4.61246, 54.26545], [-4.59838, 54.2766], [-4.5546, 54.33918], [-4.53099, 54.36612], [-4.49535, 54.38589], [-4.44201, 54.40436], [-4.40445, 54.40965], [-4.38573, 54.41572], [-4.36779, 54.41901], [-4.35131, 54.4138], [-4.35709, 54.3994], [-4.37755, 54.36188], [-4.3756, 54.34833], [-4.37023, 54.34089], [-4.36376, 54.32429], [-4.35823, 54.31761], [-4.35049, 54.31477], [-4.33218, 54.31342], [-4.3247, 54.31021], [-4.31941, 54.30459], [-4.31322, 54.2956], [-4.31192, 54.28718], [-4.32095, 54.28352], [-4.32673, 54.28034], [-4.34081, 54.26301], [-4.34826, 54.25951], [-4.35436, 54.25153], [-4.35977, 54.24226], [-4.36563, 54.23505], [-4.37182, 54.23127], [-4.39916, 54.22207], [-4.39078, 54.19473], [-4.41259, 54.18008], [-4.44689, 54.16913], [-4.47549, 54.15314], [-4.4746, 54.14082], [-4.52929, 54.11909], [-4.54377, 54.10847], [-4.54979, 54.10065], [-4.56383, 54.09683], [-4.57958, 54.09443], [-4.59093, 54.09105], [-4.59895, 54.08389], [-4.61213, 54.05695]]]}, "properties": {"id": "2MfZ", "status": "validé", "pieces": [{"kind": "country"}]}}, {"type": "Feature", "geometry": {"type": "Polygon", "coordinates": [[[-4.61213, 54.05695], [-4.62076, 54.06965], [-4.63126, 54.07062], [-4.64322, 54.0666], [-4.6564, 54.06379], [-4.67101, 54.06704], [-4.68969, 54.08153], [-4.7045, 54.08487], [-4.72598, 54.07901], [-4.74559, 54.06737], [-4.76623, 54.05923], [-4.79015, 54.06379], [-4.79015, 54.07123], [-4.78482, 54.07306], [-4.78132, 54.07477], [-4.77709, 54.07624], [-4.76968, 54.07746], [-4.77086, 54.09683], [-4.73717, 54.1249], [-4.72814, 54.14256], [-4.72765, 54.17259], [-4.72379, 54.18545], [-4.71447, 54.20034], [-4.71109, 54.20991], [-4.71227, 54.21662], [-4.71028, 54.22065], [-4.68814, 54.22378], [-4.66397, 54.23355], [-4.64306, 54.24942], [-4.61246, 54.26545], [-4.59838, 54.2766], [-4.5546, 54.33918], [-4.53099, 54.36612], [-4.49535, 54.38589], [-4.44201, 54.40436], [-4.40445, 54.40965], [-4.38573, 54.41572], [-4.36779, 54.41901], [-4.35131, 54.4138], [-4.35709, 54.3994], [-4.37755, 54.36188], [-4.3756, 54.34833], [-4.37023, 54.34089], [-4.36376, 54.32429], [-4.35823, 54.31761], [-4.35049, 54.31477], [-4.33218, 54.31342], [-4.3247, 54.31021], [-4.31941, 54.30459], [-4.31322, 54.2956], [-4.31192, 54.28718], [-4.32095, 54.28352], [-4.32673, 54.28034], [-4.34081, 54.26301], [-4.34826, 54.25951], [-4.35436, 54.25153], [-4.35977, 54.24226], [-4.36563, 54.23505], [-4.37182, 54.23127], [-4.39916, 54.22207], [-4.39078, 54.19473], [-4.41259, 54.18008], [-4.44689, 54.16913], [-4.47549, 54.15314], [-4.4746, 54.14082], [-4.52929, 54.11909], [-4.54377, 54.10847], [-4.54979, 54.10065], [-4.56383, 54.09683], [-4.57958, 54.09443], [-4.59093, 54.09105], [-4.59895, 54.08389], [-4.61213, 54.05695]]]}, "properties": {"id": "4nRh", "status": "validé", "pieces": [{"kind": "country"}]}}, {"type": "Feature", "geometry": {"type": "Polygon", "coordinates": [[[-4.6055, 54.07647], [-4.6055, 54.0882], [-4.63795, 54.0882], [-4.63795, 54.07647], [-4.6055, 54.07647]]]}, "properties": {"id": "Arok", "status": "validé", "pieces": [{"kind": "rect", "bounds": [-4.63795, 54.07647, -4.6055, 54.0882]}]}}, {"type": "Feature", "geometry": {"type": "Polygon", "coordinates": [[[-4.67245, 54.21579], [-4.67245, 54.22873], [-4.70215, 54.22873], [-4.70215, 54.21579], [-4.67245, 54.21579]]]}, "properties": {"id": "DCeX", "status": "validé", "pieces": [{"kind": "rect", "bounds": [-4.70215, 54.21579, -4.67245, 54.22873]}]}}, {"type": "Feature", "geometry": {"type": "Polygon", "coordinates": [[[-4.46285, 54.16306], [-4.47109, 54.16989], [-4.48019, 54.17822], [-4.47195, 54.18505], [-4.44105, 54.18174], [-4.43401, 54.17431], [-4.43642, 54.15944], [-4.46285, 54.16306]]]}, "properties": {"id": "ONfY", "status": "validé", "pieces": [{"kind": "polygon", "ring": [[-4.46285, 54.16306], [-4.47109, 54.16989], [-4.48019, 54.17822], [-4.47195, 54.18505], [-4.44105, 54.18174], [-4.43401, 54.17431], [-4.43642, 54.15944]]}]}}, {"type": "Feature", "geometry": {"type": "Polygon", "coordinates": [[[-4.46938, 54.14095], [-4.48002, 54.14477], [-4.50783, 54.14215], [-4.53289, 54.14497], [-4.53873, 54.15341], [-4.52225, 54.15904], [-4.51057, 54.16386], [-4.4965, 54.17009], [-4.48036, 54.17873], [-4.47624, 54.18073], [-4.45873, 54.18254], [-4.44225, 54.17792], [-4.44122, 54.1721], [-4.45187, 54.16507], [-4.44603, 54.13833], [-4.46938, 54.14095]]]}, "properties": {"id": "Q2No", "status": "validé", "pieces": [{"kind": "polygon", "ring": [[-4.46938, 54.14095], [-4.48002, 54.14477], [-4.50783, 54.14215], [-4.53289, 54.14497], [-4.53873, 54.15341], [-4.52225, 54.15904], [-4.51057, 54.16386], [-4.4965, 54.17009], [-4.48036, 54.17873], [-4.47624, 54.18073], [-4.45873, 54.18254], [-4.44225, 54.17792], [-4.44122, 54.1721], [-4.45187, 54.16507], [-4.44603, 54.13833]]}]}}, {"type": "Feature", "geometry": {"type": "Polygon", "coordinates": [[[-4.39419, 54.2204], [-4.41084, 54.22742], [-4.41668, 54.23394], [-4.41959, 54.24046], [-4.4141, 54.24247], [-4.40157, 54.24297], [-4.39573, 54.23856], [-4.38869, 54.23013], [-4.38269, 54.22321], [-4.39419, 54.2204]]]}, "properties": {"id": "Sk9u", "status": "validé", "pieces": [{"kind": "polygon", "ring": [[-4.39419, 54.2204], [-4.41084, 54.22742], [-4.41668, 54.23394], [-4.41959, 54.24046], [-4.4141, 54.24247], [-4.40157, 54.24297], [-4.39573, 54.23856], [-4.38869, 54.23013], [-4.38269, 54.22321]]}]}}, {"type": "Feature", "geometry": {"type": "MultiPolygon", "coordinates": [[[[-4.65992, 54.06971], [-4.66404, 54.07897], [-4.6558, 54.08199], [-4.67056, 54.09528], [-4.66129, 54.10896], [-4.66576, 54.11801], [-4.68464, 54.14837], [-4.6534, 54.16083], [-4.62559, 54.16807], [-4.61254, 54.16867], [-4.60945, 54.1544], [-4.60327, 54.15099], [-4.59469, 54.14415], [-4.5734, 54.14998], [-4.56036, 54.14355], [-4.55692, 54.1345], [-4.54285, 54.12465], [-4.52946, 54.12284], [-4.52917, 54.11913], [-4.52929, 54.11909], [-4.54377, 54.10847], [-4.54979, 54.10065], [-4.56383, 54.09683], [-4.57958, 54.09443], [-4.59093, 54.09105], [-4.59895, 54.08389], [-4.61213, 54.05695], [-4.62076, 54.06965], [-4.63126, 54.07062], [-4.64322, 54.0666], [-4.65587, 54.0639], [-4.65992, 54.06971]]], [[[-4.37428, 54.24764], [-4.40758, 54.26348], [-4.42543, 54.26027], [-4.44328, 54.26669], [-4.40002, 54.31256], [-4.40792, 54.32637], [-4.4014, 54.33577], [-4.38148, 54.33777], [-4.36855, 54.33657], [-4.36376, 54.32429], [-4.35823, 54.31761], [-4.35049, 54.31477], [-4.33218, 54.31342], [-4.3247, 54.31021], [-4.31941, 54.30459], [-4.31322, 54.2956], [-4.31192, 54.28718], [-4.32095, 54.28352], [-4.32673, 54.28034], [-4.34081, 54.26301], [-4.34826, 54.25951], [-4.35436, 54.25153], [-4.35814, 54.24505], [-4.37428, 54.24764]]]]}, "properties": {"id": "VIUx", "status": "validé", "pieces": [{"kind": "polygon", "ring": [[-4.38148, 54.33777], [-4.4014, 54.33577], [-4.40792, 54.32637], [-4.40002, 54.31256], [-4.44328, 54.26669], [-4.42543, 54.26027], [-4.40758, 54.26348], [-4.37428, 54.24764], [-4.33926, 54.24203], [-4.27711, 54.28692], [-4.3578, 54.33557]]}, {"kind": "clip"}, {"kind": "polygon", "ring": [[-4.52946, 54.12284], [-4.54285, 54.12465], [-4.55692, 54.1345], [-4.56036, 54.14355], [-4.5734, 54.14998], [-4.59469, 54.14415], [-4.60327, 54.15099], [-4.60945, 54.1544], [-4.61254, 54.16867], [-4.62559, 54.16807], [-4.6534, 54.16083], [-4.68464, 54.14837], [-4.66576, 54.11801], [-4.66129, 54.10896], [-4.67056, 54.09528], [-4.6558, 54.08199], [-4.66404, 54.07897], [-4.65992, 54.06971], [-4.64996, 54.05541], [-4.60911, 54.04634], [-4.52637, 54.0826]]}]}}, {"type": "Feature", "geometry": {"type": "Polygon", "coordinates": [[[-4.61213, 54.05695], [-4.62076, 54.06965], [-4.63126, 54.07062], [-4.64322, 54.0666], [-4.6564, 54.06379], [-4.67101, 54.06704], [-4.68969, 54.08153], [-4.7045, 54.08487], [-4.72598, 54.07901], [-4.74559, 54.06737], [-4.76623, 54.05923], [-4.79015, 54.06379], [-4.79015, 54.07123], [-4.78482, 54.07306], [-4.78132, 54.07477], [-4.77709, 54.07624], [-4.76968, 54.07746], [-4.77086, 54.09683], [-4.73717, 54.1249], [-4.72814, 54.14256], [-4.72765, 54.17259], [-4.72379, 54.18545], [-4.71447, 54.20034], [-4.71109, 54.20991], [-4.71227, 54.21662], [-4.71028, 54.22065], [-4.68814, 54.22378], [-4.66397, 54.23355], [-4.64306, 54.24942], [-4.61246, 54.26545], [-4.59838, 54.2766], [-4.5546, 54.33918], [-4.53099, 54.36612], [-4.49535, 54.38589], [-4.44201, 54.40436], [-4.40445, 54.40965], [-4.38573, 54.41572], [-4.36779, 54.41901], [-4.35131, 54.4138], [-4.35709, 54.3994], [-4.37755, 54.36188], [-4.3756, 54.34833], [-4.37023, 54.34089], [-4.36376, 54.32429], [-4.35823, 54.31761], [-4.35049, 54.31477], [-4.33218, 54.31342], [-4.3247, 54.31021], [-4.31941, 54.30459], [-4.31322, 54.2956], [-4.31192, 54.28718], [-4.32095, 54.28352], [-4.32673, 54.28034], [-4.34081, 54.26301], [-4.34826, 54.25951], [-4.35436, 54.25153], [-4.35977, 54.24226], [-4.36563, 54.23505], [-4.37182, 54.23127], [-4.39916, 54.22207], [-4.39078, 54.19473], [-4.41259, 54.18008], [-4.44689, 54.16913], [-4.47549, 54.15314], [-4.4746, 54.14082], [-4.52929, 54.11909], [-4.54377, 54.10847], [-4.54979, 54.10065], [-4.56383, 54.09683], [-4.57958, 54.09443], [-4.59093, 54.09105], [-4.59895, 54.08389], [-4.61213, 54.05695]]]}, "properties": {"id": "ZZ1O", "status": "validé", "pieces": [{"kind": "country"}]}}, {"type": "Feature", "geometry": {"type": "Polygon", "coordinates": [[[-4.72275, 54.09129], [-4.73167, 54.10497], [-4.72481, 54.12107], [-4.71588, 54.14158], [-4.70352, 54.15002], [-4.68979, 54.1685], [-4.68704, 54.18257], [-4.67194, 54.18417], [-4.65202, 54.18096], [-4.6431, 54.16127], [-4.62593, 54.15283], [-4.58885, 54.15444], [-4.57649, 54.1685], [-4.55933, 54.17333], [-4.54285, 54.1669], [-4.52225, 54.15886], [-4.5298, 54.14439], [-4.56757, 54.13715], [-4.57306, 54.13796], [-4.6067, 54.13997], [-4.60396, 54.13072], [-4.57787, 54.1275], [-4.55521, 54.11423], [-4.55215, 54.10001], [-4.56383, 54.09683], [-4.57958, 54.09443], [-4.59093, 54.09105], [-4.59895, 54.08389], [-4.61213, 54.05695], [-4.62076, 54.06965], [-4.63126, 54.07062], [-4.64322, 54.0666], [-4.6564, 54.06379], [-4.67101, 54.06704], [-4.68969, 54.08153], [-4.7045, 54.08487], [-4.72598, 54.07901], [-4.72734, 54.0782], [-4.72275, 54.09129]]]}, "properties": {"id": "abTT", "status": "validé", "pieces": [{"kind": "polygon", "ring": [[-4.72755, 54.0776], [-4.72275, 54.09129], [-4.73167, 54.10497], [-4.72481, 54.12107], [-4.71588, 54.14158], [-4.70352, 54.15002], [-4.68979, 54.1685], [-4.68704, 54.18257], [-4.67194, 54.18417], [-4.65202, 54.18096], [-4.6431, 54.16127], [-4.62593, 54.15283], [-4.58885, 54.15444], [-4.57649, 54.1685], [-4.55933, 54.17333], [-4.54285, 54.1669], [-4.52225, 54.15886], [-4.5298, 54.14439], [-4.56757, 54.13715], [-4.57306, 54.13796], [-4.6067, 54.13997], [-4.60396, 54.13072], [-4.57787, 54.1275], [-4.55521, 54.11423], [-4.54491, 54.06632], [-4.68224, 54.03933]]}, {"kind": "clip"}]}}, {"type": "Feature", "geometry": {"type": "Polygon", "coordinates": [[[-4.35677, 54.31618], [-4.41444, 54.31779], [-4.46526, 54.31779], [-4.55521, 54.30417], [-4.58355, 54.2978], [-4.5546, 54.33918], [-4.53099, 54.36612], [-4.49535, 54.38589], [-4.45571, 54.39962], [-4.4426, 54.39458], [-4.44122, 54.38299], [-4.4577, 54.37819], [-4.468, 54.3662], [-4.41032, 54.3606], [-4.37692, 54.35748], [-4.3756, 54.34833], [-4.37023, 54.34089], [-4.36376, 54.32429], [-4.35823, 54.31761], [-4.35672, 54.31706], [-4.35677, 54.31618]]]}, "properties": {"id": "btUp", "status": "validé", "pieces": [{"kind": "polygon", "ring": [[-4.60327, 54.29336], [-4.55521, 54.30417], [-4.46526, 54.31779], [-4.41444, 54.31779], [-4.35677, 54.31618], [-4.35471, 54.3554], [-4.41032, 54.3606], [-4.468, 54.3662], [-4.4577, 54.37819], [-4.44122, 54.38299], [-4.4426, 54.39458], [-4.47693, 54.40777], [-4.57718, 54.3714], [-4.60876, 54.31098], [-4.60396, 54.29816]]}, {"kind": "clip"}]}}, {"type": "Feature", "geometry": null, "properties": {"id": "cEF8", "status": "rejeté", "pieces": []}}, {"type": "Feature", "geometry": {"type": "Polygon", "coordinates": [[[-4.61213, 54.05695], [-4.62076, 54.06965], [-4.63126, 54.07062], [-4.64322, 54.0666], [-4.6564, 54.06379], [-4.67101, 54.06704], [-4.68969, 54.08153], [-4.7045, 54.08487], [-4.72598, 54.07901], [-4.74559, 54.06737], [-4.76623, 54.05923], [-4.79015, 54.06379], [-4.79015, 54.07123], [-4.78482, 54.07306], [-4.78132, 54.07477], [-4.77709, 54.07624], [-4.76968, 54.07746], [-4.77086, 54.09683], [-4.73717, 54.1249], [-4.72814, 54.14256], [-4.72765, 54.17259], [-4.72379, 54.18545], [-4.71447, 54.20034], [-4.71109, 54.20991], [-4.71227, 54.21662], [-4.71028, 54.22065], [-4.68814, 54.22378], [-4.66397, 54.23355], [-4.64306, 54.24942], [-4.61246, 54.26545], [-4.59838, 54.2766], [-4.5546, 54.33918], [-4.53099, 54.36612], [-4.49535, 54.38589], [-4.44201, 54.40436], [-4.40445, 54.40965], [-4.38573, 54.41572], [-4.36779, 54.41901], [-4.35131, 54.4138], [-4.35709, 54.3994], [-4.37755, 54.36188], [-4.3756, 54.34833], [-4.37023, 54.34089], [-4.36376, 54.32429], [-4.35823, 54.31761], [-4.35049, 54.31477], [-4.33218, 54.31342], [-4.3247, 54.31021], [-4.31941, 54.30459], [-4.31322, 54.2956], [-4.31192, 54.28718], [-4.32095, 54.28352], [-4.32673, 54.28034], [-4.34081, 54.26301], [-4.34826, 54.25951], [-4.35436, 54.25153], [-4.35977, 54.24226], [-4.36563, 54.23505], [-4.37182, 54.23127], [-4.39916, 54.22207], [-4.39078, 54.19473], [-4.41259, 54.18008], [-4.44689, 54.16913], [-4.47549, 54.15314], [-4.4746, 54.14082], [-4.52929, 54.11909], [-4.54377, 54.10847], [-4.54979, 54.10065], [-4.56383, 54.09683], [-4.57958, 54.09443], [-4.59093, 54.09105], [-4.59895, 54.08389], [-4.61213, 54.05695]]]}, "properties": {"id": "eKbX", "status": "validé", "pieces": [{"kind": "country"}]}}, {"type": "Feature", "geometry": {"type": "Polygon", "coordinates": [[[-4.61213, 54.05695], [-4.62076, 54.06965], [-4.63126, 54.07062], [-4.64322, 54.0666], [-4.6564, 54.06379], [-4.67101, 54.06704], [-4.68969, 54.08153], [-4.7045, 54.08487], [-4.72598, 54.07901], [-4.74559, 54.06737], [-4.76623, 54.05923], [-4.79015, 54.06379], [-4.79015, 54.07123], [-4.78482, 54.07306], [-4.78132, 54.07477], [-4.77709, 54.07624], [-4.76968, 54.07746], [-4.77086, 54.09683], [-4.73717, 54.1249], [-4.72814, 54.14256], [-4.72765, 54.17259], [-4.72379, 54.18545], [-4.71447, 54.20034], [-4.71109, 54.20991], [-4.71227, 54.21662], [-4.71028, 54.22065], [-4.68814, 54.22378], [-4.66397, 54.23355], [-4.64306, 54.24942], [-4.61246, 54.26545], [-4.59838, 54.2766], [-4.5546, 54.33918], [-4.53099, 54.36612], [-4.49535, 54.38589], [-4.44201, 54.40436], [-4.40445, 54.40965], [-4.38573, 54.41572], [-4.36779, 54.41901], [-4.35131, 54.4138], [-4.35709, 54.3994], [-4.37755, 54.36188], [-4.3756, 54.34833], [-4.37023, 54.34089], [-4.36376, 54.32429], [-4.35823, 54.31761], [-4.35049, 54.31477], [-4.33218, 54.31342], [-4.3247, 54.31021], [-4.31941, 54.30459], [-4.31322, 54.2956], [-4.31192, 54.28718], [-4.32095, 54.28352], [-4.32673, 54.28034], [-4.34081, 54.26301], [-4.34826, 54.25951], [-4.35436, 54.25153], [-4.35977, 54.24226], [-4.36563, 54.23505], [-4.37182, 54.23127], [-4.39916, 54.22207], [-4.39078, 54.19473], [-4.41259, 54.18008], [-4.44689, 54.16913], [-4.47549, 54.15314], [-4.4746, 54.14082], [-4.52929, 54.11909], [-4.54377, 54.10847], [-4.54979, 54.10065], [-4.56383, 54.09683], [-4.57958, 54.09443], [-4.59093, 54.09105], [-4.59895, 54.08389], [-4.61213, 54.05695]]]}, "properties": {"id": "fUGu", "status": "validé", "pieces": [{"kind": "country"}]}}, {"type": "Feature", "geometry": {"type": "Polygon", "coordinates": [[[-4.61213, 54.05695], [-4.62076, 54.06965], [-4.63126, 54.07062], [-4.64322, 54.0666], [-4.6564, 54.06379], [-4.67101, 54.06704], [-4.68969, 54.08153], [-4.7045, 54.08487], [-4.72598, 54.07901], [-4.74559, 54.06737], [-4.76623, 54.05923], [-4.79015, 54.06379], [-4.79015, 54.07123], [-4.78482, 54.07306], [-4.78132, 54.07477], [-4.77709, 54.07624], [-4.76968, 54.07746], [-4.77086, 54.09683], [-4.73717, 54.1249], [-4.72814, 54.14256], [-4.72765, 54.17259], [-4.72379, 54.18545], [-4.71447, 54.20034], [-4.71109, 54.20991], [-4.71227, 54.21662], [-4.71028, 54.22065], [-4.68814, 54.22378], [-4.66397, 54.23355], [-4.64306, 54.24942], [-4.61246, 54.26545], [-4.59838, 54.2766], [-4.5546, 54.33918], [-4.53099, 54.36612], [-4.49535, 54.38589], [-4.44201, 54.40436], [-4.40445, 54.40965], [-4.38573, 54.41572], [-4.36779, 54.41901], [-4.35131, 54.4138], [-4.35709, 54.3994], [-4.37755, 54.36188], [-4.3756, 54.34833], [-4.37023, 54.34089], [-4.36376, 54.32429], [-4.35823, 54.31761], [-4.35049, 54.31477], [-4.33218, 54.31342], [-4.3247, 54.31021], [-4.31941, 54.30459], [-4.31322, 54.2956], [-4.31192, 54.28718], [-4.32095, 54.28352], [-4.32673, 54.28034], [-4.34081, 54.26301], [-4.34826, 54.25951], [-4.35436, 54.25153], [-4.35977, 54.24226], [-4.36563, 54.23505], [-4.37182, 54.23127], [-4.39916, 54.22207], [-4.39078, 54.19473], [-4.41259, 54.18008], [-4.44689, 54.16913], [-4.47549, 54.15314], [-4.4746, 54.14082], [-4.52929, 54.11909], [-4.54377, 54.10847], [-4.54979, 54.10065], [-4.56383, 54.09683], [-4.57958, 54.09443], [-4.59093, 54.09105], [-4.59895, 54.08389], [-4.61213, 54.05695]]]}, "properties": {"id": "hu7c", "status": "validé", "pieces": [{"kind": "country"}]}}, {"type": "Feature", "geometry": {"type": "Polygon", "coordinates": [[[-4.46835, 54.14859], [-4.47968, 54.14678], [-4.50611, 54.14136], [-4.54113, 54.14899], [-4.53907, 54.16226], [-4.50817, 54.17009], [-4.4838, 54.18315], [-4.47075, 54.18074], [-4.46423, 54.16407], [-4.46835, 54.14859]]]}, "properties": {"id": "jTc8", "status": "validé", "pieces": [{"kind": "polygon", "ring": [[-4.46835, 54.14859], [-4.47968, 54.14678], [-4.50611, 54.14136], [-4.54113, 54.14899], [-4.53907, 54.16226], [-4.50817, 54.17009], [-4.4838, 54.18315], [-4.47075, 54.18074], [-4.46423, 54.16407]]}]}}, {"type": "Feature", "geometry": {"type": "Polygon", "coordinates": [[[-4.61213, 54.05695], [-4.62076, 54.06965], [-4.63126, 54.07062], [-4.64322, 54.0666], [-4.6564, 54.06379], [-4.67101, 54.06704], [-4.68969, 54.08153], [-4.7045, 54.08487], [-4.72598, 54.07901], [-4.74559, 54.06737], [-4.76623, 54.05923], [-4.79015, 54.06379], [-4.79015, 54.07123], [-4.78482, 54.07306], [-4.78132, 54.07477], [-4.77709, 54.07624], [-4.76968, 54.07746], [-4.77086, 54.09683], [-4.73717, 54.1249], [-4.72814, 54.14256], [-4.72765, 54.17259], [-4.72379, 54.18545], [-4.71447, 54.20034], [-4.71109, 54.20991], [-4.71227, 54.21662], [-4.71028, 54.22065], [-4.68814, 54.22378], [-4.66397, 54.23355], [-4.64306, 54.24942], [-4.61246, 54.26545], [-4.59838, 54.2766], [-4.5546, 54.33918], [-4.53099, 54.36612], [-4.49535, 54.38589], [-4.44201, 54.40436], [-4.40445, 54.40965], [-4.38573, 54.41572], [-4.36779, 54.41901], [-4.35131, 54.4138], [-4.35709, 54.3994], [-4.37755, 54.36188], [-4.3756, 54.34833], [-4.37023, 54.34089], [-4.36376, 54.32429], [-4.35823, 54.31761], [-4.35049, 54.31477], [-4.33218, 54.31342], [-4.3247, 54.31021], [-4.31941, 54.30459], [-4.31322, 54.2956], [-4.31192, 54.28718], [-4.32095, 54.28352], [-4.32673, 54.28034], [-4.34081, 54.26301], [-4.34826, 54.25951], [-4.35436, 54.25153], [-4.35977, 54.24226], [-4.36563, 54.23505], [-4.37182, 54.23127], [-4.39916, 54.22207], [-4.39078, 54.19473], [-4.41259, 54.18008], [-4.44689, 54.16913], [-4.47549, 54.15314], [-4.4746, 54.14082], [-4.52929, 54.11909], [-4.54377, 54.10847], [-4.54979, 54.10065], [-4.56383, 54.09683], [-4.57958, 54.09443], [-4.59093, 54.09105], [-4.59895, 54.08389], [-4.61213, 54.05695]]]}, "properties": {"id": "kUjb", "status": "validé", "pieces": [{"kind": "country"}]}}, {"type": "Feature", "geometry": {"type": "Polygon", "coordinates": [[[-4.77399, 54.10123], [-4.76309, 54.09555], [-4.74798, 54.09218], [-4.74086, 54.08644], [-4.7473, 54.07904], [-4.76352, 54.07995], [-4.77262, 54.08679], [-4.78472, 54.09248], [-4.77399, 54.10123]]]}, "properties": {"id": "lysj", "status": "validé", "pieces": [{"kind": "polygon", "ring": [[-4.77399, 54.10123], [-4.76309, 54.09555], [-4.74798, 54.09218], [-4.74086, 54.08644], [-4.7473, 54.07904], [-4.76352, 54.07995], [-4.77262, 54.08679], [-4.78472, 54.09248]]}]}}, {"type": "Feature", "geometry": {"type": "Polygon", "coordinates": [[[-4.61213, 54.05695], [-4.62076, 54.06965], [-4.63126, 54.07062], [-4.64322, 54.0666], [-4.6564, 54.06379], [-4.67101, 54.06704], [-4.68969, 54.08153], [-4.7045, 54.08487], [-4.72598, 54.07901], [-4.74559, 54.06737], [-4.76623, 54.05923], [-4.79015, 54.06379], [-4.79015, 54.07123], [-4.78482, 54.07306], [-4.78132, 54.07477], [-4.77709, 54.07624], [-4.76968, 54.07746], [-4.77086, 54.09683], [-4.73717, 54.1249], [-4.72814, 54.14256], [-4.72765, 54.17259], [-4.72379, 54.18545], [-4.71447, 54.20034], [-4.71109, 54.20991], [-4.71227, 54.21662], [-4.71028, 54.22065], [-4.68814, 54.22378], [-4.66397, 54.23355], [-4.64306, 54.24942], [-4.61246, 54.26545], [-4.59838, 54.2766], [-4.5546, 54.33918], [-4.53099, 54.36612], [-4.49535, 54.38589], [-4.44201, 54.40436], [-4.40445, 54.40965], [-4.38573, 54.41572], [-4.36779, 54.41901], [-4.35131, 54.4138], [-4.35709, 54.3994], [-4.37755, 54.36188], [-4.3756, 54.34833], [-4.37023, 54.34089], [-4.36376, 54.32429], [-4.35823, 54.31761], [-4.35049, 54.31477], [-4.33218, 54.31342], [-4.3247, 54.31021], [-4.31941, 54.30459], [-4.31322, 54.2956], [-4.31192, 54.28718], [-4.32095, 54.28352], [-4.32673, 54.28034], [-4.34081, 54.26301], [-4.34826, 54.25951], [-4.35436, 54.25153], [-4.35977, 54.24226], [-4.36563, 54.23505], [-4.37182, 54.23127], [-4.39916, 54.22207], [-4.39078, 54.19473], [-4.41259, 54.18008], [-4.44689, 54.16913], [-4.47549, 54.15314], [-4.4746, 54.14082], [-4.52929, 54.11909], [-4.54377, 54.10847], [-4.54979, 54.10065], [-4.56383, 54.09683], [-4.57958, 54.09443], [-4.59093, 54.09105], [-4.59895, 54.08389], [-4.61213, 54.05695]]]}, "properties": {"id": "pQGf", "status": "validé", "pieces": [{"kind": "country"}]}}, {"type": "Feature", "geometry": null, "properties": {"id": "sQ1O", "status": "rejeté", "pieces": []}}, {"type": "Feature", "geometry": {"type": "Polygon", "coordinates": [[[-4.38251, 54.33756], [-4.39882, 54.33606], [-4.40689, 54.32875], [-4.40311, 54.31975], [-4.38028, 54.30924], [-4.35848, 54.31564], [-4.38251, 54.33756]]]}, "properties": {"id": "smmi", "status": "validé", "pieces": [{"kind": "polygon", "ring": [[-4.38251, 54.33756], [-4.39882, 54.33606], [-4.40689, 54.32875], [-4.40311, 54.31975], [-4.38028, 54.30924], [-4.35848, 54.31564]]}]}}]}