{"type": "FeatureCollection", "features": [{"type": "Feature", "geometry": null, "properties": {"id": "0vwU", "status": "validé", "pieces": [{"kind": "country"}]}}, {"type": "Feature", "geometry": null, "properties": {"id": "1WGJ", "status": "validé", "pieces": [{"kind": "country"}]}}, {"type": "Feature", "geometry": {"type": "Polygon", "coordinates": [[[-21.19379, 63.93204], [-21.11701, 63.92988], [-21.07413, 63.93427], [-21.04479, 63.94575], [-21.11994, 63.94575], [-21.13158, 63.94867], [-21.0965, 63.95805], [-20.98114, 63.98576], [-20.86578, 63.98937], [-20.78339, 63.96287], [-20.76141, 63.91824], [-20.73944, 63.88805], [-20.75317, 63.83725], [-20.78432, 63.79684], [-20.80529, 63.79474], [-20.83251, 63.8017], [-20.82177, 63.78531], [-20.81823, 63.78124], [-20.85863, 63.80044], [-20.94884, 63.82722], [-21.07673, 63.84846], [-21.12011, 63.86249], [-21.14428, 63.8675], [-21.16832, 63.87556], [-21.18879, 63.8911], [-21.18301, 63.89887], [-21.18448, 63.90876], [-21.1948, 63.93177], [-21.19379, 63.93204]]]}, "properties": {"id": "1Yf4", "status": "validé", "pieces": [{"kind": "polygon", "ring": [[-21.20636, 63.87959], [-21.22284, 63.92428], [-21.0965, 63.95805], [-20.98114, 63.98576], [-20.86578, 63.98937], [-20.78339, 63.96287], [-20.76141, 63.91824], [-20.73944, 63.88805], [-20.75317, 63.83725], [-20.79987, 63.77666], [-21.03882, 63.74389]]}, {"kind": "clip"}]}}, {"type": "Feature", "geometry": {"type": "MultiPolygon", "coordinates": [[[[-14.28223, 65.67262], [-14.27625, 65.67351], [-14.27432, 65.67251], [-14.28201, 65.67153], [-14.28223, 65.67262]]], [[[-15.18311, 64.54027], [-14.83154, 64.85007], [-14.61182, 65.01292], [-14.57886, 65.04537], [-14.3042, 65.33567], [-14.26025, 65.51835], [-14.26025, 65.56381], [-14.27902, 65.65674], [-14.27172, 65.65595], [-14.19237, 65.63154], [-14.20808, 65.64106], [-14.23648, 65.65396], [-14.24763, 65.66502], [-14.0279, 65.61042], [-13.99991, 65.60859], [-13.89005, 65.62019], [-13.87141, 65.61904], [-13.85969, 65.61416], [-13.85228, 65.6022], [-13.85094, 65.59199], [-13.85652, 65.58503], [-13.86962, 65.58316], [-13.86962, 65.57689], [-13.83821, 65.57738], [-13.82437, 65.57538], [-13.81501, 65.5694], [-13.81395, 65.56244], [-13.81648, 65.55329], [-13.82128, 65.54149], [-13.81444, 65.53417], [-13.80578, 65.52863], [-13.78767, 65.52167], [-13.74112, 65.55036], [-13.71544, 65.5583], [-13.68529, 65.55516], [-13.68008, 65.55097], [-13.67886, 65.54458], [-13.67907, 65.53856], [-13.67785, 65.53535], [-13.67162, 65.53457], [-13.65722, 65.53644], [-13.65119, 65.53535], [-13.61596, 65.51887], [-13.60961, 65.51423], [-13.60798, 65.49213], [-13.62222, 65.47826], [-13.64061, 65.46869], [-13.65119, 65.45962], [-13.64867, 65.4538], [-13.6372, 65.43476], [-13.63683, 65.42609], [-13.64346, 65.42219], [-13.67785, 65.41181], [-13.66763, 65.40571], [-13.66784, 65.3981], [-13.67138, 65.38886], [-13.67097, 65.37763], [-13.70474, 65.36734], [-13.79581, 65.37311], [-13.83552, 65.364], [-13.81086, 65.35505], [-13.73306, 65.34349], [-13.72985, 65.32709], [-13.75267, 65.31586], [-13.78453, 65.3098], [-13.83434, 65.30964], [-13.85546, 65.30683], [-13.89753, 65.29572], [-13.98103, 65.28913], [-14.00674, 65.28205], [-13.99112, 65.27269], [-13.83251, 65.29759], [-13.78425, 65.29572], [-13.68765, 65.30638], [-13.65738, 65.30256], [-13.60782, 65.28864], [-13.58226, 65.27692], [-13.57299, 65.26655], [-13.56798, 65.26097], [-13.59179, 65.25308], [-13.63244, 65.2259], [-13.6542, 65.21996], [-13.78087, 65.20637], [-13.91462, 65.20637], [-13.97265, 65.20014], [-14.03409, 65.20014], [-14.00333, 65.18976], [-13.88695, 65.20014], [-13.73306, 65.19269], [-13.66417, 65.20014], [-13.62662, 65.20014], [-13.61661, 65.19676], [-13.62133, 65.18944], [-13.63683, 65.17841], [-13.63947, 65.17211], [-13.63858, 65.16755], [-13.63858, 65.16364], [-13.64367, 65.15917], [-13.68155, 65.15176], [-13.71524, 65.15034], [-13.74669, 65.14492], [-13.74669, 65.13744], [-13.6693, 65.14436], [-13.65119, 65.13744], [-13.65119, 65.13129], [-13.66076, 65.13019], [-13.66954, 65.12739], [-13.67772, 65.12299], [-13.68529, 65.11701], [-13.6542, 65.11701], [-13.6444, 65.11494], [-13.63663, 65.11042], [-13.63085, 65.10594], [-13.62662, 65.10395], [-13.61661, 65.107], [-13.60057, 65.12067], [-13.59219, 65.12377], [-13.59016, 65.12767], [-13.56111, 65.15176], [-13.52017, 65.17219], [-13.51741, 65.15754], [-13.51781, 65.1363], [-13.52107, 65.11591], [-13.52697, 65.10395], [-13.52697, 65.0965], [-13.50837, 65.09077], [-13.50292, 65.08128], [-13.50959, 65.06916], [-13.52697, 65.05549], [-13.54723, 65.04759], [-13.58959, 65.0423], [-13.60961, 65.03506], [-13.59179, 65.02143], [-13.58267, 65.01203], [-13.58532, 65.00772], [-13.6009, 65.00446], [-13.63215, 64.98994], [-13.64737, 64.98664], [-13.71947, 64.99409], [-13.78161, 64.98932], [-13.80199, 64.99409], [-13.81151, 65.0034], [-13.81981, 65.01724], [-13.83031, 65.02961], [-13.84606, 65.03506], [-13.86229, 65.0373], [-13.89542, 65.04707], [-13.94787, 65.05451], [-14.00333, 65.07762], [-14.03409, 65.08283], [-14.02774, 65.07184], [-14.01732, 65.06379], [-14.00512, 65.05842], [-13.99376, 65.05549], [-14.02978, 65.0384], [-14.23339, 65.03506], [-14.23339, 65.02757], [-13.91804, 65.01459], [-13.90783, 65.01069], [-13.89395, 65.00308], [-13.8817, 64.99339], [-13.87645, 64.98355], [-13.86791, 64.97822], [-13.82128, 64.95995], [-13.71817, 64.9396], [-13.69831, 64.9252], [-13.7399, 64.9112], [-13.78893, 64.91437], [-13.87645, 64.9326], [-13.97606, 64.9252], [-14.03746, 64.93647], [-14.0546, 64.9326], [-13.99551, 64.9145], [-13.85228, 64.90029], [-13.78767, 64.87739], [-13.77969, 64.87153], [-13.77017, 64.86237], [-13.76692, 64.85383], [-13.7777, 64.85008], [-13.79402, 64.84687], [-13.81892, 64.83275], [-13.8321, 64.82958], [-13.93659, 64.84707], [-13.96642, 64.83584], [-13.85802, 64.81684], [-13.83983, 64.80931], [-13.83922, 64.79857], [-13.86779, 64.79475], [-13.98192, 64.79678], [-14.01366, 64.80231], [-14.01989, 64.79755], [-14.02815, 64.79409], [-14.04845, 64.78864], [-14.04845, 64.78119], [-14.01769, 64.76484], [-14.00145, 64.75381], [-13.98632, 64.74022], [-14.00259, 64.73762], [-14.04845, 64.71971], [-14.27062, 64.69929], [-14.30639, 64.70417], [-14.32624, 64.70962], [-14.33947, 64.7163], [-14.36807, 64.75532], [-14.39363, 64.76655], [-14.42056, 64.78962], [-14.43537, 64.79487], [-14.5139, 64.80231], [-14.50402, 64.79658], [-14.49328, 64.79458], [-14.46955, 64.79487], [-14.4558, 64.79023], [-14.45714, 64.77985], [-14.46378, 64.76854], [-14.46613, 64.7613], [-14.45067, 64.75288], [-14.40014, 64.74103], [-14.38362, 64.74022], [-14.38362, 64.73338], [-14.38524, 64.72085], [-14.37145, 64.70498], [-14.35265, 64.69135], [-14.33947, 64.68561], [-14.28869, 64.67813], [-14.27017, 64.6695], [-14.28116, 64.65827], [-14.27432, 64.65144], [-14.44196, 64.67573], [-14.49348, 64.65827], [-14.47716, 64.64973], [-14.43708, 64.64077], [-14.41771, 64.63101], [-14.40807, 64.61978], [-14.40925, 64.61026], [-14.41983, 64.60248], [-14.43883, 64.59687], [-14.57217, 64.59687], [-14.58438, 64.59032], [-14.57209, 64.57697], [-14.55223, 64.56574], [-14.54182, 64.56586], [-14.53161, 64.55561], [-14.51, 64.54902], [-14.49047, 64.54841], [-14.48656, 64.55585], [-14.44538, 64.5607], [-14.38362, 64.60074], [-14.35253, 64.6105], [-14.34618, 64.60562], [-14.36156, 64.59447], [-14.45324, 64.54633], [-14.46613, 64.53473], [-14.46959, 64.52546], [-14.47256, 64.50483], [-14.47667, 64.49689], [-14.50935, 64.47191], [-14.5139, 64.46279], [-14.51281, 64.45661], [-14.51167, 64.45311], [-14.50939, 64.44611], [-14.51049, 64.44233], [-14.51549, 64.43919], [-14.52107, 64.43744], [-14.52562, 64.43452], [-14.52758, 64.42829], [-14.52986, 64.42398], [-14.54088, 64.40843], [-14.54491, 64.4051], [-14.64875, 64.40009], [-14.72069, 64.3889], [-14.74669, 64.38398], [-14.70336, 64.39887], [-14.61392, 64.41006], [-14.56851, 64.41812], [-14.59407, 64.42561], [-14.70523, 64.4333], [-14.71312, 64.43171], [-14.71443, 64.42748], [-14.71251, 64.41413], [-14.7163, 64.41128], [-14.72362, 64.40913], [-14.74498, 64.39973], [-14.75719, 64.39765], [-14.76179, 64.39496], [-14.78205, 64.37775], [-14.79361, 64.37255], [-14.84895, 64.35712], [-14.87165, 64.34675], [-14.89208, 64.33466], [-14.9049, 64.32246], [-14.89949, 64.33393], [-14.89611, 64.33877], [-14.89127, 64.34296], [-14.89127, 64.3498], [-14.89806, 64.3498], [-14.9049, 64.33983], [-14.92032, 64.33112], [-14.93725, 64.3249], [-14.94904, 64.32246], [-14.95275, 64.31924], [-14.94982, 64.31196], [-14.94221, 64.30467], [-14.93196, 64.30142], [-14.91031, 64.30248], [-14.90075, 64.30463], [-14.89127, 64.30882], [-14.88638, 64.29475], [-14.87759, 64.28148], [-14.89997, 64.28164], [-14.92943, 64.26484], [-14.94904, 64.26044], [-14.99547, 64.2626], [-15.01586, 64.26675], [-15.03527, 64.27411], [-15.06688, 64.29084], [-15.08605, 64.29829], [-15.10668, 64.30142], [-15.11563, 64.29857], [-15.13439, 64.28547], [-15.14395, 64.28148], [-15.15612, 64.28262], [-15.16755, 64.28653], [-15.17927, 64.28791], [-15.19229, 64.28148], [-15.17935, 64.27411], [-15.19005, 64.26919], [-15.20157, 64.26748], [-15.22647, 64.26789], [-15.20661, 64.29523], [-15.20661, 64.30142], [-15.23884, 64.29751], [-15.25451, 64.29804], [-15.26122, 64.30512], [-15.26578, 64.32054], [-15.27684, 64.33088], [-15.29027, 64.33438], [-15.30215, 64.32933], [-15.30215, 64.32246], [-15.29393, 64.31761], [-15.2882, 64.31257], [-15.28417, 64.30561], [-15.28112, 64.29523], [-15.29467, 64.29926], [-15.32315, 64.3039], [-15.33629, 64.30882], [-15.33629, 64.31501], [-15.32657, 64.32901], [-15.3413, 64.35004], [-15.36644, 64.36933], [-15.38785, 64.37775], [-15.39966, 64.38343], [-15.18311, 64.54027]]], [[[-15.49072, 64.31748], [-15.40288, 64.3811], [-15.40148, 64.3808], [-15.39078, 64.3697], [-15.37247, 64.3452], [-15.36364, 64.33682], [-15.37214, 64.33137], [-15.38069, 64.32978], [-15.38927, 64.33173], [-15.39782, 64.33682], [-15.39782, 64.32933], [-15.37755, 64.32127], [-15.37401, 64.30589], [-15.38231, 64.2884], [-15.39782, 64.27411], [-15.42227, 64.2685], [-15.47802, 64.27513], [-15.50089, 64.26789], [-15.48681, 64.26252], [-15.47155, 64.26044], [-15.43871, 64.26044], [-15.46402, 64.25129], [-15.52807, 64.24116], [-15.57521, 64.23919], [-15.49072, 64.31748]]]]}, "properties": {"id": "3eR6", "status": "validé", "pieces": [{"kind": "polygon", "ring": [[-14.28223, 65.67262], [-14.26025, 65.56381], [-14.26025, 65.51835], [-14.3042, 65.33567], [-14.57886, 65.04537], [-14.61182, 65.01292], [-14.83154, 64.85007], [-15.18311, 64.54027], [-15.49072, 64.31748], [-15.65552, 64.16476], [-14.67773, 64.08808], [-13.07373, 65.05464], [-13.34839, 65.81248]]}, {"kind": "clip"}]}}, {"type": "Feature", "geometry": null, "properties": {"id": "4Z9g", "status": "validé", "pieces": [{"kind": "country"}]}}, {"type": "Feature", "geometry": null, "properties": {"id": "88qE", "status": "validé", "pieces": [{"kind": "admin1", "code": "ISL-690"}]}}, {"type": "Feature", "geometry": {"type": "Polygon", "coordinates": [[[-20.09399, 63.35347], [-20.09399, 63.48431], [-20.43594, 63.48431], [-20.43594, 63.35347], [-20.09399, 63.35347]]]}, "properties": {"id": "8Ms8", "status": "validé", "pieces": [{"kind": "rect", "bounds": [-20.43594, 63.35347, -20.09399, 63.48431]}]}}, {"type": "Feature", "geometry": {"type": "Polygon", "coordinates": [[[-18.00865, 65.62124], [-18.00865, 65.70976], [-18.16521, 65.70976], [-18.16521, 65.62124], [-18.00865, 65.62124]]]}, "properties": {"id": "9uH4", "status": "validé", "pieces": [{"kind": "rect", "bounds": [-18.16521, 65.62124, -18.00865, 65.70976]}]}}, {"type": "Feature", "geometry": {"type": "Polygon", "coordinates": [[[-13.80166, 65.52286], [-13.80166, 65.53171], [-13.82423, 65.53171], [-13.82423, 65.52286], [-13.80166, 65.52286]]]}, "properties": {"id": "AbV1", "status": "validé", "pieces": [{"kind": "rect", "bounds": [-13.82423, 65.52286, -13.80166, 65.53171]}]}}, {"type": "Feature", "geometry": null, "properties": {"id": "C9oY", "status": "validé", "pieces": [{"kind": "country"}]}}, {"type": "Feature", "geometry": null, "properties": {"id": "CG6f", "status": "validé", "pieces": [{"kind": "country"}]}}, {"type": "Feature", "geometry": null, "properties": {"id": "Et2D", "status": "validé", "pieces": [{"kind": "country"}]}}, {"type": "Feature", "geometry": null, "properties": {"id": "F8Gs", "status": "validé", "pieces": [{"kind": "country"}]}}, {"type": "Feature", "geometry": {"type": "MultiPolygon", "coordinates": [[[[-14.44427, 65.65047], [-14.38709, 65.71253], [-14.38362, 65.7097], [-14.37898, 65.70718], [-14.35627, 65.69986], [-14.29296, 65.6822], [-14.27432, 65.67251], [-14.32868, 65.66559], [-14.35782, 65.65607], [-14.38223, 65.63028], [-14.43391, 65.6048], [-14.45421, 65.58344], [-14.50142, 65.55985], [-14.44427, 65.65047]]], [[[-13.96362, 65.60936], [-14.0625, 65.46383], [-14.19434, 65.32666], [-14.29321, 65.24862], [-14.44702, 65.17495], [-14.57886, 65.2072], [-14.53491, 65.32208], [-14.58984, 65.4425], [-14.51784, 65.53527], [-14.51765, 65.53535], [-14.50617, 65.53803], [-14.47265, 65.55231], [-14.46231, 65.5589], [-14.44408, 65.57514], [-14.32022, 65.65241], [-14.29849, 65.65884], [-14.27172, 65.65595], [-14.19237, 65.63154], [-14.20808, 65.64106], [-14.23648, 65.65396], [-14.24763, 65.66502], [-14.0279, 65.61042], [-13.99991, 65.60859], [-13.96107, 65.61269], [-13.96362, 65.60936]]]]}, "properties": {"id": "JAin", "status": "validé", "pieces": [{"kind": "polygon", "ring": [[-14.38385, 65.71605], [-14.44427, 65.65047], [-14.51294, 65.54158], [-14.58984, 65.4425], [-14.53491, 65.32208], [-14.57886, 65.2072], [-14.44702, 65.17495], [-14.29321, 65.24862], [-14.19434, 65.32666], [-14.0625, 65.46383], [-13.96362, 65.60936], [-13.89771, 65.69538]]}, {"kind": "clip"}]}}, {"type": "Feature", "geometry": null, "properties": {"id": "JmkG", "status": "validé", "pieces": [{"kind": "country"}]}}, {"type": "Feature", "geometry": null, "properties": {"id": "T5Vc", "status": "validé", "pieces": [{"kind": "country"}]}}, {"type": "Feature", "geometry": {"type": "Polygon", "coordinates": [[[-16.58936, 64.93327], [-16.66077, 64.87971], [-16.5509, 64.83072], [-16.40259, 64.83305], [-16.1499, 64.93327], [-16.05103, 65.04702], [-15.99609, 65.0748], [-15.82581, 65.08174], [-15.62805, 65.06323], [-15.49622, 65.07712], [-15.50171, 65.16029], [-15.52368, 65.25699], [-15.58411, 65.33272], [-15.68848, 65.43108], [-15.80383, 65.50175], [-16.01807, 65.58586], [-16.35864, 65.62668], [-16.53442, 65.60855], [-16.60583, 65.56543], [-16.54541, 65.4972], [-16.47949, 65.4128], [-16.40259, 65.3808], [-16.41907, 65.27766], [-16.58936, 65.19026], [-16.72668, 65.12797], [-16.77612, 65.08868], [-16.68823, 65.03312], [-16.61133, 65.00993], [-16.58936, 64.93327]]]}, "properties": {"id": "VW5n", "status": "validé", "pieces": [{"kind": "polygon", "ring": [[-16.58936, 64.93327], [-16.66077, 64.87971], [-16.5509, 64.83072], [-16.40259, 64.83305], [-16.1499, 64.93327], [-16.05103, 65.04702], [-15.99609, 65.0748], [-15.82581, 65.08174], [-15.62805, 65.06323], [-15.49622, 65.07712], [-15.50171, 65.16029], [-15.52368, 65.25699], [-15.58411, 65.33272], [-15.68848, 65.43108], [-15.80383, 65.50175], [-16.01807, 65.58586], [-16.35864, 65.62668], [-16.53442, 65.60855], [-16.60583, 65.56543], [-16.54541, 65.4972], [-16.47949, 65.4128], [-16.40259, 65.3808], [-16.41907, 65.27766], [-16.58936, 65.19026], [-16.72668, 65.12797], [-16.77612, 65.08868], [-16.68823, 65.03312], [-16.61133, 65.00993]]}]}}, {"type": "Feature", "geometry": {"type": "MultiPolygon", "coordinates": [[[[-22.53983, 63.9722], [-22.50978, 63.97094], [-22.4382, 63.96424], [-22.37795, 63.9723], [-22.28868, 63.99623], [-22.20028, 64.01037], [-22.17522, 64.01856], [-22.14088, 64.02232], [-22.10226, 64.02976], [-22.08475, 64.0351], [-22.07239, 64.03863], [-22.04081, 64.04137], [-22.03737, 64.03979], [-22.06887, 64.03266], [-22.10243, 64.02594], [-22.16217, 64.01421], [-22.19994, 64.00097], [-22.29469, 63.98292], [-22.35924, 63.96665], [-22.41417, 63.96093], [-22.41348, 63.9006], [-22.4279, 63.9003], [-22.4279, 63.91087], [-22.4382, 63.93259], [-22.43202, 63.95942], [-22.53777, 63.96756], [-22.53983, 63.9722]]], [[[-21.06972, 63.95389], [-21.12431, 63.96036], [-21.15177, 63.97362], [-21.20842, 63.99319], [-21.24962, 64.00703], [-21.30249, 64.01936], [-21.39519, 64.01425], [-21.43982, 64.02748], [-21.4666, 64.04115], [-21.50986, 64.05602], [-21.55209, 64.05737], [-21.60667, 64.06713], [-21.65749, 64.07568], [-21.70246, 64.08828], [-21.75842, 64.09833], [-21.7852, 64.10762], [-21.78692, 64.11946], [-21.78486, 64.1271], [-21.76769, 64.13338], [-21.75877, 64.14461], [-21.73336, 64.15688], [-21.71928, 64.16511], [-21.69697, 64.16586], [-21.68873, 64.16825], [-21.67912, 64.17483], [-21.67294, 64.17483], [-21.67053, 64.17019], [-21.69319, 64.16346], [-21.71276, 64.16271], [-21.72855, 64.15464], [-21.75053, 64.14207], [-21.75911, 64.13144], [-21.77937, 64.122], [-21.77731, 64.11062], [-21.7701, 64.10597], [-21.7543, 64.10214], [-21.72632, 64.09509], [-21.70504, 64.09247], [-21.6398, 64.07595], [-21.61594, 64.07384], [-21.54453, 64.06236], [-21.50728, 64.06184], [-21.45218, 64.04246], [-21.39656, 64.02292], [-21.3588, 64.02142], [-21.2915, 64.02563], [-21.24207, 64.013], [-21.22833, 64.01961], [-21.21529, 64.0127], [-21.21323, 64.00217], [-21.20361, 64.00097], [-21.14868, 63.98381], [-21.10903, 63.95969], [-21.06191, 63.95841], [-21.02139, 63.95362], [-21.02234, 63.95151], [-21.06972, 63.95389]]]]}, "properties": {"id": "VkQ5", "status": "validé", "pieces": [{"kind": "polygon", "ring": [[-22.53777, 63.96756], [-22.43202, 63.95942], [-22.4382, 63.93259], [-22.4279, 63.91087], [-22.4279, 63.9003], [-22.41348, 63.9006], [-22.41417, 63.96093], [-22.35924, 63.96665], [-22.29469, 63.98292], [-22.19994, 64.00097], [-22.16217, 64.01421], [-22.10243, 64.02594], [-22.06887, 64.03266], [-22.03737, 64.03979], [-22.04081, 64.04137], [-22.07239, 64.03863], [-22.08475, 64.0351], [-22.10226, 64.02976], [-22.14088, 64.02232], [-22.17522, 64.01856], [-22.20028, 64.01037], [-22.28868, 63.99623], [-22.37795, 63.9723], [-22.4382, 63.96424], [-22.50978, 63.97094], [-22.53983, 63.9722]]}, {"kind": "polygon", "ring": [[-21.02234, 63.95151], [-21.02139, 63.95362], [-21.06191, 63.95841], [-21.10903, 63.95969], [-21.14868, 63.98381], [-21.20361, 64.00097], [-21.21323, 64.00217], [-21.21529, 64.0127], [-21.22833, 64.01961], [-21.24207, 64.013], [-21.2915, 64.02563], [-21.3588, 64.02142], [-21.39656, 64.02292], [-21.45218, 64.04246], [-21.50728, 64.06184], [-21.54453, 64.06236], [-21.61594, 64.07384], [-21.6398, 64.07595], [-21.70504, 64.09247], [-21.72632, 64.09509], [-21.7543, 64.10214], [-21.7701, 64.10597], [-21.77731, 64.11062], [-21.77937, 64.122], [-21.75911, 64.13144], [-21.75053, 64.14207], [-21.72855, 64.15464], [-21.71276, 64.16271], [-21.69319, 64.16346], [-21.67053, 64.17019], [-21.67294, 64.17483], [-21.67912, 64.17483], [-21.68873, 64.16825], [-21.69697, 64.16586], [-21.71928, 64.16511], [-21.73336, 64.15688], [-21.75877, 64.14461], [-21.76769, 64.13338], [-21.78486, 64.1271], [-21.78692, 64.11946], [-21.7852, 64.10762], [-21.75842, 64.09833], [-21.70246, 64.08828], [-21.65749, 64.07568], [-21.60667, 64.06713], [-21.55209, 64.05737], [-21.50986, 64.05602], [-21.4666, 64.04115], [-21.43982, 64.02748], [-21.39519, 64.01425], [-21.30249, 64.01936], [-21.24962, 64.00703], [-21.20842, 63.99319], [-21.15177, 63.97362], [-21.12431, 63.96036], [-21.06972, 63.95389]]}]}}, {"type": "Feature", "geometry": null, "properties": {"id": "WZXG", "status": "rejeté", "pieces": []}}, {"type": "Feature", "geometry": null, "properties": {"id": "X4vj", "status": "validé", "pieces": [{"kind": "country"}]}}, {"type": "Feature", "geometry": null, "properties": {"id": "Z7Bu", "status": "validé", "pieces": [{"kind": "country"}]}}, {"type": "Feature", "geometry": null, "properties": {"id": "bPcD", "status": "validé", "pieces": [{"kind": "country"}]}}, {"type": "Feature", "geometry": {"type": "Polygon", "coordinates": [[[-21.74126, 64.0672], [-21.74126, 64.17355], [-22.04956, 64.17355], [-22.04956, 64.0672], [-21.74126, 64.0672]]]}, "properties": {"id": "gEmJ", "status": "validé", "pieces": [{"kind": "rect", "bounds": [-22.04956, 64.0672, -21.74126, 64.17355]}]}}, {"type": "Feature", "geometry": {"type": "Polygon", "coordinates": [[[-14.61594, 65.24294], [-14.91119, 65.11328], [-15.03204, 65.01837], [-14.94278, 64.98705], [-14.69284, 65.03054], [-14.50607, 65.16579], [-14.39072, 65.25558], [-14.4841, 65.2843], [-14.61594, 65.24294]]]}, "properties": {"id": "gVuJ", "status": "validé", "pieces": [{"kind": "polygon", "ring": [[-14.61594, 65.24294], [-14.91119, 65.11328], [-15.03204, 65.01837], [-14.94278, 64.98705], [-14.69284, 65.03054], [-14.50607, 65.16579], [-14.39072, 65.25558], [-14.4841, 65.2843]]}]}}, {"type": "Feature", "geometry": {"type": "MultiPolygon", "coordinates": [[[[-17.9187, 65.46768], [-18.02307, 65.16731], [-18.14392, 65.0911], [-18.34717, 65.06797], [-18.42407, 65.21339], [-18.67676, 65.3809], [-18.74817, 65.44944], [-19.0448, 65.50186], [-19.41571, 65.75977], [-19.40681, 65.78238], [-19.39981, 65.81151], [-19.39924, 65.83661], [-19.40583, 65.86017], [-19.4204, 65.88475], [-19.44884, 65.91942], [-19.45153, 65.92573], [-19.51041, 65.95303], [-19.51085, 65.96015], [-19.50646, 65.96955], [-19.49791, 65.97752], [-19.48559, 65.98094], [-19.4674, 65.98265], [-19.4475, 65.98778], [-19.42858, 65.99616], [-19.41364, 66.00764], [-19.42463, 66.01337], [-19.43432, 66.02143], [-19.44221, 66.03132], [-19.45177, 66.05256], [-19.45189, 66.05598], [-19.44758, 66.05866], [-19.43786, 66.06664], [-19.41983, 66.07583], [-19.3627, 66.08836], [-19.22932, 66.09764], [-19.18248, 66.08295], [-19.15758, 66.08112], [-19.15974, 66.09764], [-19.15193, 66.10163], [-19.14395, 66.10407], [-19.13524, 66.10493], [-19.1256, 66.10391], [-19.12841, 66.10004], [-19.13244, 66.09024], [-19.11238, 66.08698], [-19.07844, 66.0725], [-19.05793, 66.07038], [-19.07055, 66.07526], [-19.07966, 66.081], [-19.08625, 66.08828], [-19.09146, 66.09764], [-19.08462, 66.09764], [-19.08462, 66.10391], [-19.0902, 66.10554], [-19.09968, 66.10969], [-19.10513, 66.11131], [-19.10513, 66.1175], [-19.09577, 66.12446], [-19.08503, 66.14794], [-19.07844, 66.15851], [-19.06867, 66.16462], [-19.03405, 66.17719], [-18.94469, 66.19066], [-18.91291, 66.18439], [-18.92016, 66.15229], [-18.90103, 66.15546], [-18.88769, 66.16425], [-18.8649, 66.18578], [-18.86937, 66.19562], [-18.87243, 66.19945], [-18.85412, 66.20539], [-18.82702, 66.20344], [-18.77685, 66.1933], [-18.78466, 66.17837], [-18.8015, 66.15664], [-18.80468, 66.14175], [-18.79357, 66.14208], [-18.72155, 66.17276], [-18.69225, 66.16999], [-18.66812, 66.15794], [-18.64757, 66.14484], [-18.62906, 66.13862], [-18.61962, 66.1315], [-18.63122, 66.11563], [-18.65954, 66.09024], [-18.64688, 66.08979], [-18.63256, 66.09138], [-18.61897, 66.09504], [-18.60888, 66.10077], [-18.59716, 66.10456], [-18.5841, 66.10033], [-18.57136, 66.09369], [-18.56017, 66.09024], [-18.54454, 66.08275], [-18.53482, 66.06525], [-18.52685, 66.04499], [-18.5161, 66.02945], [-18.53458, 65.9995], [-18.54247, 65.98192], [-18.54003, 65.97419], [-18.46833, 65.9667], [-18.42223, 65.95466], [-18.34801, 65.95018], [-18.338, 65.94684], [-18.32726, 65.93903], [-18.31046, 65.92267], [-18.28734, 65.91511], [-18.27961, 65.90485], [-18.2744, 65.89326], [-18.26553, 65.88007], [-18.26366, 65.87568], [-18.26033, 65.87238], [-18.25231, 65.87108], [-18.234, 65.87222], [-18.22497, 65.8714], [-18.21817, 65.86774], [-18.20816, 65.85529], [-18.20547, 65.84707], [-18.20763, 65.81928], [-18.20368, 65.80793], [-18.18529, 65.79002], [-18.17968, 65.78238], [-18.17984, 65.74042], [-18.17658, 65.73395], [-18.16796, 65.73115], [-18.13874, 65.71345], [-18.09192, 65.69319], [-18.09168, 65.69269], [-18.09691, 65.67963], [-18.09195, 65.66181], [-18.07991, 65.64761], [-18.06359, 65.64521], [-18.06261, 65.64618], [-17.9187, 65.46768]]], [[[-18.37133, 66.00654], [-18.35676, 65.99323], [-18.35676, 65.98163], [-18.36994, 65.97801], [-18.38182, 65.97968], [-18.39049, 65.98347], [-18.3966, 65.98949], [-18.39879, 65.99726], [-18.40461, 66.00947], [-18.41442, 66.02367], [-18.40856, 66.02741], [-18.38931, 66.01854], [-18.38024, 66.01211], [-18.37133, 66.00654]]]]}, "properties": {"id": "hgBk", "status": "validé", "pieces": [{"kind": "polygon", "ring": [[-19.48425, 65.80743], [-19.0448, 65.50186], [-18.74817, 65.44944], [-18.67676, 65.3809], [-18.42407, 65.21339], [-18.34717, 65.06797], [-18.14392, 65.0911], [-18.02307, 65.16731], [-17.9187, 65.46768], [-18.078, 65.66528], [-18.12195, 65.75337], [-18.39111, 66.12276], [-19.13269, 66.29553], [-19.79736, 66.05154]]}, {"kind": "clip"}]}}, {"type": "Feature", "geometry": null, "properties": {"id": "oi9u", "status": "validé", "pieces": [{"kind": "country"}]}}, {"type": "Feature", "geometry": {"type": "Polygon", "coordinates": [[[-17.22382, 63.96826], [-16.92032, 64.02484], [-16.6745, 63.90493], [-16.50009, 63.93933], [-16.32294, 64.04767], [-16.19385, 64.06389], [-15.99884, 64.17901], [-15.81482, 64.2077], [-15.59784, 64.28047], [-15.32043, 64.315], [-15.06775, 64.30548], [-14.94415, 64.40885], [-14.87, 64.39461], [-14.99634, 64.26498], [-15.54291, 64.23874], [-15.86151, 64.14192], [-16.2323, 64.00026], [-16.67175, 63.84458], [-16.93268, 63.96052], [-17.2348, 63.92554], [-17.22382, 63.96826]]]}, "properties": {"id": "pJN0", "status": "validé", "pieces": [{"kind": "polygon", "ring": [[-17.22382, 63.96826], [-16.92032, 64.02484], [-16.6745, 63.90493], [-16.50009, 63.93933], [-16.32294, 64.04767], [-16.19385, 64.06389], [-15.99884, 64.17901], [-15.81482, 64.2077], [-15.59784, 64.28047], [-15.32043, 64.315], [-15.06775, 64.30548], [-14.94415, 64.40885], [-14.87, 64.39461], [-14.99634, 64.26498], [-15.54291, 64.23874], [-15.86151, 64.14192], [-16.2323, 64.00026], [-16.67175, 63.84458], [-16.93268, 63.96052], [-17.2348, 63.92554]]}]}}, {"type": "Feature", "geometry": null, "properties": {"id": "sZf3", "status": "validé", "pieces": [{"kind": "country"}]}}, {"type": "Feature", "geometry": null, "properties": {"id": "tHAX", "status": "validé", "pieces": [{"kind": "country"}]}}, {"type": "Feature", "geometry": {"type": "MultiPolygon", "coordinates": [[[[-21.68701, 63.933], [-21.36292, 64.1565], [-21.20361, 64.34257], [-20.96191, 64.44935], [-20.45654, 64.46592], [-20.22583, 64.43988], [-20.17639, 64.34019], [-20.00061, 64.15411], [-19.87976, 63.87745], [-19.81934, 63.71014], [-19.73694, 63.59805], [-19.58313, 63.61026], [-19.34143, 63.60781], [-19.10522, 63.56385], [-19.14857, 63.42835], [-19.15266, 63.42573], [-19.28726, 63.43867], [-19.29996, 63.44123], [-19.35216, 63.45913], [-19.43415, 63.46654], [-19.55093, 63.50202], [-19.71158, 63.52155], [-19.74323, 63.53425], [-19.72973, 63.53539], [-19.72204, 63.53925], [-19.72305, 63.54418], [-19.73575, 63.54853], [-19.74796, 63.5489], [-19.76476, 63.54279], [-19.77709, 63.541], [-19.87291, 63.54853], [-19.86998, 63.54352], [-19.76989, 63.53425], [-20.0338, 63.54239], [-20.05101, 63.55476], [-20.05541, 63.55378], [-20.05797, 63.55231], [-20.06041, 63.55048], [-20.06408, 63.54853], [-20.06896, 63.55288], [-20.07189, 63.55386], [-20.07836, 63.55476], [-20.07152, 63.541], [-20.14831, 63.54035], [-20.1857, 63.54442], [-20.33772, 63.60171], [-20.35269, 63.60993], [-20.33861, 63.60419], [-20.3225, 63.60175], [-20.30598, 63.60346], [-20.29064, 63.60993], [-20.30346, 63.61103], [-20.32624, 63.61567], [-20.3391, 63.61677], [-20.3343, 63.63227], [-20.33226, 63.63666], [-20.35057, 63.62466], [-20.3671, 63.61982], [-20.385, 63.62189], [-20.40734, 63.63044], [-20.40734, 63.63666], [-20.37316, 63.63044], [-20.38655, 63.6457], [-20.40478, 63.65461], [-20.42447, 63.66169], [-20.44213, 63.67137], [-20.45824, 63.68822], [-20.46695, 63.70026], [-20.47867, 63.70637], [-20.50353, 63.70551], [-20.50353, 63.69929], [-20.46866, 63.67715], [-20.44848, 63.66071], [-20.43464, 63.64411], [-20.50109, 63.67113], [-20.53161, 63.68891], [-20.55069, 63.71235], [-20.54686, 63.71402], [-20.5371, 63.71979], [-20.5445, 63.72451], [-20.55822, 63.7403], [-20.53018, 63.75471], [-20.49853, 63.76301], [-20.43126, 63.76756], [-20.39965, 63.76105], [-20.34415, 63.73477], [-20.31115, 63.73286], [-20.32779, 63.7425], [-20.3522, 63.76114], [-20.36579, 63.76756], [-20.44213, 63.7875], [-20.41202, 63.81257], [-20.40734, 63.82221], [-20.41112, 63.83625], [-20.42227, 63.83991], [-20.43114, 63.83637], [-20.42785, 63.82844], [-20.42785, 63.82221], [-20.43977, 63.81257], [-20.48302, 63.7875], [-20.5111, 63.77318], [-20.53018, 63.76435], [-20.55451, 63.76073], [-20.56241, 63.75682], [-20.56347, 63.7473], [-20.56265, 63.73591], [-20.56505, 63.72602], [-20.57266, 63.71625], [-20.5775, 63.71418], [-20.62247, 63.72577], [-20.66658, 63.74291], [-20.70031, 63.7497], [-20.77042, 63.7744], [-20.70523, 63.7744], [-20.69347, 63.7718], [-20.66942, 63.76146], [-20.65437, 63.76073], [-20.65233, 63.76655], [-20.63915, 63.76838], [-20.60595, 63.76756], [-20.60595, 63.7744], [-20.63386, 63.7744], [-20.63386, 63.78124], [-20.63036, 63.78144], [-20.62316, 63.78099], [-20.61962, 63.78124], [-20.61962, 63.7875], [-20.69066, 63.77945], [-20.71581, 63.78124], [-20.71581, 63.7875], [-20.68179, 63.80732], [-20.67178, 63.83763], [-20.68562, 63.86343], [-20.72326, 63.86937], [-20.72326, 63.86319], [-20.69514, 63.85798], [-20.69831, 63.84418], [-20.71719, 63.82803], [-20.75451, 63.80565], [-20.77839, 63.79743], [-20.80529, 63.79474], [-20.83251, 63.8017], [-20.82177, 63.78531], [-20.81823, 63.78124], [-20.85863, 63.80044], [-20.94884, 63.82722], [-21.07673, 63.84846], [-21.12011, 63.86249], [-21.14428, 63.8675], [-21.16832, 63.87556], [-21.18879, 63.8911], [-21.18301, 63.89887], [-21.18448, 63.90876], [-21.19494, 63.93207], [-21.11701, 63.92988], [-21.07413, 63.93427], [-21.04479, 63.94575], [-21.11994, 63.94575], [-21.16759, 63.95771], [-21.18505, 63.95942], [-21.23644, 63.95336], [-21.24706, 63.94916], [-21.25609, 63.94302], [-21.28742, 63.92817], [-21.29869, 63.92463], [-21.29869, 63.9184], [-21.24779, 63.90839], [-21.22204, 63.89887], [-21.2093, 63.88369], [-21.23013, 63.88874], [-21.27538, 63.89179], [-21.32168, 63.88935], [-21.34976, 63.88418], [-21.36583, 63.87376], [-21.35265, 63.85639], [-21.35741, 63.85611], [-21.36042, 63.85423], [-21.36311, 63.85179], [-21.36693, 63.84956], [-21.6599, 63.83185], [-21.6953, 63.84272], [-21.71675, 63.85282], [-21.68701, 63.933]]], [[[-20.25792, 63.44098], [-20.25255, 63.42951], [-20.26016, 63.41865], [-20.26964, 63.40913], [-20.27953, 63.40274], [-20.28677, 63.40648], [-20.29162, 63.41535], [-20.29809, 63.42308], [-20.30557, 63.43476], [-20.3026, 63.44595], [-20.28262, 63.45059], [-20.25886, 63.45136], [-20.25695, 63.44965], [-20.26187, 63.44465], [-20.25792, 63.44098]]]]}, "properties": {"id": "wz9a", "status": "validé", "pieces": [{"kind": "polygon", "ring": [[-21.73096, 63.81453], [-21.68701, 63.933], [-21.36292, 64.1565], [-21.20361, 64.34257], [-20.96191, 64.44935], [-20.45654, 64.46592], [-20.22583, 64.43988], [-20.17639, 64.34019], [-20.00061, 64.15411], [-19.87976, 63.87745], [-19.81934, 63.71014], [-19.73694, 63.59805], [-19.58313, 63.61026], [-19.34143, 63.60781], [-19.10522, 63.56385], [-19.17114, 63.35776], [-21.17615, 63.34052]]}, {"kind": "clip"}]}}]}