{"type": "FeatureCollection", "features": [{"type": "Feature", "geometry": null, "properties": {"id": "19gE", "status": "validé", "pieces": [{"kind": "country"}]}}, {"type": "Feature", "geometry": null, "properties": {"id": "1Tin", "status": "validé", "pieces": [{"kind": "country"}]}}, {"type": "Feature", "geometry": null, "properties": {"id": "2Pw0", "status": "validé", "pieces": [{"kind": "country"}]}}, {"type": "Feature", "geometry": {"type": "Polygon", "coordinates": [[[-2.20551, 49.21078], [-2.21254, 49.20764], [-2.21306, 49.20338], [-2.20997, 49.20102], [-2.19812, 49.20013], [-2.18628, 49.20091], [-2.17855, 49.20573], [-2.17976, 49.21145], [-2.19555, 49.21257], [-2.20551, 49.21078]]]}, "properties": {"id": "4QYR", "status": "validé", "pieces": [{"kind": "polygon", "ring": [[-2.20551, 49.21078], [-2.21254, 49.20764], [-2.21306, 49.20338], [-2.20997, 49.20102], [-2.19812, 49.20013], [-2.18628, 49.20091], [-2.17855, 49.20573], [-2.17976, 49.21145], [-2.19555, 49.21257]]}]}}, {"type": "Feature", "geometry": {"type": "Polygon", "coordinates": [[[-2.16413, 49.1806], [-2.19194, 49.18139], [-2.1995, 49.18509], [-2.19727, 49.19372], [-2.19315, 49.20461], [-2.18388, 49.21066], [-2.16396, 49.2194], [-2.14748, 49.22097], [-2.12448, 49.22008], [-2.11899, 49.21223], [-2.11933, 49.19923], [-2.11761, 49.19586], [-2.11796, 49.18981], [-2.131, 49.17882], [-2.16413, 49.1806]]]}, "properties": {"id": "4uA3", "status": "validé", "pieces": [{"kind": "polygon", "ring": [[-2.16413, 49.1806], [-2.19194, 49.18139], [-2.1995, 49.18509], [-2.19727, 49.19372], [-2.19315, 49.20461], [-2.18388, 49.21066], [-2.16396, 49.2194], [-2.14748, 49.22097], [-2.12448, 49.22008], [-2.11899, 49.21223], [-2.11933, 49.19923], [-2.11761, 49.19586], [-2.11796, 49.18981], [-2.131, 49.17882]]}]}}, {"type": "Feature", "geometry": null, "properties": {"id": "DwPv", "status": "validé", "pieces": [{"kind": "country"}]}}, {"type": "Feature", "geometry": {"type": "Polygon", "coordinates": [[[-2.10259, 49.1651], [-2.10259, 49.17677], [-2.11753, 49.17677], [-2.11753, 49.1651], [-2.10259, 49.1651]]]}, "properties": {"id": "PTyL", "status": "validé", "pieces": [{"kind": "rect", "bounds": [-2.11753, 49.1651, -2.10259, 49.17677]}]}}, {"type": "Feature", "geometry": null, "properties": {"id": "QfN6", "status": "validé", "pieces": [{"kind": "country"}]}}, {"type": "Feature", "geometry": {"type": "Polygon", "coordinates": [[[-2.23263, 49.25214], [-2.21958, 49.24027], [-2.20585, 49.22951], [-2.20242, 49.21785], [-2.20242, 49.2053], [-2.21581, 49.19566], [-2.22439, 49.18826], [-2.23217, 49.18889], [-2.22647, 49.206], [-2.23323, 49.2285], [-2.24201, 49.24795], [-2.24131, 49.25767], [-2.23263, 49.25214]]]}, "properties": {"id": "SnbW", "status": "validé", "pieces": [{"kind": "polygon", "ring": [[-2.24705, 49.26132], [-2.23263, 49.25214], [-2.21958, 49.24027], [-2.20585, 49.22951], [-2.20242, 49.21785], [-2.20242, 49.2053], [-2.21581, 49.19566], [-2.22439, 49.18826], [-2.25185, 49.1905], [-2.26799, 49.22973], [-2.27039, 49.25886]]}, {"kind": "clip"}]}}, {"type": "Feature", "geometry": null, "properties": {"id": "VFkp", "status": "rejeté", "pieces": []}}, {"type": "Feature", "geometry": {"type": "Polygon", "coordinates": [[[-2.12706, 49.19069], [-2.11693, 49.19451], [-2.10835, 49.1963], [-2.09324, 49.19305], [-2.08328, 49.18744], [-2.08122, 49.18374], [-2.08242, 49.17959], [-2.09032, 49.17084], [-2.1262, 49.1649], [-2.13564, 49.18363], [-2.12706, 49.19069]]]}, "properties": {"id": "VJhc", "status": "validé", "pieces": [{"kind": "polygon", "ring": [[-2.12706, 49.19069], [-2.11693, 49.19451], [-2.10835, 49.1963], [-2.09324, 49.19305], [-2.08328, 49.18744], [-2.08122, 49.18374], [-2.08242, 49.17959], [-2.09032, 49.17084], [-2.1262, 49.1649], [-2.13564, 49.18363]]}]}}, {"type": "Feature", "geometry": {"type": "Polygon", "coordinates": [[[-2.14654, 49.19669], [-2.13993, 49.19607], [-2.13392, 49.19517], [-2.11925, 49.18811], [-2.11525, 49.18603], [-2.11414, 49.18393], [-2.11294, 49.183], [-2.1104, 49.18233], [-2.10826, 49.18123], [-2.1044, 49.18028], [-2.10139, 49.17879], [-2.09393, 49.17851], [-2.09345, 49.17924], [-2.09556, 49.17938], [-2.10101, 49.17964], [-2.10354, 49.18112], [-2.10766, 49.18199], [-2.11002, 49.18331], [-2.11277, 49.18401], [-2.11397, 49.18662], [-2.12062, 49.19043], [-2.12744, 49.19391], [-2.13427, 49.19651], [-2.14547, 49.19747], [-2.14654, 49.19669]]]}, "properties": {"id": "Vpg7", "status": "validé", "pieces": [{"kind": "polygon", "ring": [[-2.14654, 49.19669], [-2.13993, 49.19607], [-2.13392, 49.19517], [-2.11925, 49.18811], [-2.11525, 49.18603], [-2.11414, 49.18393], [-2.11294, 49.183], [-2.1104, 49.18233], [-2.10826, 49.18123], [-2.1044, 49.18028], [-2.10139, 49.17879], [-2.09393, 49.17851], [-2.09345, 49.17924], [-2.09556, 49.17938], [-2.10101, 49.17964], [-2.10354, 49.18112], [-2.10766, 49.18199], [-2.11002, 49.18331], [-2.11277, 49.18401], [-2.11397, 49.18662], [-2.12062, 49.19043], [-2.12744, 49.19391], [-2.13427, 49.19651], [-2.14547, 49.19747]]}]}}, {"type": "Feature", "geometry": null, "properties": {"id": "WJRF", "status": "validé", "pieces": [{"kind": "country"}]}}, {"type": "Feature", "geometry": null, "properties": {"id": "Y2Eu", "status": "validé", "pieces": [{"kind": "country"}]}}, {"type": "Feature", "geometry": null, "properties": {"id": "gRdF", "status": "validé", "pieces": [{"kind": "country"}]}}, {"type": "Feature", "geometry": null, "properties": {"id": "mfYy", "status": "validé", "pieces": [{"kind": "country"}]}}, {"type": "Feature", "geometry": null, "properties": {"id": "r1L7", "status": "rejeté", "pieces": []}}, {"type": "Feature", "geometry": null, "properties": {"id": "s918", "status": "validé", "pieces": [{"kind": "country"}]}}, {"type": "Feature", "geometry": null, "properties": {"id": "zYT6", "status": "validé", "pieces": [{"kind": "country"}]}}]}