{"type": "FeatureCollection", "features": [{"type": "Feature", "geometry": {"type": "Polygon", "coordinates": [[[35.52567, 30.28281], [35.52567, 30.34325], [35.45357, 30.34325], [35.45357, 30.28281], [35.52567, 30.28281]]]}, "properties": {"id": "033t", "status": "validé", "pieces": [{"kind": "rect", "bounds": [35.45357, 30.28281, 35.52567, 30.34325]}]}}, {"type": "Feature", "geometry": {"type": "Polygon", "coordinates": [[[35.01137, 29.58191], [35.03197, 29.57654], [35.06081, 29.66246], [35.1947, 29.98936], [35.3183, 30.32627], [35.38422, 30.7637], [35.45563, 30.90104], [35.45425, 30.92077], [35.39589, 30.89957], [35.34782, 30.80117], [35.30731, 30.74573], [35.26543, 30.64363], [35.22011, 30.46239], [35.21393, 30.34991], [35.1796, 30.21822], [35.17479, 30.1025], [35.13565, 30.03537], [35.10063, 29.93059], [35.08896, 29.85145], [35.04021, 29.75913], [35.02235, 29.70192], [35.02441, 29.62796], [35.01137, 29.58191]]]}, "properties": {"id": "2zSo", "status": "validé", "pieces": [{"kind": "polygon", "ring": [[35.01137, 29.58191], [35.03197, 29.57654], [35.06081, 29.66246], [35.1947, 29.98936], [35.3183, 30.32627], [35.38422, 30.7637], [35.45563, 30.90104], [35.45425, 30.92077], [35.39589, 30.89957], [35.34782, 30.80117], [35.30731, 30.74573], [35.26543, 30.64363], [35.22011, 30.46239], [35.21393, 30.34991], [35.1796, 30.21822], [35.17479, 30.1025], [35.13565, 30.03537], [35.10063, 29.93059], [35.08896, 29.85145], [35.04021, 29.75913], [35.02235, 29.70192], [35.02441, 29.62796]]}]}}, {"type": "Feature", "geometry": null, "properties": {"id": "4E7V", "status": "validé", "pieces": [{"kind": "country"}]}}, {"type": "Feature", "geometry": null, "properties": {"id": "7uVv", "status": "validé", "pieces": [{"kind": "country"}]}}, {"type": "Feature", "geometry": {"type": "Polygon", "coordinates": [[[35.6012, 31.80242], [35.68359, 31.81408], [35.72891, 31.8549], [35.80238, 31.85315], [35.83809, 31.86364], [35.86487, 31.89337], [35.85526, 31.90211], [35.83191, 31.87589], [35.80719, 31.86598], [35.78796, 31.88463], [35.75638, 31.87181], [35.72823, 31.87414], [35.69115, 31.84266], [35.67261, 31.82341], [35.59502, 31.81292], [35.6012, 31.80242]]]}, "properties": {"id": "9qcs", "status": "validé", "pieces": [{"kind": "polygon", "ring": [[35.6012, 31.80242], [35.68359, 31.81408], [35.72891, 31.8549], [35.80238, 31.85315], [35.83809, 31.86364], [35.86487, 31.89337], [35.85526, 31.90211], [35.83191, 31.87589], [35.80719, 31.86598], [35.78796, 31.88463], [35.75638, 31.87181], [35.72823, 31.87414], [35.69115, 31.84266], [35.67261, 31.82341], [35.59502, 31.81292]]}]}}, {"type": "Feature", "geometry": {"type": "Polygon", "coordinates": [[[35.73097, 30.93409], [35.73097, 30.96588], [35.68909, 30.96588], [35.68909, 30.93409], [35.73097, 30.93409]]]}, "properties": {"id": "Bbns", "status": "validé", "pieces": [{"kind": "rect", "bounds": [35.68909, 30.93409, 35.73097, 30.96588]}]}}, {"type": "Feature", "geometry": {"type": "Polygon", "coordinates": [[[35.91431, 31.7802], [35.97061, 31.59389], [36.05095, 31.40064], [36.0379, 31.27284], [35.9967, 31.17088], [35.96924, 31.031], [35.92117, 30.80961], [35.80444, 30.6574], [35.70969, 30.26811], [35.63278, 30.17797], [35.46661, 30.07942], [35.38559, 29.90703], [35.2359, 29.77606], [35.16037, 29.63059], [35.07935, 29.50283], [35.02716, 29.46699], [35.05325, 29.43591], [35.16174, 29.51359], [35.35263, 29.77646], [35.48996, 29.90744], [35.62592, 30.10375], [35.73303, 30.17023], [35.8017, 30.35756], [35.84702, 30.61426], [35.96924, 30.72289], [36.04614, 30.91505], [36.05988, 31.19845], [36.12717, 31.40488], [36.07224, 31.62255], [35.9404, 31.79772], [35.91431, 31.7802]]]}, "properties": {"id": "EQ0O", "status": "validé", "pieces": [{"kind": "polygon", "ring": [[35.91431, 31.7802], [35.97061, 31.59389], [36.05095, 31.40064], [36.0379, 31.27284], [35.9967, 31.17088], [35.96924, 31.031], [35.92117, 30.80961], [35.80444, 30.6574], [35.70969, 30.26811], [35.63278, 30.17797], [35.46661, 30.07942], [35.38559, 29.90703], [35.2359, 29.77606], [35.16037, 29.63059], [35.07935, 29.50283], [35.02716, 29.46699], [35.05325, 29.43591], [35.16174, 29.51359], [35.35263, 29.77646], [35.48996, 29.90744], [35.62592, 30.10375], [35.73303, 30.17023], [35.8017, 30.35756], [35.84702, 30.61426], [35.96924, 30.72289], [36.04614, 30.91505], [36.05988, 31.19845], [36.12717, 31.40488], [36.07224, 31.62255], [35.9404, 31.79772]]}]}}, {"type": "Feature", "geometry": null, "properties": {"id": "FniX", "status": "rejeté", "pieces": []}}, {"type": "Feature", "geometry": {"type": "Polygon", "coordinates": [[[35.47623, 30.30463], [35.47623, 30.34521], [35.42713, 30.34521], [35.42713, 30.30463], [35.47623, 30.30463]]]}, "properties": {"id": "IdVo", "status": "validé", "pieces": [{"kind": "rect", "bounds": [35.42713, 30.30463, 35.47623, 30.34521]}]}}, {"type": "Feature", "geometry": {"type": "Polygon", "coordinates": [[[36.03516, 31.85408], [36.03516, 32.02649], [35.82298, 32.02649], [35.82298, 31.85408], [36.03516, 31.85408]]]}, "properties": {"id": "KlNE", "status": "validé", "pieces": [{"kind": "rect", "bounds": [35.82298, 31.85408, 36.03516, 32.02649]}]}}, {"type": "Feature", "geometry": {"type": "Polygon", "coordinates": [[[35.858, 31.68019], [35.858, 31.76338], [35.75741, 31.76338], [35.75741, 31.68019], [35.858, 31.68019]]]}, "properties": {"id": "NwiC", "status": "validé", "pieces": [{"kind": "rect", "bounds": [35.75741, 31.68019, 35.858, 31.76338]}]}}, {"type": "Feature", "geometry": {"type": "Polygon", "coordinates": [[[35.0572, 29.56325], [35.05926, 29.57772], [35.12844, 29.56534], [35.13308, 29.55355], [35.12878, 29.54444], [35.10406, 29.54832], [35.0572, 29.56325]]]}, "properties": {"id": "NzDL", "status": "validé", "pieces": [{"kind": "polygon", "ring": [[35.0572, 29.56325], [35.05926, 29.57772], [35.12844, 29.56534], [35.13308, 29.55355], [35.12878, 29.54444], [35.10406, 29.54832]]}]}}, {"type": "Feature", "geometry": null, "properties": {"id": "Ol57", "status": "validé", "pieces": [{"kind": "country"}]}}, {"type": "Feature", "geometry": {"type": "Polygon", "coordinates": [[[35.82916, 31.68939], [35.82916, 31.75887], [35.76015, 31.75887], [35.76015, 31.68939], [35.82916, 31.68939]]]}, "properties": {"id": "SxAR", "status": "validé", "pieces": [{"kind": "rect", "bounds": [35.76015, 31.68939, 35.82916, 31.75887]}]}}, {"type": "Feature", "geometry": null, "properties": {"id": "VL43", "status": "validé", "pieces": [{"kind": "country"}]}}, {"type": "Feature", "geometry": null, "properties": {"id": "VLxu", "status": "validé", "pieces": [{"kind": "country"}]}}, {"type": "Feature", "geometry": {"type": "Polygon", "coordinates": [[[35.05085, 29.49138], [35.05085, 29.57409], [34.97772, 29.57409], [34.97772, 29.49138], [35.05085, 29.49138]]]}, "properties": {"id": "VYva", "status": "validé", "pieces": [{"kind": "rect", "bounds": [34.97772, 29.49138, 35.05085, 29.57409]}]}}, {"type": "Feature", "geometry": null, "properties": {"id": "gP2h", "status": "validé", "pieces": [{"kind": "country"}]}}, {"type": "Feature", "geometry": {"type": "Polygon", "coordinates": [[[35.42953, 30.91212], [35.45151, 31.06863], [35.51331, 31.51201], [35.58472, 31.82396], [35.60944, 31.82163], [35.60394, 31.69207], [35.58609, 31.58805], [35.59433, 31.44528], [35.58197, 31.30933], [35.56, 31.11209], [35.51743, 31.00744], [35.47485, 30.91209], [35.42953, 30.91212]]]}, "properties": {"id": "m8Pf", "status": "validé", "pieces": [{"kind": "polygon", "ring": [[35.42953, 30.91212], [35.45151, 31.06863], [35.51331, 31.51201], [35.58472, 31.82396], [35.60944, 31.82163], [35.60394, 31.69207], [35.58609, 31.58805], [35.59433, 31.44528], [35.58197, 31.30933], [35.56, 31.11209], [35.51743, 31.00744], [35.47485, 30.91209]]}]}}, {"type": "Feature", "geometry": {"type": "Polygon", "coordinates": [[[35.05875, 29.51282], [35.05875, 29.5797], [34.9736, 29.5797], [34.9736, 29.51282], [35.05875, 29.51282]]]}, "properties": {"id": "oqbZ", "status": "validé", "pieces": [{"kind": "rect", "bounds": [34.9736, 29.51282, 35.05875, 29.5797]}]}}, {"type": "Feature", "geometry": null, "properties": {"id": "pOx9", "status": "validé", "pieces": [{"kind": "country"}]}}, {"type": "Feature", "geometry": null, "properties": {"id": "sTXB", "status": "validé", "pieces": [{"kind": "country"}]}}, {"type": "Feature", "geometry": {"type": "Polygon", "coordinates": [[[35.97336, 32.50176], [35.94864, 32.45775], [35.93353, 32.40678], [35.90881, 32.36388], [35.89645, 32.30937], [35.88547, 32.23509], [35.85114, 32.20025], [35.83191, 32.14215], [35.86487, 32.14215], [35.88684, 32.20025], [35.91293, 32.21651], [35.91705, 32.25599], [35.93491, 32.28036], [35.93216, 32.35925], [35.96237, 32.3778], [35.96786, 32.4369], [36.0022, 32.5006], [35.97336, 32.50176]]]}, "properties": {"id": "vAGv", "status": "validé", "pieces": [{"kind": "polygon", "ring": [[35.97336, 32.50176], [35.94864, 32.45775], [35.93353, 32.40678], [35.90881, 32.36388], [35.89645, 32.30937], [35.88547, 32.23509], [35.85114, 32.20025], [35.83191, 32.14215], [35.86487, 32.14215], [35.88684, 32.20025], [35.91293, 32.21651], [35.91705, 32.25599], [35.93491, 32.28036], [35.93216, 32.35925], [35.96237, 32.3778], [35.96786, 32.4369], [36.0022, 32.5006]]}]}}, {"type": "Feature", "geometry": null, "properties": {"id": "xs0t", "status": "validé", "pieces": [{"kind": "country"}]}}, {"type": "Feature", "geometry": {"type": "Polygon", "coordinates": [[[36.08185, 31.81941], [36.08185, 32.03146], [35.82092, 32.03146], [35.82092, 31.81941], [36.08185, 31.81941]]]}, "properties": {"id": "yMuz", "status": "validé", "pieces": [{"kind": "rect", "bounds": [35.82092, 31.81941, 36.08185, 32.03146]}]}}]}