{"type": "FeatureCollection", "features": [{"type": "Feature", "geometry": null, "properties": {"id": "1FK1", "status": "validé", "pieces": [{"kind": "admin1", "code": "JPN-3501"}, {"kind": "admin1", "code": "JPN-3502"}]}}, {"type": "Feature", "geometry": null, "properties": {"id": "1dQi", "status": "validé", "pieces": [{"kind": "admin1", "code": "JPN-1862"}]}}, {"type": "Feature", "geometry": null, "properties": {"id": "224S", "status": "validé", "pieces": [{"kind": "admin1", "code": "JPN-1849"}, {"kind": "admin1", "code": "JPN-1850"}, {"kind": "admin1", "code": "JPN-1853"}, {"kind": "admin1", "code": "JPN-1851"}, {"kind": "admin1", "code": "JPN-1854"}, {"kind": "admin1", "code": "JPN-1852"}]}}, {"type": "Feature", "geometry": {"type": "MultiPolygon", "coordinates": [[[[132.64893, 34.72463], [131.95679, 34.31746], [131.95597, 34.32675], [131.95218, 34.31672], [131.94676, 34.30605], [131.93947, 34.30318], [131.93089, 34.30757], [131.92056, 34.31573], [131.90805, 34.31956], [131.89632, 34.3177], [131.84542, 34.30307], [131.81266, 34.29964], [131.79509, 34.30173], [131.78196, 34.30654], [131.77142, 34.31426], [131.76475, 34.32406], [131.7584, 34.33747], [131.75323, 34.35175], [131.75127, 34.36346], [131.75137, 34.37351], [131.7554, 34.38178], [131.7725, 34.40377], [131.77266, 34.40973], [131.76847, 34.41614], [131.69649, 34.42898], [131.68326, 34.43774], [131.67923, 34.4471], [131.68155, 34.45661], [131.68109, 34.46784], [131.6721, 34.47939], [131.66714, 34.49609], [131.66884, 34.50978], [131.67845, 34.52368], [131.69349, 34.55505], [131.69938, 34.56228], [131.70341, 34.57104], [131.70331, 34.58104], [131.68559, 34.61577], [131.68186, 34.62523], [131.67923, 34.64062], [131.67892, 34.64894], [131.68047, 34.66228], [131.67962, 34.66649], [131.67563, 34.67214], [131.68033, 34.67465], [131.7116, 34.67158], [131.74608, 34.67535], [131.79038, 34.6861], [131.82296, 34.69828], [131.84078, 34.70533], [131.85841, 34.7145], [131.86313, 34.73749], [131.86687, 34.74604], [131.87376, 34.75922], [131.89633, 34.76293], [131.90132, 34.77045], [131.92379, 34.78786], [131.95701, 34.81303], [131.99732, 34.83723], [132.02117, 34.86587], [132.03455, 34.87658], [132.05388, 34.87226], [132.06056, 34.88569], [132.0633, 34.90749], [132.11118, 34.9431], [132.13185, 34.95864], [132.15794, 34.97613], [132.21632, 35.01358], [132.23649, 35.03482], [132.27084, 35.04033], [132.29361, 35.04841], [132.31685, 35.06235], [132.32659, 35.09207], [132.35704, 35.11121], [132.37995, 35.12498], [132.38921, 35.13483], [132.38657, 35.14554], [132.40235, 35.16047], [132.40808, 35.17505], [132.46768, 35.21315], [132.49583, 35.23246], [132.52972, 35.24491], [132.53194, 35.25767], [132.55026, 35.26243], [132.57562, 35.27327], [132.62114, 35.28444], [132.63868, 35.29465], [132.6514, 35.31292], [132.66335, 35.32954], [132.67145, 35.35513], [132.67414, 35.37204], [132.67402, 35.38542], [132.67079, 35.39948], [132.65374, 35.40687], [132.63114, 35.41981], [132.62381, 35.43107], [132.63536, 35.44096], [132.65588, 35.44299], [132.6821, 35.44902], [132.70144, 35.44922], [132.73444, 35.44863], [132.74855, 35.45155], [132.75474, 35.45625], [132.74448, 35.46357], [132.7255, 35.47078], [132.73628, 35.47274], [132.75272, 35.47708], [132.77543, 35.48101], [132.80483, 35.49518], [132.83768, 35.50612], [132.86491, 35.51098], [132.92223, 35.51317], [132.94636, 35.51868], [132.96974, 35.517], [132.97321, 35.54188], [132.99149, 35.54455], [133.0144, 35.54078], [133.03349, 35.54599], [133.04249, 35.56153], [133.05177, 35.57373], [133.0646, 35.58027], [133.08144, 35.57533], [133.09134, 35.58754], [133.09126, 35.60148], [133.10535, 35.59752], [133.11973, 35.58491], [133.14143, 35.57017], [133.15647, 35.56262], [133.18966, 35.57191], [133.20707, 35.57283], [133.22473, 35.58295], [133.23016, 35.5782], [133.22315, 35.56851], [133.22804, 35.56468], [133.23934, 35.56361], [133.24625, 35.56732], [133.26638, 35.57424], [133.28678, 35.57619], [133.30877, 35.57719], [133.32602, 35.56851], [133.3129, 35.56198], [133.29887, 35.55864], [133.28693, 35.55373], [133.27014, 35.54961], [133.2575, 35.5362], [133.25473, 35.53384], [133.25416, 35.5218], [133.26051, 35.50995], [133.26466, 35.49616], [133.29454, 35.48042], [133.32963, 35.4655], [133.36086, 35.46042], [133.38069, 35.45641], [133.40016, 35.45429], [133.41741, 35.45654], [133.44125, 35.49104], [133.49275, 35.51036], [133.5256, 35.52243], [133.58018, 35.5336], [133.63257, 35.52133], [133.73114, 35.50291], [133.91155, 35.51459], [134.00838, 35.53705], [134.03479, 35.51936], [134.17366, 35.53627], [134.23776, 35.54665], [134.26207, 35.55359], [134.28159, 35.56489], [134.29387, 35.58589], [134.34262, 35.59382], [134.35206, 35.59418], [134.3615, 35.59577], [134.36558, 35.59996], [134.36883, 35.59757], [134.39844, 35.5786], [134.41679, 35.54419], [134.44443, 35.43872], [134.468, 35.40011], [134.47404, 35.38316], [134.47854, 35.36187], [134.50211, 35.33239], [134.50614, 35.32226], [134.50758, 35.31392], [134.50789, 35.30601], [134.51068, 35.2888], [134.51006, 35.27188], [134.50479, 35.25821], [134.49218, 35.24433], [134.46273, 35.22532], [134.44847, 35.21868], [134.43648, 35.21749], [134.4233, 35.22085], [134.41586, 35.22617], [134.39565, 35.22922], [134.34775, 35.20617], [134.32537, 35.19248], [134.30816, 35.18664], [134.29607, 35.18568], [134.28424, 35.18809], [134.26884, 35.18824], [134.24734, 35.18576], [134.18884, 35.16524], [134.17458, 35.16163], [134.16445, 35.16744], [134.16436, 35.16764], [133.45642, 34.95897], [132.64893, 34.72463]]], [[[133.06666, 36.00654], [133.07911, 35.99364], [133.06495, 35.99506], [133.02784, 35.99364], [133.02133, 35.99575], [133.01612, 36.00092], [133.01295, 36.0078], [133.01246, 36.0148], [133.02418, 36.02558], [133.04518, 36.02001], [133.06666, 36.00654]]], [[[133.09946, 36.0375], [133.07911, 36.02094], [133.07862, 36.04999], [133.08131, 36.08015], [133.09352, 36.10277], [133.12135, 36.10977], [133.13543, 36.08955], [133.12322, 36.06293], [133.09946, 36.0375]]], [[[133.08717, 36.11078], [133.07277, 36.10786], [133.05836, 36.10318], [133.05177, 36.08552], [133.05397, 36.0749], [133.05698, 36.06769], [133.05584, 36.06175], [133.04493, 36.05512], [133.03598, 36.0539], [133.02703, 36.0563], [133.01979, 36.06061], [133.0171, 36.06501], [133.01677, 36.07477], [133.0149, 36.07978], [133.01002, 36.08153], [133.00026, 36.08177], [132.99041, 36.07705], [132.99318, 36.06635], [133.00408, 36.04828], [132.99497, 36.03824], [132.98146, 36.03986], [132.96551, 36.04914], [132.94939, 36.06196], [132.96949, 36.08202], [133.0145, 36.11099], [133.03875, 36.13081], [133.05665, 36.12494], [133.07423, 36.12792], [133.08758, 36.12702], [133.08814, 36.11827], [133.08717, 36.11078]]], [[[133.09327, 36.10977], [133.09059, 36.11787], [133.09327, 36.12336], [133.11362, 36.11351], [133.09327, 36.10977]]], [[[133.37338, 36.1977], [133.3602, 36.19164], [133.35255, 36.20352], [133.34352, 36.20433], [133.33432, 36.19888], [133.32602, 36.19164], [133.33766, 36.18439], [133.34132, 36.17504], [133.33741, 36.1656], [133.32602, 36.15815], [133.31837, 36.15843], [133.27833, 36.16498], [133.25636, 36.16498], [133.24977, 36.16828], [133.20265, 36.2023], [133.19264, 36.20596], [133.18776, 36.21613], [133.1963, 36.27798], [133.20948, 36.29719], [133.292, 36.34248], [133.29282, 36.33055], [133.30079, 36.32587], [133.31121, 36.32429], [133.32016, 36.32185], [133.3235, 36.31835], [133.32651, 36.30939], [133.32944, 36.30492], [133.3357, 36.30093], [133.34864, 36.29759], [133.35402, 36.29466], [133.35939, 36.28856], [133.36362, 36.27928], [133.36703, 36.27424], [133.38185, 36.25772], [133.37924, 36.20824], [133.37338, 36.1977]]]]}, "properties": {"id": "28LV", "status": "validé", "pieces": [{"kind": "admin1", "code": "JPN-1825"}, {"kind": "admin1", "code": "JPN-1824"}, {"kind": "polygon", "ring": [[131.95679, 34.31746], [132.64893, 34.72463], [133.45642, 34.95897], [134.20349, 35.17918], [134.00024, 35.44354], [133.24768, 35.31819], [132.39624, 34.94096], [131.93481, 34.56652]]}]}}, {"type": "Feature", "geometry": null, "properties": {"id": "33NM", "status": "validé", "pieces": [{"kind": "admin1", "code": "JPN-1824"}, {"kind": "admin1", "code": "JPN-1825"}, {"kind": "admin1", "code": "JPN-1821"}, {"kind": "admin1", "code": "JPN-1822"}]}}, {"type": "Feature", "geometry": null, "properties": {"id": "3Yji", "status": "validé", "pieces": [{"kind": "admin1", "code": "JPN-1846"}, {"kind": "admin1", "code": "JPN-1842"}, {"kind": "admin1", "code": "JPN-1848"}]}}, {"type": "Feature", "geometry": null, "properties": {"id": "5BgJ", "status": "validé", "pieces": [{"kind": "admin1", "code": "JPN-3501"}, {"kind": "admin1", "code": "JPN-1831"}, {"kind": "admin1", "code": "JPN-1830"}, {"kind": "admin1", "code": "JPN-1835"}, {"kind": "admin1", "code": "JPN-1829"}, {"kind": "admin1", "code": "JPN-1827"}, {"kind": "admin1", "code": "JPN-3500"}, {"kind": "admin1", "code": "JPN-1826"}, {"kind": "admin1", "code": "JPN-1867"}, {"kind": "admin1", "code": "JPN-1862"}, {"kind": "admin1", "code": "JPN-1868"}, {"kind": "admin1", "code": "JPN-1832"}, {"kind": "admin1", "code": "JPN-1834"}]}}, {"type": "Feature", "geometry": null, "properties": {"id": "5e4A", "status": "validé", "pieces": [{"kind": "admin1", "code": "JPN-1847"}, {"kind": "admin1", "code": "JPN-1863"}, {"kind": "admin1", "code": "JPN-1862"}, {"kind": "admin1", "code": "JPN-1865"}, {"kind": "admin1", "code": "JPN-1866"}, {"kind": "admin1", "code": "JPN-1868"}, {"kind": "admin1", "code": "JPN-1867"}, {"kind": "admin1", "code": "JPN-1859"}, {"kind": "admin1", "code": "JPN-1856"}, {"kind": "admin1", "code": "JPN-1864"}, {"kind": "admin1", "code": "JPN-1846"}, {"kind": "admin1", "code": "JPN-1844"}, {"kind": "admin1", "code": "JPN-1855"}]}}, {"type": "Feature", "geometry": null, "properties": {"id": "6557", "status": "validé", "pieces": [{"kind": "admin1", "code": "JPN-1826"}, {"kind": "admin1", "code": "JPN-1824"}, {"kind": "admin1", "code": "JPN-1821"}, {"kind": "admin1", "code": "JPN-1822"}, {"kind": "admin1", "code": "JPN-1825"}]}}, {"type": "Feature", "geometry": {"type": "MultiPolygon", "coordinates": [[[[140.53162, 41.84625], [140.53162, 41.93618], [140.63049, 41.96885], [140.79529, 41.90349], [140.81726, 41.85443], [140.65247, 41.82989], [140.53162, 41.84625]]], [[[142.20154, 43.08565], [142.21802, 42.97728], [142.04773, 42.99335], [141.95984, 43.08966], [142.05872, 43.20184], [142.17957, 43.19383], [142.20154, 43.08565]]], [[[140.86121, 43.07362], [140.7843, 42.88481], [140.52612, 42.89286], [140.33386, 43.19783], [140.42725, 43.3178], [140.87219, 43.30182], [140.86121, 43.07362]]]]}, "properties": {"id": "6R3b", "status": "validé", "pieces": [{"kind": "polygon", "ring": [[140.42725, 43.3178], [140.33386, 43.19783], [140.52612, 42.89286], [140.7843, 42.88481], [140.86121, 43.07362], [140.87219, 43.30182]]}, {"kind": "polygon", "ring": [[142.05872, 43.20184], [141.95984, 43.08966], [142.04773, 42.99335], [142.21802, 42.97728], [142.20154, 43.08565], [142.17957, 43.19383]]}, {"kind": "polygon", "ring": [[140.65247, 41.82989], [140.53162, 41.84625], [140.53162, 41.93618], [140.63049, 41.96885], [140.79529, 41.90349], [140.81726, 41.85443]]}]}}, {"type": "Feature", "geometry": null, "properties": {"id": "72uf", "status": "validé", "pieces": [{"kind": "country"}]}}, {"type": "Feature", "geometry": null, "properties": {"id": "8hcH", "status": "validé", "pieces": [{"kind": "admin1", "code": "JPN-1855"}, {"kind": "admin1", "code": "JPN-1859"}, {"kind": "admin1", "code": "JPN-1856"}, {"kind": "admin1", "code": "JPN-1858"}, {"kind": "admin1", "code": "JPN-3503"}, {"kind": "admin1", "code": "JPN-1860"}, {"kind": "admin1", "code": "JPN-1857"}]}}, {"type": "Feature", "geometry": null, "properties": {"id": "9fGX", "status": "validé", "pieces": [{"kind": "admin1", "code": "JPN-1834"}, {"kind": "admin1", "code": "JPN-1832"}, {"kind": "admin1", "code": "JPN-1836"}, {"kind": "admin1", "code": "JPN-1833"}]}}, {"type": "Feature", "geometry": null, "properties": {"id": "EIwA", "status": "validé", "pieces": [{"kind": "country"}]}}, {"type": "Feature", "geometry": null, "properties": {"id": "FLxL", "status": "validé", "pieces": [{"kind": "admin1", "code": "JPN-1847"}]}}, {"type": "Feature", "geometry": null, "properties": {"id": "FRiS", "status": "rejeté", "pieces": []}}, {"type": "Feature", "geometry": null, "properties": {"id": "HTvr", "status": "validé", "pieces": [{"kind": "admin1", "code": "JPN-1847"}, {"kind": "admin1", "code": "JPN-1863"}, {"kind": "admin1", "code": "JPN-1865"}, {"kind": "admin1", "code": "JPN-1862"}, {"kind": "admin1", "code": "JPN-1868"}, {"kind": "admin1", "code": "JPN-1866"}, {"kind": "admin1", "code": "JPN-1867"}, {"kind": "admin1", "code": "JPN-1864"}]}}, {"type": "Feature", "geometry": {"type": "MultiPolygon", "coordinates": [[[[138.74634, 36.96001], [139.54834, 36.96001], [139.5813, 36.74912], [139.60327, 36.51117], [139.38354, 36.41402], [139.16382, 36.48468], [138.83423, 36.43169], [138.73535, 36.09521], [138.5376, 35.53418], [138.31787, 35.41792], [138.07617, 35.41792], [137.85645, 35.38211], [137.48291, 35.4716], [137.15332, 35.72163], [136.90063, 35.73946], [136.77979, 35.89085], [136.86768, 36.16617], [137.20825, 36.44052], [137.41699, 36.59057], [138.15308, 36.75792], [138.74634, 36.96001]]], [[[141.25122, 39.78337], [140.84473, 40.01085], [140.82275, 40.26272], [141.09741, 40.37157], [141.28418, 40.2711], [141.5918, 40.47189], [141.77856, 40.32135], [141.67969, 39.98561], [141.25122, 39.78337]]], [[[139.37428, 41.50434], [139.34555, 41.49335], [139.34083, 41.4975], [139.33644, 41.51114], [139.33644, 41.5185], [139.34034, 41.52383], [139.34815, 41.52424], [139.35572, 41.52216], [139.37289, 41.52216], [139.37827, 41.51923], [139.38185, 41.51358], [139.37428, 41.50434]]], [[[139.51368, 42.14818], [139.51271, 42.12373], [139.50896, 42.10082], [139.49391, 42.07884], [139.45533, 42.05158], [139.44565, 42.05484], [139.43539, 42.06293], [139.42945, 42.0738], [139.43238, 42.08511], [139.42726, 42.09394], [139.42506, 42.10269], [139.42506, 42.12299], [139.4227, 42.1315], [139.41285, 42.14399], [139.41082, 42.154], [139.41432, 42.17251], [139.42384, 42.1916], [139.43702, 42.20722], [139.45216, 42.21532], [139.46372, 42.21625], [139.48552, 42.22114], [139.49732, 42.22223], [139.50913, 42.22577], [139.53834, 42.24067], [139.54851, 42.24335], [139.56422, 42.23176], [139.55397, 42.21158], [139.52068, 42.17451], [139.51368, 42.14818]]], [[[145.81853, 43.36445], [145.81031, 43.36078], [145.78785, 43.36058], [145.77768, 43.35627], [145.7601, 43.33698], [145.74692, 43.33271], [145.70851, 43.32632], [145.69898, 43.32209], [145.68409, 43.31025], [145.67311, 43.30793], [145.64389, 43.3122], [145.62916, 43.30976], [145.62135, 43.30341], [145.61549, 43.2945], [145.60646, 43.28425], [145.57985, 43.26504], [145.57228, 43.25699], [145.56617, 43.24608], [145.55738, 43.22142], [145.55177, 43.20978], [145.54558, 43.20197], [145.5171, 43.17499], [145.53061, 43.16885], [145.51889, 43.16645], [145.49879, 43.16791], [145.47828, 43.17211], [145.4524, 43.18391], [145.43539, 43.18207], [145.40406, 43.17499], [145.3025, 43.17349], [145.28028, 43.16502], [145.25831, 43.14948], [145.23113, 43.1411], [145.15406, 43.13227], [145.13844, 43.12816], [145.1255, 43.12006], [145.11931, 43.10611], [145.12273, 43.0882], [145.13543, 43.0843], [145.15219, 43.08462], [145.16822, 43.07941], [145.15903, 43.0705], [145.14918, 43.06631], [145.11101, 43.06363], [145.10792, 43.05939], [145.10646, 43.05292], [145.09929, 43.04462], [145.07569, 43.034], [145.05128, 43.03311], [145.0031, 43.04462], [145.02223, 43.02033], [145.02752, 43.00935], [145.02369, 42.99628], [145.01433, 42.98949], [145.00017, 42.98615], [144.93377, 42.97826], [144.89975, 42.97948], [144.86883, 42.98847], [144.84205, 43.00715], [144.84051, 43.01691], [144.84311, 43.02936], [144.84018, 43.04011], [144.82154, 43.04462], [144.81007, 43.04536], [144.80372, 43.04645], [144.79868, 43.0467], [144.79086, 43.04462], [144.78386, 43.03994], [144.77312, 43.02684], [144.76629, 43.02416], [144.75758, 43.01879], [144.74741, 43.00617], [144.73911, 42.99136], [144.73561, 42.97948], [144.74147, 42.96524], [144.75538, 42.95441], [144.77125, 42.94489], [144.78346, 42.93476], [144.74195, 42.92422], [144.59913, 42.94912], [144.52174, 42.94408], [144.49586, 42.93325], [144.46485, 42.93708], [144.39064, 42.95645], [144.38217, 42.96149], [144.37306, 42.96955], [144.3685, 42.97818], [144.36492, 42.98957], [144.35808, 42.99946], [144.34522, 43.00373], [144.32301, 43.00263], [144.18312, 42.97639], [144.042, 42.92658], [143.8864, 42.84418], [143.79029, 42.75727], [143.63885, 42.66108], [143.57521, 42.60334], [143.44809, 42.45502], [143.34897, 42.31916], [143.33172, 42.27725], [143.32488, 42.22972], [143.33644, 42.173], [143.3379, 42.15021], [143.33595, 42.12971], [143.33106, 42.10692], [143.30348, 42.02578], [143.29233, 42.00519], [143.26547, 41.98672], [143.25294, 41.94188], [143.24155, 41.92805], [143.22609, 41.93228], [143.20314, 41.94587], [143.18238, 41.96158], [143.17335, 41.97211], [143.16334, 41.99038], [143.14047, 42.01048], [143.11524, 42.02798], [142.95973, 42.10537], [142.75766, 42.15839], [142.5464, 42.25056], [142.45997, 42.27131], [142.28102, 42.36652], [142.22218, 42.41177], [142.16775, 42.45986], [142.06258, 42.47073], [141.98097, 42.51024], [141.92595, 42.55858], [141.90935, 42.5655], [141.88819, 42.56977], [141.81715, 42.5996], [141.72609, 42.61717], [141.63648, 42.61579], [141.54957, 42.60114], [141.42774, 42.5644], [141.26246, 42.46825], [141.23463, 42.45869], [141.2151, 42.44452], [141.2033, 42.44135], [141.19117, 42.44033], [141.1797, 42.43744], [141.16871, 42.4333], [141.09156, 42.39179], [141.07325, 42.37714], [141.01677, 42.31611], [141.00099, 42.30484], [140.98976, 42.30142], [140.97731, 42.29963], [140.96469, 42.30048], [140.9524, 42.30484], [140.94581, 42.31025], [140.93702, 42.31977], [140.93165, 42.32876], [140.93605, 42.33271], [140.97543, 42.32657], [140.98414, 42.32905], [140.98683, 42.33983], [140.97462, 42.34663], [140.94695, 42.35322], [140.92652, 42.36518], [140.91798, 42.37255], [140.91212, 42.38056], [140.90138, 42.42084], [140.73365, 42.56415], [140.68629, 42.57917], [140.66293, 42.57982], [140.59742, 42.57172], [140.52564, 42.58063], [140.50066, 42.57917], [140.45753, 42.56428], [140.417, 42.53815], [140.38087, 42.50507], [140.32545, 42.43281], [140.30397, 42.39297], [140.28859, 42.35016], [140.28151, 42.30484], [140.29176, 42.25959], [140.32163, 42.23395], [140.42408, 42.19229], [140.45639, 42.17308], [140.53028, 42.11176], [140.54884, 42.10554], [140.57195, 42.10786], [140.61012, 42.11762], [140.67408, 42.12206], [140.69321, 42.12617], [140.71355, 42.13349], [140.77361, 42.1022], [140.78932, 42.07453], [140.83709, 42.02363], [140.85369, 42.01122], [140.89177, 41.99152], [140.90846, 41.97895], [140.97429, 41.91376], [140.9922, 41.90217], [141.01157, 41.89374], [141.0337, 41.88874], [141.05958, 41.88711], [141.08326, 41.88264], [141.10694, 41.87177], [141.18279, 41.81831], [141.19996, 41.79946], [141.18995, 41.79092], [141.14356, 41.78579], [141.12159, 41.77936], [141.10402, 41.77041], [141.04331, 41.72386], [141.00636, 41.71214], [140.95997, 41.72199], [140.87428, 41.75825], [140.82398, 41.7707], [140.77508, 41.77041], [140.72999, 41.74999], [140.70802, 41.74555], [140.69858, 41.75983], [140.70672, 41.77412], [140.72242, 41.78335], [140.73341, 41.79365], [140.72722, 41.81135], [140.70899, 41.82441], [140.68482, 41.8299], [140.66041, 41.82713], [140.64161, 41.81509], [140.63136, 41.79731], [140.61573, 41.75471], [140.60426, 41.73627], [140.54477, 41.71259], [140.53484, 41.70527], [140.52345, 41.69868], [140.47006, 41.6872], [140.45289, 41.68106], [140.43328, 41.64468], [140.44321, 41.56371], [140.43238, 41.53083], [140.40064, 41.51301], [140.27467, 41.48237], [140.25953, 41.47272], [140.24122, 41.45722], [140.22584, 41.43793], [140.21949, 41.41718], [140.20899, 41.40111], [140.18507, 41.4038], [140.13746, 41.42097], [140.1268, 41.42048], [140.10971, 41.41486], [140.10035, 41.41352], [140.08839, 41.41681], [140.063, 41.43134], [140.05209, 41.43464], [140.03826, 41.44257], [140.02817, 41.46141], [140.01401, 41.50288], [139.98365, 41.56049], [139.97983, 41.58173], [139.98422, 41.60318], [140.00343, 41.63467], [140.01954, 41.69697], [140.07114, 41.7602], [140.08302, 41.80077], [140.08741, 41.80512], [140.10939, 41.80341], [140.11769, 41.80451], [140.12672, 41.81403], [140.12973, 41.82323], [140.13136, 41.84553], [140.13063, 41.85151], [140.12436, 41.86005], [140.12387, 41.86595], [140.12778, 41.8708], [140.13494, 41.87515], [140.14503, 41.87958], [140.14715, 41.89134], [140.14796, 41.90754], [140.1517, 41.91376], [140.14519, 41.92963], [140.13966, 41.94872], [140.13844, 41.96751], [140.14503, 41.98265], [140.11183, 42.01114], [140.06105, 42.08002], [140.0276, 42.10554], [139.9275, 42.1389], [139.90935, 42.15656], [139.90821, 42.16083], [139.90309, 42.1656], [139.88364, 42.19497], [139.87436, 42.1999], [139.84343, 42.20856], [139.79835, 42.23591], [139.78745, 42.24677], [139.7776, 42.27114], [139.76759, 42.31098], [139.77231, 42.33047], [139.78443, 42.35082], [139.82618, 42.40205], [139.83676, 42.4239], [139.84962, 42.46931], [139.84929, 42.51415], [139.83277, 42.58881], [139.84343, 42.62694], [139.87696, 42.6634], [139.91725, 42.67723], [140.01401, 42.68159], [140.03785, 42.68602], [140.05388, 42.69416], [140.09547, 42.73379], [140.10515, 42.73908], [140.11549, 42.74209], [140.12761, 42.74299], [140.13592, 42.74714], [140.1443, 42.75699], [140.16977, 42.79584], [140.18336, 42.81021], [140.20037, 42.81428], [140.22291, 42.80134], [140.24578, 42.77293], [140.26075, 42.76097], [140.28151, 42.75727], [140.30323, 42.76972], [140.30991, 42.7932], [140.31178, 42.81598], [140.3191, 42.82624], [140.33741, 42.83413], [140.35206, 42.85297], [140.37713, 42.89379], [140.39308, 42.90852], [140.46119, 42.95889], [140.50318, 42.98005], [140.52117, 42.99628], [140.52711, 43.01545], [140.51686, 43.02998], [140.50196, 43.04572], [140.49439, 43.06855], [140.48731, 43.08271], [140.43922, 43.13402], [140.4061, 43.16022], [140.36793, 43.18309], [140.33806, 43.21052], [140.32936, 43.25072], [140.36012, 43.32518], [140.40952, 43.32469], [140.43393, 43.32844], [140.45289, 43.33885], [140.45818, 43.34797], [140.46119, 43.35859], [140.4651, 43.36807], [140.47332, 43.3736], [140.48715, 43.37238], [140.49968, 43.36518], [140.51027, 43.357], [140.51808, 43.35318], [140.53517, 43.34789], [140.62094, 43.30121], [140.63885, 43.28889], [140.66879, 43.26032], [140.68922, 43.24836], [140.7614, 43.22346], [140.77125, 43.21552], [140.78631, 43.20063], [140.79615, 43.1955], [140.80991, 43.19245], [140.91261, 43.20417], [140.98829, 43.227], [141.01124, 43.22899], [141.02231, 43.22378], [141.01222, 43.21052], [141.0044, 43.19306], [141.02198, 43.17499], [141.03256, 43.17231], [141.06984, 43.16885], [141.11085, 43.15619], [141.13551, 43.15241], [141.15651, 43.14301], [141.16912, 43.14086], [141.18727, 43.14151], [141.20086, 43.14362], [141.22755, 43.15449], [141.30397, 43.19725], [141.37086, 43.25072], [141.39747, 43.27973], [141.42335, 43.31786], [141.44011, 43.36172], [141.43971, 43.40778], [141.42701, 43.43456], [141.37086, 43.49714], [141.35987, 43.52359], [141.36248, 43.54336], [141.37452, 43.56053], [141.39137, 43.57909], [141.37273, 43.61823], [141.36402, 43.62751], [141.36695, 43.64631], [141.34392, 43.69017], [141.33741, 43.71284], [141.3436, 43.73151], [141.35817, 43.75581], [141.38502, 43.79133], [141.40211, 43.80362], [141.42481, 43.8146], [141.44801, 43.8225], [141.49057, 43.82734], [141.51002, 43.83259], [141.52817, 43.84121], [141.58473, 43.87543], [141.61573, 43.90278], [141.64064, 43.93793], [141.65895, 43.98379], [141.66717, 44.02509], [141.67018, 44.06664], [141.65545, 44.27692], [141.6657, 44.31273], [141.74724, 44.42422], [141.79176, 44.59699], [141.79607, 44.64175], [141.78346, 44.76537], [141.75359, 44.88544], [141.72185, 44.95515], [141.58644, 45.16437], [141.57488, 45.20685], [141.58375, 45.25117], [141.58969, 45.2582], [141.60987, 45.27587], [141.61785, 45.28535], [141.62257, 45.29597], [141.62468, 45.30549], [141.6277, 45.3144], [141.64918, 45.34101], [141.65016, 45.35737], [141.63901, 45.38898], [141.63706, 45.40445], [141.63942, 45.42113], [141.64796, 45.4372], [141.6657, 45.45043], [141.67726, 45.44432], [141.6836, 45.43618], [141.68629, 45.42552], [141.68678, 45.4123], [141.69215, 45.40229], [141.70444, 45.40209], [141.72771, 45.40888], [141.7741, 45.41291], [141.82325, 45.42255], [141.8576, 45.44033], [141.86842, 45.44302], [141.87534, 45.44819], [141.87721, 45.46019], [141.87721, 45.47386], [141.87867, 45.48404], [141.89389, 45.50056], [141.91944, 45.51586], [141.945, 45.52041], [141.96046, 45.51024], [141.97755, 45.48078], [141.98756, 45.46849], [142.0018, 45.46345], [142.01775, 45.45571], [142.05665, 45.40205], [142.09653, 45.3723], [142.18312, 45.32599], [142.2212, 45.29963], [142.53932, 45.01846], [142.61427, 44.90388], [142.63071, 44.88373], [142.6657, 44.86664], [142.71404, 44.80622], [142.90748, 44.64741], [142.93979, 44.63471], [142.98146, 44.58649], [143.04273, 44.55492], [143.11842, 44.49689], [143.20444, 44.44725], [143.22486, 44.44245], [143.24073, 44.43635], [143.27857, 44.40615], [143.29689, 44.39468], [143.3401, 44.38654], [143.35141, 44.38105], [143.3685, 44.35139], [143.36915, 44.34626], [143.39649, 44.32294], [143.40528, 44.31745], [143.55242, 44.25251], [143.77662, 44.18928], [143.77662, 44.18236], [143.69532, 44.18985], [143.68043, 44.18236], [143.68507, 44.17593], [143.70899, 44.15786], [143.71461, 44.15135], [143.72828, 44.11347], [143.73845, 44.11799], [143.74244, 44.12092], [143.75709, 44.11017], [143.7697, 44.10375], [143.78321, 44.10065], [143.9297, 44.09894], [143.93776, 44.09642], [143.96607, 44.12006], [143.98325, 44.12995], [143.9992, 44.13398], [144.11931, 44.12906], [144.15309, 44.11726], [144.17172, 44.10602], [144.17156, 44.10273], [144.1587, 44.10065], [144.14039, 44.093], [144.1268, 44.08015], [144.10548, 44.03156], [144.13836, 44.0207], [144.15284, 44.01984], [144.167, 44.02538], [144.17758, 44.03522], [144.18873, 44.05028], [144.1976, 44.06721], [144.20118, 44.08246], [144.2151, 44.11148], [144.24293, 44.11921], [144.26344, 44.10782], [144.25587, 44.07941], [144.26832, 44.04938], [144.27833, 44.03677], [144.29371, 44.03156], [144.30226, 44.02412], [144.31861, 43.9912], [144.32781, 43.98379], [144.3366, 43.98029], [144.3794, 43.95649], [144.39536, 43.95087], [144.43043, 43.94257], [144.57032, 43.92479], [144.74049, 43.91462], [144.7881, 43.92178], [144.83123, 43.94221], [144.9476, 44.03408], [145.03728, 44.11042], [145.04851, 44.12214], [145.11931, 44.15449], [145.16668, 44.1905], [145.18491, 44.19546], [145.20167, 44.2058], [145.25026, 44.2718], [145.28972, 44.2989], [145.30974, 44.31635], [145.31837, 44.33633], [145.32277, 44.34178], [145.33204, 44.34614], [145.34148, 44.34553], [145.34946, 44.32599], [145.3672, 44.30288], [145.37306, 44.29222], [145.37184, 44.24876], [145.34986, 44.21162], [145.29054, 44.15449], [145.27914, 44.13394], [145.26922, 44.08515], [145.26043, 44.0694], [145.16961, 43.9853], [145.1443, 43.95295], [145.12232, 43.91706], [145.10613, 43.88076], [145.11598, 43.86245], [145.10987, 43.84195], [145.09848, 43.82282], [145.0892, 43.80073], [145.07472, 43.78604], [145.07146, 43.7746], [145.07228, 43.76154], [145.07472, 43.75373], [145.11598, 43.68684], [145.13014, 43.67158], [145.19484, 43.62067], [145.20753, 43.60688], [145.21852, 43.58967], [145.22625, 43.56977], [145.22902, 43.54804], [145.23227, 43.53994], [145.24684, 43.53046], [145.25213, 43.51431], [145.26442, 43.48969], [145.29078, 43.40534], [145.3117, 43.36677], [145.34571, 43.33271], [145.39356, 43.30537], [145.36166, 43.30146], [145.29916, 43.34125], [145.27003, 43.34638], [145.26051, 43.33857], [145.25831, 43.32709], [145.2645, 43.31672], [145.28028, 43.3122], [145.29811, 43.30927], [145.31511, 43.30292], [145.32081, 43.29597], [145.30421, 43.29169], [145.32163, 43.27627], [145.35109, 43.26545], [145.38364, 43.25902], [145.46843, 43.253], [145.49195, 43.24457], [145.5171, 43.22899], [145.52198, 43.2412], [145.51336, 43.24885], [145.50131, 43.25699], [145.49659, 43.27058], [145.5031, 43.27753], [145.54086, 43.30166], [145.58229, 43.33576], [145.5949, 43.34284], [145.62086, 43.34797], [145.6338, 43.35318], [145.64031, 43.35977], [145.64373, 43.36689], [145.64918, 43.37376], [145.66163, 43.37983], [145.67595, 43.38199], [145.72315, 43.37983], [145.73162, 43.38202], [145.74439, 43.39179], [145.75034, 43.39411], [145.75709, 43.39313], [145.76148, 43.39082], [145.7645, 43.38837], [145.76743, 43.38727], [145.78004, 43.38605], [145.81324, 43.37861], [145.82496, 43.3736], [145.81853, 43.36445]]], [[[145.3628, 43.55488], [145.35011, 43.54963], [145.31202, 43.54218], [145.30421, 43.53473], [145.29737, 43.52265], [145.28354, 43.51789], [145.2732, 43.52237], [145.27687, 43.53815], [145.28785, 43.54751], [145.3187, 43.55777], [145.33204, 43.56542], [145.2024, 43.61384], [145.28696, 43.60102], [145.31153, 43.59333], [145.34441, 43.57591], [145.36036, 43.56477], [145.3628, 43.55488]]], [[[144.44825, 43.94221], [144.45509, 43.94221], [144.44898, 43.94204], [144.44825, 43.94221]]], [[[143.97584, 44.14826], [143.94044, 44.13915], [143.89649, 44.1459], [143.81373, 44.1684], [143.81764, 44.1756], [143.83627, 44.17593], [143.85955, 44.17276], [143.88152, 44.16669], [143.89649, 44.15815], [143.91179, 44.15229], [143.9572, 44.152], [143.97584, 44.14826]]], [[[141.31007, 45.12458], [141.30445, 45.12018], [141.2684, 45.10102], [141.25123, 45.09919], [141.23536, 45.10248], [141.18181, 45.12661], [141.15008, 45.14712], [141.13111, 45.17015], [141.14552, 45.18977], [141.14088, 45.19603], [141.13551, 45.20612], [141.13185, 45.21027], [141.16717, 45.23998], [141.1797, 45.24437], [141.20265, 45.24909], [141.2352, 45.24128], [141.26832, 45.22553], [141.29298, 45.20653], [141.32716, 45.17235], [141.33562, 45.15778], [141.32846, 45.14765], [141.31642, 45.13793], [141.31007, 45.12458]]], [[[141.04957, 45.29291], [141.03565, 45.26488], [141.02906, 45.27851], [141.02996, 45.28392], [141.03565, 45.29218], [141.01051, 45.32779], [140.99887, 45.35], [140.99415, 45.37104], [141.00099, 45.41913], [140.99635, 45.43024], [140.96681, 45.46345], [140.97413, 45.46772], [140.98064, 45.46894], [140.9861, 45.46743], [140.99049, 45.46337], [140.99318, 45.45881], [141.0066, 45.44042], [141.02003, 45.43985], [141.03533, 45.44623], [141.05274, 45.45043], [141.06902, 45.44269], [141.07358, 45.42471], [141.05909, 45.32197], [141.04957, 45.29291]]]]}, "properties": {"id": "HmjC", "status": "validé", "pieces": [{"kind": "polygon", "ring": [[137.20825, 36.44052], [136.86768, 36.16617], [136.77979, 35.89085], [136.90063, 35.73946], [137.15332, 35.72163], [137.48291, 35.4716], [137.85645, 35.38211], [138.07617, 35.41792], [138.31787, 35.41792], [138.5376, 35.53418], [138.73535, 36.09521], [138.83423, 36.43169], [139.16382, 36.48468], [139.38354, 36.41402], [139.60327, 36.51117], [139.5813, 36.74912], [139.54834, 36.96001], [138.74634, 36.96001], [138.15308, 36.75792], [137.41699, 36.59057]]}, {"kind": "polygon", "ring": [[141.5918, 40.47189], [141.77856, 40.32135], [141.67969, 39.98561], [141.25122, 39.78337], [140.84473, 40.01085], [140.82275, 40.26272], [141.09741, 40.37157], [141.28418, 40.2711]]}, {"kind": "admin1", "code": "JPN-1847"}]}}, {"type": "Feature", "geometry": null, "properties": {"id": "IQ4Z", "status": "validé", "pieces": [{"kind": "admin1", "code": "JPN-1847"}, {"kind": "admin1", "code": "JPN-1863"}, {"kind": "admin1", "code": "JPN-1862"}, {"kind": "admin1", "code": "JPN-1868"}, {"kind": "admin1", "code": "JPN-1867"}, {"kind": "admin1", "code": "JPN-1848"}]}}, {"type": "Feature", "geometry": {"type": "Polygon", "coordinates": [[[139.13498, 34.96357], [139.13498, 35.14337], [138.94547, 35.14337], [138.94547, 34.96357], [139.13498, 34.96357]]]}, "properties": {"id": "J3hs", "status": "validé", "pieces": [{"kind": "rect", "bounds": [138.94547, 34.96357, 139.13498, 35.14337]}]}}, {"type": "Feature", "geometry": null, "properties": {"id": "JhXh", "status": "validé", "pieces": [{"kind": "country"}]}}, {"type": "Feature", "geometry": null, "properties": {"id": "LVv4", "status": "rejeté", "pieces": []}}, {"type": "Feature", "geometry": null, "properties": {"id": "LYWn", "status": "validé", "pieces": [{"kind": "country"}]}}, {"type": "Feature", "geometry": null, "properties": {"id": "LxRM", "status": "validé", "pieces": [{"kind": "admin1", "code": "JPN-1826"}]}}, {"type": "Feature", "geometry": null, "properties": {"id": "Nw5V", "status": "validé", "pieces": [{"kind": "admin1", "code": "JPN-1821"}, {"kind": "admin1", "code": "JPN-1822"}, {"kind": "admin1", "code": "JPN-1824"}, {"kind": "admin1", "code": "JPN-1826"}, {"kind": "admin1", "code": "JPN-1825"}]}}, {"type": "Feature", "geometry": null, "properties": {"id": "O99c", "status": "validé", "pieces": [{"kind": "admin1", "code": "JPN-1856"}, {"kind": "admin1", "code": "JPN-1855"}, {"kind": "admin1", "code": "JPN-1859"}, {"kind": "admin1", "code": "JPN-3503"}, {"kind": "admin1", "code": "JPN-1858"}, {"kind": "admin1", "code": "JPN-1857"}, {"kind": "admin1", "code": "JPN-1860"}]}}, {"type": "Feature", "geometry": null, "properties": {"id": "PmSr", "status": "rejeté", "pieces": []}}, {"type": "Feature", "geometry": null, "properties": {"id": "QJIK", "status": "validé", "pieces": [{"kind": "admin1", "code": "JPN-1821"}, {"kind": "admin1", "code": "JPN-1826"}, {"kind": "admin1", "code": "JPN-1822"}, {"kind": "admin1", "code": "JPN-1825"}, {"kind": "admin1", "code": "JPN-1824"}]}}, {"type": "Feature", "geometry": {"type": "Polygon", "coordinates": [[[140.08392, 35.50808], [140.08392, 35.88044], [139.54834, 35.88044], [139.54834, 35.50808], [140.08392, 35.50808]]]}, "properties": {"id": "Qteb", "status": "validé", "pieces": [{"kind": "rect", "bounds": [139.54834, 35.50808, 140.08392, 35.88044]}]}}, {"type": "Feature", "geometry": null, "properties": {"id": "RRYf", "status": "validé", "pieces": [{"kind": "admin1", "code": "JPN-1847"}]}}, {"type": "Feature", "geometry": null, "properties": {"id": "SR14", "status": "validé", "pieces": [{"kind": "admin1", "code": "JPN-1834"}, {"kind": "admin1", "code": "JPN-1836"}, {"kind": "admin1", "code": "JPN-1833"}, {"kind": "admin1", "code": "JPN-1832"}]}}, {"type": "Feature", "geometry": null, "properties": {"id": "T1C7", "status": "validé", "pieces": [{"kind": "country"}]}}, {"type": "Feature", "geometry": null, "properties": {"id": "U9cw", "status": "validé", "pieces": [{"kind": "admin1", "code": "JPN-1832"}, {"kind": "admin1", "code": "JPN-1834"}, {"kind": "admin1", "code": "JPN-1833"}, {"kind": "admin1", "code": "JPN-1836"}, {"kind": "admin1", "code": "JPN-1826"}, {"kind": "admin1", "code": "JPN-1821"}, {"kind": "admin1", "code": "JPN-1824"}, {"kind": "admin1", "code": "JPN-1825"}, {"kind": "admin1", "code": "JPN-1822"}, {"kind": "admin1", "code": "JPN-1849"}, {"kind": "admin1", "code": "JPN-1850"}, {"kind": "admin1", "code": "JPN-1848"}, {"kind": "admin1", "code": "JPN-1853"}, {"kind": "admin1", "code": "JPN-1851"}, {"kind": "admin1", "code": "JPN-1852"}, {"kind": "admin1", "code": "JPN-1854"}, {"kind": "admin1", "code": "JPN-1843"}, {"kind": "admin1", "code": "JPN-1841"}, {"kind": "admin1", "code": "JPN-1847"}]}}, {"type": "Feature", "geometry": null, "properties": {"id": "VKyx", "status": "validé", "pieces": [{"kind": "country"}]}}, {"type": "Feature", "geometry": null, "properties": {"id": "Vpks", "status": "validé", "pieces": [{"kind": "country"}]}}, {"type": "Feature", "geometry": null, "properties": {"id": "WYsB", "status": "rejeté", "pieces": []}}, {"type": "Feature", "geometry": null, "properties": {"id": "XLBR", "status": "validé", "pieces": [{"kind": "admin1", "code": "JPN-1863"}, {"kind": "admin1", "code": "JPN-1865"}, {"kind": "admin1", "code": "JPN-1862"}, {"kind": "admin1", "code": "JPN-1868"}, {"kind": "admin1", "code": "JPN-1867"}, {"kind": "admin1", "code": "JPN-1866"}, {"kind": "admin1", "code": "JPN-1864"}]}}, {"type": "Feature", "geometry": null, "properties": {"id": "YbtC", "status": "validé", "pieces": [{"kind": "admin1", "code": "JPN-1863"}, {"kind": "admin1", "code": "JPN-1862"}, {"kind": "admin1", "code": "JPN-1865"}, {"kind": "admin1", "code": "JPN-1868"}, {"kind": "admin1", "code": "JPN-1866"}, {"kind": "admin1", "code": "JPN-1864"}]}}, {"type": "Feature", "geometry": null, "properties": {"id": "YpAf", "status": "validé", "pieces": [{"kind": "admin1", "code": "JPN-1846"}]}}, {"type": "Feature", "geometry": null, "properties": {"id": "ZAar", "status": "validé", "pieces": [{"kind": "admin1", "code": "JPN-1841"}, {"kind": "admin1", "code": "JPN-1843"}, {"kind": "admin1", "code": "JPN-1840"}, {"kind": "admin1", "code": "JPN-1845"}, {"kind": "admin1", "code": "JPN-1844"}]}}, {"type": "Feature", "geometry": null, "properties": {"id": "ZMK9", "status": "validé", "pieces": [{"kind": "admin1", "code": "JPN-3502"}]}}, {"type": "Feature", "geometry": null, "properties": {"id": "ZevZ", "status": "validé", "pieces": [{"kind": "admin1", "code": "JPN-1840"}, {"kind": "admin1", "code": "JPN-1843"}, {"kind": "admin1", "code": "JPN-1841"}, {"kind": "admin1", "code": "JPN-1844"}, {"kind": "admin1", "code": "JPN-1845"}]}}, {"type": "Feature", "geometry": null, "properties": {"id": "acST", "status": "validé", "pieces": [{"kind": "admin1", "code": "JPN-1822"}, {"kind": "admin1", "code": "JPN-1825"}, {"kind": "admin1", "code": "JPN-1824"}, {"kind": "admin1", "code": "JPN-1821"}, {"kind": "admin1", "code": "JPN-1826"}]}}, {"type": "Feature", "geometry": null, "properties": {"id": "c1R6", "status": "validé", "pieces": [{"kind": "admin1", "code": "JPN-1827"}, {"kind": "admin1", "code": "JPN-3500"}, {"kind": "admin1", "code": "JPN-1829"}, {"kind": "admin1", "code": "JPN-1835"}, {"kind": "admin1", "code": "JPN-1830"}, {"kind": "admin1", "code": "JPN-3501"}, {"kind": "admin1", "code": "JPN-1831"}]}}, {"type": "Feature", "geometry": null, "properties": {"id": "c2hu", "status": "validé", "pieces": [{"kind": "country"}]}}, {"type": "Feature", "geometry": null, "properties": {"id": "cX54", "status": "validé", "pieces": [{"kind": "country"}]}}, {"type": "Feature", "geometry": null, "properties": {"id": "cwwN", "status": "validé", "pieces": [{"kind": "admin1", "code": "JPN-1835"}, {"kind": "admin1", "code": "JPN-1829"}, {"kind": "admin1", "code": "JPN-1827"}, {"kind": "admin1", "code": "JPN-3500"}, {"kind": "admin1", "code": "JPN-1830"}, {"kind": "admin1", "code": "JPN-1831"}, {"kind": "admin1", "code": "JPN-3501"}, {"kind": "admin1", "code": "JPN-1826"}]}}, {"type": "Feature", "geometry": null, "properties": {"id": "f6X5", "status": "rejeté", "pieces": []}}, {"type": "Feature", "geometry": null, "properties": {"id": "fWHC", "status": "validé", "pieces": [{"kind": "country"}]}}, {"type": "Feature", "geometry": null, "properties": {"id": "g6M6", "status": "validé", "pieces": [{"kind": "admin1", "code": "JPN-3502"}, {"kind": "admin1", "code": "JPN-3501"}, {"kind": "admin1", "code": "JPN-1831"}, {"kind": "admin1", "code": "JPN-1835"}, {"kind": "admin1", "code": "JPN-1829"}, {"kind": "admin1", "code": "JPN-1830"}, {"kind": "admin1", "code": "JPN-1827"}, {"kind": "admin1", "code": "JPN-3500"}, {"kind": "admin1", "code": "JPN-1826"}, {"kind": "admin1", "code": "JPN-1821"}, {"kind": "admin1", "code": "JPN-1824"}, {"kind": "admin1", "code": "JPN-1825"}, {"kind": "admin1", "code": "JPN-1822"}, {"kind": "admin1", "code": "JPN-1836"}, {"kind": "admin1", "code": "JPN-1834"}, {"kind": "admin1", "code": "JPN-1833"}, {"kind": "admin1", "code": "JPN-1832"}, {"kind": "admin1", "code": "JPN-1852"}, {"kind": "admin1", "code": "JPN-1849"}, {"kind": "admin1", "code": "JPN-1850"}, {"kind": "admin1", "code": "JPN-1853"}, {"kind": "admin1", "code": "JPN-1848"}, {"kind": "admin1", "code": "JPN-1854"}, {"kind": "admin1", "code": "JPN-1851"}, {"kind": "admin1", "code": "JPN-1843"}, {"kind": "admin1", "code": "JPN-1840"}, {"kind": "admin1", "code": "JPN-1841"}, {"kind": "admin1", "code": "JPN-1842"}, {"kind": "admin1", "code": "JPN-1846"}, {"kind": "admin1", "code": "JPN-1844"}, {"kind": "admin1", "code": "JPN-1845"}]}}, {"type": "Feature", "geometry": null, "properties": {"id": "iauQ", "status": "validé", "pieces": [{"kind": "country"}]}}, {"type": "Feature", "geometry": null, "properties": {"id": "j00C", "status": "validé", "pieces": [{"kind": "admin1", "code": "JPN-1831"}, {"kind": "admin1", "code": "JPN-1835"}, {"kind": "admin1", "code": "JPN-1830"}, {"kind": "admin1", "code": "JPN-1829"}, {"kind": "admin1", "code": "JPN-1827"}, {"kind": "admin1", "code": "JPN-3500"}, {"kind": "admin1", "code": "JPN-3501"}]}}, {"type": "Feature", "geometry": {"type": "Polygon", "coordinates": [[[127.61719, 31.78855], [129.48486, 29.86492], [131.57227, 29.55971], [134.16504, 31.5081], [136.604, 32.5508], [138.20801, 34.401], [136.27441, 36.98701], [134.20898, 37.19725], [130.979, 35.98046], [128.97949, 34.65433], [127.41943, 32.51377], [127.61719, 31.78855]]]}, "properties": {"id": "kk8b", "status": "validé", "pieces": [{"kind": "polygon", "ring": [[127.61719, 31.78855], [129.48486, 29.86492], [131.57227, 29.55971], [134.16504, 31.5081], [136.604, 32.5508], [138.20801, 34.401], [136.27441, 36.98701], [134.20898, 37.19725], [130.979, 35.98046], [128.97949, 34.65433], [127.41943, 32.51377]]}]}}, {"type": "Feature", "geometry": null, "properties": {"id": "m8Ow", "status": "rejeté", "pieces": []}}, {"type": "Feature", "geometry": {"type": "Polygon", "coordinates": [[[124.01367, 24.67889], [124.00269, 24.11884], [124.56299, 23.93829], [126.34277, 24.76867], [129.33105, 27.28475], [129.32007, 27.85909], [128.77075, 28.33378], [127.79297, 28.10154], [123.94775, 24.9978], [124.01367, 24.67889]]]}, "properties": {"id": "mGDI", "status": "validé", "pieces": [{"kind": "polygon", "ring": [[124.01367, 24.67889], [124.00269, 24.11884], [124.56299, 23.93829], [126.34277, 24.76867], [129.33105, 27.28475], [129.32007, 27.85909], [128.77075, 28.33378], [127.79297, 28.10154], [123.94775, 24.9978]]}]}}, {"type": "Feature", "geometry": {"type": "MultiPolygon", "coordinates": [[[[140.13746, 41.42097], [140.1268, 41.42048], [140.10971, 41.41486], [140.10035, 41.41352], [140.08839, 41.41681], [140.063, 41.43134], [140.05209, 41.43464], [140.03826, 41.44257], [140.02817, 41.46141], [140.01401, 41.50288], [139.98365, 41.56049], [139.97983, 41.58173], [139.98422, 41.60318], [140.00343, 41.63467], [140.01954, 41.69697], [140.07114, 41.7602], [140.08302, 41.80077], [140.08741, 41.80512], [140.10939, 41.80341], [140.11769, 41.80451], [140.12672, 41.81403], [140.12973, 41.82323], [140.13136, 41.84553], [140.13063, 41.85151], [140.12436, 41.86005], [140.12387, 41.86595], [140.12778, 41.8708], [140.13494, 41.87515], [140.14503, 41.87958], [140.14715, 41.89134], [140.14796, 41.90754], [140.1517, 41.91376], [140.14519, 41.92963], [140.13966, 41.94872], [140.13844, 41.96751], [140.14503, 41.98265], [140.11183, 42.01114], [140.06105, 42.08002], [140.0276, 42.10554], [139.9275, 42.1389], [139.90935, 42.15656], [139.90821, 42.16083], [139.90309, 42.1656], [139.88364, 42.19497], [139.87436, 42.1999], [139.84343, 42.20856], [139.79835, 42.23591], [139.78745, 42.24677], [139.7776, 42.27114], [139.76759, 42.31098], [139.77231, 42.33047], [139.78443, 42.35082], [139.82618, 42.40205], [139.83676, 42.4239], [139.84962, 42.46931], [139.84929, 42.51415], [139.83277, 42.58881], [139.84343, 42.62694], [139.87696, 42.6634], [139.91725, 42.67723], [140.01401, 42.68159], [140.03785, 42.68602], [140.05388, 42.69416], [140.09547, 42.73379], [140.10515, 42.73908], [140.11549, 42.74209], [140.12761, 42.74299], [140.13592, 42.74714], [140.1443, 42.75699], [140.16977, 42.79584], [140.18336, 42.81021], [140.20037, 42.81428], [140.22291, 42.80134], [140.24578, 42.77293], [140.26075, 42.76097], [140.28151, 42.75727], [140.30323, 42.76972], [140.30991, 42.7932], [140.31178, 42.81598], [140.3191, 42.82624], [140.33741, 42.83413], [140.35206, 42.85297], [140.37713, 42.89379], [140.39308, 42.90852], [140.46119, 42.95889], [140.50318, 42.98005], [140.52117, 42.99628], [140.52711, 43.01545], [140.51686, 43.02998], [140.50196, 43.04572], [140.49439, 43.06855], [140.48731, 43.08271], [140.43922, 43.13402], [140.4061, 43.16022], [140.36793, 43.18309], [140.33806, 43.21052], [140.32936, 43.25072], [140.36012, 43.32518], [140.40952, 43.32469], [140.43393, 43.32844], [140.45289, 43.33885], [140.45818, 43.34797], [140.46119, 43.35859], [140.4651, 43.36807], [140.47332, 43.3736], [140.48715, 43.37238], [140.49968, 43.36518], [140.51027, 43.357], [140.51808, 43.35318], [140.53517, 43.34789], [140.62094, 43.30121], [140.63885, 43.28889], [140.66879, 43.26032], [140.68922, 43.24836], [140.7614, 43.22346], [140.77125, 43.21552], [140.78631, 43.20063], [140.79615, 43.1955], [140.80991, 43.19245], [140.91261, 43.20417], [140.98829, 43.227], [141.01124, 43.22899], [141.02231, 43.22378], [141.01222, 43.21052], [141.0044, 43.19306], [141.02198, 43.17499], [141.03256, 43.17231], [141.06984, 43.16885], [141.11085, 43.15619], [141.13551, 43.15241], [141.15651, 43.14301], [141.16912, 43.14086], [141.18727, 43.14151], [141.20086, 43.14362], [141.22755, 43.15449], [141.30397, 43.19725], [141.37086, 43.25072], [141.39747, 43.27973], [141.42335, 43.31786], [141.44011, 43.36172], [141.43971, 43.40778], [141.42701, 43.43456], [141.37086, 43.49714], [141.35987, 43.52359], [141.36248, 43.54336], [141.37452, 43.56053], [141.39137, 43.57909], [141.37273, 43.61823], [141.36402, 43.62751], [141.36695, 43.64631], [141.34392, 43.69017], [141.33741, 43.71284], [141.3436, 43.73151], [141.35817, 43.75581], [141.38502, 43.79133], [141.40211, 43.80362], [141.42481, 43.8146], [141.44801, 43.8225], [141.49057, 43.82734], [141.51002, 43.83259], [141.52817, 43.84121], [141.58473, 43.87543], [141.61573, 43.90278], [141.64064, 43.93793], [141.65895, 43.98379], [141.66717, 44.02509], [141.67018, 44.06664], [141.65545, 44.27692], [141.6657, 44.31273], [141.74724, 44.42422], [141.79176, 44.59699], [141.79607, 44.64175], [141.78346, 44.76537], [141.75359, 44.88544], [141.72185, 44.95515], [141.58644, 45.16437], [141.57488, 45.20685], [141.58375, 45.25117], [141.58969, 45.2582], [141.60987, 45.27587], [141.61785, 45.28535], [141.62257, 45.29597], [141.62468, 45.30549], [141.6277, 45.3144], [141.64918, 45.34101], [141.65016, 45.35737], [141.63901, 45.38898], [141.63706, 45.40445], [141.63942, 45.42113], [141.64796, 45.4372], [141.6657, 45.45043], [141.67726, 45.44432], [141.6836, 45.43618], [141.68629, 45.42552], [141.68678, 45.4123], [141.69215, 45.40229], [141.70444, 45.40209], [141.72771, 45.40888], [141.7741, 45.41291], [141.82325, 45.42255], [141.8576, 45.44033], [141.86842, 45.44302], [141.87534, 45.44819], [141.87721, 45.46019], [141.87721, 45.47386], [141.87867, 45.48404], [141.89389, 45.50056], [141.91944, 45.51586], [141.945, 45.52041], [141.96046, 45.51024], [141.97755, 45.48078], [141.98756, 45.46849], [142.0018, 45.46345], [142.01775, 45.45571], [142.05665, 45.40205], [142.09653, 45.3723], [142.18312, 45.32599], [142.2212, 45.29963], [142.53932, 45.01846], [142.61427, 44.90388], [142.63071, 44.88373], [142.6657, 44.86664], [142.71404, 44.80622], [142.90748, 44.64741], [142.93979, 44.63471], [142.98146, 44.58649], [143.04273, 44.55492], [143.11842, 44.49689], [143.20444, 44.44725], [143.22486, 44.44245], [143.24073, 44.43635], [143.27857, 44.40615], [143.29689, 44.39468], [143.3401, 44.38654], [143.35141, 44.38105], [143.3685, 44.35139], [143.36915, 44.34626], [143.39649, 44.32294], [143.40528, 44.31745], [143.55242, 44.25251], [143.77662, 44.18928], [143.77662, 44.18236], [143.69532, 44.18985], [143.68043, 44.18236], [143.68507, 44.17593], [143.70899, 44.15786], [143.71461, 44.15135], [143.72828, 44.11347], [143.73845, 44.11799], [143.74244, 44.12092], [143.75709, 44.11017], [143.7697, 44.10375], [143.78321, 44.10065], [143.9297, 44.09894], [143.93776, 44.09642], [143.96607, 44.12006], [143.98325, 44.12995], [143.9992, 44.13398], [144.11931, 44.12906], [144.15309, 44.11726], [144.17172, 44.10602], [144.17156, 44.10273], [144.1587, 44.10065], [144.14039, 44.093], [144.1268, 44.08015], [144.10548, 44.03156], [144.13836, 44.0207], [144.15284, 44.01984], [144.167, 44.02538], [144.17758, 44.03522], [144.18873, 44.05028], [144.1976, 44.06721], [144.20118, 44.08246], [144.2151, 44.11148], [144.24293, 44.11921], [144.26344, 44.10782], [144.25587, 44.07941], [144.26832, 44.04938], [144.27833, 44.03677], [144.29371, 44.03156], [144.30226, 44.02412], [144.31861, 43.9912], [144.32781, 43.98379], [144.3366, 43.98029], [144.3794, 43.95649], [144.39536, 43.95087], [144.43043, 43.94257], [144.57032, 43.92479], [144.74049, 43.91462], [144.7881, 43.92178], [144.83123, 43.94221], [144.9476, 44.03408], [145.03728, 44.11042], [145.04851, 44.12214], [145.11931, 44.15449], [145.16668, 44.1905], [145.18491, 44.19546], [145.20167, 44.2058], [145.25026, 44.2718], [145.28972, 44.2989], [145.30974, 44.31635], [145.31837, 44.33633], [145.32277, 44.34178], [145.33204, 44.34614], [145.34148, 44.34553], [145.34946, 44.32599], [145.3672, 44.30288], [145.37306, 44.29222], [145.37184, 44.24876], [145.34986, 44.21162], [145.29054, 44.15449], [145.27914, 44.13394], [145.26922, 44.08515], [145.26043, 44.0694], [145.16961, 43.9853], [145.1443, 43.95295], [145.12232, 43.91706], [145.10613, 43.88076], [145.11598, 43.86245], [145.10987, 43.84195], [145.09848, 43.82282], [145.0892, 43.80073], [145.07472, 43.78604], [145.07146, 43.7746], [145.07228, 43.76154], [145.07472, 43.75373], [145.11598, 43.68684], [145.13014, 43.67158], [145.19484, 43.62067], [145.20753, 43.60688], [145.21852, 43.58967], [145.22625, 43.56977], [145.22902, 43.54804], [145.23227, 43.53994], [145.24684, 43.53046], [145.25213, 43.51431], [145.26442, 43.48969], [145.29078, 43.40534], [145.3117, 43.36677], [145.34571, 43.33271], [145.39356, 43.30537], [145.36166, 43.30146], [145.29916, 43.34125], [145.27003, 43.34638], [145.26051, 43.33857], [145.25831, 43.32709], [145.2645, 43.31672], [145.28028, 43.3122], [145.29811, 43.30927], [145.31511, 43.30292], [145.32081, 43.29597], [145.30421, 43.29169], [145.32163, 43.27627], [145.35109, 43.26545], [145.38364, 43.25902], [145.46843, 43.253], [145.49195, 43.24457], [145.5171, 43.22899], [145.52198, 43.2412], [145.51336, 43.24885], [145.50131, 43.25699], [145.49659, 43.27058], [145.5031, 43.27753], [145.54086, 43.30166], [145.58229, 43.33576], [145.5949, 43.34284], [145.62086, 43.34797], [145.6338, 43.35318], [145.64031, 43.35977], [145.64373, 43.36689], [145.64918, 43.37376], [145.66163, 43.37983], [145.67595, 43.38199], [145.72315, 43.37983], [145.73162, 43.38202], [145.74439, 43.39179], [145.75034, 43.39411], [145.75709, 43.39313], [145.76148, 43.39082], [145.7645, 43.38837], [145.76743, 43.38727], [145.78004, 43.38605], [145.81324, 43.37861], [145.82496, 43.3736], [145.81853, 43.36445], [145.81031, 43.36078], [145.78785, 43.36058], [145.77768, 43.35627], [145.7601, 43.33698], [145.74692, 43.33271], [145.70851, 43.32632], [145.69898, 43.32209], [145.68409, 43.31025], [145.67311, 43.30793], [145.64389, 43.3122], [145.62916, 43.30976], [145.62135, 43.30341], [145.61549, 43.2945], [145.60646, 43.28425], [145.57985, 43.26504], [145.57228, 43.25699], [145.56617, 43.24608], [145.55738, 43.22142], [145.55177, 43.20978], [145.54558, 43.20197], [145.5171, 43.17499], [145.53061, 43.16885], [145.51889, 43.16645], [145.49879, 43.16791], [145.47828, 43.17211], [145.4524, 43.18391], [145.43539, 43.18207], [145.40406, 43.17499], [145.3025, 43.17349], [145.28028, 43.16502], [145.25831, 43.14948], [145.23113, 43.1411], [145.15406, 43.13227], [145.13844, 43.12816], [145.1255, 43.12006], [145.11931, 43.10611], [145.12273, 43.0882], [145.13543, 43.0843], [145.15219, 43.08462], [145.16822, 43.07941], [145.15903, 43.0705], [145.14918, 43.06631], [145.11101, 43.06363], [145.10792, 43.05939], [145.10646, 43.05292], [145.09929, 43.04462], [145.07569, 43.034], [145.05128, 43.03311], [145.0031, 43.04462], [145.02223, 43.02033], [145.02752, 43.00935], [145.02369, 42.99628], [145.01433, 42.98949], [145.00017, 42.98615], [144.93377, 42.97826], [144.89975, 42.97948], [144.86883, 42.98847], [144.84205, 43.00715], [144.84051, 43.01691], [144.84311, 43.02936], [144.84018, 43.04011], [144.82154, 43.04462], [144.81007, 43.04536], [144.80372, 43.04645], [144.79868, 43.0467], [144.79086, 43.04462], [144.78386, 43.03994], [144.77312, 43.02684], [144.76629, 43.02416], [144.75758, 43.01879], [144.74741, 43.00617], [144.73911, 42.99136], [144.73561, 42.97948], [144.74147, 42.96524], [144.75538, 42.95441], [144.77125, 42.94489], [144.78346, 42.93476], [144.74195, 42.92422], [144.59913, 42.94912], [144.52174, 42.94408], [144.49586, 42.93325], [144.46485, 42.93708], [144.39064, 42.95645], [144.38217, 42.96149], [144.37306, 42.96955], [144.3685, 42.97818], [144.36492, 42.98957], [144.35808, 42.99946], [144.34522, 43.00373], [144.32301, 43.00263], [144.18312, 42.97639], [144.042, 42.92658], [143.8864, 42.84418], [143.79029, 42.75727], [143.63885, 42.66108], [143.57521, 42.60334], [143.44809, 42.45502], [143.34897, 42.31916], [143.33172, 42.27725], [143.32488, 42.22972], [143.33644, 42.173], [143.3379, 42.15021], [143.33595, 42.12971], [143.33106, 42.10692], [143.30348, 42.02578], [143.29233, 42.00519], [143.26547, 41.98672], [143.25294, 41.94188], [143.24155, 41.92805], [143.22609, 41.93228], [143.20314, 41.94587], [143.18238, 41.96158], [143.17335, 41.97211], [143.16334, 41.99038], [143.14047, 42.01048], [143.11524, 42.02798], [142.95973, 42.10537], [142.75766, 42.15839], [142.5464, 42.25056], [142.45997, 42.27131], [142.28102, 42.36652], [142.22218, 42.41177], [142.16775, 42.45986], [142.06258, 42.47073], [141.98097, 42.51024], [141.92595, 42.55858], [141.90935, 42.5655], [141.88819, 42.56977], [141.81715, 42.5996], [141.72609, 42.61717], [141.63648, 42.61579], [141.54957, 42.60114], [141.42774, 42.5644], [141.26246, 42.46825], [141.23463, 42.45869], [141.2151, 42.44452], [141.2033, 42.44135], [141.19117, 42.44033], [141.1797, 42.43744], [141.16871, 42.4333], [141.09156, 42.39179], [141.07325, 42.37714], [141.01677, 42.31611], [141.00099, 42.30484], [140.98976, 42.30142], [140.97731, 42.29963], [140.96469, 42.30048], [140.9524, 42.30484], [140.94581, 42.31025], [140.93702, 42.31977], [140.93165, 42.32876], [140.93605, 42.33271], [140.97543, 42.32657], [140.98414, 42.32905], [140.98683, 42.33983], [140.97462, 42.34663], [140.94695, 42.35322], [140.92652, 42.36518], [140.91798, 42.37255], [140.91212, 42.38056], [140.90138, 42.42084], [140.73365, 42.56415], [140.68629, 42.57917], [140.66293, 42.57982], [140.59742, 42.57172], [140.52564, 42.58063], [140.50066, 42.57917], [140.45753, 42.56428], [140.417, 42.53815], [140.38087, 42.50507], [140.32545, 42.43281], [140.30397, 42.39297], [140.28859, 42.35016], [140.28151, 42.30484], [140.29176, 42.25959], [140.32163, 42.23395], [140.42408, 42.19229], [140.45639, 42.17308], [140.53028, 42.11176], [140.54884, 42.10554], [140.57195, 42.10786], [140.61012, 42.11762], [140.67408, 42.12206], [140.69321, 42.12617], [140.71355, 42.13349], [140.77361, 42.1022], [140.78932, 42.07453], [140.83709, 42.02363], [140.85369, 42.01122], [140.89177, 41.99152], [140.90846, 41.97895], [140.97429, 41.91376], [140.9922, 41.90217], [141.01157, 41.89374], [141.0337, 41.88874], [141.05958, 41.88711], [141.08326, 41.88264], [141.10694, 41.87177], [141.18279, 41.81831], [141.19996, 41.79946], [141.18995, 41.79092], [141.14356, 41.78579], [141.12159, 41.77936], [141.10402, 41.77041], [141.04331, 41.72386], [141.00636, 41.71214], [140.95997, 41.72199], [140.87428, 41.75825], [140.82398, 41.7707], [140.77508, 41.77041], [140.72999, 41.74999], [140.70802, 41.74555], [140.69858, 41.75983], [140.70672, 41.77412], [140.72242, 41.78335], [140.73341, 41.79365], [140.72722, 41.81135], [140.70899, 41.82441], [140.68482, 41.8299], [140.66041, 41.82713], [140.64161, 41.81509], [140.63136, 41.79731], [140.61573, 41.75471], [140.60426, 41.73627], [140.54477, 41.71259], [140.53484, 41.70527], [140.52345, 41.69868], [140.47006, 41.6872], [140.45289, 41.68106], [140.43328, 41.64468], [140.44321, 41.56371], [140.43238, 41.53083], [140.40064, 41.51301], [140.27467, 41.48237], [140.25953, 41.47272], [140.24122, 41.45722], [140.22584, 41.43793], [140.22475, 41.43437], [140.69092, 41.64199], [141.96533, 41.62558], [142.51465, 38.13805], [139.21875, 39.09901], [138.91113, 40.84932], [140.16906, 41.40957], [140.13746, 41.42097]]], [[[139.37428, 41.50434], [139.34555, 41.49335], [139.34083, 41.4975], [139.33644, 41.51114], [139.33644, 41.5185], [139.34034, 41.52383], [139.34815, 41.52424], [139.35572, 41.52216], [139.37289, 41.52216], [139.37827, 41.51923], [139.38185, 41.51358], [139.37428, 41.50434]]], [[[139.52068, 42.17451], [139.51368, 42.14818], [139.51271, 42.12373], [139.50896, 42.10082], [139.49391, 42.07884], [139.45533, 42.05158], [139.44565, 42.05484], [139.43539, 42.06293], [139.42945, 42.0738], [139.43238, 42.08511], [139.42726, 42.09394], [139.42506, 42.10269], [139.42506, 42.12299], [139.4227, 42.1315], [139.41285, 42.14399], [139.41082, 42.154], [139.41432, 42.17251], [139.42384, 42.1916], [139.43702, 42.20722], [139.45216, 42.21532], [139.46372, 42.21625], [139.48552, 42.22114], [139.49732, 42.22223], [139.50913, 42.22577], [139.53834, 42.24067], [139.54851, 42.24335], [139.56422, 42.23176], [139.55397, 42.21158], [139.52068, 42.17451]]], [[[145.3628, 43.55488], [145.35011, 43.54963], [145.31202, 43.54218], [145.30421, 43.53473], [145.29737, 43.52265], [145.28354, 43.51789], [145.2732, 43.52237], [145.27687, 43.53815], [145.28785, 43.54751], [145.3187, 43.55777], [145.33204, 43.56542], [145.2024, 43.61384], [145.28696, 43.60102], [145.31153, 43.59333], [145.34441, 43.57591], [145.36036, 43.56477], [145.3628, 43.55488]]], [[[144.44825, 43.94221], [144.45509, 43.94221], [144.44898, 43.94204], [144.44825, 43.94221]]], [[[143.97584, 44.14826], [143.94044, 44.13915], [143.89649, 44.1459], [143.81373, 44.1684], [143.81764, 44.1756], [143.83627, 44.17593], [143.85955, 44.17276], [143.88152, 44.16669], [143.89649, 44.15815], [143.91179, 44.15229], [143.9572, 44.152], [143.97584, 44.14826]]], [[[141.31007, 45.12458], [141.30445, 45.12018], [141.2684, 45.10102], [141.25123, 45.09919], [141.23536, 45.10248], [141.18181, 45.12661], [141.15008, 45.14712], [141.13111, 45.17015], [141.14552, 45.18977], [141.14088, 45.19603], [141.13551, 45.20612], [141.13185, 45.21027], [141.16717, 45.23998], [141.1797, 45.24437], [141.20265, 45.24909], [141.2352, 45.24128], [141.26832, 45.22553], [141.29298, 45.20653], [141.32716, 45.17235], [141.33562, 45.15778], [141.32846, 45.14765], [141.31642, 45.13793], [141.31007, 45.12458]]], [[[141.04957, 45.29291], [141.03565, 45.26488], [141.02906, 45.27851], [141.02996, 45.28392], [141.03565, 45.29218], [141.01051, 45.32779], [140.99887, 45.35], [140.99415, 45.37104], [141.00099, 45.41913], [140.99635, 45.43024], [140.96681, 45.46345], [140.97413, 45.46772], [140.98064, 45.46894], [140.9861, 45.46743], [140.99049, 45.46337], [140.99318, 45.45881], [141.0066, 45.44042], [141.02003, 45.43985], [141.03533, 45.44623], [141.05274, 45.45043], [141.06902, 45.44269], [141.07358, 45.42471], [141.05909, 45.32197], [141.04957, 45.29291]]]]}, "properties": {"id": "nAl0", "status": "validé", "pieces": [{"kind": "admin1", "code": "JPN-1847"}, {"kind": "polygon", "ring": [[139.21875, 39.09901], [142.51465, 38.13805], [141.96533, 41.62558], [140.69092, 41.64199], [138.91113, 40.84932]]}]}}, {"type": "Feature", "geometry": null, "properties": {"id": "nLH3", "status": "validé", "pieces": [{"kind": "admin1", "code": "JPN-3501"}, {"kind": "admin1", "code": "JPN-1831"}, {"kind": "admin1", "code": "JPN-1843"}, {"kind": "admin1", "code": "JPN-1845"}]}}, {"type": "Feature", "geometry": null, "properties": {"id": "nPKQ", "status": "validé", "pieces": [{"kind": "admin1", "code": "JPN-1832"}, {"kind": "admin1", "code": "JPN-1834"}, {"kind": "admin1", "code": "JPN-1836"}, {"kind": "admin1", "code": "JPN-1833"}]}}, {"type": "Feature", "geometry": null, "properties": {"id": "ndLI", "status": "validé", "pieces": [{"kind": "admin1", "code": "JPN-1846"}, {"kind": "admin1", "code": "JPN-1842"}, {"kind": "admin1", "code": "JPN-1848"}]}}, {"type": "Feature", "geometry": null, "properties": {"id": "or2V", "status": "validé", "pieces": [{"kind": "country"}]}}, {"type": "Feature", "geometry": null, "properties": {"id": "p0xY", "status": "validé", "pieces": [{"kind": "admin1", "code": "JPN-1862"}, {"kind": "admin1", "code": "JPN-1863"}, {"kind": "admin1", "code": "JPN-1865"}, {"kind": "admin1", "code": "JPN-1868"}, {"kind": "admin1", "code": "JPN-1866"}]}}, {"type": "Feature", "geometry": null, "properties": {"id": "p58z", "status": "validé", "pieces": [{"kind": "admin1", "code": "JPN-1855"}, {"kind": "admin1", "code": "JPN-1856"}, {"kind": "admin1", "code": "JPN-1857"}, {"kind": "admin1", "code": "JPN-1860"}, {"kind": "admin1", "code": "JPN-1858"}, {"kind": "admin1", "code": "JPN-1845"}]}}, {"type": "Feature", "geometry": null, "properties": {"id": "pNOF", "status": "validé", "pieces": [{"kind": "admin1", "code": "JPN-1847"}, {"kind": "admin1", "code": "JPN-1863"}, {"kind": "admin1", "code": "JPN-1862"}, {"kind": "admin1", "code": "JPN-1865"}]}}, {"type": "Feature", "geometry": null, "properties": {"id": "qIFc", "status": "rejeté", "pieces": []}}, {"type": "Feature", "geometry": null, "properties": {"id": "sWrH", "status": "validé", "pieces": [{"kind": "admin1", "code": "JPN-1851"}, {"kind": "admin1", "code": "JPN-1854"}, {"kind": "admin1", "code": "JPN-1849"}, {"kind": "admin1", "code": "JPN-1850"}, {"kind": "admin1", "code": "JPN-1852"}, {"kind": "admin1", "code": "JPN-1853"}]}}, {"type": "Feature", "geometry": null, "properties": {"id": "sdRS", "status": "validé", "pieces": [{"kind": "admin1", "code": "JPN-1848"}, {"kind": "admin1", "code": "JPN-1842"}, {"kind": "admin1", "code": "JPN-1846"}, {"kind": "admin1", "code": "JPN-1867"}, {"kind": "admin1", "code": "JPN-1868"}]}}, {"type": "Feature", "geometry": {"type": "MultiPolygon", "coordinates": [[[[145.45074, 43.13982], [145.45074, 43.44955], [145.87372, 43.44955], [145.87372, 43.13982], [145.45074, 43.13982]]], [[[141.45447, 44.92274], [141.45447, 45.45291], [142.00928, 45.45291], [142.00928, 44.92274], [141.45447, 44.92274]]]]}, "properties": {"id": "tF8q", "status": "validé", "pieces": [{"kind": "rect", "bounds": [141.45447, 44.92274, 142.00928, 45.45291]}, {"kind": "rect", "bounds": [145.45074, 43.13982, 145.87372, 43.44955]}]}}, {"type": "Feature", "geometry": null, "properties": {"id": "tSNC", "status": "validé", "pieces": [{"kind": "admin1", "code": "JPN-1841"}, {"kind": "admin1", "code": "JPN-1840"}, {"kind": "admin1", "code": "JPN-1845"}, {"kind": "admin1", "code": "JPN-1843"}]}}, {"type": "Feature", "geometry": null, "properties": {"id": "tsJL", "status": "validé", "pieces": [{"kind": "admin1", "code": "JPN-1852"}, {"kind": "admin1", "code": "JPN-1849"}, {"kind": "admin1", "code": "JPN-1850"}, {"kind": "admin1", "code": "JPN-1854"}, {"kind": "admin1", "code": "JPN-1851"}, {"kind": "admin1", "code": "JPN-1853"}]}}, {"type": "Feature", "geometry": null, "properties": {"id": "uFy4", "status": "validé", "pieces": [{"kind": "admin1", "code": "JPN-1863"}]}}, {"type": "Feature", "geometry": null, "properties": {"id": "um29", "status": "validé", "pieces": [{"kind": "country"}]}}, {"type": "Feature", "geometry": null, "properties": {"id": "vpIU", "status": "validé", "pieces": [{"kind": "admin1", "code": "JPN-1834"}, {"kind": "admin1", "code": "JPN-1832"}, {"kind": "admin1", "code": "JPN-1836"}, {"kind": "admin1", "code": "JPN-1833"}]}}, {"type": "Feature", "geometry": null, "properties": {"id": "wVGg", "status": "validé", "pieces": [{"kind": "admin1", "code": "JPN-1822"}]}}, {"type": "Feature", "geometry": null, "properties": {"id": "wcDd", "status": "validé", "pieces": [{"kind": "admin1", "code": "JPN-1832"}]}}, {"type": "Feature", "geometry": {"type": "Polygon", "coordinates": [[[127.91382, 25.83124], [127.13379, 26.15698], [127.78198, 26.84493], [128.3313, 26.97224], [128.48511, 26.68805], [127.91382, 25.83124]]]}, "properties": {"id": "wtVB", "status": "validé", "pieces": [{"kind": "polygon", "ring": [[127.91382, 25.83124], [127.13379, 26.15698], [127.78198, 26.84493], [128.3313, 26.97224], [128.48511, 26.68805]]}]}}, {"type": "Feature", "geometry": null, "properties": {"id": "xUOO", "status": "validé", "pieces": [{"kind": "admin1", "code": "JPN-3502"}]}}, {"type": "Feature", "geometry": null, "properties": {"id": "y6He", "status": "validé", "pieces": [{"kind": "admin1", "code": "JPN-1847"}, {"kind": "admin1", "code": "JPN-1863"}, {"kind": "admin1", "code": "JPN-1862"}, {"kind": "admin1", "code": "JPN-1865"}, {"kind": "admin1", "code": "JPN-1866"}, {"kind": "admin1", "code": "JPN-1868"}, {"kind": "admin1", "code": "JPN-1864"}, {"kind": "admin1", "code": "JPN-1856"}, {"kind": "admin1", "code": "JPN-1859"}, {"kind": "admin1", "code": "JPN-1867"}]}}, {"type": "Feature", "geometry": null, "properties": {"id": "yMq5", "status": "validé", "pieces": [{"kind": "admin1", "code": "JPN-1847"}]}}, {"type": "Feature", "geometry": null, "properties": {"id": "yYkM", "status": "rejeté", "pieces": []}}, {"type": "Feature", "geometry": {"type": "Polygon", "coordinates": [[[140.96283, 42.4096], [140.96283, 42.53819], [140.80078, 42.53819], [140.80078, 42.4096], [140.96283, 42.4096]]]}, "properties": {"id": "ydq3", "status": "validé", "pieces": [{"kind": "rect", "bounds": [140.80078, 42.4096, 140.96283, 42.53819]}]}}, {"type": "Feature", "geometry": null, "properties": {"id": "yru1", "status": "validé", "pieces": [{"kind": "admin1", "code": "JPN-1833"}]}}, {"type": "Feature", "geometry": null, "properties": {"id": "zkIK", "status": "validé", "pieces": [{"kind": "country"}]}}]}