{"type": "FeatureCollection", "features": [{"type": "Feature", "geometry": null, "properties": {"id": "0UwZ", "status": "rejeté", "pieces": []}}, {"type": "Feature", "geometry": {"type": "Polygon", "coordinates": [[[34.80743, -0.02394], [34.80743, -0.07061], [35.00999, -0.07129], [35.02579, -0.03766], [34.91249, -0.02394], [34.80743, -0.02394]]]}, "properties": {"id": "1AUr", "status": "validé", "pieces": [{"kind": "polygon", "ring": [[34.80743, -0.02394], [34.80743, -0.07061], [35.00999, -0.07129], [35.02579, -0.03766], [34.91249, -0.02394]]}]}}, {"type": "Feature", "geometry": {"type": "Polygon", "coordinates": [[[36.35376, -1.15799], [36.04614, -1.50382], [35.65613, -1.39404], [35.22766, -1.03172], [35.79346, -0.48268], [35.98572, -0.60348], [36.14502, -0.74074], [36.35376, -1.15799]]]}, "properties": {"id": "1b3E", "status": "validé", "pieces": [{"kind": "polygon", "ring": [[36.35376, -1.15799], [36.04614, -1.50382], [35.65613, -1.39404], [35.22766, -1.03172], [35.79346, -0.48268], [35.98572, -0.60348], [36.14502, -0.74074]]}]}}, {"type": "Feature", "geometry": {"type": "Polygon", "coordinates": [[[39.25964, -4.69025], [38.98499, -4.50416], [39.31458, -4.26327], [39.49585, -4.13184], [39.64966, -3.83057], [39.87488, -3.43054], [40.05615, -3.18934], [40.13306, -3.25513], [39.98474, -3.69359], [39.60022, -4.48227], [39.25964, -4.69025]]]}, "properties": {"id": "2BIS", "status": "validé", "pieces": [{"kind": "polygon", "ring": [[39.25964, -4.69025], [38.98499, -4.50416], [39.31458, -4.26327], [39.49585, -4.13184], [39.64966, -3.83057], [39.87488, -3.43054], [40.05615, -3.18934], [40.13306, -3.25513], [39.98474, -3.69359], [39.60022, -4.48227]]}]}}, {"type": "Feature", "geometry": null, "properties": {"id": "3h2M", "status": "validé", "pieces": [{"kind": "country"}]}}, {"type": "Feature", "geometry": null, "properties": {"id": "7mU2", "status": "validé", "pieces": [{"kind": "country"}]}}, {"type": "Feature", "geometry": {"type": "MultiPolygon", "coordinates": [[[[38.82568, -4.35313], [39.34204, -3.20257], [39.96826, -2.33602], [40.62744, -1.8312], [41.03394, -2.03973], [41.09985, -2.27019], [39.42993, -4.70345], [39.26514, -4.75817], [38.82568, -4.35313]]], [[[34.63989, -0.76625], [34.7937, -0.94194], [34.76074, -1.23839], [34.74976, -1.3921], [34.37622, -1.1835], [34.43115, -0.87605], [34.63989, -0.76625]]], [[[35.38696, 0.96881], [35.06836, 0.88097], [34.89258, 0.85901], [34.74976, 0.55154], [34.54102, 0.40878], [34.28833, 0.29896], [34.09058, 0.36485], [34.09058, 0.58448], [34.49707, 0.92489], [34.53003, 1.13351], [34.81567, 1.26526], [35.12329, 1.18841], [35.38696, 0.96881]]]]}, "properties": {"id": "A27G", "status": "validé", "pieces": [{"kind": "polygon", "ring": [[34.81567, 1.26526], [35.12329, 1.18841], [35.38696, 0.96881], [35.06836, 0.88097], [34.89258, 0.85901], [34.74976, 0.55154], [34.54102, 0.40878], [34.28833, 0.29896], [34.09058, 0.36485], [34.09058, 0.58448], [34.49707, 0.92489], [34.53003, 1.13351]]}, {"kind": "polygon", "ring": [[34.37622, -1.1835], [34.43115, -0.87605], [34.63989, -0.76625], [34.7937, -0.94194], [34.76074, -1.23839], [34.74976, -1.3921]]}, {"kind": "polygon", "ring": [[39.26514, -4.75817], [38.82568, -4.35313], [39.34204, -3.20257], [39.96826, -2.33602], [40.62744, -1.8312], [41.03394, -2.03973], [41.09985, -2.27019], [39.42993, -4.70345]]}]}}, {"type": "Feature", "geometry": null, "properties": {"id": "Af01", "status": "validé", "pieces": [{"kind": "country"}]}}, {"type": "Feature", "geometry": {"type": "Polygon", "coordinates": [[[37.51007, -2.79173], [37.51007, -2.4928], [37.10907, -2.4928], [37.10907, -2.79173], [37.51007, -2.79173]]]}, "properties": {"id": "B91r", "status": "validé", "pieces": [{"kind": "rect", "bounds": [37.10907, -2.79173, 37.51007, -2.4928]}]}}, {"type": "Feature", "geometry": null, "properties": {"id": "BMtm", "status": "validé", "pieces": [{"kind": "country"}]}}, {"type": "Feature", "geometry": {"type": "Polygon", "coordinates": [[[37.56226, 0.3037], [37.54578, 0.45744], [37.62268, 0.57823], [37.49634, 0.81981], [37.51831, 1.12177], [37.58972, 1.26999], [37.65015, 1.32489], [37.79297, 1.84084], [37.8479, 1.99449], [37.82043, 2.22496], [37.88635, 2.37858], [37.97974, 2.40052], [38.05115, 2.36761], [37.94678, 2.23044], [37.94128, 2.08229], [37.93579, 1.84632], [37.82043, 1.48408], [37.73804, 1.25352], [37.65564, 1.09981], [37.63367, 0.86923], [37.69958, 0.67706], [37.74353, 0.56176], [37.56226, 0.3037]]]}, "properties": {"id": "CxYS", "status": "validé", "pieces": [{"kind": "polygon", "ring": [[37.56226, 0.3037], [37.54578, 0.45744], [37.62268, 0.57823], [37.49634, 0.81981], [37.51831, 1.12177], [37.58972, 1.26999], [37.65015, 1.32489], [37.79297, 1.84084], [37.8479, 1.99449], [37.82043, 2.22496], [37.88635, 2.37858], [37.97974, 2.40052], [38.05115, 2.36761], [37.94678, 2.23044], [37.94128, 2.08229], [37.93579, 1.84632], [37.82043, 1.48408], [37.73804, 1.25352], [37.65564, 1.09981], [37.63367, 0.86923], [37.69958, 0.67706], [37.74353, 0.56176]]}]}}, {"type": "Feature", "geometry": {"type": "Polygon", "coordinates": [[[37.60071, 0.3802], [38.02917, 0.59434], [38.73779, 0.6163], [39.09485, 0.75357], [39.34204, 1.01161], [39.51782, 1.1269], [39.85291, 1.52214], [40.04517, 2.03803], [40.07263, 2.27946], [40.22095, 2.25203], [40.11108, 1.6868], [39.78699, 1.10494], [39.48486, 0.93475], [39.2926, 0.75357], [39.08386, 0.57787], [38.93005, 0.52845], [38.24341, 0.501], [38.04016, 0.51198], [37.60071, 0.3802]]]}, "properties": {"id": "ElFx", "status": "validé", "pieces": [{"kind": "polygon", "ring": [[37.60071, 0.3802], [38.02917, 0.59434], [38.73779, 0.6163], [39.09485, 0.75357], [39.34204, 1.01161], [39.51782, 1.1269], [39.85291, 1.52214], [40.04517, 2.03803], [40.07263, 2.27946], [40.22095, 2.25203], [40.11108, 1.6868], [39.78699, 1.10494], [39.48486, 0.93475], [39.2926, 0.75357], [39.08386, 0.57787], [38.93005, 0.52845], [38.24341, 0.501], [38.04016, 0.51198]]}]}}, {"type": "Feature", "geometry": {"type": "Polygon", "coordinates": [[[36.15601, 2.89123], [36.15601, 3.15031], [35.75363, 3.15031], [35.75363, 2.89123], [36.15601, 2.89123]]]}, "properties": {"id": "Gu08", "status": "validé", "pieces": [{"kind": "rect", "bounds": [35.75363, 2.89123, 36.15601, 3.15031]}]}}, {"type": "Feature", "geometry": {"type": "Polygon", "coordinates": [[[36.79596, -0.58336], [36.79596, -0.3404], [36.63116, -0.3404], [36.63116, -0.58336], [36.79596, -0.58336]]]}, "properties": {"id": "HNI4", "status": "validé", "pieces": [{"kind": "rect", "bounds": [36.63116, -0.58336, 36.79596, -0.3404]}]}}, {"type": "Feature", "geometry": null, "properties": {"id": "LuwZ", "status": "validé", "pieces": [{"kind": "country"}]}}, {"type": "Feature", "geometry": null, "properties": {"id": "MyUL", "status": "validé", "pieces": [{"kind": "country"}]}}, {"type": "Feature", "geometry": null, "properties": {"id": "Nnps", "status": "rejeté", "pieces": []}}, {"type": "Feature", "geometry": {"type": "Polygon", "coordinates": [[[40.13031, 1.68287], [40.13031, 1.80361], [39.99641, 1.80361], [39.99641, 1.68287], [40.13031, 1.68287]]]}, "properties": {"id": "QUCR", "status": "validé", "pieces": [{"kind": "rect", "bounds": [39.99641, 1.68287, 40.13031, 1.80361]}]}}, {"type": "Feature", "geometry": {"type": "Polygon", "coordinates": [[[39.24866, -4.69553], [39.06189, -4.5587], [39.35852, -4.3671], [39.55078, -3.92898], [39.73755, -3.49063], [39.91333, -3.36457], [39.98474, -3.38649], [40.04517, -3.59476], [39.89136, -3.94542], [39.38049, -4.73383], [39.24866, -4.69553]]]}, "properties": {"id": "Rz26", "status": "validé", "pieces": [{"kind": "polygon", "ring": [[39.24866, -4.69553], [39.06189, -4.5587], [39.35852, -4.3671], [39.55078, -3.92898], [39.73755, -3.49063], [39.91333, -3.36457], [39.98474, -3.38649], [40.04517, -3.59476], [39.89136, -3.94542], [39.38049, -4.73383]]}]}}, {"type": "Feature", "geometry": {"type": "Polygon", "coordinates": [[[36.8866, -2.57661], [36.8866, -2.38872], [36.71494, -2.38872], [36.71494, -2.57661], [36.8866, -2.57661]]]}, "properties": {"id": "TVBv", "status": "validé", "pieces": [{"kind": "rect", "bounds": [36.71494, -2.57661, 36.8866, -2.38872]}]}}, {"type": "Feature", "geometry": {"type": "Polygon", "coordinates": [[[36.94427, -1.42093], [36.94427, -1.20684], [36.69983, -1.20684], [36.69983, -1.42093], [36.94427, -1.42093]]]}, "properties": {"id": "UIHO", "status": "validé", "pieces": [{"kind": "rect", "bounds": [36.69983, -1.42093, 36.94427, -1.20684]}]}}, {"type": "Feature", "geometry": {"type": "Polygon", "coordinates": [[[37.97424, 2.42296], [38.04016, 2.74111], [38.18298, 3.24559], [38.3313, 3.37167], [38.45764, 3.3333], [38.4906, 3.22366], [38.32581, 2.96048], [38.18298, 2.71917], [38.0896, 2.28581], [37.97424, 2.42296]]]}, "properties": {"id": "VMnN", "status": "validé", "pieces": [{"kind": "polygon", "ring": [[37.97424, 2.42296], [38.04016, 2.74111], [38.18298, 3.24559], [38.3313, 3.37167], [38.45764, 3.3333], [38.4906, 3.22366], [38.32581, 2.96048], [38.18298, 2.71917], [38.0896, 2.28581]]}]}}, {"type": "Feature", "geometry": null, "properties": {"id": "WAmc", "status": "validé", "pieces": [{"kind": "country"}]}}, {"type": "Feature", "geometry": {"type": "Polygon", "coordinates": [[[39.61121, -0.41078], [39.90234, -0.07034], [40.19348, 0.07242], [40.70984, 0.39638], [40.9845, 0.5062], [40.9845, 0.31402], [40.52856, 0.07791], [40.12756, -0.10878], [40.00122, -0.13623], [39.71558, -0.53706], [39.61121, -0.41078]]]}, "properties": {"id": "Zc6E", "status": "validé", "pieces": [{"kind": "polygon", "ring": [[39.61121, -0.41078], [39.90234, -0.07034], [40.19348, 0.07242], [40.70984, 0.39638], [40.9845, 0.5062], [40.9845, 0.31402], [40.52856, 0.07791], [40.12756, -0.10878], [40.00122, -0.13623], [39.71558, -0.53706]]}]}}, {"type": "Feature", "geometry": null, "properties": {"id": "aCQP", "status": "rejeté", "pieces": []}}, {"type": "Feature", "geometry": {"type": "Polygon", "coordinates": [[[35.2565, -1.68859], [34.78134, -1.41827], [35.01068, -1.25358], [35.12192, -1.13418], [35.25375, -1.18771], [35.24002, -1.29476], [35.2771, -1.47179], [35.31967, -1.59391], [35.2565, -1.68859]]]}, "properties": {"id": "aD58", "status": "validé", "pieces": [{"kind": "polygon", "ring": [[35.2565, -1.68859], [34.78134, -1.41827], [35.01068, -1.25358], [35.12192, -1.13418], [35.25375, -1.18771], [35.24002, -1.29476], [35.2771, -1.47179], [35.31967, -1.59391]]}]}}, {"type": "Feature", "geometry": null, "properties": {"id": "akOH", "status": "rejeté", "pieces": []}}, {"type": "Feature", "geometry": null, "properties": {"id": "beMe", "status": "validé", "pieces": [{"kind": "country"}]}}, {"type": "Feature", "geometry": null, "properties": {"id": "dndL", "status": "validé", "pieces": [{"kind": "country"}]}}, {"type": "Feature", "geometry": {"type": "Polygon", "coordinates": [[[34.48746, 0.85993], [34.49844, 1.03562], [34.58084, 1.11385], [34.65088, 1.18522], [34.76349, 1.1413], [34.85001, 1.05895], [34.86237, 1.00405], [34.82117, 0.93954], [34.70718, 0.8819], [34.55612, 0.8366], [34.48746, 0.85993]]]}, "properties": {"id": "dsJg", "status": "validé", "pieces": [{"kind": "polygon", "ring": [[34.48746, 0.85993], [34.49844, 1.03562], [34.58084, 1.11385], [34.65088, 1.18522], [34.76349, 1.1413], [34.85001, 1.05895], [34.86237, 1.00405], [34.82117, 0.93954], [34.70718, 0.8819], [34.55612, 0.8366]]}]}}, {"type": "Feature", "geometry": {"type": "Polygon", "coordinates": [[[34.33228, 0.68726], [34.54651, 0.63236], [34.73328, 0.48411], [34.89807, 0.25899], [35.02441, -0.00458], [35.07385, -0.21323], [35.09583, -0.43835], [34.79919, -0.75132], [34.62341, -0.87211], [34.45862, -0.99838], [34.21692, -1.10269], [34.00269, -0.9874], [33.95874, -0.59758], [33.99719, -0.1693], [33.97522, 0.16564], [34.10156, 0.3688], [34.11255, 0.45666], [34.14001, 0.61039], [34.33228, 0.68726]]]}, "properties": {"id": "fUkM", "status": "validé", "pieces": [{"kind": "polygon", "ring": [[34.33228, 0.68726], [34.54651, 0.63236], [34.73328, 0.48411], [34.89807, 0.25899], [35.02441, -0.00458], [35.07385, -0.21323], [35.09583, -0.43835], [34.79919, -0.75132], [34.62341, -0.87211], [34.45862, -0.99838], [34.21692, -1.10269], [34.00269, -0.9874], [33.95874, -0.59758], [33.99719, -0.1693], [33.97522, 0.16564], [34.10156, 0.3688], [34.11255, 0.45666], [34.14001, 0.61039]]}]}}, {"type": "Feature", "geometry": {"type": "Polygon", "coordinates": [[[34.18945, 4.36316], [34.4696, 3.82095], [35.44189, 3.11392], [35.47485, 2.41199], [35.57373, 2.1212], [35.88135, 2.03889], [36.28784, 2.56559], [36.11755, 3.09756], [35.86487, 3.5909], [35.92529, 4.48916], [35.3595, 4.60411], [34.35974, 4.48916], [34.18945, 4.36316]]]}, "properties": {"id": "j1yc", "status": "validé", "pieces": [{"kind": "polygon", "ring": [[34.18945, 4.36316], [34.4696, 3.82095], [35.44189, 3.11392], [35.47485, 2.41199], [35.57373, 2.1212], [35.88135, 2.03889], [36.28784, 2.56559], [36.11755, 3.09756], [35.86487, 3.5909], [35.92529, 4.48916], [35.3595, 4.60411], [34.35974, 4.48916]]}]}}, {"type": "Feature", "geometry": {"type": "MultiPolygon", "coordinates": [[[[37.74902, -2.48014], [36.91406, -1.44847], [37.22168, -1.16301], [37.2876, -0.97636], [37.27661, -0.83361], [37.47437, -0.70184], [37.76001, -0.48222], [37.88086, -0.32847], [38.0127, -0.24062], [38.00171, -0.51516], [38.04565, -0.96538], [38.24341, -1.26183], [38.34229, -1.49238], [38.36426, -1.78877], [38.15552, -2.30458], [37.74902, -2.48014]]], [[[34.7937, -0.29031], [35.26611, -0.27933], [35.26062, -0.40013], [35.16724, -0.54289], [34.98596, -0.9382], [34.63989, -0.9382], [34.7168, -1.3664], [34.04114, -1.02055], [33.96423, -0.73506], [34.11255, -0.42209], [34.13621, -0.41745], [33.92578, 0.14347], [34.12903, 0.39055], [34.14001, 0.58822], [34.46411, 0.82465], [34.552, 1.11014], [34.83765, 1.30776], [35.2002, 1.16503], [35.01343, 0.62699], [34.4751, -0.0978], [34.15381, -0.41401], [34.3927, -0.36719], [34.7937, -0.29031]]]]}, "properties": {"id": "keVS", "status": "validé", "pieces": [{"kind": "polygon", "ring": [[34.04114, -1.02055], [34.7168, -1.3664], [34.63989, -0.9382], [34.98596, -0.9382], [35.16724, -0.54289], [35.26062, -0.40013], [35.26611, -0.27933], [34.7937, -0.29031], [34.3927, -0.36719], [34.11255, -0.42209], [33.96423, -0.73506]]}, {"kind": "polygon", "ring": [[34.14001, -0.42758], [33.92578, 0.14347], [34.12903, 0.39055], [34.14001, 0.58822], [34.46411, 0.82465], [34.552, 1.11014], [34.83765, 1.30776], [35.2002, 1.16503], [35.01343, 0.62699], [34.4751, -0.0978]]}, {"kind": "polygon", "ring": [[38.15552, -2.30458], [37.74902, -2.48014], [36.91406, -1.44847], [37.22168, -1.16301], [37.2876, -0.97636], [37.27661, -0.83361], [37.47437, -0.70184], [37.76001, -0.48222], [37.88086, -0.32847], [38.0127, -0.24062], [38.00171, -0.51516], [38.04565, -0.96538], [38.24341, -1.26183], [38.34229, -1.49238], [38.36426, -1.78877]]}]}}, {"type": "Feature", "geometry": {"type": "Polygon", "coordinates": [[[34.49844, -0.56364], [34.49844, -0.51217], [34.43871, -0.51217], [34.43871, -0.56364], [34.49844, -0.56364]]]}, "properties": {"id": "m7bX", "status": "validé", "pieces": [{"kind": "rect", "bounds": [34.43871, -0.56364, 34.49844, -0.51217]}]}}, {"type": "Feature", "geometry": null, "properties": {"id": "mwv5", "status": "validé", "pieces": [{"kind": "country"}]}}, {"type": "Feature", "geometry": {"type": "Polygon", "coordinates": [[[37.69958, -2.29479], [37.63367, -1.98751], [37.771, -1.70762], [38.0127, -1.70762], [38.12256, -1.993], [38.06763, -2.24541], [38.25989, -2.42645], [38.36426, -2.58005], [38.50159, -2.87623], [38.54004, -3.00783], [38.27087, -3.24359], [37.89734, -3.24359], [37.86438, -3.01332], [38.08411, -2.69524], [38.05664, -2.51423], [37.69958, -2.29479]]]}, "properties": {"id": "nQVJ", "status": "validé", "pieces": [{"kind": "polygon", "ring": [[37.69958, -2.29479], [37.63367, -1.98751], [37.771, -1.70762], [38.0127, -1.70762], [38.12256, -1.993], [38.06763, -2.24541], [38.25989, -2.42645], [38.36426, -2.58005], [38.50159, -2.87623], [38.54004, -3.00783], [38.27087, -3.24359], [37.89734, -3.24359], [37.86438, -3.01332], [38.08411, -2.69524], [38.05664, -2.51423]]}]}}, {"type": "Feature", "geometry": null, "properties": {"id": "pGmv", "status": "rejeté", "pieces": []}}, {"type": "Feature", "geometry": null, "properties": {"id": "pP7Q", "status": "validé", "pieces": [{"kind": "country"}]}}, {"type": "Feature", "geometry": null, "properties": {"id": "pf4x", "status": "validé", "pieces": [{"kind": "country"}]}}, {"type": "Feature", "geometry": {"type": "Polygon", "coordinates": [[[38.19946, -2.30407], [37.82593, -2.20531], [37.55127, -1.91997], [37.46338, -1.49187], [37.46338, -0.9978], [37.68311, -0.69035], [38.07861, -0.58053], [38.48511, -0.8331], [38.67188, -1.19544], [38.62793, -1.64555], [38.47412, -2.06264], [38.19946, -2.30407]]]}, "properties": {"id": "t60C", "status": "validé", "pieces": [{"kind": "polygon", "ring": [[38.19946, -2.30407], [37.82593, -2.20531], [37.55127, -1.91997], [37.46338, -1.49187], [37.46338, -0.9978], [37.68311, -0.69035], [38.07861, -0.58053], [38.48511, -0.8331], [38.67188, -1.19544], [38.62793, -1.64555], [38.47412, -2.06264]]}]}}, {"type": "Feature", "geometry": {"type": "Polygon", "coordinates": [[[39.86938, -3.91055], [39.86938, -3.664], [39.74442, -3.664], [39.74442, -3.91055], [39.86938, -3.91055]]]}, "properties": {"id": "us0A", "status": "validé", "pieces": [{"kind": "rect", "bounds": [39.74442, -3.91055, 39.86938, -3.664]}]}}, {"type": "Feature", "geometry": null, "properties": {"id": "wDuQ", "status": "rejeté", "pieces": []}}]}