{"type": "FeatureCollection", "features": [{"type": "Feature", "geometry": null, "properties": {"id": "12Oi", "status": "validé", "pieces": [{"kind": "country"}]}}, {"type": "Feature", "geometry": {"type": "Polygon", "coordinates": [[[73.32327, 40.78875], [73.31297, 40.80447], [73.29924, 40.81538], [73.28379, 40.83252], [73.25993, 40.84329], [73.23675, 40.83498], [73.21615, 40.82641], [73.19092, 40.82109], [73.18302, 40.82447], [73.16654, 40.85095], [73.13118, 40.83901], [73.10577, 40.84524], [73.0711, 40.85718], [73.08002, 40.86419], [73.10028, 40.85718], [73.12981, 40.85069], [73.17616, 40.85796], [73.19538, 40.82759], [73.25684, 40.85251], [73.29906, 40.84031], [73.30318, 40.82603], [73.32447, 40.79486], [73.32327, 40.78875]]]}, "properties": {"id": "1351", "status": "validé", "pieces": [{"kind": "polygon", "ring": [[73.32327, 40.78875], [73.31297, 40.80447], [73.29924, 40.81538], [73.28379, 40.83252], [73.25993, 40.84329], [73.23675, 40.83498], [73.21615, 40.82641], [73.19092, 40.82109], [73.18302, 40.82447], [73.16654, 40.85095], [73.13118, 40.83901], [73.10577, 40.84524], [73.0711, 40.85718], [73.08002, 40.86419], [73.10028, 40.85718], [73.12981, 40.85069], [73.17616, 40.85796], [73.19538, 40.82759], [73.25684, 40.85251], [73.29906, 40.84031], [73.30318, 40.82603], [73.32447, 40.79486]]}]}}, {"type": "Feature", "geometry": {"type": "Polygon", "coordinates": [[[76.02814, 41.4129], [76.15585, 41.42834], [76.39893, 41.44893], [76.38828, 41.47797], [76.42776, 41.48748], [76.44012, 41.49905], [76.42433, 41.50804], [76.37112, 41.4898], [76.3773, 41.47026], [76.24924, 41.45817], [76.15311, 41.44814], [76.0326, 41.43116], [76.02814, 41.4129]]]}, "properties": {"id": "1pTi", "status": "validé", "pieces": [{"kind": "polygon", "ring": [[76.02814, 41.4129], [76.15585, 41.42834], [76.39893, 41.44893], [76.38828, 41.47797], [76.42776, 41.48748], [76.44012, 41.49905], [76.42433, 41.50804], [76.37112, 41.4898], [76.3773, 41.47026], [76.24924, 41.45817], [76.15311, 41.44814], [76.0326, 41.43116]]}]}}, {"type": "Feature", "geometry": {"type": "Polygon", "coordinates": [[[76.23688, 42.4595], [76.32271, 42.48532], [76.43532, 42.48026], [76.54312, 42.5091], [76.62895, 42.5263], [76.65642, 42.55715], [76.82396, 42.59], [77.00043, 42.60819], [77.03407, 42.63193], [77.04025, 42.63496], [77.03819, 42.64657], [76.94962, 42.62284], [76.83838, 42.60718], [76.78276, 42.60617], [76.69556, 42.58798], [76.62552, 42.56119], [76.59531, 42.53085], [76.50192, 42.51366], [76.42159, 42.50202], [76.31104, 42.5005], [76.2204, 42.47469], [76.23688, 42.4595]]]}, "properties": {"id": "2DrZ", "status": "validé", "pieces": [{"kind": "polygon", "ring": [[76.23688, 42.4595], [76.32271, 42.48532], [76.43532, 42.48026], [76.54312, 42.5091], [76.62895, 42.5263], [76.65642, 42.55715], [76.82396, 42.59], [77.00043, 42.60819], [77.03407, 42.63193], [77.04025, 42.63496], [77.03819, 42.64657], [76.94962, 42.62284], [76.83838, 42.60718], [76.78276, 42.60617], [76.69556, 42.58798], [76.62552, 42.56119], [76.59531, 42.53085], [76.50192, 42.51366], [76.42159, 42.50202], [76.31104, 42.5005], [76.2204, 42.47469]]}]}}, {"type": "Feature", "geometry": null, "properties": {"id": "2Ewh", "status": "validé", "pieces": [{"kind": "country"}]}}, {"type": "Feature", "geometry": {"type": "Polygon", "coordinates": [[[73.04878, 40.89804], [73.04878, 40.97478], [72.94716, 40.97478], [72.94716, 40.89804], [73.04878, 40.89804]]]}, "properties": {"id": "2Zlc", "status": "validé", "pieces": [{"kind": "rect", "bounds": [72.94716, 40.89804, 73.04878, 40.97478]}]}}, {"type": "Feature", "geometry": null, "properties": {"id": "34JI", "status": "validé", "pieces": [{"kind": "country"}]}}, {"type": "Feature", "geometry": null, "properties": {"id": "3dxS", "status": "validé", "pieces": [{"kind": "country"}]}}, {"type": "Feature", "geometry": {"type": "Polygon", "coordinates": [[[72.93274, 40.60619], [72.93274, 40.40161], [72.71576, 40.40161], [72.71576, 40.56607], [72.71921, 40.56486], [72.74836, 40.5751], [72.7538, 40.60619], [72.93274, 40.60619]]]}, "properties": {"id": "4fuX", "status": "validé", "pieces": [{"kind": "rect", "bounds": [72.71576, 40.40161, 72.93274, 40.60619]}, {"kind": "clip"}]}}, {"type": "Feature", "geometry": {"type": "Polygon", "coordinates": [[[74.6406, 42.94553], [74.66171, 42.97516], [74.67974, 43.00139], [74.69845, 43.02222], [74.70446, 43.02799], [74.70806, 43.02398], [74.6921, 43.00579], [74.68231, 42.99261], [74.66806, 42.96838], [74.64815, 42.94414], [74.6406, 42.94553]]]}, "properties": {"id": "5TyF", "status": "validé", "pieces": [{"kind": "polygon", "ring": [[74.6406, 42.94553], [74.66171, 42.97516], [74.67974, 43.00139], [74.69845, 43.02222], [74.70446, 43.02799], [74.70806, 43.02398], [74.6921, 43.00579], [74.68231, 42.99261], [74.66806, 42.96838], [74.64815, 42.94414]]}]}}, {"type": "Feature", "geometry": {"type": "Polygon", "coordinates": [[[73.07934, 41.75343], [73.13049, 41.75829], [73.1813, 41.76495], [73.2819, 41.75445], [73.29769, 41.76572], [73.29563, 41.77698], [73.24585, 41.79745], [73.19778, 41.80359], [73.18714, 41.80257], [73.20431, 41.79336], [73.28053, 41.77237], [73.2795, 41.76469], [73.18199, 41.77186], [73.07796, 41.76136], [73.07934, 41.75343]]]}, "properties": {"id": "5vJo", "status": "validé", "pieces": [{"kind": "polygon", "ring": [[73.07934, 41.75343], [73.13049, 41.75829], [73.1813, 41.76495], [73.2819, 41.75445], [73.29769, 41.76572], [73.29563, 41.77698], [73.24585, 41.79745], [73.19778, 41.80359], [73.18714, 41.80257], [73.20431, 41.79336], [73.28053, 41.77237], [73.2795, 41.76469], [73.18199, 41.77186], [73.07796, 41.76136]]}]}}, {"type": "Feature", "geometry": {"type": "Polygon", "coordinates": [[[74.52438, 42.80199], [74.5031, 42.7758], [74.51134, 42.75564], [74.50859, 42.70875], [74.55185, 42.67848], [74.59717, 42.67697], [74.65347, 42.68454], [74.66583, 42.73497], [74.67339, 42.78184], [74.68712, 42.80451], [74.64867, 42.80803], [74.61777, 42.79947], [74.57932, 42.78839], [74.55048, 42.81659], [74.52438, 42.80199]]]}, "properties": {"id": "62fd", "status": "validé", "pieces": [{"kind": "polygon", "ring": [[74.52438, 42.80199], [74.5031, 42.7758], [74.51134, 42.75564], [74.50859, 42.70875], [74.55185, 42.67848], [74.59717, 42.67697], [74.65347, 42.68454], [74.66583, 42.73497], [74.67339, 42.78184], [74.68712, 42.80451], [74.64867, 42.80803], [74.61777, 42.79947], [74.57932, 42.78839], [74.55048, 42.81659]]}]}}, {"type": "Feature", "geometry": {"type": "Polygon", "coordinates": [[[77.33894, 42.17211], [77.36572, 42.16601], [77.38838, 42.16957], [77.49207, 42.15125], [77.51198, 42.15176], [77.52777, 42.14973], [77.54768, 42.17059], [77.62115, 42.17059], [77.67746, 42.19195], [77.71591, 42.2128], [77.75093, 42.26006], [77.78595, 42.27174], [77.77084, 42.28596], [77.71935, 42.25498], [77.70287, 42.22245], [77.5573, 42.19144], [77.35474, 42.18381], [77.33894, 42.17211]]]}, "properties": {"id": "67Zr", "status": "validé", "pieces": [{"kind": "polygon", "ring": [[77.33894, 42.17211], [77.36572, 42.16601], [77.38838, 42.16957], [77.49207, 42.15125], [77.51198, 42.15176], [77.52777, 42.14973], [77.54768, 42.17059], [77.62115, 42.17059], [77.67746, 42.19195], [77.71591, 42.2128], [77.75093, 42.26006], [77.78595, 42.27174], [77.77084, 42.28596], [77.71935, 42.25498], [77.70287, 42.22245], [77.5573, 42.19144], [77.35474, 42.18381]]}]}}, {"type": "Feature", "geometry": {"type": "Polygon", "coordinates": [[[74.7557, 42.92187], [74.76471, 42.9235], [74.78376, 42.94499], [74.81483, 42.96269], [74.84779, 42.9652], [74.87251, 42.97273], [74.8708, 42.97676], [74.84127, 42.97048], [74.80145, 42.96571], [74.76454, 42.94373], [74.7557, 42.92187]]]}, "properties": {"id": "6LBj", "status": "validé", "pieces": [{"kind": "polygon", "ring": [[74.7557, 42.92187], [74.76471, 42.9235], [74.78376, 42.94499], [74.81483, 42.96269], [74.84779, 42.9652], [74.87251, 42.97273], [74.8708, 42.97676], [74.84127, 42.97048], [74.80145, 42.96571], [74.76454, 42.94373]]}]}}, {"type": "Feature", "geometry": {"type": "MultiPolygon", "coordinates": [[[[71.95487, 41.8215], [71.96088, 41.82195], [71.96054, 41.80756], [71.95556, 41.80833], [71.95487, 41.8215]]], [[[71.95418, 41.84618], [71.96036, 41.83525], [71.95616, 41.83397], [71.9486, 41.84094], [71.94809, 41.84906], [71.95118, 41.84989], [71.95418, 41.84618]]], [[[71.97847, 41.85641], [71.9741, 41.85404], [71.96714, 41.86107], [71.97324, 41.87244], [71.98002, 41.87455], [71.98174, 41.86842], [71.97847, 41.85641]]]]}, "properties": {"id": "7F9z", "status": "validé", "pieces": [{"kind": "polygon", "ring": [[71.98002, 41.87455], [71.98174, 41.86842], [71.97847, 41.85641], [71.9741, 41.85404], [71.96714, 41.86107], [71.97324, 41.87244]]}, {"kind": "polygon", "ring": [[71.94809, 41.84906], [71.9486, 41.84094], [71.95616, 41.83397], [71.96036, 41.83525], [71.95418, 41.84618], [71.95118, 41.84989]]}, {"kind": "polygon", "ring": [[71.95556, 41.80833], [71.95487, 41.8215], [71.96088, 41.82195], [71.96054, 41.80756]]}]}}, {"type": "Feature", "geometry": {"type": "Polygon", "coordinates": [[[73.88546, 42.82516], [73.93696, 42.83699], [74.02142, 42.83749], [74.10038, 42.83019], [74.11823, 42.83221], [74.16424, 42.83824], [74.23359, 42.84932], [74.32285, 42.85963], [74.31942, 42.86642], [74.21848, 42.85863], [74.15257, 42.85208], [74.09763, 42.84051], [73.98159, 42.84957], [73.8858, 42.84051], [73.881, 42.83296], [73.88546, 42.82516]]]}, "properties": {"id": "7goI", "status": "validé", "pieces": [{"kind": "polygon", "ring": [[73.88546, 42.82516], [73.93696, 42.83699], [74.02142, 42.83749], [74.10038, 42.83019], [74.11823, 42.83221], [74.16424, 42.83824], [74.23359, 42.84932], [74.32285, 42.85963], [74.31942, 42.86642], [74.21848, 42.85863], [74.15257, 42.85208], [74.09763, 42.84051], [73.98159, 42.84957], [73.8858, 42.84051], [73.881, 42.83296]]}]}}, {"type": "Feature", "geometry": {"type": "Polygon", "coordinates": [[[77.00661, 42.11868], [76.97227, 42.11054], [76.90773, 42.11155], [76.79375, 42.12785], [76.73607, 42.14413], [76.6777, 42.18382], [76.60011, 42.225], [76.57883, 42.23923], [76.57333, 42.25498], [76.58295, 42.25904], [76.59462, 42.24126], [76.64062, 42.21788], [76.7244, 42.17313], [76.75735, 42.15228], [76.81229, 42.1477], [76.88164, 42.13548], [76.9146, 42.12428], [76.99356, 42.12836], [77.00661, 42.11868]]]}, "properties": {"id": "7lI0", "status": "validé", "pieces": [{"kind": "polygon", "ring": [[77.00661, 42.11868], [76.97227, 42.11054], [76.90773, 42.11155], [76.79375, 42.12785], [76.73607, 42.14413], [76.6777, 42.18382], [76.60011, 42.225], [76.57883, 42.23923], [76.57333, 42.25498], [76.58295, 42.25904], [76.59462, 42.24126], [76.64062, 42.21788], [76.7244, 42.17313], [76.75735, 42.15228], [76.81229, 42.1477], [76.88164, 42.13548], [76.9146, 42.12428], [76.99356, 42.12836]]}]}}, {"type": "Feature", "geometry": {"type": "Polygon", "coordinates": [[[77.80106, 42.27027], [77.92191, 42.31292], [78.03314, 42.33119], [78.18008, 42.43056], [78.37372, 42.47209], [78.36411, 42.49234], [78.17596, 42.46703], [78.05374, 42.39002], [77.98233, 42.35149], [77.79831, 42.2916], [77.80106, 42.27027]]]}, "properties": {"id": "8Juf", "status": "validé", "pieces": [{"kind": "polygon", "ring": [[77.80106, 42.27027], [77.92191, 42.31292], [78.03314, 42.33119], [78.18008, 42.43056], [78.37372, 42.47209], [78.36411, 42.49234], [78.17596, 42.46703], [78.05374, 42.39002], [77.98233, 42.35149], [77.79831, 42.2916]]}]}}, {"type": "Feature", "geometry": null, "properties": {"id": "935k", "status": "rejeté", "pieces": []}}, {"type": "Feature", "geometry": {"type": "Polygon", "coordinates": [[[74.65897, 42.68824], [74.64214, 42.67033], [74.64815, 42.65581], [74.63562, 42.64609], [74.61691, 42.64236], [74.61433, 42.63523], [74.61734, 42.63005], [74.6236, 42.62728], [74.62094, 42.63877], [74.643, 42.63895], [74.64695, 42.64337], [74.66686, 42.64571], [74.66703, 42.65795], [74.65459, 42.66136], [74.66034, 42.6806], [74.66326, 42.68463], [74.65897, 42.68824]]]}, "properties": {"id": "9QxP", "status": "validé", "pieces": [{"kind": "polygon", "ring": [[74.65897, 42.68824], [74.64214, 42.67033], [74.64815, 42.65581], [74.63562, 42.64609], [74.61691, 42.64236], [74.61433, 42.63523], [74.61734, 42.63005], [74.6236, 42.62728], [74.62094, 42.63877], [74.643, 42.63895], [74.64695, 42.64337], [74.66686, 42.64571], [74.66703, 42.65795], [74.65459, 42.66136], [74.66034, 42.6806], [74.66326, 42.68463]]}]}}, {"type": "Feature", "geometry": {"type": "Polygon", "coordinates": [[[74.01283, 41.4004], [74.06244, 41.40065], [74.09901, 41.39061], [74.15514, 41.39048], [74.16973, 41.3892], [74.21076, 41.37555], [74.21694, 41.38559], [74.21162, 41.38842], [74.20732, 41.38147], [74.16372, 41.39769], [74.11137, 41.39409], [74.07291, 41.40439], [74.01335, 41.40542], [74.01283, 41.4004]]]}, "properties": {"id": "9Vb2", "status": "validé", "pieces": [{"kind": "polygon", "ring": [[74.01283, 41.4004], [74.06244, 41.40065], [74.09901, 41.39061], [74.15514, 41.39048], [74.16973, 41.3892], [74.21076, 41.37555], [74.21694, 41.38559], [74.21162, 41.38842], [74.20732, 41.38147], [74.16372, 41.39769], [74.11137, 41.39409], [74.07291, 41.40439], [74.01335, 41.40542]]}]}}, {"type": "Feature", "geometry": {"type": "Polygon", "coordinates": [[[76.15585, 42.44686], [76.08582, 42.45598], [76.0144, 42.45699], [75.89012, 42.46256], [75.84618, 42.48635], [75.8139, 42.52987], [75.79948, 42.5779], [75.82077, 42.63094], [75.86609, 42.6572], [75.88051, 42.67486], [75.8448, 42.70715], [75.80086, 42.76311], [75.78438, 42.76563], [75.78438, 42.77973], [75.82283, 42.76966], [75.85922, 42.72379], [75.90935, 42.6683], [75.8654, 42.6264], [75.83588, 42.60165], [75.83176, 42.53391], [75.88806, 42.47927], [76.02196, 42.47927], [76.1483, 42.46205], [76.15585, 42.44686]]]}, "properties": {"id": "9gAY", "status": "validé", "pieces": [{"kind": "polygon", "ring": [[76.15585, 42.44686], [76.08582, 42.45598], [76.0144, 42.45699], [75.89012, 42.46256], [75.84618, 42.48635], [75.8139, 42.52987], [75.79948, 42.5779], [75.82077, 42.63094], [75.86609, 42.6572], [75.88051, 42.67486], [75.8448, 42.70715], [75.80086, 42.76311], [75.78438, 42.76563], [75.78438, 42.77973], [75.82283, 42.76966], [75.85922, 42.72379], [75.90935, 42.6683], [75.8654, 42.6264], [75.83588, 42.60165], [75.83176, 42.53391], [75.88806, 42.47927], [76.02196, 42.47927], [76.1483, 42.46205]]}]}}, {"type": "Feature", "geometry": {"type": "Polygon", "coordinates": [[[74.0815, 42.11965], [74.04888, 42.17562], [74.00597, 42.154], [73.95, 42.17893], [73.89954, 42.23485], [73.84392, 42.2727], [73.84254, 42.28641], [73.9016, 42.27422], [73.93456, 42.21147], [73.96374, 42.19393], [74.0118, 42.17537], [74.06502, 42.18503], [74.08699, 42.1347], [74.09008, 42.12503], [74.0815, 42.11965]]]}, "properties": {"id": "9vpL", "status": "validé", "pieces": [{"kind": "polygon", "ring": [[74.0815, 42.11965], [74.04888, 42.17562], [74.00597, 42.154], [73.95, 42.17893], [73.89954, 42.23485], [73.84392, 42.2727], [73.84254, 42.28641], [73.9016, 42.27422], [73.93456, 42.21147], [73.96374, 42.19393], [74.0118, 42.17537], [74.06502, 42.18503], [74.08699, 42.1347], [74.09008, 42.12503]]}]}}, {"type": "Feature", "geometry": null, "properties": {"id": "A2PE", "status": "validé", "pieces": [{"kind": "admin1", "code": "KGZ-1115"}]}}, {"type": "Feature", "geometry": {"type": "Polygon", "coordinates": [[[77.48142, 42.72313], [77.48142, 42.73725], [77.46597, 42.78059], [77.45155, 42.79973], [77.4416, 42.82742], [77.40349, 42.83747], [77.40469, 42.84414], [77.45602, 42.83042], [77.45808, 42.8162], [77.47335, 42.79404], [77.48983, 42.74366], [77.48932, 42.72513], [77.48142, 42.72313]]]}, "properties": {"id": "AFqz", "status": "validé", "pieces": [{"kind": "polygon", "ring": [[77.48142, 42.72313], [77.48142, 42.73725], [77.46597, 42.78059], [77.45155, 42.79973], [77.4416, 42.82742], [77.40349, 42.83747], [77.40469, 42.84414], [77.45602, 42.83042], [77.45808, 42.8162], [77.47335, 42.79404], [77.48983, 42.74366], [77.48932, 42.72513]]}]}}, {"type": "Feature", "geometry": {"type": "Polygon", "coordinates": [[[74.89294, 42.97176], [74.93071, 42.95368], [74.97723, 42.93462], [74.99611, 42.93085], [75.02769, 42.91879], [75.06615, 42.90974], [75.09464, 42.90144], [75.12245, 42.88585], [75.15747, 42.8768], [75.17189, 42.87303], [75.20004, 42.85844], [75.23094, 42.84737], [75.2639, 42.85668], [75.29789, 42.85391], [75.32295, 42.84762], [75.38681, 42.83907], [75.46165, 42.82598], [75.51899, 42.82699], [75.54302, 42.82397], [75.54817, 42.82699], [75.52654, 42.83428], [75.47813, 42.83479], [75.41016, 42.84234], [75.32742, 42.85592], [75.2718, 42.86397], [75.2203, 42.85718], [75.17155, 42.88007], [75.08057, 42.91703], [74.9968, 42.94266], [74.90856, 42.97179], [74.89586, 42.97631], [74.89294, 42.97176]]]}, "properties": {"id": "ALSa", "status": "validé", "pieces": [{"kind": "polygon", "ring": [[74.89294, 42.97176], [74.93071, 42.95368], [74.97723, 42.93462], [74.99611, 42.93085], [75.02769, 42.91879], [75.06615, 42.90974], [75.09464, 42.90144], [75.12245, 42.88585], [75.15747, 42.8768], [75.17189, 42.87303], [75.20004, 42.85844], [75.23094, 42.84737], [75.2639, 42.85668], [75.29789, 42.85391], [75.32295, 42.84762], [75.38681, 42.83907], [75.46165, 42.82598], [75.51899, 42.82699], [75.54302, 42.82397], [75.54817, 42.82699], [75.52654, 42.83428], [75.47813, 42.83479], [75.41016, 42.84234], [75.32742, 42.85592], [75.2718, 42.86397], [75.2203, 42.85718], [75.17155, 42.88007], [75.08057, 42.91703], [74.9968, 42.94266], [74.90856, 42.97179], [74.89586, 42.97631]]}]}}, {"type": "Feature", "geometry": {"type": "MultiPolygon", "coordinates": [[[[74.23136, 42.86666], [74.29573, 42.87836], [74.3965, 42.87836], [74.40216, 42.86666], [74.368, 42.84377], [74.27324, 42.83609], [74.23771, 42.84616], [74.23136, 42.86666]]], [[[74.71767, 42.88001], [74.76574, 42.879], [74.80625, 42.88981], [74.8399, 42.90666], [74.89895, 42.90037], [74.96521, 42.91093], [75.04623, 42.89685], [75.08881, 42.89937], [75.11215, 42.88629], [75.10529, 42.87548], [75.00401, 42.89736], [74.97414, 42.89685], [74.92676, 42.89283], [74.88007, 42.88554], [74.86462, 42.87397], [74.81209, 42.87851], [74.73793, 42.86392], [74.70978, 42.87197], [74.71767, 42.88001]]]]}, "properties": {"id": "AzjI", "status": "validé", "pieces": [{"kind": "polygon", "ring": [[74.70978, 42.87197], [74.73793, 42.86392], [74.81209, 42.87851], [74.86462, 42.87397], [74.88007, 42.88554], [74.92676, 42.89283], [74.97414, 42.89685], [75.00401, 42.89736], [75.10529, 42.87548], [75.11215, 42.88629], [75.08881, 42.89937], [75.04623, 42.89685], [74.96521, 42.91093], [74.89895, 42.90037], [74.8399, 42.90666], [74.80625, 42.88981], [74.76574, 42.879], [74.71767, 42.88001]]}, {"kind": "polygon", "ring": [[74.23771, 42.84616], [74.27324, 42.83609], [74.368, 42.84377], [74.40216, 42.86666], [74.3965, 42.87836], [74.29573, 42.87836], [74.23136, 42.86666]]}]}}, {"type": "Feature", "geometry": null, "properties": {"id": "BIp5", "status": "rejeté", "pieces": []}}, {"type": "Feature", "geometry": {"type": "Polygon", "coordinates": [[[75.09361, 41.39952], [75.54749, 41.35162], [75.68413, 41.38613], [75.8036, 41.42834], [75.88188, 41.42319], [75.87845, 41.44223], [75.77271, 41.44892], [75.57426, 41.37686], [75.35454, 41.39488], [75.10323, 41.41239], [75.09361, 41.39952]]]}, "properties": {"id": "CYYV", "status": "validé", "pieces": [{"kind": "polygon", "ring": [[75.09361, 41.39952], [75.54749, 41.35162], [75.68413, 41.38613], [75.8036, 41.42834], [75.88188, 41.42319], [75.87845, 41.44223], [75.77271, 41.44892], [75.57426, 41.37686], [75.35454, 41.39488], [75.10323, 41.41239]]}]}}, {"type": "Feature", "geometry": {"type": "Polygon", "coordinates": [[[78.20515, 42.45462], [78.21339, 42.42296], [78.21922, 42.39027], [78.21922, 42.35807], [78.23673, 42.32535], [78.24463, 42.33093], [78.22884, 42.36365], [78.22231, 42.42524], [78.20995, 42.45664], [78.20515, 42.45462]]]}, "properties": {"id": "D7Jq", "status": "validé", "pieces": [{"kind": "polygon", "ring": [[78.20515, 42.45462], [78.21339, 42.42296], [78.21922, 42.39027], [78.21922, 42.35807], [78.23673, 42.32535], [78.24463, 42.33093], [78.22884, 42.36365], [78.22231, 42.42524], [78.20995, 42.45664]]}]}}, {"type": "Feature", "geometry": {"type": "Polygon", "coordinates": [[[74.84779, 41.43247], [74.85672, 41.42012], [75.01637, 41.42292], [75.03078, 41.4273], [75.03044, 41.43476], [74.99268, 41.4363], [74.89277, 41.43347], [74.84779, 41.43247]]]}, "properties": {"id": "Dx0D", "status": "validé", "pieces": [{"kind": "polygon", "ring": [[74.84779, 41.43247], [74.85672, 41.42012], [75.01637, 41.42292], [75.03078, 41.4273], [75.03044, 41.43476], [74.99268, 41.4363], [74.89277, 41.43347]]}]}}, {"type": "Feature", "geometry": null, "properties": {"id": "E42x", "status": "rejeté", "pieces": []}}, {"type": "Feature", "geometry": null, "properties": {"id": "EsCZ", "status": "rejeté", "pieces": []}}, {"type": "Feature", "geometry": {"type": "Polygon", "coordinates": [[[76.0611, 41.41191], [76.0611, 41.44639], [75.9066, 41.44639], [75.9066, 41.41191], [76.0611, 41.41191]]]}, "properties": {"id": "Fajq", "status": "validé", "pieces": [{"kind": "rect", "bounds": [75.9066, 41.41191, 76.0611, 41.44639]}]}}, {"type": "Feature", "geometry": {"type": "Polygon", "coordinates": [[[71.95736, 41.79155], [71.96062, 41.78003], [71.97161, 41.7538], [71.97109, 41.72947], [71.97229, 41.70859], [71.99547, 41.6854], [72.0365, 41.66259], [72.0528, 41.65201], [72.07272, 41.62072], [72.10293, 41.59044], [72.11975, 41.58223], [72.14172, 41.55681], [72.15374, 41.55476], [72.14893, 41.57478], [72.1225, 41.59737], [72.10224, 41.61816], [72.05349, 41.66945], [72.05727, 41.69098], [72.01916, 41.69226], [71.98997, 41.70584], [71.98654, 41.74983], [71.9656, 41.79359], [71.95736, 41.79155]]]}, "properties": {"id": "Gofr", "status": "validé", "pieces": [{"kind": "polygon", "ring": [[71.95736, 41.79155], [71.96062, 41.78003], [71.97161, 41.7538], [71.97109, 41.72947], [71.97229, 41.70859], [71.99547, 41.6854], [72.0365, 41.66259], [72.0528, 41.65201], [72.07272, 41.62072], [72.10293, 41.59044], [72.11975, 41.58223], [72.14172, 41.55681], [72.15374, 41.55476], [72.14893, 41.57478], [72.1225, 41.59737], [72.10224, 41.61816], [72.05349, 41.66945], [72.05727, 41.69098], [72.01916, 41.69226], [71.98997, 41.70584], [71.98654, 41.74983], [71.9656, 41.79359]]}]}}, {"type": "Feature", "geometry": null, "properties": {"id": "HcN3", "status": "rejeté", "pieces": []}}, {"type": "Feature", "geometry": {"type": "Polygon", "coordinates": [[[75.16846, 40.85975], [75.35385, 40.97697], [75.71915, 41.13431], [75.99655, 41.25722], [76.06659, 41.31911], [76.00204, 41.3387], [75.81802, 41.22316], [75.71777, 41.20767], [75.66284, 41.14258], [75.233, 40.96142], [75.13275, 40.88155], [75.16846, 40.85975]]]}, "properties": {"id": "IwHC", "status": "validé", "pieces": [{"kind": "polygon", "ring": [[75.16846, 40.85975], [75.35385, 40.97697], [75.71915, 41.13431], [75.99655, 41.25722], [76.06659, 41.31911], [76.00204, 41.3387], [75.81802, 41.22316], [75.71777, 41.20767], [75.66284, 41.14258], [75.233, 40.96142], [75.13275, 40.88155]]}]}}, {"type": "Feature", "geometry": null, "properties": {"id": "JDm8", "status": "rejeté", "pieces": []}}, {"type": "Feature", "geometry": {"type": "Polygon", "coordinates": [[[76.00616, 41.40053], [75.97252, 41.38096], [76.01921, 41.33975], [76.03054, 41.31398], [76.04324, 41.3114], [76.05629, 41.32686], [76.02299, 41.36139], [76.01509, 41.40362], [76.00616, 41.40053]]]}, "properties": {"id": "KAvq", "status": "validé", "pieces": [{"kind": "polygon", "ring": [[76.00616, 41.40053], [75.97252, 41.38096], [76.01921, 41.33975], [76.03054, 41.31398], [76.04324, 41.3114], [76.05629, 41.32686], [76.02299, 41.36139], [76.01509, 41.40362]]}]}}, {"type": "Feature", "geometry": {"type": "MultiPolygon", "coordinates": [[[[75.69855, 41.69978], [75.69511, 41.77302], [75.67383, 41.86152], [75.71365, 41.94631], [75.62027, 42.0831], [75.63126, 42.16252], [75.66422, 42.17879], [75.67245, 42.15278], [75.66765, 42.12835], [75.73494, 42.0116], [75.78644, 41.96824], [75.7576, 41.91769], [75.74387, 41.86149], [75.78232, 41.82519], [75.73151, 41.75456], [75.73425, 41.70539], [75.69855, 41.69978]]], [[[75.84549, 42.27862], [75.86712, 42.29664], [75.87879, 42.28979], [75.85991, 42.26084], [75.84652, 42.26694], [75.84549, 42.27862]]]]}, "properties": {"id": "Kmab", "status": "validé", "pieces": [{"kind": "polygon", "ring": [[75.73425, 41.70539], [75.73151, 41.75456], [75.78232, 41.82519], [75.74387, 41.86149], [75.7576, 41.91769], [75.78644, 41.96824], [75.73494, 42.0116], [75.66765, 42.12835], [75.67245, 42.15278], [75.66422, 42.17879], [75.63126, 42.16252], [75.62027, 42.0831], [75.71365, 41.94631], [75.67383, 41.86152], [75.69511, 41.77302], [75.69855, 41.69978]]}, {"kind": "polygon", "ring": [[75.84652, 42.26694], [75.84549, 42.27862], [75.86712, 42.29664], [75.87879, 42.28979], [75.85991, 42.26084]]}]}}, {"type": "Feature", "geometry": null, "properties": {"id": "L1ht", "status": "validé", "pieces": [{"kind": "country"}]}}, {"type": "Feature", "geometry": null, "properties": {"id": "MVMj", "status": "validé", "pieces": [{"kind": "country"}]}}, {"type": "Feature", "geometry": {"type": "Polygon", "coordinates": [[[72.20078, 41.51991], [72.20146, 41.51271], [72.23991, 41.50475], [72.20043, 41.46027], [72.2176, 41.46233], [72.18876, 41.42863], [72.19769, 41.40547], [72.21622, 41.40135], [72.22206, 41.41139], [72.21794, 41.42374], [72.26566, 41.50526], [72.2279, 41.52479], [72.20592, 41.52556], [72.20078, 41.51991]]]}, "properties": {"id": "Ql12", "status": "validé", "pieces": [{"kind": "polygon", "ring": [[72.20078, 41.51991], [72.20146, 41.51271], [72.23991, 41.50475], [72.20043, 41.46027], [72.2176, 41.46233], [72.18876, 41.42863], [72.19769, 41.40547], [72.21622, 41.40135], [72.22206, 41.41139], [72.21794, 41.42374], [72.26566, 41.50526], [72.2279, 41.52479], [72.20592, 41.52556]]}]}}, {"type": "Feature", "geometry": {"type": "Polygon", "coordinates": [[[76.11053, 42.47431], [76.19019, 42.3324], [76.33575, 42.24507], [76.56921, 42.14744], [76.98944, 42.08023], [77.96997, 42.24303], [78.48358, 42.46418], [78.50281, 42.6159], [78.36548, 42.79545], [77.9425, 42.7753], [77.36847, 42.7491], [76.60217, 42.58963], [76.15173, 42.49455], [76.11053, 42.47431]]]}, "properties": {"id": "QvzN", "status": "validé", "pieces": [{"kind": "polygon", "ring": [[76.11053, 42.47431], [76.19019, 42.3324], [76.33575, 42.24507], [76.56921, 42.14744], [76.98944, 42.08023], [77.96997, 42.24303], [78.48358, 42.46418], [78.50281, 42.6159], [78.36548, 42.79545], [77.9425, 42.7753], [77.36847, 42.7491], [76.60217, 42.58963], [76.15173, 42.49455]]}]}}, {"type": "Feature", "geometry": {"type": "Polygon", "coordinates": [[[73.37357, 40.73175], [73.37357, 40.80089], [73.23692, 40.80089], [73.23692, 40.73175], [73.37357, 40.73175]]]}, "properties": {"id": "TQ4c", "status": "validé", "pieces": [{"kind": "rect", "bounds": [73.23692, 40.73175, 73.37357, 40.80089]}]}}, {"type": "Feature", "geometry": {"type": "MultiPolygon", "coordinates": [[[[72.45964, 41.04549], [72.55852, 41.04368], [72.62684, 41.07085], [72.73258, 41.07033], [72.74151, 41.08922], [72.83798, 41.12413], [72.84657, 41.11404], [72.76108, 41.06128], [72.82288, 40.98521], [72.8627, 40.94322], [72.85789, 40.93337], [72.83661, 40.94789], [72.8112, 40.9567], [72.79472, 40.99298], [72.74872, 41.05511], [72.62856, 41.05925], [72.59628, 41.03493], [72.50633, 41.01939], [72.44591, 41.03182], [72.39372, 41.03855], [72.35458, 41.05201], [72.36351, 41.06081], [72.45964, 41.04549]]], [[[72.32403, 41.06309], [72.33673, 41.05843], [72.3103, 41.04679], [72.26807, 41.04705], [72.26978, 41.05481], [72.29004, 41.05222], [72.32403, 41.06309]]], [[[72.20146, 41.19626], [72.20078, 41.09961], [72.21313, 41.0634], [72.19597, 41.06443], [72.18704, 41.09754], [72.18224, 41.14149], [72.18086, 41.21175], [72.20833, 41.23344], [72.2049, 41.28142], [72.22, 41.29019], [72.22687, 41.26492], [72.20146, 41.19626]]]]}, "properties": {"id": "TQWw", "status": "validé", "pieces": [{"kind": "polygon", "ring": [[72.22, 41.29019], [72.22687, 41.26492], [72.20146, 41.19626], [72.20078, 41.09961], [72.21313, 41.0634], [72.19597, 41.06443], [72.18704, 41.09754], [72.18224, 41.14149], [72.18086, 41.21175], [72.20833, 41.23344], [72.2049, 41.28142]]}, {"kind": "polygon", "ring": [[72.26978, 41.05481], [72.29004, 41.05222], [72.32403, 41.06309], [72.33673, 41.05843], [72.3103, 41.04679], [72.26807, 41.04705]]}, {"kind": "polygon", "ring": [[72.36351, 41.06081], [72.35458, 41.05201], [72.39372, 41.03855], [72.44591, 41.03182], [72.50633, 41.01939], [72.59628, 41.03493], [72.62856, 41.05925], [72.74872, 41.05511], [72.79472, 40.99298], [72.8112, 40.9567], [72.83661, 40.94789], [72.85789, 40.93337], [72.8627, 40.94322], [72.82288, 40.98521], [72.76108, 41.06128], [72.84657, 41.11404], [72.83798, 41.12413], [72.74151, 41.08922], [72.73258, 41.07033], [72.62684, 41.07085], [72.55852, 41.04368], [72.45964, 41.04549]]}]}}, {"type": "Feature", "geometry": {"type": "MultiPolygon", "coordinates": [[[[75.78094, 41.69921], [75.84068, 41.65102], [75.83107, 41.64333], [75.81184, 41.65717], [75.78369, 41.67973], [75.74112, 41.68998], [75.74799, 41.6946], [75.78094, 41.69921]]], [[[75.77271, 41.82873], [75.78506, 41.82004], [75.74661, 41.77296], [75.72533, 41.72278], [75.69443, 41.72739], [75.73494, 41.80009], [75.76172, 41.82362], [75.77271, 41.82873]]]]}, "properties": {"id": "UCOW", "status": "validé", "pieces": [{"kind": "polygon", "ring": [[75.76172, 41.82362], [75.77271, 41.82873], [75.78506, 41.82004], [75.74661, 41.77296], [75.72533, 41.72278], [75.69443, 41.72739], [75.73494, 41.80009]]}, {"kind": "polygon", "ring": [[75.74799, 41.6946], [75.74112, 41.68998], [75.78369, 41.67973], [75.81184, 41.65717], [75.83107, 41.64333], [75.84068, 41.65102], [75.78094, 41.69921]]}]}}, {"type": "Feature", "geometry": {"type": "Polygon", "coordinates": [[[72.24815, 41.50299], [72.19597, 41.50787], [72.1661, 41.55437], [72.13589, 41.55437], [72.13074, 41.58261], [72.09743, 41.59185], [72.08405, 41.61546], [72.06276, 41.63752], [72.07306, 41.64137], [72.08061, 41.63009], [72.09812, 41.61649], [72.1019, 41.60366], [72.14413, 41.58544], [72.15168, 41.5631], [72.18224, 41.5631], [72.20558, 41.52714], [72.25983, 41.50916], [72.24815, 41.50299]]]}, "properties": {"id": "Ux5q", "status": "validé", "pieces": [{"kind": "polygon", "ring": [[72.24815, 41.50299], [72.19597, 41.50787], [72.1661, 41.55437], [72.13589, 41.55437], [72.13074, 41.58261], [72.09743, 41.59185], [72.08405, 41.61546], [72.06276, 41.63752], [72.07306, 41.64137], [72.08061, 41.63009], [72.09812, 41.61649], [72.1019, 41.60366], [72.14413, 41.58544], [72.15168, 41.5631], [72.18224, 41.5631], [72.20558, 41.52714], [72.25983, 41.50916]]}]}}, {"type": "Feature", "geometry": {"type": "Polygon", "coordinates": [[[72.90905, 41.71347], [72.88193, 41.72627], [72.88845, 41.74471], [72.98561, 41.78746], [73.03848, 41.78541], [73.07968, 41.76571], [73.17753, 41.77108], [73.17719, 41.76443], [73.11367, 41.75342], [73.05943, 41.75188], [73.03059, 41.7721], [72.98355, 41.77159], [72.89909, 41.73063], [72.92484, 41.72243], [72.90905, 41.71347]]]}, "properties": {"id": "V1VN", "status": "validé", "pieces": [{"kind": "polygon", "ring": [[72.90905, 41.71347], [72.88193, 41.72627], [72.88845, 41.74471], [72.98561, 41.78746], [73.03848, 41.78541], [73.07968, 41.76571], [73.17753, 41.77108], [73.17719, 41.76443], [73.11367, 41.75342], [73.05943, 41.75188], [73.03059, 41.7721], [72.98355, 41.77159], [72.89909, 41.73063], [72.92484, 41.72243]]}]}}, {"type": "Feature", "geometry": null, "properties": {"id": "VN05", "status": "rejeté", "pieces": []}}, {"type": "Feature", "geometry": {"type": "Polygon", "coordinates": [[[77.0787, 42.6388], [77.09587, 42.64915], [77.17003, 42.6489], [77.23801, 42.65874], [77.30289, 42.66959], [77.35542, 42.68524], [77.42306, 42.69634], [77.4828, 42.71298], [77.55833, 42.71727], [77.64862, 42.72609], [77.70767, 42.7334], [77.77016, 42.73416], [77.88483, 42.73113], [77.92568, 42.73416], [78.0019, 42.73365], [78.06164, 42.7397], [78.1176, 42.74197], [78.16566, 42.75583], [78.22369, 42.77624], [78.26626, 42.78304], [78.3054, 42.77422], [78.32806, 42.75634], [78.3363, 42.75886], [78.30986, 42.78808], [78.24566, 42.78858], [78.19656, 42.77951], [78.10764, 42.75432], [77.97203, 42.74651], [77.8759, 42.74298], [77.79213, 42.74701], [77.66132, 42.73819], [77.55009, 42.7334], [77.3822, 42.70264], [77.28298, 42.68852], [77.16969, 42.66732], [77.0739, 42.65294], [77.0787, 42.6388]]]}, "properties": {"id": "WjWO", "status": "validé", "pieces": [{"kind": "polygon", "ring": [[77.0787, 42.6388], [77.09587, 42.64915], [77.17003, 42.6489], [77.23801, 42.65874], [77.30289, 42.66959], [77.35542, 42.68524], [77.42306, 42.69634], [77.4828, 42.71298], [77.55833, 42.71727], [77.64862, 42.72609], [77.70767, 42.7334], [77.77016, 42.73416], [77.88483, 42.73113], [77.92568, 42.73416], [78.0019, 42.73365], [78.06164, 42.7397], [78.1176, 42.74197], [78.16566, 42.75583], [78.22369, 42.77624], [78.26626, 42.78304], [78.3054, 42.77422], [78.32806, 42.75634], [78.3363, 42.75886], [78.30986, 42.78808], [78.24566, 42.78858], [78.19656, 42.77951], [78.10764, 42.75432], [77.97203, 42.74651], [77.8759, 42.74298], [77.79213, 42.74701], [77.66132, 42.73819], [77.55009, 42.7334], [77.3822, 42.70264], [77.28298, 42.68852], [77.16969, 42.66732], [77.0739, 42.65294]]}]}}, {"type": "Feature", "geometry": null, "properties": {"id": "Wxhl", "status": "rejeté", "pieces": []}}, {"type": "Feature", "geometry": {"type": "Polygon", "coordinates": [[[72.91489, 40.42873], [72.91489, 40.59728], [72.70889, 40.59728], [72.70889, 40.42873], [72.91489, 40.42873]]]}, "properties": {"id": "Xj8m", "status": "validé", "pieces": [{"kind": "rect", "bounds": [72.70889, 40.42873, 72.91489, 40.59728]}]}}, {"type": "Feature", "geometry": {"type": "Polygon", "coordinates": [[[72.17468, 41.46756], [72.14447, 41.32752], [72.14722, 41.17271], [72.18018, 41.16031], [72.18155, 41.10847], [72.1994, 41.06191], [72.21451, 41.04327], [72.34634, 41.05466], [72.41638, 41.02463], [72.48367, 41.01842], [72.66632, 41.04534], [72.74734, 41.04431], [72.81601, 40.93966], [72.94373, 40.87534], [73.01514, 40.8473], [73.10028, 40.84314], [73.1456, 40.82964], [73.19641, 40.80886], [73.23074, 40.72881], [73.07144, 40.65179], [72.93137, 40.73713], [72.86682, 40.71112], [72.76657, 40.64033], [72.73636, 40.58093], [72.66632, 40.55277], [72.65808, 40.49121], [72.71988, 40.39823], [72.83524, 40.34385], [72.9808, 40.36477], [73.23898, 40.26952], [73.27057, 40.30303], [73.28293, 40.5006], [73.41064, 40.74649], [73.33374, 40.86495], [73.125, 40.96246], [73.59467, 41.07949], [74.07806, 41.18495], [74.10828, 41.32118], [74.05334, 41.4962], [73.90778, 41.46329], [73.72375, 41.24071], [73.23212, 41.17669], [73.0069, 41.05465], [72.39716, 41.34798], [72.17468, 41.46756]]]}, "properties": {"id": "ZLuz", "status": "validé", "pieces": [{"kind": "polygon", "ring": [[72.17468, 41.46756], [72.14447, 41.32752], [72.14722, 41.17271], [72.18018, 41.16031], [72.18155, 41.10847], [72.1994, 41.06191], [72.21451, 41.04327], [72.34634, 41.05466], [72.41638, 41.02463], [72.48367, 41.01842], [72.66632, 41.04534], [72.74734, 41.04431], [72.81601, 40.93966], [72.94373, 40.87534], [73.01514, 40.8473], [73.10028, 40.84314], [73.1456, 40.82964], [73.19641, 40.80886], [73.23074, 40.72881], [73.07144, 40.65179], [72.93137, 40.73713], [72.86682, 40.71112], [72.76657, 40.64033], [72.73636, 40.58093], [72.66632, 40.55277], [72.65808, 40.49121], [72.71988, 40.39823], [72.83524, 40.34385], [72.9808, 40.36477], [73.23898, 40.26952], [73.27057, 40.30303], [73.28293, 40.5006], [73.41064, 40.74649], [73.33374, 40.86495], [73.125, 40.96246], [73.59467, 41.07949], [74.07806, 41.18495], [74.10828, 41.32118], [74.05334, 41.4962], [73.90778, 41.46329], [73.72375, 41.24071], [73.23212, 41.17669], [73.0069, 41.05465], [72.39716, 41.34798]]}]}}, {"type": "Feature", "geometry": {"type": "Polygon", "coordinates": [[[72.20764, 42.55723], [72.20764, 42.49046], [72.87781, 42.41146], [73.07281, 42.27753], [73.2431, 42.19012], [73.53149, 42.17181], [73.83911, 42.21046], [74.13574, 41.91083], [74.30054, 41.85564], [74.36371, 41.872], [74.35272, 41.94555], [74.05609, 42.23486], [73.927, 42.41551], [73.9325, 42.82159], [74.37744, 42.83368], [74.36646, 42.89807], [73.85834, 42.87192], [73.81989, 42.61787], [73.7265, 42.27956], [73.18817, 42.33235], [72.83386, 42.49451], [72.32025, 42.56735], [72.20764, 42.55723]]]}, "properties": {"id": "aBOx", "status": "validé", "pieces": [{"kind": "polygon", "ring": [[72.20764, 42.55723], [72.20764, 42.49046], [72.87781, 42.41146], [73.07281, 42.27753], [73.2431, 42.19012], [73.53149, 42.17181], [73.83911, 42.21046], [74.13574, 41.91083], [74.30054, 41.85564], [74.36371, 41.872], [74.35272, 41.94555], [74.05609, 42.23486], [73.927, 42.41551], [73.9325, 42.82159], [74.37744, 42.83368], [74.36646, 42.89807], [73.85834, 42.87192], [73.81989, 42.61787], [73.7265, 42.27956], [73.18817, 42.33235], [72.83386, 42.49451], [72.32025, 42.56735]]}]}}, {"type": "Feature", "geometry": {"type": "Polygon", "coordinates": [[[73.88649, 42.67969], [73.87928, 42.81654], [73.87825, 42.82636], [73.88512, 42.82711], [73.89095, 42.71551], [73.89919, 42.68373], [73.88649, 42.67969]]]}, "properties": {"id": "bX73", "status": "validé", "pieces": [{"kind": "polygon", "ring": [[73.88649, 42.67969], [73.87928, 42.81654], [73.87825, 42.82636], [73.88512, 42.82711], [73.89095, 42.71551], [73.89919, 42.68373]]}]}}, {"type": "Feature", "geometry": {"type": "Polygon", "coordinates": [[[72.81961, 41.11248], [72.83403, 41.12101], [72.86167, 41.13174], [72.87592, 41.15099], [72.89188, 41.16817], [72.91214, 41.19194], [72.94167, 41.22447], [72.97359, 41.24782], [72.99299, 41.24795], [73.00346, 41.25311], [73.00844, 41.25879], [73.01411, 41.25376], [73.00312, 41.24357], [72.98012, 41.24163], [72.94836, 41.21801], [72.9384, 41.19904], [72.91626, 41.17541], [72.88004, 41.13277], [72.83352, 41.10821], [72.81961, 41.11248]]]}, "properties": {"id": "cLzH", "status": "validé", "pieces": [{"kind": "polygon", "ring": [[72.81961, 41.11248], [72.83403, 41.12101], [72.86167, 41.13174], [72.87592, 41.15099], [72.89188, 41.16817], [72.91214, 41.19194], [72.94167, 41.22447], [72.97359, 41.24782], [72.99299, 41.24795], [73.00346, 41.25311], [73.00844, 41.25879], [73.01411, 41.25376], [73.00312, 41.24357], [72.98012, 41.24163], [72.94836, 41.21801], [72.9384, 41.19904], [72.91626, 41.17541], [72.88004, 41.13277], [72.83352, 41.10821]]}]}}, {"type": "Feature", "geometry": {"type": "Polygon", "coordinates": [[[75.27145, 40.94012], [75.27403, 40.93649], [75.25738, 40.89616], [75.26356, 40.87798], [75.27695, 40.84423], [75.29068, 40.83255], [75.28313, 40.8171], [75.29737, 40.81671], [75.31694, 40.838], [75.27969, 40.87888], [75.28261, 40.91533], [75.27763, 40.94333], [75.27557, 40.94333], [75.27145, 40.94012]]]}, "properties": {"id": "e8Ex", "status": "validé", "pieces": [{"kind": "polygon", "ring": [[75.27145, 40.94012], [75.27403, 40.93649], [75.25738, 40.89616], [75.26356, 40.87798], [75.27695, 40.84423], [75.29068, 40.83255], [75.28313, 40.8171], [75.29737, 40.81671], [75.31694, 40.838], [75.27969, 40.87888], [75.28261, 40.91533], [75.27763, 40.94333], [75.27557, 40.94333]]}]}}, {"type": "Feature", "geometry": {"type": "Polygon", "coordinates": [[[74.67545, 42.67841], [74.68145, 42.66668], [74.68369, 42.65014], [74.66497, 42.6297], [74.66068, 42.6153], [74.65965, 42.60596], [74.65931, 42.60419], [74.67081, 42.60255], [74.66995, 42.6273], [74.68798, 42.64409], [74.68952, 42.66617], [74.68025, 42.68232], [74.67562, 42.69001], [74.67064, 42.68762], [74.67545, 42.67841]]]}, "properties": {"id": "eBnM", "status": "validé", "pieces": [{"kind": "polygon", "ring": [[74.67545, 42.67841], [74.68145, 42.66668], [74.68369, 42.65014], [74.66497, 42.6297], [74.66068, 42.6153], [74.65965, 42.60596], [74.65931, 42.60419], [74.67081, 42.60255], [74.66995, 42.6273], [74.68798, 42.64409], [74.68952, 42.66617], [74.68025, 42.68232], [74.67562, 42.69001], [74.67064, 42.68762]]}]}}, {"type": "Feature", "geometry": {"type": "Polygon", "coordinates": [[[72.96192, 41.31939], [72.96192, 41.36603], [72.88399, 41.36603], [72.88399, 41.31939], [72.96192, 41.31939]]]}, "properties": {"id": "eZI4", "status": "validé", "pieces": [{"kind": "rect", "bounds": [72.88399, 41.31939, 72.96192, 41.36603]}]}}, {"type": "Feature", "geometry": {"type": "Polygon", "coordinates": [[[72.30377, 42.48993], [72.30377, 42.5562], [72.1891, 42.5562], [72.1891, 42.48993], [72.30377, 42.48993]]]}, "properties": {"id": "eqAn", "status": "validé", "pieces": [{"kind": "rect", "bounds": [72.1891, 42.48993, 72.30377, 42.5562]}]}}, {"type": "Feature", "geometry": null, "properties": {"id": "fmun", "status": "validé", "pieces": [{"kind": "country"}]}}, {"type": "Feature", "geometry": null, "properties": {"id": "g1EB", "status": "rejeté", "pieces": []}}, {"type": "Feature", "geometry": {"type": "Polygon", "coordinates": [[[75.54955, 42.82138], [75.59109, 42.81206], [75.67589, 42.79191], [75.68584, 42.7909], [75.73631, 42.77755], [75.75279, 42.77478], [75.77854, 42.76219], [75.82043, 42.76571], [75.80051, 42.77327], [75.77408, 42.77352], [75.72224, 42.78964], [75.62645, 42.81457], [75.55504, 42.82565], [75.54955, 42.82138]]]}, "properties": {"id": "gMAS", "status": "validé", "pieces": [{"kind": "polygon", "ring": [[75.54955, 42.82138], [75.59109, 42.81206], [75.67589, 42.79191], [75.68584, 42.7909], [75.73631, 42.77755], [75.75279, 42.77478], [75.77854, 42.76219], [75.82043, 42.76571], [75.80051, 42.77327], [75.77408, 42.77352], [75.72224, 42.78964], [75.62645, 42.81457], [75.55504, 42.82565]]}]}}, {"type": "Feature", "geometry": null, "properties": {"id": "hefH", "status": "rejeté", "pieces": []}}, {"type": "Feature", "geometry": {"type": "Polygon", "coordinates": [[[73.24654, 42.20796], [73.20671, 42.22042], [73.17135, 42.2631], [73.11951, 42.29255], [73.13084, 42.30753], [73.16689, 42.29103], [73.21632, 42.26716], [73.2019, 42.24811], [73.25546, 42.2133], [73.24654, 42.20796]]]}, "properties": {"id": "hr14", "status": "validé", "pieces": [{"kind": "polygon", "ring": [[73.24654, 42.20796], [73.20671, 42.22042], [73.17135, 42.2631], [73.11951, 42.29255], [73.13084, 42.30753], [73.16689, 42.29103], [73.21632, 42.26716], [73.2019, 42.24811], [73.25546, 42.2133]]}]}}, {"type": "Feature", "geometry": {"type": "Polygon", "coordinates": [[[72.82356, 40.49268], [72.82356, 40.55189], [72.76039, 40.55189], [72.76039, 40.49268], [72.82356, 40.49268]]]}, "properties": {"id": "iGgZ", "status": "validé", "pieces": [{"kind": "rect", "bounds": [72.76039, 40.49268, 72.82356, 40.55189]}]}}, {"type": "Feature", "geometry": {"type": "Polygon", "coordinates": [[[73.90091, 42.66329], [73.8755, 42.60446], [73.84495, 42.5572], [73.82057, 42.48588], [73.79448, 42.43195], [73.78555, 42.40661], [73.80512, 42.37924], [73.85078, 42.37341], [73.84975, 42.39546], [73.81268, 42.39977], [73.83362, 42.46031], [73.87207, 42.49372], [73.8834, 42.55645], [73.9064, 42.62618], [73.91018, 42.66455], [73.90091, 42.66329]]]}, "properties": {"id": "iTQ9", "status": "validé", "pieces": [{"kind": "polygon", "ring": [[73.90091, 42.66329], [73.8755, 42.60446], [73.84495, 42.5572], [73.82057, 42.48588], [73.79448, 42.43195], [73.78555, 42.40661], [73.80512, 42.37924], [73.85078, 42.37341], [73.84975, 42.39546], [73.81268, 42.39977], [73.83362, 42.46031], [73.87207, 42.49372], [73.8834, 42.55645], [73.9064, 42.62618], [73.91018, 42.66455]]}]}}, {"type": "Feature", "geometry": {"type": "Polygon", "coordinates": [[[72.94647, 42.19207], [72.96844, 42.15341], [73.13873, 42.1646], [73.45596, 42.1646], [73.80203, 42.22054], [73.86246, 42.25611], [73.88306, 42.30689], [73.81165, 42.33937], [73.78281, 42.28862], [73.67844, 42.24087], [73.2843, 42.22257], [73.24173, 42.27846], [73.17169, 42.3008], [73.14423, 42.26424], [72.95746, 42.28151], [72.94647, 42.19207]]]}, "properties": {"id": "inQ0", "status": "validé", "pieces": [{"kind": "polygon", "ring": [[72.94647, 42.19207], [72.96844, 42.15341], [73.13873, 42.1646], [73.45596, 42.1646], [73.80203, 42.22054], [73.86246, 42.25611], [73.88306, 42.30689], [73.81165, 42.33937], [73.78281, 42.28862], [73.67844, 42.24087], [73.2843, 42.22257], [73.24173, 42.27846], [73.17169, 42.3008], [73.14423, 42.26424], [72.95746, 42.28151]]}]}}, {"type": "Feature", "geometry": {"type": "Polygon", "coordinates": [[[78.48015, 42.43878], [78.48015, 42.53292], [78.30574, 42.53292], [78.30574, 42.43878], [78.48015, 42.43878]]]}, "properties": {"id": "k6Cg", "status": "validé", "pieces": [{"kind": "rect", "bounds": [78.30574, 42.43878, 78.48015, 42.53292]}]}}, {"type": "Feature", "geometry": {"type": "Polygon", "coordinates": [[[72.98012, 42.21284], [72.99316, 42.27635], [73.2019, 42.20267], [73.23074, 42.20776], [73.26439, 42.21386], [73.45528, 42.19861], [73.56926, 42.2103], [73.75397, 42.25146], [73.82744, 42.26467], [73.81027, 42.31748], [73.8343, 42.32813], [73.8501, 42.27737], [73.84666, 42.24842], [73.65097, 42.16962], [73.42918, 42.17012], [73.31451, 42.19047], [73.21495, 42.18182], [73.08586, 42.22148], [73.01994, 42.24537], [73.01376, 42.19911], [72.98012, 42.21284]]]}, "properties": {"id": "l8qj", "status": "validé", "pieces": [{"kind": "polygon", "ring": [[72.98012, 42.21284], [72.99316, 42.27635], [73.2019, 42.20267], [73.23074, 42.20776], [73.26439, 42.21386], [73.45528, 42.19861], [73.56926, 42.2103], [73.75397, 42.25146], [73.82744, 42.26467], [73.81027, 42.31748], [73.8343, 42.32813], [73.8501, 42.27737], [73.84666, 42.24842], [73.65097, 42.16962], [73.42918, 42.17012], [73.31451, 42.19047], [73.21495, 42.18182], [73.08586, 42.22148], [73.01994, 42.24537], [73.01376, 42.19911]]}]}}, {"type": "Feature", "geometry": null, "properties": {"id": "lmVO", "status": "rejeté", "pieces": []}}, {"type": "Feature", "geometry": {"type": "Polygon", "coordinates": [[[77.169, 42.1619], [77.19784, 42.16572], [77.23801, 42.16801], [77.28882, 42.17081], [77.30049, 42.17462], [77.38049, 42.16928], [77.38838, 42.17259], [77.38529, 42.18174], [77.2641, 42.18174], [77.18788, 42.17386], [77.16282, 42.16826], [77.169, 42.1619]]]}, "properties": {"id": "m7Dk", "status": "validé", "pieces": [{"kind": "polygon", "ring": [[77.169, 42.1619], [77.19784, 42.16572], [77.23801, 42.16801], [77.28882, 42.17081], [77.30049, 42.17462], [77.38049, 42.16928], [77.38838, 42.17259], [77.38529, 42.18174], [77.2641, 42.18174], [77.18788, 42.17386], [77.16282, 42.16826]]}]}}, {"type": "Feature", "geometry": {"type": "Polygon", "coordinates": [[[75.88188, 42.29359], [75.8884, 42.30425], [75.93681, 42.28927], [76.00994, 42.28775], [76.09303, 42.28496], [76.10779, 42.29334], [76.10744, 42.34612], [76.07037, 42.35804], [76.11328, 42.37984], [76.11603, 42.40041], [76.13834, 42.4293], [76.16306, 42.45158], [76.1562, 42.4526], [76.13869, 42.43791], [76.0865, 42.39687], [76.08994, 42.38495], [76.03363, 42.34946], [76.08856, 42.33094], [76.07792, 42.30404], [75.93544, 42.30556], [75.87811, 42.31013], [75.88188, 42.29359]]]}, "properties": {"id": "mPeu", "status": "validé", "pieces": [{"kind": "polygon", "ring": [[75.88188, 42.29359], [75.8884, 42.30425], [75.93681, 42.28927], [76.00994, 42.28775], [76.09303, 42.28496], [76.10779, 42.29334], [76.10744, 42.34612], [76.07037, 42.35804], [76.11328, 42.37984], [76.11603, 42.40041], [76.13834, 42.4293], [76.16306, 42.45158], [76.1562, 42.4526], [76.13869, 42.43791], [76.0865, 42.39687], [76.08994, 42.38495], [76.03363, 42.34946], [76.08856, 42.33094], [76.07792, 42.30404], [75.93544, 42.30556], [75.87811, 42.31013]]}]}}, {"type": "Feature", "geometry": {"type": "Polygon", "coordinates": [[[74.54945, 42.88282], [74.46327, 42.95394], [74.42963, 42.98834], [74.42963, 43.05157], [74.47495, 43.05634], [74.47529, 43.04881], [74.44164, 43.04405], [74.44679, 42.98884], [74.4849, 42.94892], [74.54224, 42.90218], [74.55666, 42.88533], [74.54945, 42.88282]]]}, "properties": {"id": "mt5a", "status": "validé", "pieces": [{"kind": "polygon", "ring": [[74.54945, 42.88282], [74.46327, 42.95394], [74.42963, 42.98834], [74.42963, 43.05157], [74.47495, 43.05634], [74.47529, 43.04881], [74.44164, 43.04405], [74.44679, 42.98884], [74.4849, 42.94892], [74.54224, 42.90218], [74.55666, 42.88533]]}]}}, {"type": "Feature", "geometry": null, "properties": {"id": "o27C", "status": "rejeté", "pieces": []}}, {"type": "Feature", "geometry": {"type": "Polygon", "coordinates": [[[74.49657, 42.65505], [74.49554, 42.63662], [74.49451, 42.62589], [74.48851, 42.61213], [74.4861, 42.59104], [74.48593, 42.57461], [74.48421, 42.56021], [74.48044, 42.56046], [74.47718, 42.58598], [74.47786, 42.61087], [74.4825, 42.62261], [74.49263, 42.6553], [74.49657, 42.65505]]]}, "properties": {"id": "oCfL", "status": "validé", "pieces": [{"kind": "polygon", "ring": [[74.49657, 42.65505], [74.49554, 42.63662], [74.49451, 42.62589], [74.48851, 42.61213], [74.4861, 42.59104], [74.48593, 42.57461], [74.48421, 42.56021], [74.48044, 42.56046], [74.47718, 42.58598], [74.47786, 42.61087], [74.4825, 42.62261], [74.49263, 42.6553]]}]}}, {"type": "Feature", "geometry": {"type": "Polygon", "coordinates": [[[76.0199, 41.4305], [76.01028, 41.46394], [75.96359, 41.45674], [75.97321, 41.4876], [75.88669, 41.54824], [75.86472, 41.55954], [75.84206, 41.61088], [75.81871, 41.64423], [75.84274, 41.65653], [75.85991, 41.62319], [75.86472, 41.60113], [75.89218, 41.56159], [75.96085, 41.52718], [75.99106, 41.48246], [76.03226, 41.46189], [76.03294, 41.43925], [76.0199, 41.4305]]]}, "properties": {"id": "oQxZ", "status": "validé", "pieces": [{"kind": "polygon", "ring": [[76.0199, 41.4305], [76.01028, 41.46394], [75.96359, 41.45674], [75.97321, 41.4876], [75.88669, 41.54824], [75.86472, 41.55954], [75.84206, 41.61088], [75.81871, 41.64423], [75.84274, 41.65653], [75.85991, 41.62319], [75.86472, 41.60113], [75.89218, 41.56159], [75.96085, 41.52718], [75.99106, 41.48246], [76.03226, 41.46189], [76.03294, 41.43925]]}]}}, {"type": "Feature", "geometry": {"type": "Polygon", "coordinates": [[[74.58206, 42.85697], [74.58052, 42.82992], [74.6406, 42.82816], [74.64506, 42.85458], [74.64352, 42.87005], [74.63287, 42.87081], [74.62652, 42.86402], [74.62652, 42.85597], [74.58206, 42.85697]]]}, "properties": {"id": "ojLs", "status": "validé", "pieces": [{"kind": "polygon", "ring": [[74.58206, 42.85697], [74.58052, 42.82992], [74.6406, 42.82816], [74.64506, 42.85458], [74.64352, 42.87005], [74.63287, 42.87081], [74.62652, 42.86402], [74.62652, 42.85597]]}]}}, {"type": "Feature", "geometry": null, "properties": {"id": "pwbe", "status": "rejeté", "pieces": []}}, {"type": "Feature", "geometry": {"type": "Polygon", "coordinates": [[[75.06271, 41.64344], [75.06271, 41.67523], [75.00349, 41.67523], [75.00349, 41.64344], [75.06271, 41.64344]]]}, "properties": {"id": "qE8L", "status": "validé", "pieces": [{"kind": "rect", "bounds": [75.00349, 41.64344, 75.06271, 41.67523]}]}}, {"type": "Feature", "geometry": {"type": "Polygon", "coordinates": [[[72.8627, 41.94781], [72.85446, 41.99195], [72.82322, 42.03708], [72.78854, 42.09161], [72.78854, 42.13972], [72.84794, 42.17076], [72.91798, 42.17457], [72.96673, 42.18296], [72.97565, 42.17203], [72.86888, 42.14557], [72.81361, 42.12954], [72.82047, 42.07072], [72.86545, 42.01898], [72.89738, 41.957], [72.8627, 41.94781]]]}, "properties": {"id": "qgtB", "status": "validé", "pieces": [{"kind": "polygon", "ring": [[72.8627, 41.94781], [72.85446, 41.99195], [72.82322, 42.03708], [72.78854, 42.09161], [72.78854, 42.13972], [72.84794, 42.17076], [72.91798, 42.17457], [72.96673, 42.18296], [72.97565, 42.17203], [72.86888, 42.14557], [72.81361, 42.12954], [72.82047, 42.07072], [72.86545, 42.01898], [72.89738, 41.957]]}]}}, {"type": "Feature", "geometry": {"type": "Polygon", "coordinates": [[[76.23447, 42.31898], [76.27533, 42.30883], [76.32374, 42.30781], [76.36425, 42.31568], [76.4106, 42.31263], [76.44939, 42.30832], [76.51566, 42.2804], [76.57402, 42.25348], [76.57917, 42.25906], [76.51978, 42.29055], [76.45935, 42.31416], [76.38382, 42.32431], [76.31378, 42.31669], [76.24134, 42.32608], [76.23447, 42.31898]]]}, "properties": {"id": "s0B1", "status": "validé", "pieces": [{"kind": "polygon", "ring": [[76.23447, 42.31898], [76.27533, 42.30883], [76.32374, 42.30781], [76.36425, 42.31568], [76.4106, 42.31263], [76.44939, 42.30832], [76.51566, 42.2804], [76.57402, 42.25348], [76.57917, 42.25906], [76.51978, 42.29055], [76.45935, 42.31416], [76.38382, 42.32431], [76.31378, 42.31669], [76.24134, 42.32608]]}]}}, {"type": "Feature", "geometry": {"type": "Polygon", "coordinates": [[[75.13412, 41.75852], [75.10151, 41.74533], [75.08366, 41.72689], [75.07061, 41.69282], [75.04898, 41.67398], [75.03834, 41.67757], [75.07095, 41.71819], [75.08177, 41.74277], [75.10134, 41.75276], [75.13086, 41.76185], [75.13412, 41.75852]]]}, "properties": {"id": "s7aU", "status": "validé", "pieces": [{"kind": "polygon", "ring": [[75.13412, 41.75852], [75.10151, 41.74533], [75.08366, 41.72689], [75.07061, 41.69282], [75.04898, 41.67398], [75.03834, 41.67757], [75.07095, 41.71819], [75.08177, 41.74277], [75.10134, 41.75276], [75.13086, 41.76185]]}]}}, {"type": "Feature", "geometry": {"type": "Polygon", "coordinates": [[[72.24747, 41.40319], [72.32025, 41.45208], [72.51183, 41.53125], [72.60727, 41.59857], [72.65121, 41.62012], [72.6416, 41.63141], [72.57225, 41.61037], [72.47681, 41.55184], [72.32918, 41.50149], [72.26395, 41.46189], [72.22618, 41.41558], [72.24747, 41.40319]]]}, "properties": {"id": "sEhC", "status": "validé", "pieces": [{"kind": "polygon", "ring": [[72.24747, 41.40319], [72.32025, 41.45208], [72.51183, 41.53125], [72.60727, 41.59857], [72.65121, 41.62012], [72.6416, 41.63141], [72.57225, 41.61037], [72.47681, 41.55184], [72.32918, 41.50149], [72.26395, 41.46189], [72.22618, 41.41558]]}]}}, {"type": "Feature", "geometry": {"type": "Polygon", "coordinates": [[[78.37234, 42.51266], [78.38264, 42.54908], [78.34557, 42.61528], [78.34076, 42.66123], [78.34351, 42.72328], [78.31741, 42.77167], [78.32634, 42.77771], [78.34419, 42.75504], [78.37921, 42.71572], [78.36411, 42.66073], [78.37921, 42.60973], [78.40118, 42.58093], [78.40118, 42.53795], [78.39981, 42.51064], [78.37234, 42.51266]]]}, "properties": {"id": "sLJC", "status": "validé", "pieces": [{"kind": "polygon", "ring": [[78.37234, 42.51266], [78.38264, 42.54908], [78.34557, 42.61528], [78.34076, 42.66123], [78.34351, 42.72328], [78.31741, 42.77167], [78.32634, 42.77771], [78.34419, 42.75504], [78.37921, 42.71572], [78.36411, 42.66073], [78.37921, 42.60973], [78.40118, 42.58093], [78.40118, 42.53795], [78.39981, 42.51064]]}]}}, {"type": "Feature", "geometry": {"type": "Polygon", "coordinates": [[[72.56676, 42.48221], [72.6368, 42.46247], [72.6931, 42.45234], [72.79678, 42.4336], [72.85515, 42.42397], [72.90047, 42.39864], [72.93686, 42.40371], [72.97394, 42.39458], [73.0117, 42.353], [73.05496, 42.32814], [73.12363, 42.30124], [73.13599, 42.31393], [73.0426, 42.37025], [72.98355, 42.41232], [72.90665, 42.42651], [72.8064, 42.45335], [72.68074, 42.47462], [72.57156, 42.49183], [72.56676, 42.48221]]]}, "properties": {"id": "tIVh", "status": "validé", "pieces": [{"kind": "polygon", "ring": [[72.56676, 42.48221], [72.6368, 42.46247], [72.6931, 42.45234], [72.79678, 42.4336], [72.85515, 42.42397], [72.90047, 42.39864], [72.93686, 42.40371], [72.97394, 42.39458], [73.0117, 42.353], [73.05496, 42.32814], [73.12363, 42.30124], [73.13599, 42.31393], [73.0426, 42.37025], [72.98355, 42.41232], [72.90665, 42.42651], [72.8064, 42.45335], [72.68074, 42.47462], [72.57156, 42.49183]]}]}}, {"type": "Feature", "geometry": {"type": "Polygon", "coordinates": [[[72.94922, 40.91269], [72.92862, 40.90128], [72.68967, 40.98941], [72.49466, 41.01531], [72.41638, 41.03395], [72.35046, 41.05052], [72.34497, 41.0588], [72.20901, 41.03602], [72.18361, 41.10528], [72.16919, 41.17041], [72.16644, 41.30057], [72.1994, 41.39538], [72.25983, 41.40362], [72.26257, 41.26137], [72.23511, 41.10434], [72.45209, 41.07537], [72.65808, 41.10434], [72.86407, 41.04639], [73.05359, 41.05674], [73.19916, 41.13329], [73.52051, 41.15603], [73.78693, 41.2428], [73.91052, 41.42215], [74.01764, 41.38508], [73.95721, 41.25931], [73.91327, 41.17877], [73.64685, 41.1002], [73.32001, 41.08778], [73.17169, 40.99046], [72.94922, 40.91269]]]}, "properties": {"id": "tkk4", "status": "validé", "pieces": [{"kind": "polygon", "ring": [[72.94922, 40.91269], [72.92862, 40.90128], [72.68967, 40.98941], [72.49466, 41.01531], [72.41638, 41.03395], [72.35046, 41.05052], [72.34497, 41.0588], [72.20901, 41.03602], [72.18361, 41.10528], [72.16919, 41.17041], [72.16644, 41.30057], [72.1994, 41.39538], [72.25983, 41.40362], [72.26257, 41.26137], [72.23511, 41.10434], [72.45209, 41.07537], [72.65808, 41.10434], [72.86407, 41.04639], [73.05359, 41.05674], [73.19916, 41.13329], [73.52051, 41.15603], [73.78693, 41.2428], [73.91052, 41.42215], [74.01764, 41.38508], [73.95721, 41.25931], [73.91327, 41.17877], [73.64685, 41.1002], [73.32001, 41.08778], [73.17169, 40.99046]]}]}}, {"type": "Feature", "geometry": {"type": "Polygon", "coordinates": [[[73.00312, 41.2541], [72.99488, 41.26494], [72.98321, 41.28867], [72.98355, 41.30001], [72.95918, 41.31367], [72.93583, 41.32656], [72.92931, 41.33377], [72.93325, 41.33673], [72.94441, 41.32991], [72.96347, 41.32153], [72.97617, 41.31418], [72.99007, 41.30722], [72.99694, 41.28286], [73.01119, 41.25861], [73.00312, 41.2541]]]}, "properties": {"id": "u5jL", "status": "validé", "pieces": [{"kind": "polygon", "ring": [[73.00312, 41.2541], [72.99488, 41.26494], [72.98321, 41.28867], [72.98355, 41.30001], [72.95918, 41.31367], [72.93583, 41.32656], [72.92931, 41.33377], [72.93325, 41.33673], [72.94441, 41.32991], [72.96347, 41.32153], [72.97617, 41.31418], [72.99007, 41.30722], [72.99694, 41.28286], [73.01119, 41.25861]]}]}}, {"type": "Feature", "geometry": {"type": "Polygon", "coordinates": [[[75.86643, 42.29565], [75.8757, 42.3152], [75.88463, 42.3185], [75.85579, 42.34108], [75.83725, 42.36162], [75.84171, 42.40142], [75.83141, 42.43486], [75.83725, 42.4693], [75.87193, 42.47208], [75.88188, 42.46955], [75.88428, 42.46348], [75.84755, 42.45436], [75.85682, 42.4184], [75.863, 42.39382], [75.86403, 42.35477], [75.8987, 42.31951], [75.89664, 42.31368], [75.87502, 42.30225], [75.87433, 42.29758], [75.86643, 42.29565]]]}, "properties": {"id": "v0fX", "status": "validé", "pieces": [{"kind": "polygon", "ring": [[75.86643, 42.29565], [75.8757, 42.3152], [75.88463, 42.3185], [75.85579, 42.34108], [75.83725, 42.36162], [75.84171, 42.40142], [75.83141, 42.43486], [75.83725, 42.4693], [75.87193, 42.47208], [75.88188, 42.46955], [75.88428, 42.46348], [75.84755, 42.45436], [75.85682, 42.4184], [75.863, 42.39382], [75.86403, 42.35477], [75.8987, 42.31951], [75.89664, 42.31368], [75.87502, 42.30225], [75.87433, 42.29758]]}]}}, {"type": "Feature", "geometry": null, "properties": {"id": "vu1b", "status": "validé", "pieces": [{"kind": "country"}]}}, {"type": "Feature", "geometry": null, "properties": {"id": "x8cG", "status": "rejeté", "pieces": []}}]}