{"type": "FeatureCollection", "features": [{"type": "Feature", "geometry": null, "properties": {"id": "12vs", "status": "validé", "pieces": [{"kind": "country"}]}}, {"type": "Feature", "geometry": null, "properties": {"id": "1jir", "status": "validé", "pieces": [{"kind": "country"}]}}, {"type": "Feature", "geometry": null, "properties": {"id": "2ft9", "status": "validé", "pieces": [{"kind": "country"}]}}, {"type": "Feature", "geometry": null, "properties": {"id": "58U2", "status": "validé", "pieces": [{"kind": "country"}]}}, {"type": "Feature", "geometry": null, "properties": {"id": "8REn", "status": "validé", "pieces": [{"kind": "country"}]}}, {"type": "Feature", "geometry": null, "properties": {"id": "9dSM", "status": "rejeté", "pieces": []}}, {"type": "Feature", "geometry": {"type": "MultiPolygon", "coordinates": [[[[129.13879, 35.98383], [129.16077, 36.17465], [129.23767, 36.2234], [129.35303, 36.21454], [129.38269, 36.21208], [129.38234, 36.20185], [129.38575, 36.18545], [129.39186, 36.17634], [129.39853, 36.17267], [129.4039, 36.16763], [129.40968, 36.13361], [129.41708, 36.10757], [129.42514, 36.10301], [129.43051, 36.0974], [129.42677, 36.08177], [129.41871, 36.07298], [129.4083, 36.06891], [129.39845, 36.06631], [129.38178, 36.05517], [129.38086, 36.04149], [129.40194, 36.02566], [129.41708, 36.01191], [129.43305, 35.99611], [129.45333, 35.99329], [129.47902, 36.00959], [129.54257, 36.0659], [129.5548, 36.08248], [129.5713, 36.07185], [129.57496, 36.05467], [129.58204, 36.03681], [129.58725, 36.01691], [129.57164, 35.99712], [129.53559, 35.93904], [129.53284, 35.91301], [129.52328, 35.85185], [129.25964, 35.88602], [129.13879, 35.98383]]], [[[127.32605, 38.09798], [127.36725, 38.1023], [127.43591, 38.11094], [127.44141, 38.06773], [127.39471, 38.05692], [127.31506, 38.00934], [127.29584, 37.9639], [127.2876, 37.89677], [127.25739, 37.8621], [127.2052, 37.85343], [127.13928, 37.86427], [127.09259, 37.9206], [127.10632, 37.99636], [127.11182, 38.04395], [127.1283, 38.1131], [127.18048, 38.16924], [127.27661, 38.17788], [127.32605, 38.09798]]]]}, "properties": {"id": "B9By", "status": "validé", "pieces": [{"kind": "polygon", "ring": [[127.18048, 38.16924], [127.1283, 38.1131], [127.11182, 38.04395], [127.10632, 37.99636], [127.09259, 37.9206], [127.13928, 37.86427], [127.2052, 37.85343], [127.25739, 37.8621], [127.2876, 37.89677], [127.29584, 37.9639], [127.31506, 38.00934], [127.39471, 38.05692], [127.44141, 38.06773], [127.43591, 38.11094], [127.36725, 38.1023], [127.32605, 38.09798], [127.27661, 38.17788]]}, {"kind": "polygon", "ring": [[129.5343, 35.85042], [129.25964, 35.88602], [129.13879, 35.98383], [129.16077, 36.17465], [129.23767, 36.2234], [129.35303, 36.21454], [129.56726, 36.19681], [129.68262, 36.11701]]}, {"kind": "clip"}]}}, {"type": "Feature", "geometry": null, "properties": {"id": "H0At", "status": "validé", "pieces": [{"kind": "country"}]}}, {"type": "Feature", "geometry": null, "properties": {"id": "Jwgp", "status": "validé", "pieces": [{"kind": "country"}]}}, {"type": "Feature", "geometry": null, "properties": {"id": "Mihv", "status": "validé", "pieces": [{"kind": "country"}]}}, {"type": "Feature", "geometry": null, "properties": {"id": "N0GR", "status": "validé", "pieces": [{"kind": "country"}]}}, {"type": "Feature", "geometry": null, "properties": {"id": "VrkV", "status": "validé", "pieces": [{"kind": "country"}]}}, {"type": "Feature", "geometry": null, "properties": {"id": "WNFu", "status": "validé", "pieces": [{"kind": "country"}]}}, {"type": "Feature", "geometry": null, "properties": {"id": "Yc5y", "status": "validé", "pieces": [{"kind": "country"}]}}, {"type": "Feature", "geometry": {"type": "MultiPolygon", "coordinates": [[[[128.89435, 35.32694], [129.07562, 35.34933], [129.21295, 35.38068], [129.2926, 35.37396], [129.30908, 35.33813], [129.30908, 35.32929], [129.29272, 35.31605], [129.26921, 35.31677], [129.26413, 35.30243], [129.2624, 35.28399], [129.25648, 35.27442], [129.24973, 35.26623], [129.25538, 35.25259], [129.25571, 35.24697], [129.24439, 35.22822], [129.22848, 35.20053], [129.21069, 35.183], [129.20108, 35.16663], [129.19435, 35.1555], [129.1789, 35.15576], [129.16748, 35.15617], [129.15341, 35.15428], [129.14308, 35.15477], [129.1322, 35.15077], [129.12026, 35.14962], [129.1193, 35.13557], [129.12728, 35.12582], [129.1286, 35.11415], [129.12347, 35.10084], [129.10108, 35.09228], [129.08297, 35.10518], [129.072, 35.11262], [129.06384, 35.12085], [129.03763, 35.09783], [129.02569, 35.0795], [129.02186, 35.05998], [129.01638, 35.05682], [129.01345, 35.05593], [129.00896, 35.06513], [128.99703, 35.07573], [128.99802, 35.06628], [128.99972, 35.05178], [128.99115, 35.04919], [128.98941, 35.05269], [128.98511, 35.05428], [128.97486, 35.04865], [128.96513, 35.04365], [128.95845, 35.05039], [128.95036, 35.07291], [128.9537, 35.0932], [128.96134, 35.11895], [128.96278, 35.13339], [128.95801, 35.1369], [128.94894, 35.12597], [128.91842, 35.08188], [128.90459, 35.0811], [128.90364, 35.10139], [128.90459, 35.12051], [128.89793, 35.1213], [128.88925, 35.10545], [128.88219, 35.08149], [128.8574, 35.08382], [128.79155, 35.08295], [128.78777, 35.10132], [128.78108, 35.11106], [128.77377, 35.08876], [128.79272, 35.2171], [128.89435, 35.32694]]], [[[126.50963, 37.52664], [126.53298, 37.5229], [126.53777, 37.52074], [126.54347, 37.51887], [126.54908, 37.51862], [126.55511, 37.51768], [126.5633, 37.51444], [126.56723, 37.51123], [126.57114, 37.50635], [126.57644, 37.50237], [126.58058, 37.49563], [126.58307, 37.49038], [126.57763, 37.48859], [126.56918, 37.48359], [126.56577, 37.47997], [126.54829, 37.47664], [126.54056, 37.47766], [126.52993, 37.47368], [126.50772, 37.46597], [126.50963, 37.52664]]], [[[127.23267, 37.52949], [127.15027, 37.38129], [126.97723, 37.37474], [126.82892, 37.4249], [126.77948, 37.57519], [126.8866, 37.68174], [127.02667, 37.76426], [127.19147, 37.68826], [127.23267, 37.52949]]]]}, "properties": {"id": "Z2aO", "status": "validé", "pieces": [{"kind": "polygon", "ring": [[126.50963, 37.52664], [126.50757, 37.46129], [126.59271, 37.47436], [126.58104, 37.5152]]}, {"kind": "polygon", "ring": [[126.8866, 37.68174], [126.77948, 37.57519], [126.82892, 37.4249], [126.97723, 37.37474], [127.15027, 37.38129], [127.23267, 37.52949], [127.19147, 37.68826], [127.02667, 37.76426]]}, {"kind": "polygon", "ring": [[128.7735, 35.08691], [128.79272, 35.2171], [128.89435, 35.32694], [129.07562, 35.34933], [129.21295, 35.38068], [129.2926, 35.37396], [129.30908, 35.33813], [129.30908, 35.1453], [128.93005, 35.03073]]}, {"kind": "clip"}]}}, {"type": "Feature", "geometry": null, "properties": {"id": "eD76", "status": "validé", "pieces": [{"kind": "country"}]}}, {"type": "Feature", "geometry": null, "properties": {"id": "emG8", "status": "validé", "pieces": [{"kind": "country"}]}}, {"type": "Feature", "geometry": {"type": "Polygon", "coordinates": [[[126.89621, 35.7212], [126.89621, 35.7719], [126.78703, 35.7719], [126.78703, 35.7212], [126.89621, 35.7212]]]}, "properties": {"id": "fM0T", "status": "validé", "pieces": [{"kind": "rect", "bounds": [126.78703, 35.7212, 126.89621, 35.7719]}]}}, {"type": "Feature", "geometry": {"type": "Polygon", "coordinates": [[[126.95362, 33.46503], [126.94898, 33.4606], [126.9393, 33.45824], [126.93238, 33.45132], [126.93287, 33.4455], [126.93922, 33.43626], [126.93922, 33.43085], [126.9358, 33.42548], [126.92726, 33.41608], [126.92555, 33.41315], [126.90751, 33.39572], [126.87353, 33.37305], [126.86299, 33.35414], [126.84796, 33.33207], [126.84724, 33.32322], [126.84059, 33.31021], [126.81593, 33.30781], [126.80641, 33.30362], [126.78014, 33.30555], [126.74179, 33.28021], [126.64072, 33.26467], [126.60692, 33.24061], [126.56553, 33.23291], [126.52121, 33.23662], [126.47056, 33.22871], [126.42846, 33.23931], [126.33343, 33.23817], [126.30379, 33.22656], [126.28614, 33.20038], [126.27003, 33.19758], [126.25392, 33.20405], [126.23115, 33.23492], [126.20082, 33.24355], [126.1714, 33.26935], [126.16114, 33.30077], [126.17897, 33.34146], [126.19581, 33.36668], [126.20623, 33.37556], [126.24098, 33.39277], [126.27066, 33.43587], [126.29795, 33.44172], [126.31057, 33.46448], [126.35736, 33.47796], [126.45938, 33.50238], [126.48493, 33.52076], [126.58243, 33.52928], [126.6488, 33.55343], [126.66469, 33.54968], [126.7455, 33.56056], [126.79236, 33.5638], [126.82337, 33.55944], [126.83522, 33.54458], [126.84995, 33.53498], [126.8982, 33.51899], [126.91285, 33.50658], [126.9227, 33.47663], [126.93238, 33.46491], [126.93702, 33.46947], [126.94337, 33.47382], [126.94606, 33.47801], [126.95362, 33.46503]]]}, "properties": {"id": "k7Qt", "status": "validé", "pieces": [{"kind": "polygon", "ring": [[126.18896, 33.51918], [126.03516, 33.22571], [126.20544, 33.097], [126.84265, 33.16598], [127.00195, 33.41841], [126.95251, 33.63355], [126.46362, 33.63812]]}, {"kind": "clip"}]}}, {"type": "Feature", "geometry": {"type": "MultiPolygon", "coordinates": [[[[128.89184713071506, 35.110197082295784], [128.889252, 35.105455], [128.882186, 35.081485], [128.857402, 35.083823], [128.85314941406253, 35.08376681293353], [128.85314941406253, 35.1056730691567], [128.89184713071506, 35.110197082295784]]], [[[128.9420874724407, 35.11607050289369], [128.91842, 35.081882], [128.904593, 35.081099], [128.903635, 35.10139], [128.9041445574861, 35.11163473095058], [128.9420874724407, 35.11607050289369]]], [[[128.962778, 35.133386], [128.971074, 35.145814], [128.986267, 35.161265], [129.000529, 35.179042], [129.0071832757465, 35.21669325502863], [128.77624511718753, 35.34360186533227], [128.04565429687503, 35.495256878575894], [128.24340820312503, 35.700806599946375], [128.55102539062503, 35.61150202402093], [128.94653320312503, 35.68295367445277], [129.29809570312503, 35.53998649659476], [129.35878927648614, 35.45265083196549], [129.357758, 35.451809], [129.359223, 35.444648], [129.360503, 35.426056], [129.364581, 35.40687], [129.355262, 35.394572], [129.346787, 35.382273], [129.35513, 35.372667], [129.361814, 35.367172], [129.360444, 35.353583], [129.339875, 35.348074], [129.320513, 35.338545], [129.29272, 35.316049], [129.269206, 35.316767], [129.264126, 35.302428], [129.2624, 35.283989], [129.256484, 35.274422], [129.249735, 35.266228], [129.255382, 35.25259], [129.255707, 35.246975], [129.24439, 35.228218], [129.2361826626952, 35.213936273649814], [129.16449962103832, 35.19741963315676], [129.177159, 35.184054], [129.197313, 35.167234], [129.19927389550406, 35.16363919156703], [129.194347, 35.155504], [129.178896, 35.155757], [129.16748, 35.156168], [129.153412, 35.154283], [129.143077, 35.154771], [129.132205, 35.150766], [129.120257, 35.149617], [129.119297, 35.135567], [129.127281, 35.125825], [129.128601, 35.114148], [129.12347, 35.100845], [129.101078, 35.092276], [129.082966, 35.105185], [129.071998, 35.112617], [129.06384, 35.120847], [129.037627, 35.097834], [129.02569, 35.079502], [129.021862, 35.059983], [129.0154671347601, 35.05629498941023], [129.013754, 35.055307], [129.008957, 35.065134], [128.997026, 35.075728], [128.998015, 35.066281], [129.000402, 35.04595], [128.99277, 35.045963], [128.989405, 35.052694], [128.985112, 35.054284], [128.974864, 35.048651], [128.965125, 35.043649], [128.958447, 35.050387], [128.95036, 35.072913], [128.953704, 35.093202], [128.961341, 35.118955], [128.962778, 35.133386]]]]}, "properties": {"id": "man-d948", "status": "validé", "pieces": [{"kind": "admin1", "code": "KOR-2507"}, {"kind": "polygon", "ring": [[128.85315, 35.03371], [128.85315, 35.10567], [129.00696, 35.12365], [129.02344, 34.9932]]}, {"kind": "clip"}, {"kind": "polygon", "ring": [[129.07837, 35.17757], [128.77625, 35.3436], [128.04565, 35.49526], [128.24341, 35.70081], [128.55103, 35.6115], [128.94653, 35.68295], [129.2981, 35.53999], [129.48486, 35.27124]]}]}}, {"type": "Feature", "geometry": {"type": "Polygon", "coordinates": [[[126.95362, 33.46503], [126.94898, 33.4606], [126.9393, 33.45824], [126.93238, 33.45132], [126.93287, 33.4455], [126.93922, 33.43626], [126.93922, 33.43085], [126.9358, 33.42548], [126.92726, 33.41608], [126.92555, 33.41315], [126.90751, 33.39572], [126.87353, 33.37305], [126.86299, 33.35414], [126.84796, 33.33207], [126.84724, 33.32322], [126.84059, 33.31021], [126.81593, 33.30781], [126.80641, 33.30362], [126.78014, 33.30555], [126.74179, 33.28021], [126.64072, 33.26467], [126.60692, 33.24061], [126.56553, 33.23291], [126.52121, 33.23662], [126.47056, 33.22871], [126.42846, 33.23931], [126.33343, 33.23817], [126.30379, 33.22656], [126.28614, 33.20038], [126.27003, 33.19758], [126.25392, 33.20405], [126.23115, 33.23492], [126.20082, 33.24355], [126.1714, 33.26935], [126.16114, 33.30077], [126.17897, 33.34146], [126.19581, 33.36668], [126.20623, 33.37556], [126.24098, 33.39277], [126.27066, 33.43587], [126.29795, 33.44172], [126.31057, 33.46448], [126.35736, 33.47796], [126.45938, 33.50238], [126.48493, 33.52076], [126.58243, 33.52928], [126.6488, 33.55343], [126.66469, 33.54968], [126.7455, 33.56056], [126.79236, 33.5638], [126.82337, 33.55944], [126.83522, 33.54458], [126.84995, 33.53498], [126.8982, 33.51899], [126.91285, 33.50658], [126.9227, 33.47663], [126.93238, 33.46491], [126.93702, 33.46947], [126.94337, 33.47382], [126.94606, 33.47801], [126.95362, 33.46503]]]}, "properties": {"id": "ncQh", "status": "validé", "pieces": [{"kind": "polygon", "ring": [[126.2439, 33.56495], [126.00769, 33.23948], [126.39221, 33.0924], [126.87012, 33.24867], [127.08984, 33.54664], [126.53503, 33.71123]]}, {"kind": "clip"}]}}, {"type": "Feature", "geometry": null, "properties": {"id": "oOJ9", "status": "validé", "pieces": [{"kind": "country"}]}}, {"type": "Feature", "geometry": null, "properties": {"id": "rElj", "status": "rejeté", "pieces": []}}, {"type": "Feature", "geometry": null, "properties": {"id": "rh1W", "status": "validé", "pieces": [{"kind": "country"}]}}, {"type": "Feature", "geometry": null, "properties": {"id": "syDX", "status": "validé", "pieces": [{"kind": "country"}]}}, {"type": "Feature", "geometry": null, "properties": {"id": "uhX5", "status": "validé", "pieces": [{"kind": "country"}]}}, {"type": "Feature", "geometry": null, "properties": {"id": "uvcQ", "status": "validé", "pieces": [{"kind": "country"}]}}, {"type": "Feature", "geometry": {"type": "Polygon", "coordinates": [[[126.47804, 35.09474], [126.47804, 35.15817], [126.39153, 35.15817], [126.39153, 35.09474], [126.47804, 35.09474]]]}, "properties": {"id": "zUjA", "status": "validé", "pieces": [{"kind": "rect", "bounds": [126.39153, 35.09474, 126.47804, 35.15817]}]}}]}