{"type": "FeatureCollection", "features": [{"type": "Feature", "geometry": {"type": "Polygon", "coordinates": [[[61.23779, 53.26864], [65.98389, 52.87275], [65.896, 52.13748], [65.91797, 51.56769], [67.78564, 51.21134], [69.14795, 51.30755], [71.23535, 51.75842], [72.48779, 52.43306], [73.30078, 53.24236], [73.23486, 53.60881], [73.71826, 53.9721], [73.08105, 53.95918], [72.75146, 54.0882], [71.6748, 54.12683], [70.92773, 54.16543], [71.12549, 54.61303], [71.08154, 54.90452], [70.77393, 55.29408], [70.29053, 55.16883], [69.60938, 55.36904], [68.92822, 55.40647], [68.18115, 55.16883], [68.18115, 55.01801], [67.45605, 54.87926], [66.07178, 54.63846], [65.47852, 54.65117], [65.12695, 54.38345], [64.00635, 54.28099], [62.40234, 53.99793], [61.23779, 54.07532], [61.06201, 53.81679], [61.06201, 53.62184], [61.23779, 53.26864]]]}, "properties": {"id": "0CRH", "status": "validé", "pieces": [{"kind": "polygon", "ring": [[61.23779, 53.26864], [65.98389, 52.87275], [65.896, 52.13748], [65.91797, 51.56769], [67.78564, 51.21134], [69.14795, 51.30755], [71.23535, 51.75842], [72.48779, 52.43306], [73.30078, 53.24236], [73.23486, 53.60881], [73.71826, 53.9721], [73.08105, 53.95918], [72.75146, 54.0882], [71.6748, 54.12683], [70.92773, 54.16543], [71.12549, 54.61303], [71.08154, 54.90452], [70.77393, 55.29408], [70.29053, 55.16883], [69.60938, 55.36904], [68.92822, 55.40647], [68.18115, 55.16883], [68.18115, 55.01801], [67.45605, 54.87926], [66.07178, 54.63846], [65.47852, 54.65117], [65.12695, 54.38345], [64.00635, 54.28099], [62.40234, 53.99793], [61.23779, 54.07532], [61.06201, 53.81679], [61.06201, 53.62184]]}]}}, {"type": "Feature", "geometry": {"type": "Polygon", "coordinates": [[[79.76074, 51.07051], [78.77197, 50.77977], [78.88184, 50.3753], [79.36523, 50.03793], [80.31006, 49.9108], [80.72754, 49.99559], [81.23291, 50.3893], [81.18896, 50.73809], [80.5957, 50.95997], [80.39795, 50.95997], [80.02441, 50.77977], [79.76074, 51.07051]]]}, "properties": {"id": "1BP4", "status": "validé", "pieces": [{"kind": "polygon", "ring": [[79.76074, 51.07051], [78.77197, 50.77977], [78.88184, 50.3753], [79.36523, 50.03793], [80.31006, 49.9108], [80.72754, 49.99559], [81.23291, 50.3893], [81.18896, 50.73809], [80.5957, 50.95997], [80.39795, 50.95997], [80.02441, 50.77977]]}]}}, {"type": "Feature", "geometry": {"type": "Polygon", "coordinates": [[[54.17633, 46.83991], [54.17633, 47.05732], [53.85773, 47.05732], [53.85773, 46.83991], [54.17633, 46.83991]]]}, "properties": {"id": "1MSo", "status": "validé", "pieces": [{"kind": "rect", "bounds": [53.85773, 46.83991, 54.17633, 47.05732]}]}}, {"type": "Feature", "geometry": null, "properties": {"id": "2N2f", "status": "validé", "pieces": [{"kind": "country"}]}}, {"type": "Feature", "geometry": null, "properties": {"id": "2bcA", "status": "rejeté", "pieces": []}}, {"type": "Feature", "geometry": null, "properties": {"id": "362d", "status": "validé", "pieces": [{"kind": "admin1", "code": "KAZ-3236"}, {"kind": "admin1", "code": "KAZ-3198"}, {"kind": "admin1", "code": "KAZ-3197"}]}}, {"type": "Feature", "geometry": {"type": "Polygon", "coordinates": [[[67.68677, 47.91789], [67.84058, 47.67444], [68.62061, 47.99878], [70.7959, 48.47422], [71.77368, 48.64865], [72.72949, 48.83694], [73.07007, 49.3189], [73.07007, 49.44758], [72.74048, 49.41901], [72.48779, 49.12524], [72.29004, 49.02452], [70.72998, 48.70666], [69.19189, 48.343], [67.68677, 47.91789]]]}, "properties": {"id": "538W", "status": "validé", "pieces": [{"kind": "polygon", "ring": [[67.68677, 47.91789], [67.84058, 47.67444], [68.62061, 47.99878], [70.7959, 48.47422], [71.77368, 48.64865], [72.72949, 48.83694], [73.07007, 49.3189], [73.07007, 49.44758], [72.74048, 49.41901], [72.48779, 49.12524], [72.29004, 49.02452], [70.72998, 48.70666], [69.19189, 48.343]]}]}}, {"type": "Feature", "geometry": {"type": "Polygon", "coordinates": [[[57.42554, 49.36144], [57.74963, 49.02773], [58.27148, 48.51749], [58.9856, 47.97266], [59.57336, 47.78852], [60.16663, 48.03511], [60.72693, 48.3572], [61.01807, 48.49202], [60.92468, 48.54658], [60.55115, 48.49202], [59.66675, 47.94324], [58.44727, 48.90517], [57.79907, 49.30419], [57.50793, 49.45433], [57.42554, 49.36144]]]}, "properties": {"id": "67Pc", "status": "validé", "pieces": [{"kind": "polygon", "ring": [[57.42554, 49.36144], [57.74963, 49.02773], [58.27148, 48.51749], [58.9856, 47.97266], [59.57336, 47.78852], [60.16663, 48.03511], [60.72693, 48.3572], [61.01807, 48.49202], [60.92468, 48.54658], [60.55115, 48.49202], [59.66675, 47.94324], [58.44727, 48.90517], [57.79907, 49.30419], [57.50793, 49.45433]]}]}}, {"type": "Feature", "geometry": null, "properties": {"id": "6CPu", "status": "rejeté", "pieces": []}}, {"type": "Feature", "geometry": null, "properties": {"id": "6NZ7", "status": "rejeté", "pieces": []}}, {"type": "Feature", "geometry": null, "properties": {"id": "7F8W", "status": "validé", "pieces": [{"kind": "country"}]}}, {"type": "Feature", "geometry": {"type": "Polygon", "coordinates": [[[69.87305, 41.69315], [69.69727, 42.36206], [70.02686, 43.08812], [71.7627, 43.18428], [72.94922, 43.32825], [73.8501, 43.58334], [75.03662, 43.63105], [75.58594, 43.43998], [75.84961, 43.03998], [75.65186, 42.86314], [75.16846, 42.92751], [74.24561, 43.31227], [73.45459, 42.95966], [73.47656, 42.47556], [72.50977, 42.63735], [71.71875, 42.81483], [71.10352, 42.70195], [70.92773, 42.37829], [70.88379, 42.26461], [69.87305, 41.69315]]]}, "properties": {"id": "7vOg", "status": "validé", "pieces": [{"kind": "polygon", "ring": [[69.87305, 41.69315], [69.69727, 42.36206], [70.02686, 43.08812], [71.7627, 43.18428], [72.94922, 43.32825], [73.8501, 43.58334], [75.03662, 43.63105], [75.58594, 43.43998], [75.84961, 43.03998], [75.65186, 42.86314], [75.16846, 42.92751], [74.24561, 43.31227], [73.45459, 42.95966], [73.47656, 42.47556], [72.50977, 42.63735], [71.71875, 42.81483], [71.10352, 42.70195], [70.92773, 42.37829], [70.88379, 42.26461]]}]}}, {"type": "Feature", "geometry": null, "properties": {"id": "8SED", "status": "rejeté", "pieces": []}}, {"type": "Feature", "geometry": {"type": "Polygon", "coordinates": [[[52.57507, 41.86624], [52.62451, 43.34531], [52.85522, 43.27739], [52.88818, 42.60612], [52.73987, 42.00104], [52.57507, 41.86624]]]}, "properties": {"id": "AQeC", "status": "validé", "pieces": [{"kind": "polygon", "ring": [[52.57507, 41.86624], [52.62451, 43.34531], [52.85522, 43.27739], [52.88818, 42.60612], [52.73987, 42.00104]]}]}}, {"type": "Feature", "geometry": {"type": "Polygon", "coordinates": [[[51.71265, 51.02825], [51.71265, 51.33459], [51.1908, 51.33459], [51.1908, 51.02825], [51.71265, 51.02825]]]}, "properties": {"id": "DEVq", "status": "validé", "pieces": [{"kind": "rect", "bounds": [51.1908, 51.02825, 51.71265, 51.33459]}]}}, {"type": "Feature", "geometry": null, "properties": {"id": "Dsyl", "status": "rejeté", "pieces": []}}, {"type": "Feature", "geometry": {"type": "Polygon", "coordinates": [[[77.12746, 43.36441], [77.13707, 43.34045], [77.14771, 43.33196], [77.17072, 43.34295], [77.1611, 43.36191], [77.13844, 43.3689], [77.12746, 43.36441]]]}, "properties": {"id": "F1Ro", "status": "validé", "pieces": [{"kind": "polygon", "ring": [[77.12746, 43.36441], [77.13707, 43.34045], [77.14771, 43.33196], [77.17072, 43.34295], [77.1611, 43.36191], [77.13844, 43.3689]]}]}}, {"type": "Feature", "geometry": null, "properties": {"id": "GFIL", "status": "validé", "pieces": [{"kind": "country"}]}}, {"type": "Feature", "geometry": null, "properties": {"id": "IyXt", "status": "validé", "pieces": [{"kind": "country"}]}}, {"type": "Feature", "geometry": null, "properties": {"id": "Jgrt", "status": "validé", "pieces": [{"kind": "country"}]}}, {"type": "Feature", "geometry": {"type": "Polygon", "coordinates": [[[78.79395, 44.77479], [78.79395, 45.17488], [77.96997, 45.17488], [77.96997, 44.77479], [78.79395, 44.77479]]]}, "properties": {"id": "LH5C", "status": "validé", "pieces": [{"kind": "rect", "bounds": [77.96997, 44.77479, 78.79395, 45.17488]}]}}, {"type": "Feature", "geometry": null, "properties": {"id": "MhXe", "status": "validé", "pieces": [{"kind": "country"}]}}, {"type": "Feature", "geometry": null, "properties": {"id": "O76W", "status": "validé", "pieces": [{"kind": "country"}]}}, {"type": "Feature", "geometry": null, "properties": {"id": "OjvE", "status": "validé", "pieces": [{"kind": "country"}]}}, {"type": "Feature", "geometry": null, "properties": {"id": "PuS7", "status": "validé", "pieces": [{"kind": "country"}]}}, {"type": "Feature", "geometry": null, "properties": {"id": "RN95", "status": "validé", "pieces": [{"kind": "country"}]}}, {"type": "Feature", "geometry": null, "properties": {"id": "TwXs", "status": "rejeté", "pieces": []}}, {"type": "Feature", "geometry": {"type": "Polygon", "coordinates": [[[70.13672, 52.88434], [70.21637, 52.73166], [70.32349, 52.63513], [70.46631, 52.64013], [70.57068, 52.54172], [70.73822, 52.28551], [70.8371, 52.26031], [70.914, 52.12062], [70.96344, 51.92464], [70.97717, 51.72101], [71.11725, 51.47885], [71.34796, 51.25259], [71.41663, 51.26118], [71.34521, 51.47714], [71.16119, 51.58645], [71.0321, 52.08483], [70.92773, 52.31033], [70.66956, 52.5447], [70.48828, 52.70635], [70.36469, 52.67973], [70.26031, 52.82098], [70.19165, 52.93696], [70.13672, 52.88434]]]}, "properties": {"id": "ULz4", "status": "validé", "pieces": [{"kind": "polygon", "ring": [[70.13672, 52.88434], [70.21637, 52.73166], [70.32349, 52.63513], [70.46631, 52.64013], [70.57068, 52.54172], [70.73822, 52.28551], [70.8371, 52.26031], [70.914, 52.12062], [70.96344, 51.92464], [70.97717, 51.72101], [71.11725, 51.47885], [71.34796, 51.25259], [71.41663, 51.26118], [71.34521, 51.47714], [71.16119, 51.58645], [71.0321, 52.08483], [70.92773, 52.31033], [70.66956, 52.5447], [70.48828, 52.70635], [70.36469, 52.67973], [70.26031, 52.82098], [70.19165, 52.93696]]}]}}, {"type": "Feature", "geometry": null, "properties": {"id": "UPTe", "status": "rejeté", "pieces": []}}, {"type": "Feature", "geometry": null, "properties": {"id": "V4BR", "status": "validé", "pieces": [{"kind": "country"}]}}, {"type": "Feature", "geometry": {"type": "Polygon", "coordinates": [[[68.41461, 43.21638], [68.41461, 43.36426], [68.14545, 43.36426], [68.14545, 43.21638], [68.41461, 43.21638]]]}, "properties": {"id": "W4LU", "status": "validé", "pieces": [{"kind": "rect", "bounds": [68.14545, 43.21638, 68.41461, 43.36426]}]}}, {"type": "Feature", "geometry": null, "properties": {"id": "WT7C", "status": "rejeté", "pieces": []}}, {"type": "Feature", "geometry": {"type": "Polygon", "coordinates": [[[77.73926, 42.91309], [77.82715, 43.56908], [78.11279, 44.28093], [78.55225, 44.54764], [80.09033, 44.76636], [80.46387, 44.24947], [80.50781, 43.68037], [80.66162, 43.48946], [80.00244, 43.34587], [79.29932, 43.34587], [79.51904, 42.86481], [79.54102, 42.62286], [79.12354, 42.8165], [78.44238, 42.8165], [77.73926, 42.91309]]]}, "properties": {"id": "YIaa", "status": "validé", "pieces": [{"kind": "polygon", "ring": [[77.73926, 42.91309], [77.82715, 43.56908], [78.11279, 44.28093], [78.55225, 44.54764], [80.09033, 44.76636], [80.46387, 44.24947], [80.50781, 43.68037], [80.66162, 43.48946], [80.00244, 43.34587], [79.29932, 43.34587], [79.51904, 42.86481], [79.54102, 42.62286], [79.12354, 42.8165], [78.44238, 42.8165]]}]}}, {"type": "Feature", "geometry": {"type": "Polygon", "coordinates": [[[68.02734, 40.82426], [68.4668, 41.54515], [68.92822, 42.00378], [69.47754, 42.31313], [69.96094, 42.50773], [70.53223, 42.55628], [70.83984, 42.3456], [70.68604, 42.11793], [70.29053, 41.98746], [69.80713, 41.70932], [69.27979, 41.49581], [68.98315, 41.20536], [68.7085, 40.96532], [68.48877, 41.03991], [68.64258, 40.69942], [68.5437, 40.54105], [68.26904, 40.67444], [68.02734, 40.82426]]]}, "properties": {"id": "YYgc", "status": "validé", "pieces": [{"kind": "polygon", "ring": [[68.02734, 40.82426], [68.4668, 41.54515], [68.92822, 42.00378], [69.47754, 42.31313], [69.96094, 42.50773], [70.53223, 42.55628], [70.83984, 42.3456], [70.68604, 42.11793], [70.29053, 41.98746], [69.80713, 41.70932], [69.27979, 41.49581], [68.98315, 41.20536], [68.7085, 40.96532], [68.48877, 41.03991], [68.64258, 40.69942], [68.5437, 40.54105], [68.26904, 40.67444]]}]}}, {"type": "Feature", "geometry": {"type": "Polygon", "coordinates": [[[77.30255, 43.04126], [77.30255, 43.24559], [76.82739, 43.24559], [76.82739, 43.04126], [77.30255, 43.04126]]]}, "properties": {"id": "Zys3", "status": "validé", "pieces": [{"kind": "rect", "bounds": [76.82739, 43.04126, 77.30255, 43.24559]}]}}, {"type": "Feature", "geometry": {"type": "Polygon", "coordinates": [[[65.65979, 44.73178], [66.76392, 44.13582], [67.89001, 43.35039], [68.9502, 42.88071], [69.23035, 42.57416], [69.41162, 42.38382], [69.47754, 42.4041], [69.44458, 42.49324], [69.28528, 42.69535], [69.19739, 42.86864], [68.63708, 43.17773], [68.07678, 43.43745], [67.59338, 43.78333], [67.16492, 44.09569], [66.41785, 44.4064], [66.01685, 44.73498], [65.67627, 44.84019], [65.65979, 44.73178]]]}, "properties": {"id": "cODv", "status": "validé", "pieces": [{"kind": "polygon", "ring": [[65.65979, 44.73178], [66.76392, 44.13582], [67.89001, 43.35039], [68.9502, 42.88071], [69.23035, 42.57416], [69.41162, 42.38382], [69.47754, 42.4041], [69.44458, 42.49324], [69.28528, 42.69535], [69.19739, 42.86864], [68.63708, 43.17773], [68.07678, 43.43745], [67.59338, 43.78333], [67.16492, 44.09569], [66.41785, 44.4064], [66.01685, 44.73498], [65.67627, 44.84019]]}]}}, {"type": "Feature", "geometry": {"type": "Polygon", "coordinates": [[[71.65283, 51.07777], [71.84784, 51.00009], [72.32849, 50.65324], [72.50153, 50.55741], [72.61139, 50.53473], [72.66632, 50.34764], [72.86682, 50.17916], [72.80914, 50.08941], [72.8421, 50.03653], [73.02338, 49.93945], [73.07007, 49.95005], [72.97394, 50.04359], [72.9245, 50.0524], [72.85858, 50.08941], [72.93823, 50.16157], [72.89703, 50.29505], [72.75146, 50.48573], [72.58118, 50.63746], [72.30377, 50.79912], [72.04834, 50.93946], [71.85059, 51.07593], [71.716, 51.12937], [71.65283, 51.07777]]]}, "properties": {"id": "dgAW", "status": "validé", "pieces": [{"kind": "polygon", "ring": [[71.65283, 51.07777], [71.84784, 51.00009], [72.32849, 50.65324], [72.50153, 50.55741], [72.61139, 50.53473], [72.66632, 50.34764], [72.86682, 50.17916], [72.80914, 50.08941], [72.8421, 50.03653], [73.02338, 49.93945], [73.07007, 49.95005], [72.97394, 50.04359], [72.9245, 50.0524], [72.85858, 50.08941], [72.93823, 50.16157], [72.89703, 50.29505], [72.75146, 50.48573], [72.58118, 50.63746], [72.30377, 50.79912], [72.04834, 50.93946], [71.85059, 51.07593], [71.716, 51.12937]]}]}}, {"type": "Feature", "geometry": null, "properties": {"id": "djXz", "status": "rejeté", "pieces": []}}, {"type": "Feature", "geometry": {"type": "MultiPolygon", "coordinates": [[[[69.78516, 42.26463], [69.80713, 42.78261], [70.15869, 43.23232], [70.5542, 43.44], [71.32324, 43.67874], [71.69678, 43.82153], [72.6416, 43.74224], [73.54248, 43.59926], [73.91602, 43.24832], [73.52051, 43.03999], [73.45459, 42.44317], [73.08105, 42.54034], [72.59766, 42.6212], [71.69678, 42.81484], [71.14746, 42.65352], [70.90576, 42.42696], [70.88379, 42.29713], [70.57617, 42.02034], [70.00488, 41.85696], [69.78516, 42.26463]]], [[[75.49805, 43.53561], [76.09131, 44.32647], [76.9043, 44.90494], [77.7832, 45.5546], [79.16748, 45.98357], [80.00244, 46.19683], [82.17773, 45.80013], [82.2876, 45.72352], [82.35352, 45.46224], [82.57324, 45.35431], [82.55127, 45.19975], [81.84814, 45.2307], [81.73828, 45.36974], [80.04639, 44.90494], [80.33203, 44.67112], [80.79346, 43.20031], [80.37598, 43.05604], [80.22217, 42.24837], [79.78271, 42.49177], [79.4751, 42.45937], [79.12354, 42.75036], [78.33252, 42.9436], [77.43164, 42.91144], [76.61865, 42.95968], [76.31104, 42.86316], [75.60791, 42.89535], [75.43213, 42.81484], [75.12451, 42.9436], [75.49805, 43.53561]]]]}, "properties": {"id": "gVH6", "status": "validé", "pieces": [{"kind": "polygon", "ring": [[75.12451, 42.9436], [75.49805, 43.53561], [76.09131, 44.32647], [76.9043, 44.90494], [77.7832, 45.5546], [79.16748, 45.98357], [80.00244, 46.19683], [82.17773, 45.80013], [82.2876, 45.72352], [82.35352, 45.46224], [82.57324, 45.35431], [82.55127, 45.19975], [81.84814, 45.2307], [81.73828, 45.36974], [80.04639, 44.90494], [80.33203, 44.67112], [80.79346, 43.20031], [80.37598, 43.05604], [80.22217, 42.24837], [79.78271, 42.49177], [79.4751, 42.45937], [79.12354, 42.75036], [78.33252, 42.9436], [77.43164, 42.91144], [76.61865, 42.95968], [76.31104, 42.86316], [75.60791, 42.89535], [75.43213, 42.81484]]}, {"kind": "polygon", "ring": [[70.00488, 41.85696], [69.78516, 42.26463], [69.80713, 42.78261], [70.15869, 43.23232], [70.5542, 43.44], [71.32324, 43.67874], [71.69678, 43.82153], [72.6416, 43.74224], [73.54248, 43.59926], [73.91602, 43.24832], [73.52051, 43.03999], [73.45459, 42.44317], [73.08105, 42.54034], [72.59766, 42.6212], [71.69678, 42.81484], [71.14746, 42.65352], [70.90576, 42.42696], [70.88379, 42.29713], [70.57617, 42.02034]]}]}}, {"type": "Feature", "geometry": null, "properties": {"id": "hnfg", "status": "validé", "pieces": [{"kind": "country"}]}}, {"type": "Feature", "geometry": {"type": "Polygon", "coordinates": [[[66.34232, 51.09678], [66.51535, 51.11143], [66.66367, 51.13125], [66.80786, 51.20957], [67.08664, 51.34096], [67.15805, 51.42064], [67.2789, 51.53264], [67.37503, 51.5975], [67.46292, 51.62307], [67.43408, 51.64687], [67.34619, 51.62471], [67.20062, 51.56502], [67.08527, 51.39061], [66.87927, 51.28255], [66.62933, 51.18284], [66.39862, 51.13636], [66.34369, 51.13463], [66.34232, 51.09678]]]}, "properties": {"id": "iCTz", "status": "validé", "pieces": [{"kind": "polygon", "ring": [[66.34232, 51.09678], [66.51535, 51.11143], [66.66367, 51.13125], [66.80786, 51.20957], [67.08664, 51.34096], [67.15805, 51.42064], [67.2789, 51.53264], [67.37503, 51.5975], [67.46292, 51.62307], [67.43408, 51.64687], [67.34619, 51.62471], [67.20062, 51.56502], [67.08527, 51.39061], [66.87927, 51.28255], [66.62933, 51.18284], [66.39862, 51.13636], [66.34369, 51.13463]]}]}}, {"type": "Feature", "geometry": {"type": "Polygon", "coordinates": [[[70.29602, 52.9489], [70.29602, 53.0402], [70.14565, 53.0402], [70.14565, 52.9489], [70.29602, 52.9489]]]}, "properties": {"id": "iCsU", "status": "validé", "pieces": [{"kind": "rect", "bounds": [70.14565, 52.9489, 70.29602, 53.0402]}]}}, {"type": "Feature", "geometry": {"type": "Polygon", "coordinates": [[[71.73523, 51.23169], [72.37244, 51.72074], [73.62488, 51.63903], [74.64661, 51.6799], [75.26184, 51.77513], [75.78369, 51.83625], [76.3385, 52.00895], [76.745, 52.20456], [76.66809, 52.26509], [75.65186, 51.89389], [75.10803, 51.81928], [74.16321, 51.73434], [73.16345, 51.76494], [72.47131, 51.78872], [71.99341, 51.75814], [71.7572, 51.47858], [71.56494, 51.31757], [71.73523, 51.23169]]]}, "properties": {"id": "iVpz", "status": "validé", "pieces": [{"kind": "polygon", "ring": [[71.73523, 51.23169], [72.37244, 51.72074], [73.62488, 51.63903], [74.64661, 51.6799], [75.26184, 51.77513], [75.78369, 51.83625], [76.3385, 52.00895], [76.745, 52.20456], [76.66809, 52.26509], [75.65186, 51.89389], [75.10803, 51.81928], [74.16321, 51.73434], [73.16345, 51.76494], [72.47131, 51.78872], [71.99341, 51.75814], [71.7572, 51.47858], [71.56494, 51.31757]]}]}}, {"type": "Feature", "geometry": null, "properties": {"id": "jwH7", "status": "rejeté", "pieces": []}}, {"type": "Feature", "geometry": null, "properties": {"id": "k30n", "status": "rejeté", "pieces": []}}, {"type": "Feature", "geometry": {"type": "Polygon", "coordinates": [[[73.14697, 49.64547], [73.48755, 48.81723], [73.77869, 48.02283], [74.22913, 47.68755], [74.83337, 47.00299], [73.74573, 46.43834], [73.3667, 46.04339], [73.27332, 45.63791], [73.63586, 45.30677], [73.93799, 45.00863], [74.06982, 44.78692], [74.42139, 44.57219], [75.12451, 44.28594], [75.56946, 44.23089], [76.33301, 43.83217], [76.60767, 43.49454], [76.68457, 43.45868], [76.72302, 43.49055], [76.60767, 43.68543], [76.30005, 44.01804], [75.70679, 44.3488], [74.9707, 44.52914], [74.27307, 44.84535], [73.58643, 45.66094], [73.87207, 46.27539], [74.87183, 46.80791], [75.14648, 47.03293], [74.69604, 47.58395], [74.16321, 47.97507], [73.81165, 48.47985], [73.7677, 48.88227], [73.50403, 49.29579], [73.27881, 49.68812], [73.14697, 49.64547]]]}, "properties": {"id": "kDlO", "status": "validé", "pieces": [{"kind": "polygon", "ring": [[73.14697, 49.64547], [73.48755, 48.81723], [73.77869, 48.02283], [74.22913, 47.68755], [74.83337, 47.00299], [73.74573, 46.43834], [73.3667, 46.04339], [73.27332, 45.63791], [73.63586, 45.30677], [73.93799, 45.00863], [74.06982, 44.78692], [74.42139, 44.57219], [75.12451, 44.28594], [75.56946, 44.23089], [76.33301, 43.83217], [76.60767, 43.49454], [76.68457, 43.45868], [76.72302, 43.49055], [76.60767, 43.68543], [76.30005, 44.01804], [75.70679, 44.3488], [74.9707, 44.52914], [74.27307, 44.84535], [73.58643, 45.66094], [73.87207, 46.27539], [74.87183, 46.80791], [75.14648, 47.03293], [74.69604, 47.58395], [74.16321, 47.97507], [73.81165, 48.47985], [73.7677, 48.88227], [73.50403, 49.29579], [73.27881, 49.68812]]}]}}, {"type": "Feature", "geometry": {"type": "Polygon", "coordinates": [[[78.75549, 45.3656], [78.9093, 45.37138], [79.3515, 45.38681], [79.57397, 45.35402], [79.84039, 45.4003], [80.29907, 45.51385], [80.39246, 45.74807], [80.76599, 45.84378], [80.88684, 46.1185], [81.47461, 45.85143], [81.83716, 45.6138], [82.49084, 45.22067], [82.54578, 45.2381], [82.43317, 45.30187], [82.35901, 45.40412], [82.11182, 45.61192], [81.87286, 45.77301], [81.33453, 46.06713], [80.91431, 46.2269], [80.76599, 46.20411], [80.49133, 45.89925], [80.13153, 45.80746], [80.08759, 45.63304], [79.67834, 45.49464], [78.85712, 45.43881], [78.70605, 45.41954], [78.75549, 45.3656]]]}, "properties": {"id": "kPVj", "status": "validé", "pieces": [{"kind": "polygon", "ring": [[78.75549, 45.3656], [78.9093, 45.37138], [79.3515, 45.38681], [79.57397, 45.35402], [79.84039, 45.4003], [80.29907, 45.51385], [80.39246, 45.74807], [80.76599, 45.84378], [80.88684, 46.1185], [81.47461, 45.85143], [81.83716, 45.6138], [82.49084, 45.22067], [82.54578, 45.2381], [82.43317, 45.30187], [82.35901, 45.40412], [82.11182, 45.61192], [81.87286, 45.77301], [81.33453, 46.06713], [80.91431, 46.2269], [80.76599, 46.20411], [80.49133, 45.89925], [80.13153, 45.80746], [80.08759, 45.63304], [79.67834, 45.49464], [78.85712, 45.43881], [78.70605, 45.41954]]}]}}, {"type": "Feature", "geometry": null, "properties": {"id": "m4nO", "status": "rejeté", "pieces": []}}, {"type": "Feature", "geometry": {"type": "Polygon", "coordinates": [[[48.86719, 49.77906], [50.1416, 49.26579], [52.29492, 48.74713], [52.91016, 48.97831], [53.65723, 49.151], [54.84375, 48.71815], [56.07422, 48.48577], [59.85352, 49.23712], [61.56738, 49.97722], [62.92969, 50.48302], [65.69824, 50.62257], [67.5, 50.67827], [68.20313, 50.67827], [69.30176, 50.67827], [70.09277, 50.90043], [70.97168, 51.34158], [71.85059, 52.18435], [72.81738, 53.01145], [73.25684, 53.5368], [73.69629, 54.02992], [73.01514, 53.98013], [72.66357, 54.12196], [72.1582, 54.25048], [71.36719, 54.17342], [70.94971, 54.28896], [71.19141, 54.63365], [70.83984, 55.32685], [70.26855, 55.2017], [68.99414, 55.38928], [68.13721, 55.18917], [68.20313, 54.97545], [65.63232, 54.63365], [61.34766, 54.04466], [61.08398, 53.61691], [62.1167, 53.00012], [61.12793, 52.92074], [61.01807, 52.4146], [60.11719, 51.95676], [61.41357, 51.30236], [61.36963, 50.73589], [59.52393, 50.56878], [58.44727, 50.99926], [57.91992, 51.06832], [57.56836, 50.87469], [57.01904, 51.0269], [55.94238, 50.59668], [54.68994, 51.0269], [54.49219, 50.79146], [53.52539, 51.43947], [52.55859, 51.52154], [52.36084, 51.78046], [51.78955, 51.46684], [51.28418, 51.50787], [51.32813, 51.64437], [50.77881, 51.73968], [50.29541, 51.30236], [49.50439, 51.06832], [48.60352, 50.56878], [48.86719, 49.77906]]]}, "properties": {"id": "p3lc", "status": "validé", "pieces": [{"kind": "polygon", "ring": [[48.86719, 49.77906], [50.1416, 49.26579], [52.29492, 48.74713], [52.91016, 48.97831], [53.65723, 49.151], [54.84375, 48.71815], [56.07422, 48.48577], [59.85352, 49.23712], [61.56738, 49.97722], [62.92969, 50.48302], [65.69824, 50.62257], [67.5, 50.67827], [68.20313, 50.67827], [69.30176, 50.67827], [70.09277, 50.90043], [70.97168, 51.34158], [71.85059, 52.18435], [72.81738, 53.01145], [73.25684, 53.5368], [73.69629, 54.02992], [73.01514, 53.98013], [72.66357, 54.12196], [72.1582, 54.25048], [71.36719, 54.17342], [70.94971, 54.28896], [71.19141, 54.63365], [70.83984, 55.32685], [70.26855, 55.2017], [68.99414, 55.38928], [68.13721, 55.18917], [68.20313, 54.97545], [65.63232, 54.63365], [61.34766, 54.04466], [61.08398, 53.61691], [62.1167, 53.00012], [61.12793, 52.92074], [61.01807, 52.4146], [60.11719, 51.95676], [61.41357, 51.30236], [61.36963, 50.73589], [59.52393, 50.56878], [58.44727, 50.99926], [57.91992, 51.06832], [57.56836, 50.87469], [57.01904, 51.0269], [55.94238, 50.59668], [54.68994, 51.0269], [54.49219, 50.79146], [53.52539, 51.43947], [52.55859, 51.52154], [52.36084, 51.78046], [51.78955, 51.46684], [51.28418, 51.50787], [51.32813, 51.64437], [50.77881, 51.73968], [50.29541, 51.30236], [49.50439, 51.06832], [48.60352, 50.56878]]}]}}, {"type": "Feature", "geometry": {"type": "Polygon", "coordinates": [[[79.24713, 43.91164], [79.24713, 44.26855], [78.58521, 44.26855], [78.58521, 43.91164], [79.24713, 43.91164]]]}, "properties": {"id": "qp33", "status": "validé", "pieces": [{"kind": "rect", "bounds": [78.58521, 43.91164, 79.24713, 44.26855]}]}}, {"type": "Feature", "geometry": {"type": "Polygon", "coordinates": [[[67.48764, 47.94599], [67.44919, 48.01032], [67.36679, 48.12957], [67.47803, 48.17627], [67.72522, 48.33987], [67.84058, 48.42101], [68.04108, 48.48474], [68.15231, 48.49839], [68.17291, 48.44469], [67.97104, 48.39641], [67.62634, 48.15247], [67.57416, 48.02226], [67.53983, 47.94875], [67.48764, 47.94599]]]}, "properties": {"id": "qqrg", "status": "validé", "pieces": [{"kind": "polygon", "ring": [[67.48764, 47.94599], [67.44919, 48.01032], [67.36679, 48.12957], [67.47803, 48.17627], [67.72522, 48.33987], [67.84058, 48.42101], [68.04108, 48.48474], [68.15231, 48.49839], [68.17291, 48.44469], [67.97104, 48.39641], [67.62634, 48.15247], [67.57416, 48.02226], [67.53983, 47.94875]]}]}}, {"type": "Feature", "geometry": {"type": "Polygon", "coordinates": [[[82.65907, 49.88694], [82.65907, 49.92937], [82.58801, 49.92937], [82.58801, 49.88694], [82.65907, 49.88694]]]}, "properties": {"id": "riSN", "status": "validé", "pieces": [{"kind": "rect", "bounds": [82.58801, 49.88694, 82.65907, 49.92937]}]}}, {"type": "Feature", "geometry": null, "properties": {"id": "tkTf", "status": "validé", "pieces": [{"kind": "country"}]}}, {"type": "Feature", "geometry": null, "properties": {"id": "tn7H", "status": "validé", "pieces": [{"kind": "country"}]}}, {"type": "Feature", "geometry": null, "properties": {"id": "uMOg", "status": "validé", "pieces": [{"kind": "country"}]}}, {"type": "Feature", "geometry": {"type": "Polygon", "coordinates": [[[81.87012, 50.7109], [81.87012, 50.20753], [82.06787, 49.86897], [82.44141, 49.44241], [82.85889, 49.37095], [83.43018, 49.45668], [84.02344, 49.59925], [84.48486, 49.96796], [84.74854, 50.16534], [84.30908, 50.24968], [83.69385, 50.98823], [83.18848, 50.97441], [82.50732, 50.69699], [81.87012, 50.7109]]]}, "properties": {"id": "uMS6", "status": "validé", "pieces": [{"kind": "polygon", "ring": [[81.87012, 50.7109], [81.87012, 50.20753], [82.06787, 49.86897], [82.44141, 49.44241], [82.85889, 49.37095], [83.43018, 49.45668], [84.02344, 49.59925], [84.48486, 49.96796], [84.74854, 50.16534], [84.30908, 50.24968], [83.69385, 50.98823], [83.18848, 50.97441], [82.50732, 50.69699]]}]}}, {"type": "Feature", "geometry": {"type": "MultiPolygon", "coordinates": [[[[69.31274, 42.06762], [69.31274, 42.50633], [70.00488, 42.50633], [70.00488, 42.06762], [69.31274, 42.06762]]], [[[68.09601, 43.38538], [68.49701, 43.38538], [68.49701, 43.18553], [68.09601, 43.18553], [68.09601, 43.38538]]], [[[78.26935, 45.07578], [78.50281, 45.07578], [78.50281, 44.9263], [78.26935, 44.9263], [78.26935, 45.07578]]]]}, "properties": {"id": "yBGD", "status": "validé", "pieces": [{"kind": "rect", "bounds": [68.09601, 43.18553, 68.49701, 43.38538]}, {"kind": "rect", "bounds": [69.31274, 42.06762, 70.00488, 42.50633]}, {"kind": "rect", "bounds": [78.26935, 44.9263, 78.50281, 45.07578]}]}}]}