{"type": "FeatureCollection", "features": [{"type": "Feature", "geometry": {"type": "Polygon", "coordinates": [[[104.87068, 16.61653], [104.87068, 16.50864], [104.76849, 16.50864], [104.76516, 16.51134], [104.75451, 16.52892], [104.7495, 16.54933], [104.74842, 16.57191], [104.75302, 16.6148], [104.75346, 16.61653], [104.87068, 16.61653]]]}, "properties": {"id": "04v1", "status": "validé", "pieces": [{"kind": "rect", "bounds": [104.70726, 16.50864, 104.87068, 16.61653]}, {"kind": "clip"}]}}, {"type": "Feature", "geometry": null, "properties": {"id": "3hIR", "status": "validé", "pieces": [{"kind": "country"}]}}, {"type": "Feature", "geometry": {"type": "Polygon", "coordinates": [[[102.24083, 19.81012], [102.24083, 19.93793], [102.07054, 19.93793], [102.07054, 19.81012], [102.24083, 19.81012]]]}, "properties": {"id": "HOpP", "status": "validé", "pieces": [{"kind": "rect", "bounds": [102.07054, 19.81012, 102.24083, 19.93793]}]}}, {"type": "Feature", "geometry": null, "properties": {"id": "IN2F", "status": "validé", "pieces": [{"kind": "country"}]}}, {"type": "Feature", "geometry": null, "properties": {"id": "Iall", "status": "validé", "pieces": [{"kind": "country"}]}}, {"type": "Feature", "geometry": {"type": "Polygon", "coordinates": [[[102.71839, 17.88831], [102.71736, 17.96962], [102.71908, 17.97386], [102.6923, 18.01988], [102.65385, 18.02902], [102.65591, 18.03359], [102.69882, 18.0251], [102.72285, 17.9781], [102.72423, 17.88701], [102.71839, 17.88831]]]}, "properties": {"id": "KUIb", "status": "validé", "pieces": [{"kind": "polygon", "ring": [[102.71839, 17.88831], [102.71736, 17.96962], [102.71908, 17.97386], [102.6923, 18.01988], [102.65385, 18.02902], [102.65591, 18.03359], [102.69882, 18.0251], [102.72285, 17.9781], [102.72423, 17.88701]]}]}}, {"type": "Feature", "geometry": null, "properties": {"id": "LUJM", "status": "validé", "pieces": [{"kind": "country"}]}}, {"type": "Feature", "geometry": null, "properties": {"id": "LsED", "status": "rejeté", "pieces": []}}, {"type": "Feature", "geometry": null, "properties": {"id": "N7h9", "status": "validé", "pieces": [{"kind": "country"}]}}, {"type": "Feature", "geometry": {"type": "Polygon", "coordinates": [[[105.9343, 15.03048], [105.9343, 15.19415], [105.72968, 15.19415], [105.72968, 15.03048], [105.9343, 15.03048]]]}, "properties": {"id": "QR2a", "status": "validé", "pieces": [{"kind": "rect", "bounds": [105.72968, 15.03048, 105.9343, 15.19415]}]}}, {"type": "Feature", "geometry": null, "properties": {"id": "VMbz", "status": "validé", "pieces": [{"kind": "country"}]}}, {"type": "Feature", "geometry": {"type": "Polygon", "coordinates": [[[102.24976, 19.8043], [102.24976, 19.95211], [102.05269, 19.95211], [102.05269, 19.8043], [102.24976, 19.8043]]]}, "properties": {"id": "Vgk1", "status": "validé", "pieces": [{"kind": "rect", "bounds": [102.05269, 19.8043, 102.24976, 19.95211]}]}}, {"type": "Feature", "geometry": null, "properties": {"id": "XxPH", "status": "validé", "pieces": [{"kind": "country"}]}}, {"type": "Feature", "geometry": {"type": "Polygon", "coordinates": [[[102.46433, 17.9803], [102.46459, 17.98405], [102.45403, 18.00226], [102.45695, 18.00879], [102.46287, 18.01841], [102.46897, 18.02984], [102.47429, 18.03139], [102.47712, 18.03025], [102.48425, 18.02568], [102.49403, 18.02062], [102.49935, 18.0198], [102.50699, 18.01939], [102.51257, 18.01948], [102.54587, 18.01646], [102.54596, 18.01825], [102.50656, 18.02152], [102.50038, 18.02119], [102.48768, 18.02657], [102.47832, 18.03261], [102.46759, 18.03261], [102.46279, 18.02641], [102.45738, 18.01907], [102.45429, 18.01393], [102.45077, 18.00406], [102.45661, 17.99173], [102.46159, 17.9839], [102.46184, 17.98121], [102.46433, 17.9803]]]}, "properties": {"id": "fEd7", "status": "validé", "pieces": [{"kind": "polygon", "ring": [[102.46433, 17.9803], [102.46459, 17.98405], [102.45403, 18.00226], [102.45695, 18.00879], [102.46287, 18.01841], [102.46897, 18.02984], [102.47429, 18.03139], [102.47712, 18.03025], [102.48425, 18.02568], [102.49403, 18.02062], [102.49935, 18.0198], [102.50699, 18.01939], [102.51257, 18.01948], [102.54587, 18.01646], [102.54596, 18.01825], [102.50656, 18.02152], [102.50038, 18.02119], [102.48768, 18.02657], [102.47832, 18.03261], [102.46759, 18.03261], [102.46279, 18.02641], [102.45738, 18.01907], [102.45429, 18.01393], [102.45077, 18.00406], [102.45661, 17.99173], [102.46159, 17.9839], [102.46184, 17.98121]]}]}}, {"type": "Feature", "geometry": {"type": "Polygon", "coordinates": [[[102.21062, 19.82499], [102.21062, 19.92956], [102.08015, 19.92956], [102.08015, 19.82499], [102.21062, 19.82499]]]}, "properties": {"id": "fIJW", "status": "validé", "pieces": [{"kind": "rect", "bounds": [102.08015, 19.82499, 102.21062, 19.92956]}]}}, {"type": "Feature", "geometry": {"type": "Polygon", "coordinates": [[[102.46124, 18.07814], [102.86499, 18.07814], [102.86499, 17.9773], [102.85272, 17.97203], [102.83804, 17.96376], [102.83189, 17.95312], [102.77407, 17.92273], [102.73738, 17.89043], [102.72218, 17.8818], [102.68673, 17.87354], [102.67299, 17.86537], [102.66761, 17.85007], [102.67335, 17.83178], [102.68291, 17.81736], [102.68291, 17.81008], [102.66079, 17.81287], [102.60943, 17.837], [102.59527, 17.84082], [102.59558, 17.85007], [102.61232, 17.91529], [102.59961, 17.95518], [102.56752, 17.97084], [102.48204, 17.97115], [102.46124, 17.97492], [102.46124, 18.07814]]]}, "properties": {"id": "gwui", "status": "validé", "pieces": [{"kind": "rect", "bounds": [102.46124, 17.78559, 102.86499, 18.07814]}, {"kind": "clip"}]}}, {"type": "Feature", "geometry": null, "properties": {"id": "lqdo", "status": "validé", "pieces": [{"kind": "country"}]}}, {"type": "Feature", "geometry": {"type": "Polygon", "coordinates": [[[102.64801, 18.67798], [102.64801, 19.02095], [102.23053, 19.02095], [102.23053, 18.67798], [102.64801, 18.67798]]]}, "properties": {"id": "oTVy", "status": "validé", "pieces": [{"kind": "rect", "bounds": [102.23053, 18.67798, 102.64801, 19.02095]}]}}, {"type": "Feature", "geometry": {"type": "Polygon", "coordinates": [[[102.49695, 18.85569], [102.49695, 18.98359], [102.41352, 18.98359], [102.41352, 18.85569], [102.49695, 18.85569]]]}, "properties": {"id": "ootv", "status": "validé", "pieces": [{"kind": "rect", "bounds": [102.41352, 18.85569, 102.49695, 18.98359]}]}}, {"type": "Feature", "geometry": null, "properties": {"id": "p67D", "status": "validé", "pieces": [{"kind": "country"}]}}, {"type": "Feature", "geometry": null, "properties": {"id": "q4i1", "status": "validé", "pieces": [{"kind": "country"}]}}, {"type": "Feature", "geometry": null, "properties": {"id": "rwz1", "status": "validé", "pieces": [{"kind": "country"}]}}, {"type": "Feature", "geometry": null, "properties": {"id": "sHs4", "status": "validé", "pieces": [{"kind": "country"}]}}, {"type": "Feature", "geometry": {"type": "Polygon", "coordinates": [[[102.23396, 19.80491], [102.23396, 19.95852], [102.06436, 19.95852], [102.06436, 19.80491], [102.23396, 19.80491]]]}, "properties": {"id": "uXJP", "status": "validé", "pieces": [{"kind": "rect", "bounds": [102.06436, 19.80491, 102.23396, 19.95852]}]}}, {"type": "Feature", "geometry": {"type": "Polygon", "coordinates": [[[102.56218, 18.02706], [102.56321, 18.02216], [102.57248, 18.01531], [102.58089, 17.99997], [102.5869, 17.98871], [102.59102, 17.99034], [102.58415, 18.00584], [102.5766, 18.02102], [102.56475, 18.02771], [102.56218, 18.02706]]]}, "properties": {"id": "vRr8", "status": "validé", "pieces": [{"kind": "polygon", "ring": [[102.56218, 18.02706], [102.56321, 18.02216], [102.57248, 18.01531], [102.58089, 17.99997], [102.5869, 17.98871], [102.59102, 17.99034], [102.58415, 18.00584], [102.5766, 18.02102], [102.56475, 18.02771]]}]}}, {"type": "Feature", "geometry": null, "properties": {"id": "wMAB", "status": "validé", "pieces": [{"kind": "country"}]}}, {"type": "Feature", "geometry": null, "properties": {"id": "ztlX", "status": "rejeté", "pieces": []}}]}