{"type": "FeatureCollection", "features": [{"type": "Feature", "geometry": {"type": "Polygon", "coordinates": [[[9.5763, 47.2175], [9.56154, 47.20608], [9.54609, 47.20444], [9.53819, 47.19115], [9.52927, 47.19045], [9.51038, 47.19162], [9.50455, 47.19959], [9.50935, 47.21218], [9.52034, 47.21681], [9.53201, 47.21984], [9.54266, 47.21914], [9.54163, 47.21494], [9.54266, 47.21144], [9.54781, 47.21144], [9.54987, 47.21774], [9.56326, 47.22613], [9.57047, 47.22706], [9.5763, 47.2175]]]}, "properties": {"id": "25UF", "status": "validé", "pieces": [{"kind": "polygon", "ring": [[9.5763, 47.2175], [9.56154, 47.20608], [9.54609, 47.20444], [9.53819, 47.19115], [9.52927, 47.19045], [9.51038, 47.19162], [9.50455, 47.19959], [9.50935, 47.21218], [9.52034, 47.21681], [9.53201, 47.21984], [9.54266, 47.21914], [9.54163, 47.21494], [9.54266, 47.21144], [9.54781, 47.21144], [9.54987, 47.21774], [9.56326, 47.22613], [9.57047, 47.22706]]}]}}, {"type": "Feature", "geometry": {"type": "Polygon", "coordinates": [[[9.55673, 47.11035], [9.57253, 47.10802], [9.58626, 47.10451], [9.59244, 47.09914], [9.60205, 47.09494], [9.61441, 47.0954], [9.61681, 47.10288], [9.61372, 47.10965], [9.60445, 47.11666], [9.58626, 47.12063], [9.57081, 47.12203], [9.55502, 47.12203], [9.54746, 47.11923], [9.55673, 47.11035]]]}, "properties": {"id": "5YU7", "status": "validé", "pieces": [{"kind": "polygon", "ring": [[9.55673, 47.11035], [9.57253, 47.10802], [9.58626, 47.10451], [9.59244, 47.09914], [9.60205, 47.09494], [9.61441, 47.0954], [9.61681, 47.10288], [9.61372, 47.10965], [9.60445, 47.11666], [9.58626, 47.12063], [9.57081, 47.12203], [9.55502, 47.12203], [9.54746, 47.11923]]}]}}, {"type": "Feature", "geometry": {"type": "Polygon", "coordinates": [[[9.5224, 47.25107], [9.53236, 47.25083], [9.53957, 47.24664], [9.54025, 47.24268], [9.53751, 47.24058], [9.54746, 47.23662], [9.53819, 47.23313], [9.53064, 47.22707], [9.52858, 47.22497], [9.52274, 47.23056], [9.52, 47.23289], [9.51382, 47.23173], [9.51141, 47.23546], [9.5224, 47.25107]]]}, "properties": {"id": "9VvC", "status": "validé", "pieces": [{"kind": "polygon", "ring": [[9.5224, 47.25107], [9.53236, 47.25083], [9.53957, 47.24664], [9.54025, 47.24268], [9.53751, 47.24058], [9.54746, 47.23662], [9.53819, 47.23313], [9.53064, 47.22707], [9.52858, 47.22497], [9.52274, 47.23056], [9.52, 47.23289], [9.51382, 47.23173], [9.51141, 47.23546]]}]}}, {"type": "Feature", "geometry": {"type": "Polygon", "coordinates": [[[9.47605, 47.0519], [9.47159, 47.06382], [9.48017, 47.0685], [9.50506, 47.08135], [9.51656, 47.08766], [9.51957, 47.09403], [9.52369, 47.09327], [9.52463, 47.08451], [9.5351, 47.07971], [9.5339, 47.07598], [9.53819, 47.06978], [9.53888, 47.06499], [9.53339, 47.06254], [9.51622, 47.05996], [9.51399, 47.05727], [9.50249, 47.05576], [9.49957, 47.05751], [9.49854, 47.05412], [9.49236, 47.05634], [9.48549, 47.04897], [9.48343, 47.04991], [9.48189, 47.05248], [9.48154, 47.05611], [9.47794, 47.0554], [9.47605, 47.0519]]]}, "properties": {"id": "BTob", "status": "validé", "pieces": [{"kind": "polygon", "ring": [[9.47605, 47.0519], [9.47159, 47.06382], [9.48017, 47.0685], [9.50506, 47.08135], [9.51656, 47.08766], [9.51957, 47.09403], [9.52369, 47.09327], [9.52463, 47.08451], [9.5351, 47.07971], [9.5339, 47.07598], [9.53819, 47.06978], [9.53888, 47.06499], [9.53339, 47.06254], [9.51622, 47.05996], [9.51399, 47.05727], [9.50249, 47.05576], [9.49957, 47.05751], [9.49854, 47.05412], [9.49236, 47.05634], [9.48549, 47.04897], [9.48343, 47.04991], [9.48189, 47.05248], [9.48154, 47.05611], [9.47794, 47.0554]]}]}}, {"type": "Feature", "geometry": null, "properties": {"id": "Ctc1", "status": "validé", "pieces": [{"kind": "country"}]}}, {"type": "Feature", "geometry": null, "properties": {"id": "DhYM", "status": "validé", "pieces": [{"kind": "country"}]}}, {"type": "Feature", "geometry": {"type": "Polygon", "coordinates": [[[9.48275, 47.05588], [9.49219, 47.05915], [9.50111, 47.06009], [9.5145, 47.07178], [9.52017, 47.08405], [9.51931, 47.08673], [9.51605, 47.08743], [9.50626, 47.08147], [9.47966, 47.06885], [9.47245, 47.06488], [9.47159, 47.06091], [9.47639, 47.05237], [9.47657, 47.05459], [9.48275, 47.05588]]]}, "properties": {"id": "Hu33", "status": "validé", "pieces": [{"kind": "polygon", "ring": [[9.48275, 47.05588], [9.49219, 47.05915], [9.50111, 47.06009], [9.5145, 47.07178], [9.52017, 47.08405], [9.51931, 47.08673], [9.51605, 47.08743], [9.50626, 47.08147], [9.47966, 47.06885], [9.47245, 47.06488], [9.47159, 47.06091], [9.47639, 47.05237], [9.47657, 47.05459]]}]}}, {"type": "Feature", "geometry": {"type": "Polygon", "coordinates": [[[9.50283, 47.05728], [9.50283, 47.06675], [9.48275, 47.06675], [9.48275, 47.05728], [9.50283, 47.05728]]]}, "properties": {"id": "NSbp", "status": "validé", "pieces": [{"kind": "rect", "bounds": [9.48275, 47.05728, 9.50283, 47.06675]}]}}, {"type": "Feature", "geometry": null, "properties": {"id": "PSiM", "status": "validé", "pieces": [{"kind": "admin1", "code": "LIE-4892"}, {"kind": "admin1", "code": "LIE-4895"}]}}, {"type": "Feature", "geometry": {"type": "Polygon", "coordinates": [[[9.53064, 47.1783], [9.53304, 47.18367], [9.54025, 47.18856], [9.54815, 47.1923], [9.55862, 47.19031], [9.55845, 47.18378], [9.54489, 47.17795], [9.53819, 47.17609], [9.53545, 47.17562], [9.53064, 47.1783]]]}, "properties": {"id": "Q2Ay", "status": "validé", "pieces": [{"kind": "polygon", "ring": [[9.53064, 47.1783], [9.53304, 47.18367], [9.54025, 47.18856], [9.54815, 47.1923], [9.55862, 47.19031], [9.55845, 47.18378], [9.54489, 47.17795], [9.53819, 47.17609], [9.53545, 47.17562]]}]}}, {"type": "Feature", "geometry": null, "properties": {"id": "SrOE", "status": "validé", "pieces": [{"kind": "country"}]}}, {"type": "Feature", "geometry": null, "properties": {"id": "UNBX", "status": "validé", "pieces": [{"kind": "country"}]}}, {"type": "Feature", "geometry": {"type": "MultiPolygon", "coordinates": [[[[9.51725, 47.15215], [9.5351, 47.14864], [9.53905, 47.12985], [9.53939, 47.12308], [9.52909, 47.12145], [9.51708, 47.12133], [9.51571, 47.12121], [9.50403, 47.14619], [9.51725, 47.15215]]], [[[9.56257, 47.21061], [9.55519, 47.20968], [9.55021, 47.2155], [9.53613, 47.21189], [9.53321, 47.21888], [9.526, 47.22914], [9.52051, 47.2331], [9.51382, 47.23684], [9.53236, 47.26898], [9.53785, 47.26386], [9.55673, 47.25314], [9.56635, 47.24406], [9.55055, 47.22402], [9.55845, 47.22472], [9.5715, 47.2169], [9.56257, 47.21061]]]]}, "properties": {"id": "UTf6", "status": "validé", "pieces": [{"kind": "polygon", "ring": [[9.50403, 47.14619], [9.51725, 47.15215], [9.5351, 47.14864], [9.53905, 47.12985], [9.53939, 47.12308], [9.52909, 47.12145], [9.51708, 47.12133], [9.51571, 47.12121]]}, {"kind": "polygon", "ring": [[9.5715, 47.2169], [9.56257, 47.21061], [9.55519, 47.20968], [9.55021, 47.2155], [9.53613, 47.21189], [9.53321, 47.21888], [9.526, 47.22914], [9.52051, 47.2331], [9.51382, 47.23684], [9.53236, 47.26898], [9.53785, 47.26386], [9.55673, 47.25314], [9.56635, 47.24406], [9.55055, 47.22402], [9.55845, 47.22472]]}]}}, {"type": "Feature", "geometry": null, "properties": {"id": "X4GL", "status": "validé", "pieces": [{"kind": "country"}]}}, {"type": "Feature", "geometry": {"type": "Polygon", "coordinates": [[[9.58763, 47.09259], [9.58763, 47.11244], [9.5715, 47.11244], [9.5715, 47.09259], [9.58763, 47.09259]]]}, "properties": {"id": "c1EG", "status": "validé", "pieces": [{"kind": "rect", "bounds": [9.5715, 47.09259, 9.58763, 47.11244]}]}}, {"type": "Feature", "geometry": null, "properties": {"id": "ci1R", "status": "validé", "pieces": [{"kind": "country"}]}}, {"type": "Feature", "geometry": {"type": "Polygon", "coordinates": [[[9.56154, 47.24642], [9.54712, 47.2364], [9.52995, 47.23197], [9.52171, 47.22544], [9.50867, 47.22451], [9.50626, 47.22451], [9.52618, 47.25364], [9.53098, 47.26971], [9.53854, 47.26598], [9.53888, 47.26109], [9.55467, 47.2548], [9.56154, 47.24642]]]}, "properties": {"id": "fK9u", "status": "validé", "pieces": [{"kind": "polygon", "ring": [[9.56154, 47.24642], [9.54712, 47.2364], [9.52995, 47.23197], [9.52171, 47.22544], [9.50867, 47.22451], [9.50626, 47.22451], [9.52618, 47.25364], [9.53098, 47.26971], [9.53854, 47.26598], [9.53888, 47.26109], [9.55467, 47.2548]]}]}}, {"type": "Feature", "geometry": {"type": "Polygon", "coordinates": [[[9.49631, 47.15824], [9.52068, 47.16337], [9.5351, 47.14493], [9.53476, 47.13209], [9.5351, 47.12416], [9.51553, 47.12205], [9.49631, 47.15824]]]}, "properties": {"id": "gG0N", "status": "validé", "pieces": [{"kind": "polygon", "ring": [[9.49631, 47.15824], [9.52068, 47.16337], [9.5351, 47.14493], [9.53476, 47.13209], [9.5351, 47.12416], [9.51553, 47.12205]]}]}}, {"type": "Feature", "geometry": {"type": "MultiPolygon", "coordinates": [[[[9.52995, 47.13604], [9.53648, 47.1211], [9.54128, 47.11106], [9.54128, 47.10218], [9.53339, 47.07625], [9.53442, 47.0683], [9.53957, 47.06433], [9.49974, 47.05568], [9.49219, 47.05591], [9.48704, 47.04889], [9.48223, 47.05451], [9.47708, 47.05217], [9.47159, 47.06526], [9.51622, 47.08676], [9.52068, 47.10031], [9.51038, 47.13488], [9.52995, 47.13604]]], [[[9.50867, 47.22888], [9.52274, 47.24728], [9.52995, 47.24705], [9.53373, 47.24332], [9.53098, 47.23633], [9.52171, 47.23261], [9.51519, 47.21909], [9.54128, 47.20697], [9.54712, 47.19857], [9.5121, 47.21093], [9.50077, 47.21], [9.50867, 47.22888]]]]}, "properties": {"id": "iJBv", "status": "validé", "pieces": [{"kind": "polygon", "ring": [[9.51038, 47.13488], [9.52995, 47.13604], [9.53648, 47.1211], [9.54128, 47.11106], [9.54128, 47.10218], [9.53339, 47.07625], [9.53442, 47.0683], [9.53957, 47.06433], [9.49974, 47.05568], [9.49219, 47.05591], [9.48704, 47.04889], [9.48223, 47.05451], [9.47708, 47.05217], [9.47159, 47.06526], [9.51622, 47.08676], [9.52068, 47.10031]]}, {"kind": "polygon", "ring": [[9.50077, 47.21], [9.5121, 47.21093], [9.54712, 47.19857], [9.54128, 47.20697], [9.51519, 47.21909], [9.52171, 47.23261], [9.53098, 47.23633], [9.53373, 47.24332], [9.52995, 47.24705], [9.52274, 47.24728], [9.50867, 47.22888]]}]}}, {"type": "Feature", "geometry": {"type": "Polygon", "coordinates": [[[9.50232, 47.16987], [9.50575, 47.1575], [9.5224, 47.15657], [9.52738, 47.17279], [9.52412, 47.18083], [9.5006, 47.1785], [9.50232, 47.16987]]]}, "properties": {"id": "mKMX", "status": "validé", "pieces": [{"kind": "polygon", "ring": [[9.50232, 47.16987], [9.50575, 47.1575], [9.5224, 47.15657], [9.52738, 47.17279], [9.52412, 47.18083], [9.5006, 47.1785]]}]}}, {"type": "Feature", "geometry": null, "properties": {"id": "ndYF", "status": "validé", "pieces": [{"kind": "country"}]}}, {"type": "Feature", "geometry": null, "properties": {"id": "p90S", "status": "validé", "pieces": [{"kind": "country"}]}}, {"type": "Feature", "geometry": null, "properties": {"id": "qb5C", "status": "validé", "pieces": [{"kind": "country"}]}}, {"type": "Feature", "geometry": null, "properties": {"id": "rcYy", "status": "validé", "pieces": [{"kind": "country"}]}}, {"type": "Feature", "geometry": {"type": "Polygon", "coordinates": [[[9.51897, 47.2183], [9.50953, 47.21411], [9.51176, 47.20746], [9.51965, 47.20676], [9.52721, 47.20431], [9.54197, 47.20536], [9.54609, 47.20968], [9.52841, 47.21574], [9.53287, 47.22238], [9.52721, 47.22366], [9.51897, 47.2183]]]}, "properties": {"id": "t5Ye", "status": "validé", "pieces": [{"kind": "polygon", "ring": [[9.51897, 47.2183], [9.50953, 47.21411], [9.51176, 47.20746], [9.51965, 47.20676], [9.52721, 47.20431], [9.54197, 47.20536], [9.54609, 47.20968], [9.52841, 47.21574], [9.53287, 47.22238], [9.52721, 47.22366]]}]}}, {"type": "Feature", "geometry": {"type": "Polygon", "coordinates": [[[9.55742, 47.25107], [9.52137, 47.22847], [9.50901, 47.21845], [9.51073, 47.20936], [9.51794, 47.20679], [9.5327, 47.20376], [9.55399, 47.21192], [9.55193, 47.22614], [9.56738, 47.24082], [9.55742, 47.25107]]]}, "properties": {"id": "uDcT", "status": "validé", "pieces": [{"kind": "polygon", "ring": [[9.55742, 47.25107], [9.52137, 47.22847], [9.50901, 47.21845], [9.51073, 47.20936], [9.51794, 47.20679], [9.5327, 47.20376], [9.55399, 47.21192], [9.55193, 47.22614], [9.56738, 47.24082]]}]}}, {"type": "Feature", "geometry": {"type": "Polygon", "coordinates": [[[9.54317, 47.13428], [9.53218, 47.13136], [9.53304, 47.12459], [9.53836, 47.1156], [9.53991, 47.1059], [9.54248, 47.10158], [9.54763, 47.10474], [9.55587, 47.10894], [9.55862, 47.11595], [9.55124, 47.12108], [9.55124, 47.12832], [9.54317, 47.13428]]]}, "properties": {"id": "wjF4", "status": "validé", "pieces": [{"kind": "polygon", "ring": [[9.54317, 47.13428], [9.53218, 47.13136], [9.53304, 47.12459], [9.53836, 47.1156], [9.53991, 47.1059], [9.54248, 47.10158], [9.54763, 47.10474], [9.55587, 47.10894], [9.55862, 47.11595], [9.55124, 47.12108], [9.55124, 47.12832]]}]}}]}