{"type": "FeatureCollection", "features": [{"type": "Feature", "geometry": null, "properties": {"id": "0ojD", "status": "validé", "pieces": [{"kind": "country"}]}}, {"type": "Feature", "geometry": null, "properties": {"id": "4i78", "status": "rejeté", "pieces": []}}, {"type": "Feature", "geometry": null, "properties": {"id": "7YgM", "status": "rejeté", "pieces": []}}, {"type": "Feature", "geometry": {"type": "Polygon", "coordinates": [[[28.7162, -30.1373], [28.7162, -30.09039], [28.63243, -30.09039], [28.63243, -30.1373], [28.7162, -30.1373]]]}, "properties": {"id": "EKt9", "status": "validé", "pieces": [{"kind": "rect", "bounds": [28.63243, -30.1373, 28.7162, -30.09039]}]}}, {"type": "Feature", "geometry": null, "properties": {"id": "JzJz", "status": "validé", "pieces": [{"kind": "country"}]}}, {"type": "Feature", "geometry": null, "properties": {"id": "Ne2W", "status": "validé", "pieces": [{"kind": "country"}]}}, {"type": "Feature", "geometry": null, "properties": {"id": "TZam", "status": "validé", "pieces": [{"kind": "country"}]}}, {"type": "Feature", "geometry": {"type": "Polygon", "coordinates": [[[28.27332, -30.24849], [27.76794, -30.38121], [27.4823, -30.22002], [27.47681, -29.94445], [27.82288, -29.76348], [27.78442, -29.52965], [27.84485, -29.28091], [28.49304, -28.92108], [28.59192, -28.83934], [28.53699, -28.70458], [28.69629, -28.62749], [28.82263, -28.74791], [28.927, -28.76717], [28.96545, -28.89224], [29.02039, -28.89224], [29.24561, -29.07476], [29.328, -29.09395], [29.34448, -29.19466], [29.44885, -29.31443], [29.4104, -29.42927], [29.30054, -29.46752], [29.31152, -29.57264], [29.27307, -29.62993], [29.15771, -29.68719], [29.10278, -29.85877], [29.15222, -29.90638], [28.83362, -30.11084], [28.60291, -30.14883], [28.38318, -30.15358], [28.27332, -30.24849]]]}, "properties": {"id": "ed3U", "status": "validé", "pieces": [{"kind": "polygon", "ring": [[28.27332, -30.24849], [27.76794, -30.38121], [27.4823, -30.22002], [27.47681, -29.94445], [27.82288, -29.76348], [27.78442, -29.52965], [27.84485, -29.28091], [28.49304, -28.92108], [28.59192, -28.83934], [28.53699, -28.70458], [28.69629, -28.62749], [28.82263, -28.74791], [28.927, -28.76717], [28.96545, -28.89224], [29.02039, -28.89224], [29.24561, -29.07476], [29.328, -29.09395], [29.34448, -29.19466], [29.44885, -29.31443], [29.4104, -29.42927], [29.30054, -29.46752], [29.31152, -29.57264], [29.27307, -29.62993], [29.15771, -29.68719], [29.10278, -29.85877], [29.15222, -29.90638], [28.83362, -30.11084], [28.60291, -30.14883], [28.38318, -30.15358]]}]}}, {"type": "Feature", "geometry": null, "properties": {"id": "fu9e", "status": "validé", "pieces": [{"kind": "country"}]}}, {"type": "Feature", "geometry": {"type": "Polygon", "coordinates": [[[28.57269, -29.30487], [28.57269, -29.21085], [28.52394, -29.21085], [28.52394, -29.30487], [28.57269, -29.30487]]]}, "properties": {"id": "k5TG", "status": "validé", "pieces": [{"kind": "rect", "bounds": [28.52394, -29.30487, 28.57269, -29.21085]}]}}, {"type": "Feature", "geometry": null, "properties": {"id": "kqbl", "status": "validé", "pieces": [{"kind": "country"}]}}, {"type": "Feature", "geometry": null, "properties": {"id": "kxM2", "status": "validé", "pieces": [{"kind": "country"}]}}, {"type": "Feature", "geometry": null, "properties": {"id": "mefQ", "status": "validé", "pieces": [{"kind": "country"}]}}, {"type": "Feature", "geometry": null, "properties": {"id": "njvL", "status": "validé", "pieces": [{"kind": "country"}]}}, {"type": "Feature", "geometry": {"type": "Polygon", "coordinates": [[[27.50736, -29.28306], [27.49638, -29.28426], [27.49088, -29.30102], [27.48436, -29.29414], [27.47028, -29.29324], [27.45277, -29.29653], [27.47234, -29.31957], [27.43526, -29.33244], [27.43801, -29.36475], [27.51801, -29.40153], [27.58907, -29.40153], [27.59113, -29.34022], [27.59285, -29.27169], [27.57259, -29.25283], [27.54513, -29.25312], [27.52453, -29.2663], [27.50736, -29.28306]]]}, "properties": {"id": "p4dx", "status": "validé", "pieces": [{"kind": "polygon", "ring": [[27.50736, -29.28306], [27.49638, -29.28426], [27.49088, -29.30102], [27.48436, -29.29414], [27.47028, -29.29324], [27.45277, -29.29653], [27.47234, -29.31957], [27.43526, -29.33244], [27.43801, -29.36475], [27.51801, -29.40153], [27.58907, -29.40153], [27.59113, -29.34022], [27.59285, -29.27169], [27.57259, -29.25283], [27.54513, -29.25312], [27.52453, -29.2663]]}]}}, {"type": "Feature", "geometry": {"type": "MultiPolygon", "coordinates": [[[[28.12191, -29.41682], [28.11848, -29.4488], [28.10097, -29.44432], [28.10062, -29.43655], [28.10646, -29.40905], [28.12191, -29.41682]]], [[[28.51879, -29.33866], [28.50368, -29.33417], [28.50368, -29.31412], [28.51364, -29.29886], [28.51879, -29.33866]]], [[[28.49888, -29.11914], [28.503, -29.17998], [28.50643, -29.19406], [28.4927, -29.19496], [28.47107, -29.17458], [28.47107, -29.15241], [28.47931, -29.10444], [28.49098, -29.10025], [28.49888, -29.11914]]]]}, "properties": {"id": "q6tO", "status": "validé", "pieces": [{"kind": "polygon", "ring": [[28.47931, -29.10444], [28.47107, -29.15241], [28.47107, -29.17458], [28.4927, -29.19496], [28.50643, -29.19406], [28.503, -29.17998], [28.49888, -29.11914], [28.49098, -29.10025]]}, {"kind": "polygon", "ring": [[28.50368, -29.31412], [28.50368, -29.33417], [28.51879, -29.33866], [28.51364, -29.29886]]}, {"kind": "polygon", "ring": [[28.10646, -29.40905], [28.10062, -29.43655], [28.10097, -29.44432], [28.11848, -29.4488], [28.12191, -29.41682]]}]}}, {"type": "Feature", "geometry": {"type": "Polygon", "coordinates": [[[27.76108, -29.51759], [27.76485, -29.53581], [27.75833, -29.55104], [27.73018, -29.57044], [27.74803, -29.59909], [27.75215, -29.61341], [27.75181, -29.63966], [27.75696, -29.66293], [27.78442, -29.67575], [27.8167, -29.68111], [27.83867, -29.66114], [27.90699, -29.66531], [27.90321, -29.64652], [27.80537, -29.64712], [27.79301, -29.65398], [27.7755, -29.64503], [27.7652, -29.58745], [27.76897, -29.55969], [27.78168, -29.54447], [27.78065, -29.52267], [27.77275, -29.51222], [27.76108, -29.51759]]]}, "properties": {"id": "qWpp", "status": "validé", "pieces": [{"kind": "polygon", "ring": [[27.76108, -29.51759], [27.76485, -29.53581], [27.75833, -29.55104], [27.73018, -29.57044], [27.74803, -29.59909], [27.75215, -29.61341], [27.75181, -29.63966], [27.75696, -29.66293], [27.78442, -29.67575], [27.8167, -29.68111], [27.83867, -29.66114], [27.90699, -29.66531], [27.90321, -29.64652], [27.80537, -29.64712], [27.79301, -29.65398], [27.7755, -29.64503], [27.7652, -29.58745], [27.76897, -29.55969], [27.78168, -29.54447], [27.78065, -29.52267], [27.77275, -29.51222]]}]}}, {"type": "Feature", "geometry": {"type": "Polygon", "coordinates": [[[27.60315, -30.45712], [27.67456, -30.37663], [27.53174, -30.18221], [27.47681, -30.09199], [27.61414, -29.93508], [27.68555, -29.80653], [27.60864, -29.66826], [27.54272, -29.65872], [27.66357, -29.44377], [27.93823, -29.0989], [28.08655, -29.01731], [28.30627, -28.93565], [28.42712, -28.77213], [28.42712, -28.72881], [28.70728, -28.67101], [28.65784, -28.58426], [28.57544, -28.60354], [28.40515, -28.63246], [28.36121, -28.70955], [28.16895, -28.70955], [27.99316, -28.88758], [27.93274, -28.85392], [27.8833, -28.91642], [27.76794, -28.8972], [27.69653, -29.0029], [27.53174, -29.25232], [27.44659, -29.28853], [27.40814, -29.39623], [27.3587, -29.47035], [27.2818, -29.53248], [27.15546, -29.58024], [27.01538, -29.62799], [27.01813, -29.66378], [27.0813, -29.70909], [27.21588, -30.01148], [27.323, -30.13977], [27.38068, -30.14927], [27.37793, -30.33664], [27.46033, -30.31768], [27.49054, -30.38165], [27.60315, -30.45712]]]}, "properties": {"id": "rdOK", "status": "validé", "pieces": [{"kind": "polygon", "ring": [[27.60315, -30.45712], [27.67456, -30.37663], [27.53174, -30.18221], [27.47681, -30.09199], [27.61414, -29.93508], [27.68555, -29.80653], [27.60864, -29.66826], [27.54272, -29.65872], [27.66357, -29.44377], [27.93823, -29.0989], [28.08655, -29.01731], [28.30627, -28.93565], [28.42712, -28.77213], [28.42712, -28.72881], [28.70728, -28.67101], [28.65784, -28.58426], [28.57544, -28.60354], [28.40515, -28.63246], [28.36121, -28.70955], [28.16895, -28.70955], [27.99316, -28.88758], [27.93274, -28.85392], [27.8833, -28.91642], [27.76794, -28.8972], [27.69653, -29.0029], [27.53174, -29.25232], [27.44659, -29.28853], [27.40814, -29.39623], [27.3587, -29.47035], [27.2818, -29.53248], [27.15546, -29.58024], [27.01538, -29.62799], [27.01813, -29.66378], [27.0813, -29.70909], [27.21588, -30.01148], [27.323, -30.13977], [27.38068, -30.14927], [27.37793, -30.33664], [27.46033, -30.31768], [27.49054, -30.38165]]}]}}, {"type": "Feature", "geometry": null, "properties": {"id": "t2FE", "status": "validé", "pieces": [{"kind": "country"}]}}, {"type": "Feature", "geometry": {"type": "Polygon", "coordinates": [[[28.92632, -30.03507], [28.98193, -30.01724], [29.02245, -29.9899], [29.00322, -29.94233], [29.02657, -29.90367], [29.0657, -29.85784], [29.09798, -29.84653], [29.11308, -29.85903], [29.10484, -29.87808], [29.07051, -29.912], [29.05403, -29.94114], [29.03755, -29.97742], [29.03275, -29.99347], [29.02313, -30.00239], [28.99841, -30.02616], [28.9785, -30.03864], [28.9476, -30.04577], [28.92632, -30.03507]]]}, "properties": {"id": "uroc", "status": "validé", "pieces": [{"kind": "polygon", "ring": [[28.92632, -30.03507], [28.98193, -30.01724], [29.02245, -29.9899], [29.00322, -29.94233], [29.02657, -29.90367], [29.0657, -29.85784], [29.09798, -29.84653], [29.11308, -29.85903], [29.10484, -29.87808], [29.07051, -29.912], [29.05403, -29.94114], [29.03755, -29.97742], [29.03275, -29.99347], [29.02313, -30.00239], [28.99841, -30.02616], [28.9785, -30.03864], [28.9476, -30.04577]]}]}}, {"type": "Feature", "geometry": {"type": "Polygon", "coordinates": [[[27.51663, -29.36538], [27.5441, -29.38335], [27.54753, -29.40308], [27.54547, -29.43895], [27.52281, -29.46585], [27.51045, -29.50827], [27.48711, -29.55186], [27.48505, -29.60738], [27.43561, -29.6563], [27.41707, -29.70221], [27.35252, -29.73023], [27.30103, -29.75526], [27.26395, -29.7779], [27.24953, -29.79279], [27.26257, -29.8059], [27.34703, -29.75824], [27.41707, -29.73381], [27.45346, -29.70221], [27.47269, -29.64914], [27.51663, -29.6217], [27.50771, -29.54888], [27.54341, -29.50468], [27.54822, -29.47003], [27.57088, -29.41444], [27.57431, -29.38753], [27.55508, -29.36361], [27.53174, -29.35643], [27.51663, -29.36538]]]}, "properties": {"id": "ylee", "status": "validé", "pieces": [{"kind": "polygon", "ring": [[27.51663, -29.36538], [27.5441, -29.38335], [27.54753, -29.40308], [27.54547, -29.43895], [27.52281, -29.46585], [27.51045, -29.50827], [27.48711, -29.55186], [27.48505, -29.60738], [27.43561, -29.6563], [27.41707, -29.70221], [27.35252, -29.73023], [27.30103, -29.75526], [27.26395, -29.7779], [27.24953, -29.79279], [27.26257, -29.8059], [27.34703, -29.75824], [27.41707, -29.73381], [27.45346, -29.70221], [27.47269, -29.64914], [27.51663, -29.6217], [27.50771, -29.54888], [27.54341, -29.50468], [27.54822, -29.47003], [27.57088, -29.41444], [27.57431, -29.38753], [27.55508, -29.36361], [27.53174, -29.35643]]}]}}]}