{"type": "FeatureCollection", "features": [{"type": "Feature", "geometry": {"type": "Polygon", "coordinates": [[[6.11749, 50.12046], [6.11056, 50.10599], [6.1057, 50.09224], [6.0994, 50.06413], [6.10116, 50.06341], [6.10715, 50.06377], [6.10942, 50.06356], [6.1057, 50.0603], [6.0964, 50.04863], [6.10726, 50.0446], [6.11377, 50.03638], [6.11997, 50.0155], [6.11718, 50.00439], [6.12152, 49.99628], [6.13878, 49.97933], [6.15397, 49.95122], [6.16193, 49.94248], [6.17268, 49.95623], [6.18983, 49.9383], [6.2227, 49.88714], [6.23831, 49.87691], [6.27221, 49.86714], [6.28678, 49.86104], [6.29153, 49.85556], [6.29557, 49.84862], [6.30156, 49.8383], [6.30259, 49.83494], [6.31065, 49.83448], [6.32564, 49.84037], [6.33442, 49.84022], [6.35137, 49.83329], [6.38011, 49.81556], [6.39706, 49.80859], [6.41452, 49.80549], [6.46248, 49.80549], [6.49328, 49.7996], [6.49721, 49.79944], [6.50258, 49.79567], [6.50227, 49.79588], [6.5001, 49.79448], [6.5, 49.78606], [6.49855, 49.78539], [6.49379, 49.76363], [6.49369, 49.75655], [6.49638, 49.75211], [6.49596, 49.74823], [6.48625, 49.7427], [6.48553, 49.73376], [6.4878, 49.7256], [6.49255, 49.71841], [6.49969, 49.71221], [6.491, 49.71443], [6.48635, 49.71294], [6.48294, 49.70808], [6.48976, 49.70296], [6.49173, 49.70079], [6.41824, 49.66989], [6.40274, 49.65578], [6.4045, 49.65247], [6.4109, 49.64963], [6.417, 49.64576], [6.41793, 49.63914], [6.41525, 49.63465], [6.4077, 49.62741], [6.39757, 49.61387], [6.37153, 49.593], [6.35644, 49.5776], [6.35075, 49.56659], [6.35075, 49.53491], [6.34881, 49.52529], [6.34228, 49.493], [6.34538, 49.46272], [6.34531, 49.45535], [6.32533, 49.45672], [6.29877, 49.46623], [6.25112, 49.48946], [6.24937, 49.49031], [6.22198, 49.49744], [6.19355, 49.49941], [6.13609, 49.49527], [6.1426, 49.48608], [6.11439, 49.48437], [6.10726, 49.48251], [6.10198, 49.47641], [6.10209, 49.47001], [6.09981, 49.46463], [6.08772, 49.46163], [6.07801, 49.45202], [6.06333, 49.44846], [5.97806, 49.4451], [5.9607, 49.44132], [5.94695, 49.46995], [5.92814, 49.4823], [5.86469, 49.49217], [5.83957, 49.49987], [5.8221, 49.51052], [5.79068, 49.53775], [5.81446, 49.54514], [5.8374, 49.56111], [5.84691, 49.57672], [5.82996, 49.58276], [5.84122, 49.58969], [5.84918, 49.59971], [5.862, 49.62276], [5.86996, 49.62886], [5.87988, 49.63485], [5.88546, 49.64353], [5.87988, 49.65774], [5.87264, 49.66172], [5.85259, 49.66322], [5.84577, 49.66658], [5.84226, 49.67392], [5.8437, 49.67749], [5.8467, 49.68069], [5.84722, 49.6872], [5.84877, 49.69273], [5.85363, 49.6963], [5.85735, 49.70043], [5.8564, 49.70581], [5.856, 49.70808], [5.85022, 49.71402], [5.8437, 49.71433], [5.8373, 49.71294], [5.83172, 49.71361], [5.82572, 49.71578], [5.81177, 49.71852], [5.80536, 49.72188], [5.80577, 49.7242], [5.8036, 49.73815], [5.80205, 49.74286], [5.77849, 49.77304], [5.77187, 49.77939], [5.75916, 49.78446], [5.74841, 49.78564], [5.73829, 49.78885], [5.72774, 49.80022], [5.72164, 49.81278], [5.7202, 49.82471], [5.72464, 49.83427], [5.73653, 49.83944], [5.72692, 49.84523], [5.72867, 49.84884], [5.73053, 49.85117], [5.73198, 49.85417], [5.73188, 49.85995], [5.75813, 49.8582], [5.74883, 49.86729], [5.72671, 49.8782], [5.71493, 49.88187], [5.71896, 49.89137], [5.75358, 49.93018], [5.75761, 49.93654], [5.75999, 49.9416], [5.76371, 49.94682], [5.77156, 49.95354], [5.77859, 49.95659], [5.79337, 49.95881], [5.80164, 49.96382], [5.8126, 49.97757], [5.80856, 49.9831], [5.80154, 49.98868], [5.80267, 50.00248], [5.80887, 50.0078], [5.82913, 50.01359], [5.83637, 50.01855], [5.83885, 50.02646], [5.83885, 50.03586], [5.83771, 50.04744], [5.8437, 50.05364], [5.85828, 50.0618], [5.86437, 50.06749], [5.86686, 50.07431], [5.86882, 50.09054], [5.87244, 50.09689], [5.88897, 50.10661], [5.92618, 50.11834], [5.94106, 50.12831], [5.94902, 50.14268], [5.95316, 50.15637], [5.96163, 50.16562], [5.98292, 50.16707], [5.99832, 50.17498], [6.00473, 50.17048], [6.00804, 50.16092], [6.01413, 50.15358], [6.02297, 50.15082], [6.02736, 50.14945], [6.03863, 50.14841], [6.06137, 50.15074], [6.07005, 50.1542], [6.07646, 50.15864], [6.08421, 50.15932], [6.09713, 50.15131], [6.10147, 50.14211], [6.10033, 50.13265], [6.1026, 50.12474], [6.11749, 50.12046]]]}, "properties": {"id": "2Qmq", "status": "validé", "pieces": [{"kind": "country"}]}}, {"type": "Feature", "geometry": {"type": "Polygon", "coordinates": [[[6.11749, 50.12046], [6.11056, 50.10599], [6.1057, 50.09224], [6.0994, 50.06413], [6.10116, 50.06341], [6.10715, 50.06377], [6.10942, 50.06356], [6.1057, 50.0603], [6.0964, 50.04863], [6.10726, 50.0446], [6.11377, 50.03638], [6.11997, 50.0155], [6.11718, 50.00439], [6.12152, 49.99628], [6.13878, 49.97933], [6.15397, 49.95122], [6.16193, 49.94248], [6.17268, 49.95623], [6.18983, 49.9383], [6.2227, 49.88714], [6.23831, 49.87691], [6.27221, 49.86714], [6.28678, 49.86104], [6.29153, 49.85556], [6.29557, 49.84862], [6.30156, 49.8383], [6.30259, 49.83494], [6.31065, 49.83448], [6.32564, 49.84037], [6.33442, 49.84022], [6.35137, 49.83329], [6.38011, 49.81556], [6.39706, 49.80859], [6.41452, 49.80549], [6.46248, 49.80549], [6.49328, 49.7996], [6.49721, 49.79944], [6.50258, 49.79567], [6.50227, 49.79588], [6.5001, 49.79448], [6.5, 49.78606], [6.49855, 49.78539], [6.49379, 49.76363], [6.49369, 49.75655], [6.49638, 49.75211], [6.49596, 49.74823], [6.48625, 49.7427], [6.48553, 49.73376], [6.4878, 49.7256], [6.49255, 49.71841], [6.49969, 49.71221], [6.491, 49.71443], [6.48635, 49.71294], [6.48294, 49.70808], [6.48976, 49.70296], [6.49173, 49.70079], [6.41824, 49.66989], [6.40274, 49.65578], [6.4045, 49.65247], [6.4109, 49.64963], [6.417, 49.64576], [6.41793, 49.63914], [6.41525, 49.63465], [6.4077, 49.62741], [6.39757, 49.61387], [6.37153, 49.593], [6.35644, 49.5776], [6.35075, 49.56659], [6.35075, 49.53491], [6.34881, 49.52529], [6.34228, 49.493], [6.34538, 49.46272], [6.34531, 49.45535], [6.32533, 49.45672], [6.29877, 49.46623], [6.25112, 49.48946], [6.24937, 49.49031], [6.22198, 49.49744], [6.19355, 49.49941], [6.13609, 49.49527], [6.1426, 49.48608], [6.11439, 49.48437], [6.10726, 49.48251], [6.10198, 49.47641], [6.10209, 49.47001], [6.09981, 49.46463], [6.08772, 49.46163], [6.07801, 49.45202], [6.06333, 49.44846], [5.97806, 49.4451], [5.9607, 49.44132], [5.94695, 49.46995], [5.92814, 49.4823], [5.86469, 49.49217], [5.83957, 49.49987], [5.8221, 49.51052], [5.79068, 49.53775], [5.81446, 49.54514], [5.8374, 49.56111], [5.84691, 49.57672], [5.82996, 49.58276], [5.84122, 49.58969], [5.84918, 49.59971], [5.862, 49.62276], [5.86996, 49.62886], [5.87988, 49.63485], [5.88546, 49.64353], [5.87988, 49.65774], [5.87264, 49.66172], [5.85259, 49.66322], [5.84577, 49.66658], [5.84226, 49.67392], [5.8437, 49.67749], [5.8467, 49.68069], [5.84722, 49.6872], [5.84877, 49.69273], [5.85363, 49.6963], [5.85735, 49.70043], [5.8564, 49.70581], [5.856, 49.70808], [5.85022, 49.71402], [5.8437, 49.71433], [5.8373, 49.71294], [5.83172, 49.71361], [5.82572, 49.71578], [5.81177, 49.71852], [5.80536, 49.72188], [5.80577, 49.7242], [5.8036, 49.73815], [5.80205, 49.74286], [5.77849, 49.77304], [5.77187, 49.77939], [5.75916, 49.78446], [5.74841, 49.78564], [5.73829, 49.78885], [5.72774, 49.80022], [5.72164, 49.81278], [5.7202, 49.82471], [5.72464, 49.83427], [5.73653, 49.83944], [5.72692, 49.84523], [5.72867, 49.84884], [5.73053, 49.85117], [5.73198, 49.85417], [5.73188, 49.85995], [5.75813, 49.8582], [5.74883, 49.86729], [5.72671, 49.8782], [5.71493, 49.88187], [5.71896, 49.89137], [5.75358, 49.93018], [5.75761, 49.93654], [5.75999, 49.9416], [5.76371, 49.94682], [5.77156, 49.95354], [5.77859, 49.95659], [5.79337, 49.95881], [5.80164, 49.96382], [5.8126, 49.97757], [5.80856, 49.9831], [5.80154, 49.98868], [5.80267, 50.00248], [5.80887, 50.0078], [5.82913, 50.01359], [5.83637, 50.01855], [5.83885, 50.02646], [5.83885, 50.03586], [5.83771, 50.04744], [5.8437, 50.05364], [5.85828, 50.0618], [5.86437, 50.06749], [5.86686, 50.07431], [5.86882, 50.09054], [5.87244, 50.09689], [5.88897, 50.10661], [5.92618, 50.11834], [5.94106, 50.12831], [5.94902, 50.14268], [5.95316, 50.15637], [5.96163, 50.16562], [5.98292, 50.16707], [5.99832, 50.17498], [6.00473, 50.17048], [6.00804, 50.16092], [6.01413, 50.15358], [6.02297, 50.15082], [6.02736, 50.14945], [6.03863, 50.14841], [6.06137, 50.15074], [6.07005, 50.1542], [6.07646, 50.15864], [6.08421, 50.15932], [6.09713, 50.15131], [6.10147, 50.14211], [6.10033, 50.13265], [6.1026, 50.12474], [6.11749, 50.12046]]]}, "properties": {"id": "90cv", "status": "validé", "pieces": [{"kind": "country"}]}}, {"type": "Feature", "geometry": {"type": "Polygon", "coordinates": [[[6.11749, 50.12046], [6.11056, 50.10599], [6.1057, 50.09224], [6.0994, 50.06413], [6.10116, 50.06341], [6.10715, 50.06377], [6.10942, 50.06356], [6.1057, 50.0603], [6.0964, 50.04863], [6.10726, 50.0446], [6.11377, 50.03638], [6.11997, 50.0155], [6.11718, 50.00439], [6.12152, 49.99628], [6.13878, 49.97933], [6.15397, 49.95122], [6.16193, 49.94248], [6.17268, 49.95623], [6.18983, 49.9383], [6.2227, 49.88714], [6.23831, 49.87691], [6.27221, 49.86714], [6.28678, 49.86104], [6.29153, 49.85556], [6.29557, 49.84862], [6.30156, 49.8383], [6.30259, 49.83494], [6.31065, 49.83448], [6.32564, 49.84037], [6.33442, 49.84022], [6.35137, 49.83329], [6.38011, 49.81556], [6.39706, 49.80859], [6.41452, 49.80549], [6.46248, 49.80549], [6.49328, 49.7996], [6.49721, 49.79944], [6.50258, 49.79567], [6.50227, 49.79588], [6.5001, 49.79448], [6.5, 49.78606], [6.49855, 49.78539], [6.49379, 49.76363], [6.49369, 49.75655], [6.49638, 49.75211], [6.49596, 49.74823], [6.48625, 49.7427], [6.48553, 49.73376], [6.4878, 49.7256], [6.49255, 49.71841], [6.49969, 49.71221], [6.491, 49.71443], [6.48635, 49.71294], [6.48294, 49.70808], [6.48976, 49.70296], [6.49173, 49.70079], [6.41824, 49.66989], [6.40274, 49.65578], [6.4045, 49.65247], [6.4109, 49.64963], [6.417, 49.64576], [6.41793, 49.63914], [6.41525, 49.63465], [6.4077, 49.62741], [6.39757, 49.61387], [6.37153, 49.593], [6.35644, 49.5776], [6.35075, 49.56659], [6.35075, 49.53491], [6.34881, 49.52529], [6.34228, 49.493], [6.34538, 49.46272], [6.34531, 49.45535], [6.32533, 49.45672], [6.29877, 49.46623], [6.25112, 49.48946], [6.24937, 49.49031], [6.22198, 49.49744], [6.19355, 49.49941], [6.13609, 49.49527], [6.1426, 49.48608], [6.11439, 49.48437], [6.10726, 49.48251], [6.10198, 49.47641], [6.10209, 49.47001], [6.09981, 49.46463], [6.08772, 49.46163], [6.07801, 49.45202], [6.06333, 49.44846], [5.97806, 49.4451], [5.9607, 49.44132], [5.94695, 49.46995], [5.92814, 49.4823], [5.86469, 49.49217], [5.83957, 49.49987], [5.8221, 49.51052], [5.79068, 49.53775], [5.81446, 49.54514], [5.8374, 49.56111], [5.84691, 49.57672], [5.82996, 49.58276], [5.84122, 49.58969], [5.84918, 49.59971], [5.862, 49.62276], [5.86996, 49.62886], [5.87988, 49.63485], [5.88546, 49.64353], [5.87988, 49.65774], [5.87264, 49.66172], [5.85259, 49.66322], [5.84577, 49.66658], [5.84226, 49.67392], [5.8437, 49.67749], [5.8467, 49.68069], [5.84722, 49.6872], [5.84877, 49.69273], [5.85363, 49.6963], [5.85735, 49.70043], [5.8564, 49.70581], [5.856, 49.70808], [5.85022, 49.71402], [5.8437, 49.71433], [5.8373, 49.71294], [5.83172, 49.71361], [5.82572, 49.71578], [5.81177, 49.71852], [5.80536, 49.72188], [5.80577, 49.7242], [5.8036, 49.73815], [5.80205, 49.74286], [5.77849, 49.77304], [5.77187, 49.77939], [5.75916, 49.78446], [5.74841, 49.78564], [5.73829, 49.78885], [5.72774, 49.80022], [5.72164, 49.81278], [5.7202, 49.82471], [5.72464, 49.83427], [5.73653, 49.83944], [5.72692, 49.84523], [5.72867, 49.84884], [5.73053, 49.85117], [5.73198, 49.85417], [5.73188, 49.85995], [5.75813, 49.8582], [5.74883, 49.86729], [5.72671, 49.8782], [5.71493, 49.88187], [5.71896, 49.89137], [5.75358, 49.93018], [5.75761, 49.93654], [5.75999, 49.9416], [5.76371, 49.94682], [5.77156, 49.95354], [5.77859, 49.95659], [5.79337, 49.95881], [5.80164, 49.96382], [5.8126, 49.97757], [5.80856, 49.9831], [5.80154, 49.98868], [5.80267, 50.00248], [5.80887, 50.0078], [5.82913, 50.01359], [5.83637, 50.01855], [5.83885, 50.02646], [5.83885, 50.03586], [5.83771, 50.04744], [5.8437, 50.05364], [5.85828, 50.0618], [5.86437, 50.06749], [5.86686, 50.07431], [5.86882, 50.09054], [5.87244, 50.09689], [5.88897, 50.10661], [5.92618, 50.11834], [5.94106, 50.12831], [5.94902, 50.14268], [5.95316, 50.15637], [5.96163, 50.16562], [5.98292, 50.16707], [5.99832, 50.17498], [6.00473, 50.17048], [6.00804, 50.16092], [6.01413, 50.15358], [6.02297, 50.15082], [6.02736, 50.14945], [6.03863, 50.14841], [6.06137, 50.15074], [6.07005, 50.1542], [6.07646, 50.15864], [6.08421, 50.15932], [6.09713, 50.15131], [6.10147, 50.14211], [6.10033, 50.13265], [6.1026, 50.12474], [6.11749, 50.12046]]]}, "properties": {"id": "D1t5", "status": "validé", "pieces": [{"kind": "country"}]}}, {"type": "Feature", "geometry": {"type": "Polygon", "coordinates": [[[6.11749, 50.12046], [6.11056, 50.10599], [6.1057, 50.09224], [6.0994, 50.06413], [6.10116, 50.06341], [6.10715, 50.06377], [6.10942, 50.06356], [6.1057, 50.0603], [6.0964, 50.04863], [6.10726, 50.0446], [6.11377, 50.03638], [6.11997, 50.0155], [6.11718, 50.00439], [6.12152, 49.99628], [6.13878, 49.97933], [6.15397, 49.95122], [6.16193, 49.94248], [6.17268, 49.95623], [6.18983, 49.9383], [6.2227, 49.88714], [6.23831, 49.87691], [6.27221, 49.86714], [6.28678, 49.86104], [6.29153, 49.85556], [6.29557, 49.84862], [6.30156, 49.8383], [6.30259, 49.83494], [6.31065, 49.83448], [6.32564, 49.84037], [6.33442, 49.84022], [6.35137, 49.83329], [6.38011, 49.81556], [6.39706, 49.80859], [6.41452, 49.80549], [6.46248, 49.80549], [6.49328, 49.7996], [6.49721, 49.79944], [6.50258, 49.79567], [6.50227, 49.79588], [6.5001, 49.79448], [6.5, 49.78606], [6.49855, 49.78539], [6.49379, 49.76363], [6.49369, 49.75655], [6.49638, 49.75211], [6.49596, 49.74823], [6.48625, 49.7427], [6.48553, 49.73376], [6.4878, 49.7256], [6.49255, 49.71841], [6.49969, 49.71221], [6.491, 49.71443], [6.48635, 49.71294], [6.48294, 49.70808], [6.48976, 49.70296], [6.49173, 49.70079], [6.41824, 49.66989], [6.40274, 49.65578], [6.4045, 49.65247], [6.4109, 49.64963], [6.417, 49.64576], [6.41793, 49.63914], [6.41525, 49.63465], [6.4077, 49.62741], [6.39757, 49.61387], [6.37153, 49.593], [6.35644, 49.5776], [6.35075, 49.56659], [6.35075, 49.53491], [6.34881, 49.52529], [6.34228, 49.493], [6.34538, 49.46272], [6.34531, 49.45535], [6.32533, 49.45672], [6.29877, 49.46623], [6.25112, 49.48946], [6.24937, 49.49031], [6.22198, 49.49744], [6.19355, 49.49941], [6.13609, 49.49527], [6.1426, 49.48608], [6.11439, 49.48437], [6.10726, 49.48251], [6.10198, 49.47641], [6.10209, 49.47001], [6.09981, 49.46463], [6.08772, 49.46163], [6.07801, 49.45202], [6.06333, 49.44846], [5.97806, 49.4451], [5.9607, 49.44132], [5.94695, 49.46995], [5.92814, 49.4823], [5.86469, 49.49217], [5.83957, 49.49987], [5.8221, 49.51052], [5.79068, 49.53775], [5.81446, 49.54514], [5.8374, 49.56111], [5.84691, 49.57672], [5.82996, 49.58276], [5.84122, 49.58969], [5.84918, 49.59971], [5.862, 49.62276], [5.86996, 49.62886], [5.87988, 49.63485], [5.88546, 49.64353], [5.87988, 49.65774], [5.87264, 49.66172], [5.85259, 49.66322], [5.84577, 49.66658], [5.84226, 49.67392], [5.8437, 49.67749], [5.8467, 49.68069], [5.84722, 49.6872], [5.84877, 49.69273], [5.85363, 49.6963], [5.85735, 49.70043], [5.8564, 49.70581], [5.856, 49.70808], [5.85022, 49.71402], [5.8437, 49.71433], [5.8373, 49.71294], [5.83172, 49.71361], [5.82572, 49.71578], [5.81177, 49.71852], [5.80536, 49.72188], [5.80577, 49.7242], [5.8036, 49.73815], [5.80205, 49.74286], [5.77849, 49.77304], [5.77187, 49.77939], [5.75916, 49.78446], [5.74841, 49.78564], [5.73829, 49.78885], [5.72774, 49.80022], [5.72164, 49.81278], [5.7202, 49.82471], [5.72464, 49.83427], [5.73653, 49.83944], [5.72692, 49.84523], [5.72867, 49.84884], [5.73053, 49.85117], [5.73198, 49.85417], [5.73188, 49.85995], [5.75813, 49.8582], [5.74883, 49.86729], [5.72671, 49.8782], [5.71493, 49.88187], [5.71896, 49.89137], [5.75358, 49.93018], [5.75761, 49.93654], [5.75999, 49.9416], [5.76371, 49.94682], [5.77156, 49.95354], [5.77859, 49.95659], [5.79337, 49.95881], [5.80164, 49.96382], [5.8126, 49.97757], [5.80856, 49.9831], [5.80154, 49.98868], [5.80267, 50.00248], [5.80887, 50.0078], [5.82913, 50.01359], [5.83637, 50.01855], [5.83885, 50.02646], [5.83885, 50.03586], [5.83771, 50.04744], [5.8437, 50.05364], [5.85828, 50.0618], [5.86437, 50.06749], [5.86686, 50.07431], [5.86882, 50.09054], [5.87244, 50.09689], [5.88897, 50.10661], [5.92618, 50.11834], [5.94106, 50.12831], [5.94902, 50.14268], [5.95316, 50.15637], [5.96163, 50.16562], [5.98292, 50.16707], [5.99832, 50.17498], [6.00473, 50.17048], [6.00804, 50.16092], [6.01413, 50.15358], [6.02297, 50.15082], [6.02736, 50.14945], [6.03863, 50.14841], [6.06137, 50.15074], [6.07005, 50.1542], [6.07646, 50.15864], [6.08421, 50.15932], [6.09713, 50.15131], [6.10147, 50.14211], [6.10033, 50.13265], [6.1026, 50.12474], [6.11749, 50.12046]]]}, "properties": {"id": "DmBj", "status": "validé", "pieces": [{"kind": "country"}]}}, {"type": "Feature", "geometry": {"type": "Polygon", "coordinates": [[[6.34872, 49.4639], [6.33499, 49.50938], [6.31165, 49.55482], [6.33911, 49.61356], [6.38031, 49.68733], [6.42151, 49.71574], [6.49704, 49.7352], [6.51627, 49.72632], [6.50047, 49.71123], [6.45859, 49.6917], [6.44417, 49.67394], [6.42426, 49.66328], [6.4373, 49.65928], [6.42014, 49.62283], [6.37207, 49.58769], [6.37962, 49.57968], [6.35765, 49.57123], [6.37962, 49.5601], [6.35834, 49.53071], [6.36932, 49.45715], [6.34872, 49.4639]]]}, "properties": {"id": "F5fO", "status": "validé", "pieces": [{"kind": "polygon", "ring": [[6.34872, 49.4639], [6.33499, 49.50938], [6.31165, 49.55482], [6.33911, 49.61356], [6.38031, 49.68733], [6.42151, 49.71574], [6.49704, 49.7352], [6.51627, 49.72632], [6.50047, 49.71123], [6.45859, 49.6917], [6.44417, 49.67394], [6.42426, 49.66328], [6.4373, 49.65928], [6.42014, 49.62283], [6.37207, 49.58769], [6.37962, 49.57968], [6.35765, 49.57123], [6.37962, 49.5601], [6.35834, 49.53071], [6.36932, 49.45715]]}]}}, {"type": "Feature", "geometry": {"type": "Polygon", "coordinates": [[[6.11749, 50.12046], [6.11056, 50.10599], [6.1057, 50.09224], [6.0994, 50.06413], [6.10116, 50.06341], [6.10715, 50.06377], [6.10942, 50.06356], [6.1057, 50.0603], [6.0964, 50.04863], [6.10726, 50.0446], [6.11377, 50.03638], [6.11997, 50.0155], [6.11718, 50.00439], [6.12152, 49.99628], [6.13878, 49.97933], [6.15397, 49.95122], [6.16193, 49.94248], [6.17268, 49.95623], [6.18983, 49.9383], [6.2227, 49.88714], [6.23831, 49.87691], [6.27221, 49.86714], [6.28678, 49.86104], [6.29153, 49.85556], [6.29557, 49.84862], [6.30156, 49.8383], [6.30259, 49.83494], [6.31065, 49.83448], [6.32564, 49.84037], [6.33442, 49.84022], [6.35137, 49.83329], [6.38011, 49.81556], [6.39706, 49.80859], [6.41452, 49.80549], [6.46248, 49.80549], [6.49328, 49.7996], [6.49721, 49.79944], [6.50258, 49.79567], [6.50227, 49.79588], [6.5001, 49.79448], [6.5, 49.78606], [6.49855, 49.78539], [6.49379, 49.76363], [6.49369, 49.75655], [6.49638, 49.75211], [6.49596, 49.74823], [6.48625, 49.7427], [6.48553, 49.73376], [6.4878, 49.7256], [6.49255, 49.71841], [6.49969, 49.71221], [6.491, 49.71443], [6.48635, 49.71294], [6.48294, 49.70808], [6.48976, 49.70296], [6.49173, 49.70079], [6.41824, 49.66989], [6.40274, 49.65578], [6.4045, 49.65247], [6.4109, 49.64963], [6.417, 49.64576], [6.41793, 49.63914], [6.41525, 49.63465], [6.4077, 49.62741], [6.39757, 49.61387], [6.37153, 49.593], [6.35644, 49.5776], [6.35075, 49.56659], [6.35075, 49.53491], [6.34881, 49.52529], [6.34228, 49.493], [6.34538, 49.46272], [6.34531, 49.45535], [6.32533, 49.45672], [6.29877, 49.46623], [6.25112, 49.48946], [6.24937, 49.49031], [6.22198, 49.49744], [6.19355, 49.49941], [6.13609, 49.49527], [6.1426, 49.48608], [6.11439, 49.48437], [6.10726, 49.48251], [6.10198, 49.47641], [6.10209, 49.47001], [6.09981, 49.46463], [6.08772, 49.46163], [6.07801, 49.45202], [6.06333, 49.44846], [5.97806, 49.4451], [5.9607, 49.44132], [5.94695, 49.46995], [5.92814, 49.4823], [5.86469, 49.49217], [5.83957, 49.49987], [5.8221, 49.51052], [5.79068, 49.53775], [5.81446, 49.54514], [5.8374, 49.56111], [5.84691, 49.57672], [5.82996, 49.58276], [5.84122, 49.58969], [5.84918, 49.59971], [5.862, 49.62276], [5.86996, 49.62886], [5.87988, 49.63485], [5.88546, 49.64353], [5.87988, 49.65774], [5.87264, 49.66172], [5.85259, 49.66322], [5.84577, 49.66658], [5.84226, 49.67392], [5.8437, 49.67749], [5.8467, 49.68069], [5.84722, 49.6872], [5.84877, 49.69273], [5.85363, 49.6963], [5.85735, 49.70043], [5.8564, 49.70581], [5.856, 49.70808], [5.85022, 49.71402], [5.8437, 49.71433], [5.8373, 49.71294], [5.83172, 49.71361], [5.82572, 49.71578], [5.81177, 49.71852], [5.80536, 49.72188], [5.80577, 49.7242], [5.8036, 49.73815], [5.80205, 49.74286], [5.77849, 49.77304], [5.77187, 49.77939], [5.75916, 49.78446], [5.74841, 49.78564], [5.73829, 49.78885], [5.72774, 49.80022], [5.72164, 49.81278], [5.7202, 49.82471], [5.72464, 49.83427], [5.73653, 49.83944], [5.72692, 49.84523], [5.72867, 49.84884], [5.73053, 49.85117], [5.73198, 49.85417], [5.73188, 49.85995], [5.75813, 49.8582], [5.74883, 49.86729], [5.72671, 49.8782], [5.71493, 49.88187], [5.71896, 49.89137], [5.75358, 49.93018], [5.75761, 49.93654], [5.75999, 49.9416], [5.76371, 49.94682], [5.77156, 49.95354], [5.77859, 49.95659], [5.79337, 49.95881], [5.80164, 49.96382], [5.8126, 49.97757], [5.80856, 49.9831], [5.80154, 49.98868], [5.80267, 50.00248], [5.80887, 50.0078], [5.82913, 50.01359], [5.83637, 50.01855], [5.83885, 50.02646], [5.83885, 50.03586], [5.83771, 50.04744], [5.8437, 50.05364], [5.85828, 50.0618], [5.86437, 50.06749], [5.86686, 50.07431], [5.86882, 50.09054], [5.87244, 50.09689], [5.88897, 50.10661], [5.92618, 50.11834], [5.94106, 50.12831], [5.94902, 50.14268], [5.95316, 50.15637], [5.96163, 50.16562], [5.98292, 50.16707], [5.99832, 50.17498], [6.00473, 50.17048], [6.00804, 50.16092], [6.01413, 50.15358], [6.02297, 50.15082], [6.02736, 50.14945], [6.03863, 50.14841], [6.06137, 50.15074], [6.07005, 50.1542], [6.07646, 50.15864], [6.08421, 50.15932], [6.09713, 50.15131], [6.10147, 50.14211], [6.10033, 50.13265], [6.1026, 50.12474], [6.11749, 50.12046]]]}, "properties": {"id": "MrJA", "status": "validé", "pieces": [{"kind": "country"}]}}, {"type": "Feature", "geometry": {"type": "Polygon", "coordinates": [[[6.11749, 50.12046], [6.11056, 50.10599], [6.1057, 50.09224], [6.0994, 50.06413], [6.10116, 50.06341], [6.10715, 50.06377], [6.10942, 50.06356], [6.1057, 50.0603], [6.0964, 50.04863], [6.10726, 50.0446], [6.11377, 50.03638], [6.11997, 50.0155], [6.11718, 50.00439], [6.12152, 49.99628], [6.13878, 49.97933], [6.15397, 49.95122], [6.16193, 49.94248], [6.17268, 49.95623], [6.18983, 49.9383], [6.2227, 49.88714], [6.23831, 49.87691], [6.27221, 49.86714], [6.28678, 49.86104], [6.29153, 49.85556], [6.29557, 49.84862], [6.30156, 49.8383], [6.30259, 49.83494], [6.31065, 49.83448], [6.32564, 49.84037], [6.33442, 49.84022], [6.35137, 49.83329], [6.38011, 49.81556], [6.39706, 49.80859], [6.41452, 49.80549], [6.46248, 49.80549], [6.49328, 49.7996], [6.49721, 49.79944], [6.50258, 49.79567], [6.50227, 49.79588], [6.5001, 49.79448], [6.5, 49.78606], [6.49855, 49.78539], [6.49379, 49.76363], [6.49369, 49.75655], [6.49638, 49.75211], [6.49596, 49.74823], [6.48625, 49.7427], [6.48553, 49.73376], [6.4878, 49.7256], [6.49255, 49.71841], [6.49969, 49.71221], [6.491, 49.71443], [6.48635, 49.71294], [6.48294, 49.70808], [6.48976, 49.70296], [6.49173, 49.70079], [6.41824, 49.66989], [6.40274, 49.65578], [6.4045, 49.65247], [6.4109, 49.64963], [6.417, 49.64576], [6.41793, 49.63914], [6.41525, 49.63465], [6.4077, 49.62741], [6.39757, 49.61387], [6.37153, 49.593], [6.35644, 49.5776], [6.35075, 49.56659], [6.35075, 49.53491], [6.34881, 49.52529], [6.34228, 49.493], [6.34538, 49.46272], [6.34531, 49.45535], [6.32533, 49.45672], [6.29877, 49.46623], [6.25112, 49.48946], [6.24937, 49.49031], [6.22198, 49.49744], [6.19355, 49.49941], [6.13609, 49.49527], [6.1426, 49.48608], [6.11439, 49.48437], [6.10726, 49.48251], [6.10198, 49.47641], [6.10209, 49.47001], [6.09981, 49.46463], [6.08772, 49.46163], [6.07801, 49.45202], [6.06333, 49.44846], [5.97806, 49.4451], [5.9607, 49.44132], [5.94695, 49.46995], [5.92814, 49.4823], [5.86469, 49.49217], [5.83957, 49.49987], [5.8221, 49.51052], [5.79068, 49.53775], [5.81446, 49.54514], [5.8374, 49.56111], [5.84691, 49.57672], [5.82996, 49.58276], [5.84122, 49.58969], [5.84918, 49.59971], [5.862, 49.62276], [5.86996, 49.62886], [5.87988, 49.63485], [5.88546, 49.64353], [5.87988, 49.65774], [5.87264, 49.66172], [5.85259, 49.66322], [5.84577, 49.66658], [5.84226, 49.67392], [5.8437, 49.67749], [5.8467, 49.68069], [5.84722, 49.6872], [5.84877, 49.69273], [5.85363, 49.6963], [5.85735, 49.70043], [5.8564, 49.70581], [5.856, 49.70808], [5.85022, 49.71402], [5.8437, 49.71433], [5.8373, 49.71294], [5.83172, 49.71361], [5.82572, 49.71578], [5.81177, 49.71852], [5.80536, 49.72188], [5.80577, 49.7242], [5.8036, 49.73815], [5.80205, 49.74286], [5.77849, 49.77304], [5.77187, 49.77939], [5.75916, 49.78446], [5.74841, 49.78564], [5.73829, 49.78885], [5.72774, 49.80022], [5.72164, 49.81278], [5.7202, 49.82471], [5.72464, 49.83427], [5.73653, 49.83944], [5.72692, 49.84523], [5.72867, 49.84884], [5.73053, 49.85117], [5.73198, 49.85417], [5.73188, 49.85995], [5.75813, 49.8582], [5.74883, 49.86729], [5.72671, 49.8782], [5.71493, 49.88187], [5.71896, 49.89137], [5.75358, 49.93018], [5.75761, 49.93654], [5.75999, 49.9416], [5.76371, 49.94682], [5.77156, 49.95354], [5.77859, 49.95659], [5.79337, 49.95881], [5.80164, 49.96382], [5.8126, 49.97757], [5.80856, 49.9831], [5.80154, 49.98868], [5.80267, 50.00248], [5.80887, 50.0078], [5.82913, 50.01359], [5.83637, 50.01855], [5.83885, 50.02646], [5.83885, 50.03586], [5.83771, 50.04744], [5.8437, 50.05364], [5.85828, 50.0618], [5.86437, 50.06749], [5.86686, 50.07431], [5.86882, 50.09054], [5.87244, 50.09689], [5.88897, 50.10661], [5.92618, 50.11834], [5.94106, 50.12831], [5.94902, 50.14268], [5.95316, 50.15637], [5.96163, 50.16562], [5.98292, 50.16707], [5.99832, 50.17498], [6.00473, 50.17048], [6.00804, 50.16092], [6.01413, 50.15358], [6.02297, 50.15082], [6.02736, 50.14945], [6.03863, 50.14841], [6.06137, 50.15074], [6.07005, 50.1542], [6.07646, 50.15864], [6.08421, 50.15932], [6.09713, 50.15131], [6.10147, 50.14211], [6.10033, 50.13265], [6.1026, 50.12474], [6.11749, 50.12046]]]}, "properties": {"id": "S1pq", "status": "validé", "pieces": [{"kind": "country"}]}}, {"type": "Feature", "geometry": {"type": "Polygon", "coordinates": [[[6.11749, 50.12046], [6.11056, 50.10599], [6.1057, 50.09224], [6.0994, 50.06413], [6.10116, 50.06341], [6.10715, 50.06377], [6.10942, 50.06356], [6.1057, 50.0603], [6.0964, 50.04863], [6.10726, 50.0446], [6.11377, 50.03638], [6.11997, 50.0155], [6.11718, 50.00439], [6.12152, 49.99628], [6.13878, 49.97933], [6.15397, 49.95122], [6.16193, 49.94248], [6.17268, 49.95623], [6.18983, 49.9383], [6.2227, 49.88714], [6.23831, 49.87691], [6.27221, 49.86714], [6.28678, 49.86104], [6.29153, 49.85556], [6.29557, 49.84862], [6.30156, 49.8383], [6.30259, 49.83494], [6.31065, 49.83448], [6.32564, 49.84037], [6.33442, 49.84022], [6.35137, 49.83329], [6.38011, 49.81556], [6.39706, 49.80859], [6.41452, 49.80549], [6.46248, 49.80549], [6.49328, 49.7996], [6.49721, 49.79944], [6.50258, 49.79567], [6.50227, 49.79588], [6.5001, 49.79448], [6.5, 49.78606], [6.49855, 49.78539], [6.49379, 49.76363], [6.49369, 49.75655], [6.49638, 49.75211], [6.49596, 49.74823], [6.48625, 49.7427], [6.48553, 49.73376], [6.4878, 49.7256], [6.49255, 49.71841], [6.49969, 49.71221], [6.491, 49.71443], [6.48635, 49.71294], [6.48294, 49.70808], [6.48976, 49.70296], [6.49173, 49.70079], [6.41824, 49.66989], [6.40274, 49.65578], [6.4045, 49.65247], [6.4109, 49.64963], [6.417, 49.64576], [6.41793, 49.63914], [6.41525, 49.63465], [6.4077, 49.62741], [6.39757, 49.61387], [6.37153, 49.593], [6.35644, 49.5776], [6.35075, 49.56659], [6.35075, 49.53491], [6.34881, 49.52529], [6.34228, 49.493], [6.34538, 49.46272], [6.34531, 49.45535], [6.32533, 49.45672], [6.29877, 49.46623], [6.25112, 49.48946], [6.24937, 49.49031], [6.22198, 49.49744], [6.19355, 49.49941], [6.13609, 49.49527], [6.1426, 49.48608], [6.11439, 49.48437], [6.10726, 49.48251], [6.10198, 49.47641], [6.10209, 49.47001], [6.09981, 49.46463], [6.08772, 49.46163], [6.07801, 49.45202], [6.06333, 49.44846], [5.97806, 49.4451], [5.9607, 49.44132], [5.94695, 49.46995], [5.92814, 49.4823], [5.86469, 49.49217], [5.83957, 49.49987], [5.8221, 49.51052], [5.79068, 49.53775], [5.81446, 49.54514], [5.8374, 49.56111], [5.84691, 49.57672], [5.82996, 49.58276], [5.84122, 49.58969], [5.84918, 49.59971], [5.862, 49.62276], [5.86996, 49.62886], [5.87988, 49.63485], [5.88546, 49.64353], [5.87988, 49.65774], [5.87264, 49.66172], [5.85259, 49.66322], [5.84577, 49.66658], [5.84226, 49.67392], [5.8437, 49.67749], [5.8467, 49.68069], [5.84722, 49.6872], [5.84877, 49.69273], [5.85363, 49.6963], [5.85735, 49.70043], [5.8564, 49.70581], [5.856, 49.70808], [5.85022, 49.71402], [5.8437, 49.71433], [5.8373, 49.71294], [5.83172, 49.71361], [5.82572, 49.71578], [5.81177, 49.71852], [5.80536, 49.72188], [5.80577, 49.7242], [5.8036, 49.73815], [5.80205, 49.74286], [5.77849, 49.77304], [5.77187, 49.77939], [5.75916, 49.78446], [5.74841, 49.78564], [5.73829, 49.78885], [5.72774, 49.80022], [5.72164, 49.81278], [5.7202, 49.82471], [5.72464, 49.83427], [5.73653, 49.83944], [5.72692, 49.84523], [5.72867, 49.84884], [5.73053, 49.85117], [5.73198, 49.85417], [5.73188, 49.85995], [5.75813, 49.8582], [5.74883, 49.86729], [5.72671, 49.8782], [5.71493, 49.88187], [5.71896, 49.89137], [5.75358, 49.93018], [5.75761, 49.93654], [5.75999, 49.9416], [5.76371, 49.94682], [5.77156, 49.95354], [5.77859, 49.95659], [5.79337, 49.95881], [5.80164, 49.96382], [5.8126, 49.97757], [5.80856, 49.9831], [5.80154, 49.98868], [5.80267, 50.00248], [5.80887, 50.0078], [5.82913, 50.01359], [5.83637, 50.01855], [5.83885, 50.02646], [5.83885, 50.03586], [5.83771, 50.04744], [5.8437, 50.05364], [5.85828, 50.0618], [5.86437, 50.06749], [5.86686, 50.07431], [5.86882, 50.09054], [5.87244, 50.09689], [5.88897, 50.10661], [5.92618, 50.11834], [5.94106, 50.12831], [5.94902, 50.14268], [5.95316, 50.15637], [5.96163, 50.16562], [5.98292, 50.16707], [5.99832, 50.17498], [6.00473, 50.17048], [6.00804, 50.16092], [6.01413, 50.15358], [6.02297, 50.15082], [6.02736, 50.14945], [6.03863, 50.14841], [6.06137, 50.15074], [6.07005, 50.1542], [6.07646, 50.15864], [6.08421, 50.15932], [6.09713, 50.15131], [6.10147, 50.14211], [6.10033, 50.13265], [6.1026, 50.12474], [6.11749, 50.12046]]]}, "properties": {"id": "SRxb", "status": "validé", "pieces": [{"kind": "country"}]}}, {"type": "Feature", "geometry": {"type": "Polygon", "coordinates": [[[6.11749, 50.12046], [6.11056, 50.10599], [6.1057, 50.09224], [6.0994, 50.06413], [6.10116, 50.06341], [6.10715, 50.06377], [6.10942, 50.06356], [6.1057, 50.0603], [6.0964, 50.04863], [6.10726, 50.0446], [6.11377, 50.03638], [6.11997, 50.0155], [6.11718, 50.00439], [6.12152, 49.99628], [6.13878, 49.97933], [6.15397, 49.95122], [6.16193, 49.94248], [6.17268, 49.95623], [6.18983, 49.9383], [6.2227, 49.88714], [6.23831, 49.87691], [6.27221, 49.86714], [6.28678, 49.86104], [6.29153, 49.85556], [6.29557, 49.84862], [6.30156, 49.8383], [6.30259, 49.83494], [6.31065, 49.83448], [6.32564, 49.84037], [6.33442, 49.84022], [6.35137, 49.83329], [6.38011, 49.81556], [6.39706, 49.80859], [6.41452, 49.80549], [6.46248, 49.80549], [6.49328, 49.7996], [6.49721, 49.79944], [6.50258, 49.79567], [6.50227, 49.79588], [6.5001, 49.79448], [6.5, 49.78606], [6.49855, 49.78539], [6.49379, 49.76363], [6.49369, 49.75655], [6.49638, 49.75211], [6.49596, 49.74823], [6.48625, 49.7427], [6.48553, 49.73376], [6.4878, 49.7256], [6.49255, 49.71841], [6.49969, 49.71221], [6.491, 49.71443], [6.48635, 49.71294], [6.48294, 49.70808], [6.48976, 49.70296], [6.49173, 49.70079], [6.41824, 49.66989], [6.40274, 49.65578], [6.4045, 49.65247], [6.4109, 49.64963], [6.417, 49.64576], [6.41793, 49.63914], [6.41525, 49.63465], [6.4077, 49.62741], [6.39757, 49.61387], [6.37153, 49.593], [6.35644, 49.5776], [6.35075, 49.56659], [6.35075, 49.53491], [6.34881, 49.52529], [6.34228, 49.493], [6.34538, 49.46272], [6.34531, 49.45535], [6.32533, 49.45672], [6.29877, 49.46623], [6.25112, 49.48946], [6.24937, 49.49031], [6.22198, 49.49744], [6.19355, 49.49941], [6.13609, 49.49527], [6.1426, 49.48608], [6.11439, 49.48437], [6.10726, 49.48251], [6.10198, 49.47641], [6.10209, 49.47001], [6.09981, 49.46463], [6.08772, 49.46163], [6.07801, 49.45202], [6.06333, 49.44846], [5.97806, 49.4451], [5.9607, 49.44132], [5.94695, 49.46995], [5.92814, 49.4823], [5.86469, 49.49217], [5.83957, 49.49987], [5.8221, 49.51052], [5.79068, 49.53775], [5.81446, 49.54514], [5.8374, 49.56111], [5.84691, 49.57672], [5.82996, 49.58276], [5.84122, 49.58969], [5.84918, 49.59971], [5.862, 49.62276], [5.86996, 49.62886], [5.87988, 49.63485], [5.88546, 49.64353], [5.87988, 49.65774], [5.87264, 49.66172], [5.85259, 49.66322], [5.84577, 49.66658], [5.84226, 49.67392], [5.8437, 49.67749], [5.8467, 49.68069], [5.84722, 49.6872], [5.84877, 49.69273], [5.85363, 49.6963], [5.85735, 49.70043], [5.8564, 49.70581], [5.856, 49.70808], [5.85022, 49.71402], [5.8437, 49.71433], [5.8373, 49.71294], [5.83172, 49.71361], [5.82572, 49.71578], [5.81177, 49.71852], [5.80536, 49.72188], [5.80577, 49.7242], [5.8036, 49.73815], [5.80205, 49.74286], [5.77849, 49.77304], [5.77187, 49.77939], [5.75916, 49.78446], [5.74841, 49.78564], [5.73829, 49.78885], [5.72774, 49.80022], [5.72164, 49.81278], [5.7202, 49.82471], [5.72464, 49.83427], [5.73653, 49.83944], [5.72692, 49.84523], [5.72867, 49.84884], [5.73053, 49.85117], [5.73198, 49.85417], [5.73188, 49.85995], [5.75813, 49.8582], [5.74883, 49.86729], [5.72671, 49.8782], [5.71493, 49.88187], [5.71896, 49.89137], [5.75358, 49.93018], [5.75761, 49.93654], [5.75999, 49.9416], [5.76371, 49.94682], [5.77156, 49.95354], [5.77859, 49.95659], [5.79337, 49.95881], [5.80164, 49.96382], [5.8126, 49.97757], [5.80856, 49.9831], [5.80154, 49.98868], [5.80267, 50.00248], [5.80887, 50.0078], [5.82913, 50.01359], [5.83637, 50.01855], [5.83885, 50.02646], [5.83885, 50.03586], [5.83771, 50.04744], [5.8437, 50.05364], [5.85828, 50.0618], [5.86437, 50.06749], [5.86686, 50.07431], [5.86882, 50.09054], [5.87244, 50.09689], [5.88897, 50.10661], [5.92618, 50.11834], [5.94106, 50.12831], [5.94902, 50.14268], [5.95316, 50.15637], [5.96163, 50.16562], [5.98292, 50.16707], [5.99832, 50.17498], [6.00473, 50.17048], [6.00804, 50.16092], [6.01413, 50.15358], [6.02297, 50.15082], [6.02736, 50.14945], [6.03863, 50.14841], [6.06137, 50.15074], [6.07005, 50.1542], [6.07646, 50.15864], [6.08421, 50.15932], [6.09713, 50.15131], [6.10147, 50.14211], [6.10033, 50.13265], [6.1026, 50.12474], [6.11749, 50.12046]]]}, "properties": {"id": "YP0t", "status": "validé", "pieces": [{"kind": "country"}]}}, {"type": "Feature", "geometry": {"type": "Polygon", "coordinates": [[[6.11749, 50.12046], [6.11056, 50.10599], [6.1057, 50.09224], [6.0994, 50.06413], [6.10116, 50.06341], [6.10715, 50.06377], [6.10942, 50.06356], [6.1057, 50.0603], [6.0964, 50.04863], [6.10726, 50.0446], [6.11377, 50.03638], [6.11997, 50.0155], [6.11718, 50.00439], [6.12152, 49.99628], [6.13878, 49.97933], [6.15397, 49.95122], [6.16193, 49.94248], [6.17268, 49.95623], [6.18983, 49.9383], [6.2227, 49.88714], [6.23831, 49.87691], [6.27221, 49.86714], [6.28678, 49.86104], [6.29153, 49.85556], [6.29557, 49.84862], [6.30156, 49.8383], [6.30259, 49.83494], [6.31065, 49.83448], [6.32564, 49.84037], [6.33442, 49.84022], [6.35137, 49.83329], [6.38011, 49.81556], [6.39706, 49.80859], [6.41452, 49.80549], [6.46248, 49.80549], [6.49328, 49.7996], [6.49721, 49.79944], [6.50258, 49.79567], [6.50227, 49.79588], [6.5001, 49.79448], [6.5, 49.78606], [6.49855, 49.78539], [6.49379, 49.76363], [6.49369, 49.75655], [6.49638, 49.75211], [6.49596, 49.74823], [6.48625, 49.7427], [6.48553, 49.73376], [6.4878, 49.7256], [6.49255, 49.71841], [6.49969, 49.71221], [6.491, 49.71443], [6.48635, 49.71294], [6.48294, 49.70808], [6.48976, 49.70296], [6.49173, 49.70079], [6.41824, 49.66989], [6.40274, 49.65578], [6.4045, 49.65247], [6.4109, 49.64963], [6.417, 49.64576], [6.41793, 49.63914], [6.41525, 49.63465], [6.4077, 49.62741], [6.39757, 49.61387], [6.37153, 49.593], [6.35644, 49.5776], [6.35075, 49.56659], [6.35075, 49.53491], [6.34881, 49.52529], [6.34228, 49.493], [6.34538, 49.46272], [6.34531, 49.45535], [6.32533, 49.45672], [6.29877, 49.46623], [6.25112, 49.48946], [6.24937, 49.49031], [6.22198, 49.49744], [6.19355, 49.49941], [6.13609, 49.49527], [6.1426, 49.48608], [6.11439, 49.48437], [6.10726, 49.48251], [6.10198, 49.47641], [6.10209, 49.47001], [6.09981, 49.46463], [6.08772, 49.46163], [6.07801, 49.45202], [6.06333, 49.44846], [5.97806, 49.4451], [5.9607, 49.44132], [5.94695, 49.46995], [5.92814, 49.4823], [5.86469, 49.49217], [5.83957, 49.49987], [5.8221, 49.51052], [5.79068, 49.53775], [5.81446, 49.54514], [5.8374, 49.56111], [5.84691, 49.57672], [5.82996, 49.58276], [5.84122, 49.58969], [5.84918, 49.59971], [5.862, 49.62276], [5.86996, 49.62886], [5.87988, 49.63485], [5.88546, 49.64353], [5.87988, 49.65774], [5.87264, 49.66172], [5.85259, 49.66322], [5.84577, 49.66658], [5.84226, 49.67392], [5.8437, 49.67749], [5.8467, 49.68069], [5.84722, 49.6872], [5.84877, 49.69273], [5.85363, 49.6963], [5.85735, 49.70043], [5.8564, 49.70581], [5.856, 49.70808], [5.85022, 49.71402], [5.8437, 49.71433], [5.8373, 49.71294], [5.83172, 49.71361], [5.82572, 49.71578], [5.81177, 49.71852], [5.80536, 49.72188], [5.80577, 49.7242], [5.8036, 49.73815], [5.80205, 49.74286], [5.77849, 49.77304], [5.77187, 49.77939], [5.75916, 49.78446], [5.74841, 49.78564], [5.73829, 49.78885], [5.72774, 49.80022], [5.72164, 49.81278], [5.7202, 49.82471], [5.72464, 49.83427], [5.73653, 49.83944], [5.72692, 49.84523], [5.72867, 49.84884], [5.73053, 49.85117], [5.73198, 49.85417], [5.73188, 49.85995], [5.75813, 49.8582], [5.74883, 49.86729], [5.72671, 49.8782], [5.71493, 49.88187], [5.71896, 49.89137], [5.75358, 49.93018], [5.75761, 49.93654], [5.75999, 49.9416], [5.76371, 49.94682], [5.77156, 49.95354], [5.77859, 49.95659], [5.79337, 49.95881], [5.80164, 49.96382], [5.8126, 49.97757], [5.80856, 49.9831], [5.80154, 49.98868], [5.80267, 50.00248], [5.80887, 50.0078], [5.82913, 50.01359], [5.83637, 50.01855], [5.83885, 50.02646], [5.83885, 50.03586], [5.83771, 50.04744], [5.8437, 50.05364], [5.85828, 50.0618], [5.86437, 50.06749], [5.86686, 50.07431], [5.86882, 50.09054], [5.87244, 50.09689], [5.88897, 50.10661], [5.92618, 50.11834], [5.94106, 50.12831], [5.94902, 50.14268], [5.95316, 50.15637], [5.96163, 50.16562], [5.98292, 50.16707], [5.99832, 50.17498], [6.00473, 50.17048], [6.00804, 50.16092], [6.01413, 50.15358], [6.02297, 50.15082], [6.02736, 50.14945], [6.03863, 50.14841], [6.06137, 50.15074], [6.07005, 50.1542], [6.07646, 50.15864], [6.08421, 50.15932], [6.09713, 50.15131], [6.10147, 50.14211], [6.10033, 50.13265], [6.1026, 50.12474], [6.11749, 50.12046]]]}, "properties": {"id": "aRna", "status": "validé", "pieces": [{"kind": "country"}]}}, {"type": "Feature", "geometry": {"type": "Polygon", "coordinates": [[[6.11749, 50.12046], [6.11056, 50.10599], [6.1057, 50.09224], [6.0994, 50.06413], [6.10116, 50.06341], [6.10715, 50.06377], [6.10942, 50.06356], [6.1057, 50.0603], [6.0964, 50.04863], [6.10726, 50.0446], [6.11377, 50.03638], [6.11997, 50.0155], [6.11718, 50.00439], [6.12152, 49.99628], [6.13878, 49.97933], [6.15397, 49.95122], [6.16193, 49.94248], [6.17268, 49.95623], [6.18983, 49.9383], [6.2227, 49.88714], [6.23831, 49.87691], [6.27221, 49.86714], [6.28678, 49.86104], [6.29153, 49.85556], [6.29557, 49.84862], [6.30156, 49.8383], [6.30259, 49.83494], [6.31065, 49.83448], [6.32564, 49.84037], [6.33442, 49.84022], [6.35137, 49.83329], [6.38011, 49.81556], [6.39706, 49.80859], [6.41452, 49.80549], [6.46248, 49.80549], [6.49328, 49.7996], [6.49721, 49.79944], [6.50258, 49.79567], [6.50227, 49.79588], [6.5001, 49.79448], [6.5, 49.78606], [6.49855, 49.78539], [6.49379, 49.76363], [6.49369, 49.75655], [6.49638, 49.75211], [6.49596, 49.74823], [6.48625, 49.7427], [6.48553, 49.73376], [6.4878, 49.7256], [6.49255, 49.71841], [6.49969, 49.71221], [6.491, 49.71443], [6.48635, 49.71294], [6.48294, 49.70808], [6.48976, 49.70296], [6.49173, 49.70079], [6.41824, 49.66989], [6.40274, 49.65578], [6.4045, 49.65247], [6.4109, 49.64963], [6.417, 49.64576], [6.41793, 49.63914], [6.41525, 49.63465], [6.4077, 49.62741], [6.39757, 49.61387], [6.37153, 49.593], [6.35644, 49.5776], [6.35075, 49.56659], [6.35075, 49.53491], [6.34881, 49.52529], [6.34228, 49.493], [6.34538, 49.46272], [6.34531, 49.45535], [6.32533, 49.45672], [6.29877, 49.46623], [6.25112, 49.48946], [6.24937, 49.49031], [6.22198, 49.49744], [6.19355, 49.49941], [6.13609, 49.49527], [6.1426, 49.48608], [6.11439, 49.48437], [6.10726, 49.48251], [6.10198, 49.47641], [6.10209, 49.47001], [6.09981, 49.46463], [6.08772, 49.46163], [6.07801, 49.45202], [6.06333, 49.44846], [5.97806, 49.4451], [5.9607, 49.44132], [5.94695, 49.46995], [5.92814, 49.4823], [5.86469, 49.49217], [5.83957, 49.49987], [5.8221, 49.51052], [5.79068, 49.53775], [5.81446, 49.54514], [5.8374, 49.56111], [5.84691, 49.57672], [5.82996, 49.58276], [5.84122, 49.58969], [5.84918, 49.59971], [5.862, 49.62276], [5.86996, 49.62886], [5.87988, 49.63485], [5.88546, 49.64353], [5.87988, 49.65774], [5.87264, 49.66172], [5.85259, 49.66322], [5.84577, 49.66658], [5.84226, 49.67392], [5.8437, 49.67749], [5.8467, 49.68069], [5.84722, 49.6872], [5.84877, 49.69273], [5.85363, 49.6963], [5.85735, 49.70043], [5.8564, 49.70581], [5.856, 49.70808], [5.85022, 49.71402], [5.8437, 49.71433], [5.8373, 49.71294], [5.83172, 49.71361], [5.82572, 49.71578], [5.81177, 49.71852], [5.80536, 49.72188], [5.80577, 49.7242], [5.8036, 49.73815], [5.80205, 49.74286], [5.77849, 49.77304], [5.77187, 49.77939], [5.75916, 49.78446], [5.74841, 49.78564], [5.73829, 49.78885], [5.72774, 49.80022], [5.72164, 49.81278], [5.7202, 49.82471], [5.72464, 49.83427], [5.73653, 49.83944], [5.72692, 49.84523], [5.72867, 49.84884], [5.73053, 49.85117], [5.73198, 49.85417], [5.73188, 49.85995], [5.75813, 49.8582], [5.74883, 49.86729], [5.72671, 49.8782], [5.71493, 49.88187], [5.71896, 49.89137], [5.75358, 49.93018], [5.75761, 49.93654], [5.75999, 49.9416], [5.76371, 49.94682], [5.77156, 49.95354], [5.77859, 49.95659], [5.79337, 49.95881], [5.80164, 49.96382], [5.8126, 49.97757], [5.80856, 49.9831], [5.80154, 49.98868], [5.80267, 50.00248], [5.80887, 50.0078], [5.82913, 50.01359], [5.83637, 50.01855], [5.83885, 50.02646], [5.83885, 50.03586], [5.83771, 50.04744], [5.8437, 50.05364], [5.85828, 50.0618], [5.86437, 50.06749], [5.86686, 50.07431], [5.86882, 50.09054], [5.87244, 50.09689], [5.88897, 50.10661], [5.92618, 50.11834], [5.94106, 50.12831], [5.94902, 50.14268], [5.95316, 50.15637], [5.96163, 50.16562], [5.98292, 50.16707], [5.99832, 50.17498], [6.00473, 50.17048], [6.00804, 50.16092], [6.01413, 50.15358], [6.02297, 50.15082], [6.02736, 50.14945], [6.03863, 50.14841], [6.06137, 50.15074], [6.07005, 50.1542], [6.07646, 50.15864], [6.08421, 50.15932], [6.09713, 50.15131], [6.10147, 50.14211], [6.10033, 50.13265], [6.1026, 50.12474], [6.11749, 50.12046]]]}, "properties": {"id": "b7NW", "status": "validé", "pieces": [{"kind": "country"}]}}, {"type": "Feature", "geometry": {"type": "Polygon", "coordinates": [[[6.11749, 50.12046], [6.11056, 50.10599], [6.1057, 50.09224], [6.0994, 50.06413], [6.10116, 50.06341], [6.10715, 50.06377], [6.10942, 50.06356], [6.1057, 50.0603], [6.0964, 50.04863], [6.10726, 50.0446], [6.11377, 50.03638], [6.11997, 50.0155], [6.11718, 50.00439], [6.12152, 49.99628], [6.13878, 49.97933], [6.15397, 49.95122], [6.16193, 49.94248], [6.17268, 49.95623], [6.18983, 49.9383], [6.2227, 49.88714], [6.23831, 49.87691], [6.27221, 49.86714], [6.28678, 49.86104], [6.29153, 49.85556], [6.29557, 49.84862], [6.30156, 49.8383], [6.30259, 49.83494], [6.31065, 49.83448], [6.32564, 49.84037], [6.33442, 49.84022], [6.35137, 49.83329], [6.38011, 49.81556], [6.39706, 49.80859], [6.41452, 49.80549], [6.46248, 49.80549], [6.49328, 49.7996], [6.49721, 49.79944], [6.50258, 49.79567], [6.50227, 49.79588], [6.5001, 49.79448], [6.5, 49.78606], [6.49855, 49.78539], [6.49379, 49.76363], [6.49369, 49.75655], [6.49638, 49.75211], [6.49596, 49.74823], [6.48625, 49.7427], [6.48553, 49.73376], [6.4878, 49.7256], [6.49255, 49.71841], [6.49969, 49.71221], [6.491, 49.71443], [6.48635, 49.71294], [6.48294, 49.70808], [6.48976, 49.70296], [6.49173, 49.70079], [6.41824, 49.66989], [6.40274, 49.65578], [6.4045, 49.65247], [6.4109, 49.64963], [6.417, 49.64576], [6.41793, 49.63914], [6.41525, 49.63465], [6.4077, 49.62741], [6.39757, 49.61387], [6.37153, 49.593], [6.35644, 49.5776], [6.35075, 49.56659], [6.35075, 49.53491], [6.34881, 49.52529], [6.34228, 49.493], [6.34538, 49.46272], [6.34531, 49.45535], [6.32533, 49.45672], [6.29877, 49.46623], [6.25112, 49.48946], [6.24937, 49.49031], [6.22198, 49.49744], [6.19355, 49.49941], [6.13609, 49.49527], [6.1426, 49.48608], [6.11439, 49.48437], [6.10726, 49.48251], [6.10198, 49.47641], [6.10209, 49.47001], [6.09981, 49.46463], [6.08772, 49.46163], [6.07801, 49.45202], [6.06333, 49.44846], [5.97806, 49.4451], [5.9607, 49.44132], [5.94695, 49.46995], [5.92814, 49.4823], [5.86469, 49.49217], [5.83957, 49.49987], [5.8221, 49.51052], [5.79068, 49.53775], [5.81446, 49.54514], [5.8374, 49.56111], [5.84691, 49.57672], [5.82996, 49.58276], [5.84122, 49.58969], [5.84918, 49.59971], [5.862, 49.62276], [5.86996, 49.62886], [5.87988, 49.63485], [5.88546, 49.64353], [5.87988, 49.65774], [5.87264, 49.66172], [5.85259, 49.66322], [5.84577, 49.66658], [5.84226, 49.67392], [5.8437, 49.67749], [5.8467, 49.68069], [5.84722, 49.6872], [5.84877, 49.69273], [5.85363, 49.6963], [5.85735, 49.70043], [5.8564, 49.70581], [5.856, 49.70808], [5.85022, 49.71402], [5.8437, 49.71433], [5.8373, 49.71294], [5.83172, 49.71361], [5.82572, 49.71578], [5.81177, 49.71852], [5.80536, 49.72188], [5.80577, 49.7242], [5.8036, 49.73815], [5.80205, 49.74286], [5.77849, 49.77304], [5.77187, 49.77939], [5.75916, 49.78446], [5.74841, 49.78564], [5.73829, 49.78885], [5.72774, 49.80022], [5.72164, 49.81278], [5.7202, 49.82471], [5.72464, 49.83427], [5.73653, 49.83944], [5.72692, 49.84523], [5.72867, 49.84884], [5.73053, 49.85117], [5.73198, 49.85417], [5.73188, 49.85995], [5.75813, 49.8582], [5.74883, 49.86729], [5.72671, 49.8782], [5.71493, 49.88187], [5.71896, 49.89137], [5.75358, 49.93018], [5.75761, 49.93654], [5.75999, 49.9416], [5.76371, 49.94682], [5.77156, 49.95354], [5.77859, 49.95659], [5.79337, 49.95881], [5.80164, 49.96382], [5.8126, 49.97757], [5.80856, 49.9831], [5.80154, 49.98868], [5.80267, 50.00248], [5.80887, 50.0078], [5.82913, 50.01359], [5.83637, 50.01855], [5.83885, 50.02646], [5.83885, 50.03586], [5.83771, 50.04744], [5.8437, 50.05364], [5.85828, 50.0618], [5.86437, 50.06749], [5.86686, 50.07431], [5.86882, 50.09054], [5.87244, 50.09689], [5.88897, 50.10661], [5.92618, 50.11834], [5.94106, 50.12831], [5.94902, 50.14268], [5.95316, 50.15637], [5.96163, 50.16562], [5.98292, 50.16707], [5.99832, 50.17498], [6.00473, 50.17048], [6.00804, 50.16092], [6.01413, 50.15358], [6.02297, 50.15082], [6.02736, 50.14945], [6.03863, 50.14841], [6.06137, 50.15074], [6.07005, 50.1542], [6.07646, 50.15864], [6.08421, 50.15932], [6.09713, 50.15131], [6.10147, 50.14211], [6.10033, 50.13265], [6.1026, 50.12474], [6.11749, 50.12046]]]}, "properties": {"id": "e5yT", "status": "validé", "pieces": [{"kind": "country"}]}}, {"type": "Feature", "geometry": {"type": "Polygon", "coordinates": [[[6.11749, 50.12046], [6.11056, 50.10599], [6.1057, 50.09224], [6.0994, 50.06413], [6.10116, 50.06341], [6.10715, 50.06377], [6.10942, 50.06356], [6.1057, 50.0603], [6.0964, 50.04863], [6.10726, 50.0446], [6.11377, 50.03638], [6.11997, 50.0155], [6.11718, 50.00439], [6.12152, 49.99628], [6.13878, 49.97933], [6.15397, 49.95122], [6.16193, 49.94248], [6.17268, 49.95623], [6.18983, 49.9383], [6.2227, 49.88714], [6.23831, 49.87691], [6.27221, 49.86714], [6.28678, 49.86104], [6.29153, 49.85556], [6.29557, 49.84862], [6.30156, 49.8383], [6.30259, 49.83494], [6.31065, 49.83448], [6.32564, 49.84037], [6.33442, 49.84022], [6.35137, 49.83329], [6.38011, 49.81556], [6.39706, 49.80859], [6.41452, 49.80549], [6.46248, 49.80549], [6.49328, 49.7996], [6.49721, 49.79944], [6.50258, 49.79567], [6.50227, 49.79588], [6.5001, 49.79448], [6.5, 49.78606], [6.49855, 49.78539], [6.49379, 49.76363], [6.49369, 49.75655], [6.49638, 49.75211], [6.49596, 49.74823], [6.48625, 49.7427], [6.48553, 49.73376], [6.4878, 49.7256], [6.49255, 49.71841], [6.49969, 49.71221], [6.491, 49.71443], [6.48635, 49.71294], [6.48294, 49.70808], [6.48976, 49.70296], [6.49173, 49.70079], [6.41824, 49.66989], [6.40274, 49.65578], [6.4045, 49.65247], [6.4109, 49.64963], [6.417, 49.64576], [6.41793, 49.63914], [6.41525, 49.63465], [6.4077, 49.62741], [6.39757, 49.61387], [6.37153, 49.593], [6.35644, 49.5776], [6.35075, 49.56659], [6.35075, 49.53491], [6.34881, 49.52529], [6.34228, 49.493], [6.34538, 49.46272], [6.34531, 49.45535], [6.32533, 49.45672], [6.29877, 49.46623], [6.25112, 49.48946], [6.24937, 49.49031], [6.22198, 49.49744], [6.19355, 49.49941], [6.13609, 49.49527], [6.1426, 49.48608], [6.11439, 49.48437], [6.10726, 49.48251], [6.10198, 49.47641], [6.10209, 49.47001], [6.09981, 49.46463], [6.08772, 49.46163], [6.07801, 49.45202], [6.06333, 49.44846], [5.97806, 49.4451], [5.9607, 49.44132], [5.94695, 49.46995], [5.92814, 49.4823], [5.86469, 49.49217], [5.83957, 49.49987], [5.8221, 49.51052], [5.79068, 49.53775], [5.81446, 49.54514], [5.8374, 49.56111], [5.84691, 49.57672], [5.82996, 49.58276], [5.84122, 49.58969], [5.84918, 49.59971], [5.862, 49.62276], [5.86996, 49.62886], [5.87988, 49.63485], [5.88546, 49.64353], [5.87988, 49.65774], [5.87264, 49.66172], [5.85259, 49.66322], [5.84577, 49.66658], [5.84226, 49.67392], [5.8437, 49.67749], [5.8467, 49.68069], [5.84722, 49.6872], [5.84877, 49.69273], [5.85363, 49.6963], [5.85735, 49.70043], [5.8564, 49.70581], [5.856, 49.70808], [5.85022, 49.71402], [5.8437, 49.71433], [5.8373, 49.71294], [5.83172, 49.71361], [5.82572, 49.71578], [5.81177, 49.71852], [5.80536, 49.72188], [5.80577, 49.7242], [5.8036, 49.73815], [5.80205, 49.74286], [5.77849, 49.77304], [5.77187, 49.77939], [5.75916, 49.78446], [5.74841, 49.78564], [5.73829, 49.78885], [5.72774, 49.80022], [5.72164, 49.81278], [5.7202, 49.82471], [5.72464, 49.83427], [5.73653, 49.83944], [5.72692, 49.84523], [5.72867, 49.84884], [5.73053, 49.85117], [5.73198, 49.85417], [5.73188, 49.85995], [5.75813, 49.8582], [5.74883, 49.86729], [5.72671, 49.8782], [5.71493, 49.88187], [5.71896, 49.89137], [5.75358, 49.93018], [5.75761, 49.93654], [5.75999, 49.9416], [5.76371, 49.94682], [5.77156, 49.95354], [5.77859, 49.95659], [5.79337, 49.95881], [5.80164, 49.96382], [5.8126, 49.97757], [5.80856, 49.9831], [5.80154, 49.98868], [5.80267, 50.00248], [5.80887, 50.0078], [5.82913, 50.01359], [5.83637, 50.01855], [5.83885, 50.02646], [5.83885, 50.03586], [5.83771, 50.04744], [5.8437, 50.05364], [5.85828, 50.0618], [5.86437, 50.06749], [5.86686, 50.07431], [5.86882, 50.09054], [5.87244, 50.09689], [5.88897, 50.10661], [5.92618, 50.11834], [5.94106, 50.12831], [5.94902, 50.14268], [5.95316, 50.15637], [5.96163, 50.16562], [5.98292, 50.16707], [5.99832, 50.17498], [6.00473, 50.17048], [6.00804, 50.16092], [6.01413, 50.15358], [6.02297, 50.15082], [6.02736, 50.14945], [6.03863, 50.14841], [6.06137, 50.15074], [6.07005, 50.1542], [6.07646, 50.15864], [6.08421, 50.15932], [6.09713, 50.15131], [6.10147, 50.14211], [6.10033, 50.13265], [6.1026, 50.12474], [6.11749, 50.12046]]]}, "properties": {"id": "gJw2", "status": "validé", "pieces": [{"kind": "country"}]}}, {"type": "Feature", "geometry": {"type": "Polygon", "coordinates": [[[6.11749, 50.12046], [6.11056, 50.10599], [6.1057, 50.09224], [6.0994, 50.06413], [6.10116, 50.06341], [6.10715, 50.06377], [6.10942, 50.06356], [6.1057, 50.0603], [6.0964, 50.04863], [6.10726, 50.0446], [6.11377, 50.03638], [6.11997, 50.0155], [6.11718, 50.00439], [6.12152, 49.99628], [6.13878, 49.97933], [6.15397, 49.95122], [6.16193, 49.94248], [6.17268, 49.95623], [6.18983, 49.9383], [6.2227, 49.88714], [6.23831, 49.87691], [6.27221, 49.86714], [6.28678, 49.86104], [6.29153, 49.85556], [6.29557, 49.84862], [6.30156, 49.8383], [6.30259, 49.83494], [6.31065, 49.83448], [6.32564, 49.84037], [6.33442, 49.84022], [6.35137, 49.83329], [6.38011, 49.81556], [6.39706, 49.80859], [6.41452, 49.80549], [6.46248, 49.80549], [6.49328, 49.7996], [6.49721, 49.79944], [6.50258, 49.79567], [6.50227, 49.79588], [6.5001, 49.79448], [6.5, 49.78606], [6.49855, 49.78539], [6.49379, 49.76363], [6.49369, 49.75655], [6.49638, 49.75211], [6.49596, 49.74823], [6.48625, 49.7427], [6.48553, 49.73376], [6.4878, 49.7256], [6.49255, 49.71841], [6.49969, 49.71221], [6.491, 49.71443], [6.48635, 49.71294], [6.48294, 49.70808], [6.48976, 49.70296], [6.49173, 49.70079], [6.41824, 49.66989], [6.40274, 49.65578], [6.4045, 49.65247], [6.4109, 49.64963], [6.417, 49.64576], [6.41793, 49.63914], [6.41525, 49.63465], [6.4077, 49.62741], [6.39757, 49.61387], [6.37153, 49.593], [6.35644, 49.5776], [6.35075, 49.56659], [6.35075, 49.53491], [6.34881, 49.52529], [6.34228, 49.493], [6.34538, 49.46272], [6.34531, 49.45535], [6.32533, 49.45672], [6.29877, 49.46623], [6.25112, 49.48946], [6.24937, 49.49031], [6.22198, 49.49744], [6.19355, 49.49941], [6.13609, 49.49527], [6.1426, 49.48608], [6.11439, 49.48437], [6.10726, 49.48251], [6.10198, 49.47641], [6.10209, 49.47001], [6.09981, 49.46463], [6.08772, 49.46163], [6.07801, 49.45202], [6.06333, 49.44846], [5.97806, 49.4451], [5.9607, 49.44132], [5.94695, 49.46995], [5.92814, 49.4823], [5.86469, 49.49217], [5.83957, 49.49987], [5.8221, 49.51052], [5.79068, 49.53775], [5.81446, 49.54514], [5.8374, 49.56111], [5.84691, 49.57672], [5.82996, 49.58276], [5.84122, 49.58969], [5.84918, 49.59971], [5.862, 49.62276], [5.86996, 49.62886], [5.87988, 49.63485], [5.88546, 49.64353], [5.87988, 49.65774], [5.87264, 49.66172], [5.85259, 49.66322], [5.84577, 49.66658], [5.84226, 49.67392], [5.8437, 49.67749], [5.8467, 49.68069], [5.84722, 49.6872], [5.84877, 49.69273], [5.85363, 49.6963], [5.85735, 49.70043], [5.8564, 49.70581], [5.856, 49.70808], [5.85022, 49.71402], [5.8437, 49.71433], [5.8373, 49.71294], [5.83172, 49.71361], [5.82572, 49.71578], [5.81177, 49.71852], [5.80536, 49.72188], [5.80577, 49.7242], [5.8036, 49.73815], [5.80205, 49.74286], [5.77849, 49.77304], [5.77187, 49.77939], [5.75916, 49.78446], [5.74841, 49.78564], [5.73829, 49.78885], [5.72774, 49.80022], [5.72164, 49.81278], [5.7202, 49.82471], [5.72464, 49.83427], [5.73653, 49.83944], [5.72692, 49.84523], [5.72867, 49.84884], [5.73053, 49.85117], [5.73198, 49.85417], [5.73188, 49.85995], [5.75813, 49.8582], [5.74883, 49.86729], [5.72671, 49.8782], [5.71493, 49.88187], [5.71896, 49.89137], [5.75358, 49.93018], [5.75761, 49.93654], [5.75999, 49.9416], [5.76371, 49.94682], [5.77156, 49.95354], [5.77859, 49.95659], [5.79337, 49.95881], [5.80164, 49.96382], [5.8126, 49.97757], [5.80856, 49.9831], [5.80154, 49.98868], [5.80267, 50.00248], [5.80887, 50.0078], [5.82913, 50.01359], [5.83637, 50.01855], [5.83885, 50.02646], [5.83885, 50.03586], [5.83771, 50.04744], [5.8437, 50.05364], [5.85828, 50.0618], [5.86437, 50.06749], [5.86686, 50.07431], [5.86882, 50.09054], [5.87244, 50.09689], [5.88897, 50.10661], [5.92618, 50.11834], [5.94106, 50.12831], [5.94902, 50.14268], [5.95316, 50.15637], [5.96163, 50.16562], [5.98292, 50.16707], [5.99832, 50.17498], [6.00473, 50.17048], [6.00804, 50.16092], [6.01413, 50.15358], [6.02297, 50.15082], [6.02736, 50.14945], [6.03863, 50.14841], [6.06137, 50.15074], [6.07005, 50.1542], [6.07646, 50.15864], [6.08421, 50.15932], [6.09713, 50.15131], [6.10147, 50.14211], [6.10033, 50.13265], [6.1026, 50.12474], [6.11749, 50.12046]]]}, "properties": {"id": "jlnY", "status": "validé", "pieces": [{"kind": "country"}]}}, {"type": "Feature", "geometry": {"type": "Polygon", "coordinates": [[[6.11749, 50.12046], [6.11056, 50.10599], [6.1057, 50.09224], [6.0994, 50.06413], [6.10116, 50.06341], [6.10715, 50.06377], [6.10942, 50.06356], [6.1057, 50.0603], [6.0964, 50.04863], [6.10726, 50.0446], [6.11377, 50.03638], [6.11997, 50.0155], [6.11718, 50.00439], [6.12152, 49.99628], [6.13878, 49.97933], [6.15397, 49.95122], [6.16193, 49.94248], [6.17268, 49.95623], [6.18983, 49.9383], [6.2227, 49.88714], [6.23831, 49.87691], [6.27221, 49.86714], [6.28678, 49.86104], [6.29153, 49.85556], [6.29557, 49.84862], [6.30156, 49.8383], [6.30259, 49.83494], [6.31065, 49.83448], [6.32564, 49.84037], [6.33442, 49.84022], [6.35137, 49.83329], [6.38011, 49.81556], [6.39706, 49.80859], [6.41452, 49.80549], [6.46248, 49.80549], [6.49328, 49.7996], [6.49721, 49.79944], [6.50258, 49.79567], [6.50227, 49.79588], [6.5001, 49.79448], [6.5, 49.78606], [6.49855, 49.78539], [6.49379, 49.76363], [6.49369, 49.75655], [6.49638, 49.75211], [6.49596, 49.74823], [6.48625, 49.7427], [6.48553, 49.73376], [6.4878, 49.7256], [6.49255, 49.71841], [6.49969, 49.71221], [6.491, 49.71443], [6.48635, 49.71294], [6.48294, 49.70808], [6.48976, 49.70296], [6.49173, 49.70079], [6.41824, 49.66989], [6.40274, 49.65578], [6.4045, 49.65247], [6.4109, 49.64963], [6.417, 49.64576], [6.41793, 49.63914], [6.41525, 49.63465], [6.4077, 49.62741], [6.39757, 49.61387], [6.37153, 49.593], [6.35644, 49.5776], [6.35075, 49.56659], [6.35075, 49.53491], [6.34881, 49.52529], [6.34228, 49.493], [6.34538, 49.46272], [6.34531, 49.45535], [6.32533, 49.45672], [6.29877, 49.46623], [6.25112, 49.48946], [6.24937, 49.49031], [6.22198, 49.49744], [6.19355, 49.49941], [6.13609, 49.49527], [6.1426, 49.48608], [6.11439, 49.48437], [6.10726, 49.48251], [6.10198, 49.47641], [6.10209, 49.47001], [6.09981, 49.46463], [6.08772, 49.46163], [6.07801, 49.45202], [6.06333, 49.44846], [5.97806, 49.4451], [5.9607, 49.44132], [5.94695, 49.46995], [5.92814, 49.4823], [5.86469, 49.49217], [5.83957, 49.49987], [5.8221, 49.51052], [5.79068, 49.53775], [5.81446, 49.54514], [5.8374, 49.56111], [5.84691, 49.57672], [5.82996, 49.58276], [5.84122, 49.58969], [5.84918, 49.59971], [5.862, 49.62276], [5.86996, 49.62886], [5.87988, 49.63485], [5.88546, 49.64353], [5.87988, 49.65774], [5.87264, 49.66172], [5.85259, 49.66322], [5.84577, 49.66658], [5.84226, 49.67392], [5.8437, 49.67749], [5.8467, 49.68069], [5.84722, 49.6872], [5.84877, 49.69273], [5.85363, 49.6963], [5.85735, 49.70043], [5.8564, 49.70581], [5.856, 49.70808], [5.85022, 49.71402], [5.8437, 49.71433], [5.8373, 49.71294], [5.83172, 49.71361], [5.82572, 49.71578], [5.81177, 49.71852], [5.80536, 49.72188], [5.80577, 49.7242], [5.8036, 49.73815], [5.80205, 49.74286], [5.77849, 49.77304], [5.77187, 49.77939], [5.75916, 49.78446], [5.74841, 49.78564], [5.73829, 49.78885], [5.72774, 49.80022], [5.72164, 49.81278], [5.7202, 49.82471], [5.72464, 49.83427], [5.73653, 49.83944], [5.72692, 49.84523], [5.72867, 49.84884], [5.73053, 49.85117], [5.73198, 49.85417], [5.73188, 49.85995], [5.75813, 49.8582], [5.74883, 49.86729], [5.72671, 49.8782], [5.71493, 49.88187], [5.71896, 49.89137], [5.75358, 49.93018], [5.75761, 49.93654], [5.75999, 49.9416], [5.76371, 49.94682], [5.77156, 49.95354], [5.77859, 49.95659], [5.79337, 49.95881], [5.80164, 49.96382], [5.8126, 49.97757], [5.80856, 49.9831], [5.80154, 49.98868], [5.80267, 50.00248], [5.80887, 50.0078], [5.82913, 50.01359], [5.83637, 50.01855], [5.83885, 50.02646], [5.83885, 50.03586], [5.83771, 50.04744], [5.8437, 50.05364], [5.85828, 50.0618], [5.86437, 50.06749], [5.86686, 50.07431], [5.86882, 50.09054], [5.87244, 50.09689], [5.88897, 50.10661], [5.92618, 50.11834], [5.94106, 50.12831], [5.94902, 50.14268], [5.95316, 50.15637], [5.96163, 50.16562], [5.98292, 50.16707], [5.99832, 50.17498], [6.00473, 50.17048], [6.00804, 50.16092], [6.01413, 50.15358], [6.02297, 50.15082], [6.02736, 50.14945], [6.03863, 50.14841], [6.06137, 50.15074], [6.07005, 50.1542], [6.07646, 50.15864], [6.08421, 50.15932], [6.09713, 50.15131], [6.10147, 50.14211], [6.10033, 50.13265], [6.1026, 50.12474], [6.11749, 50.12046]]]}, "properties": {"id": "kWxo", "status": "validé", "pieces": [{"kind": "country"}]}}, {"type": "Feature", "geometry": {"type": "Polygon", "coordinates": [[[6.11749, 50.12046], [6.11056, 50.10599], [6.1057, 50.09224], [6.0994, 50.06413], [6.10116, 50.06341], [6.10715, 50.06377], [6.10942, 50.06356], [6.1057, 50.0603], [6.0964, 50.04863], [6.10726, 50.0446], [6.11377, 50.03638], [6.11997, 50.0155], [6.11718, 50.00439], [6.12152, 49.99628], [6.13878, 49.97933], [6.15397, 49.95122], [6.16193, 49.94248], [6.17268, 49.95623], [6.18983, 49.9383], [6.2227, 49.88714], [6.23831, 49.87691], [6.27221, 49.86714], [6.28678, 49.86104], [6.29153, 49.85556], [6.29557, 49.84862], [6.30156, 49.8383], [6.30259, 49.83494], [6.31065, 49.83448], [6.32564, 49.84037], [6.33442, 49.84022], [6.35137, 49.83329], [6.38011, 49.81556], [6.39706, 49.80859], [6.41452, 49.80549], [6.46248, 49.80549], [6.49328, 49.7996], [6.49721, 49.79944], [6.50258, 49.79567], [6.50227, 49.79588], [6.5001, 49.79448], [6.5, 49.78606], [6.49855, 49.78539], [6.49379, 49.76363], [6.49369, 49.75655], [6.49638, 49.75211], [6.49596, 49.74823], [6.48625, 49.7427], [6.48553, 49.73376], [6.4878, 49.7256], [6.49255, 49.71841], [6.49969, 49.71221], [6.491, 49.71443], [6.48635, 49.71294], [6.48294, 49.70808], [6.48976, 49.70296], [6.49173, 49.70079], [6.41824, 49.66989], [6.40274, 49.65578], [6.4045, 49.65247], [6.4109, 49.64963], [6.417, 49.64576], [6.41793, 49.63914], [6.41525, 49.63465], [6.4077, 49.62741], [6.39757, 49.61387], [6.37153, 49.593], [6.35644, 49.5776], [6.35075, 49.56659], [6.35075, 49.53491], [6.34881, 49.52529], [6.34228, 49.493], [6.34538, 49.46272], [6.34531, 49.45535], [6.32533, 49.45672], [6.29877, 49.46623], [6.25112, 49.48946], [6.24937, 49.49031], [6.22198, 49.49744], [6.19355, 49.49941], [6.13609, 49.49527], [6.1426, 49.48608], [6.11439, 49.48437], [6.10726, 49.48251], [6.10198, 49.47641], [6.10209, 49.47001], [6.09981, 49.46463], [6.08772, 49.46163], [6.07801, 49.45202], [6.06333, 49.44846], [5.97806, 49.4451], [5.9607, 49.44132], [5.94695, 49.46995], [5.92814, 49.4823], [5.86469, 49.49217], [5.83957, 49.49987], [5.8221, 49.51052], [5.79068, 49.53775], [5.81446, 49.54514], [5.8374, 49.56111], [5.84691, 49.57672], [5.82996, 49.58276], [5.84122, 49.58969], [5.84918, 49.59971], [5.862, 49.62276], [5.86996, 49.62886], [5.87988, 49.63485], [5.88546, 49.64353], [5.87988, 49.65774], [5.87264, 49.66172], [5.85259, 49.66322], [5.84577, 49.66658], [5.84226, 49.67392], [5.8437, 49.67749], [5.8467, 49.68069], [5.84722, 49.6872], [5.84877, 49.69273], [5.85363, 49.6963], [5.85735, 49.70043], [5.8564, 49.70581], [5.856, 49.70808], [5.85022, 49.71402], [5.8437, 49.71433], [5.8373, 49.71294], [5.83172, 49.71361], [5.82572, 49.71578], [5.81177, 49.71852], [5.80536, 49.72188], [5.80577, 49.7242], [5.8036, 49.73815], [5.80205, 49.74286], [5.77849, 49.77304], [5.77187, 49.77939], [5.75916, 49.78446], [5.74841, 49.78564], [5.73829, 49.78885], [5.72774, 49.80022], [5.72164, 49.81278], [5.7202, 49.82471], [5.72464, 49.83427], [5.73653, 49.83944], [5.72692, 49.84523], [5.72867, 49.84884], [5.73053, 49.85117], [5.73198, 49.85417], [5.73188, 49.85995], [5.75813, 49.8582], [5.74883, 49.86729], [5.72671, 49.8782], [5.71493, 49.88187], [5.71896, 49.89137], [5.75358, 49.93018], [5.75761, 49.93654], [5.75999, 49.9416], [5.76371, 49.94682], [5.77156, 49.95354], [5.77859, 49.95659], [5.79337, 49.95881], [5.80164, 49.96382], [5.8126, 49.97757], [5.80856, 49.9831], [5.80154, 49.98868], [5.80267, 50.00248], [5.80887, 50.0078], [5.82913, 50.01359], [5.83637, 50.01855], [5.83885, 50.02646], [5.83885, 50.03586], [5.83771, 50.04744], [5.8437, 50.05364], [5.85828, 50.0618], [5.86437, 50.06749], [5.86686, 50.07431], [5.86882, 50.09054], [5.87244, 50.09689], [5.88897, 50.10661], [5.92618, 50.11834], [5.94106, 50.12831], [5.94902, 50.14268], [5.95316, 50.15637], [5.96163, 50.16562], [5.98292, 50.16707], [5.99832, 50.17498], [6.00473, 50.17048], [6.00804, 50.16092], [6.01413, 50.15358], [6.02297, 50.15082], [6.02736, 50.14945], [6.03863, 50.14841], [6.06137, 50.15074], [6.07005, 50.1542], [6.07646, 50.15864], [6.08421, 50.15932], [6.09713, 50.15131], [6.10147, 50.14211], [6.10033, 50.13265], [6.1026, 50.12474], [6.11749, 50.12046]]]}, "properties": {"id": "nKRO", "status": "validé", "pieces": [{"kind": "country"}]}}, {"type": "Feature", "geometry": null, "properties": {"id": "oEEg", "status": "rejeté", "pieces": []}}, {"type": "Feature", "geometry": {"type": "Polygon", "coordinates": [[[6.11749, 50.12046], [6.11056, 50.10599], [6.1057, 50.09224], [6.0994, 50.06413], [6.10116, 50.06341], [6.10715, 50.06377], [6.10942, 50.06356], [6.1057, 50.0603], [6.0964, 50.04863], [6.10726, 50.0446], [6.11377, 50.03638], [6.11997, 50.0155], [6.11718, 50.00439], [6.12152, 49.99628], [6.13878, 49.97933], [6.15397, 49.95122], [6.16193, 49.94248], [6.17268, 49.95623], [6.18983, 49.9383], [6.2227, 49.88714], [6.23831, 49.87691], [6.27221, 49.86714], [6.28678, 49.86104], [6.29153, 49.85556], [6.29557, 49.84862], [6.30156, 49.8383], [6.30259, 49.83494], [6.31065, 49.83448], [6.32564, 49.84037], [6.33442, 49.84022], [6.35137, 49.83329], [6.38011, 49.81556], [6.39706, 49.80859], [6.41452, 49.80549], [6.46248, 49.80549], [6.49328, 49.7996], [6.49721, 49.79944], [6.50258, 49.79567], [6.50227, 49.79588], [6.5001, 49.79448], [6.5, 49.78606], [6.49855, 49.78539], [6.49379, 49.76363], [6.49369, 49.75655], [6.49638, 49.75211], [6.49596, 49.74823], [6.48625, 49.7427], [6.48553, 49.73376], [6.4878, 49.7256], [6.49255, 49.71841], [6.49969, 49.71221], [6.491, 49.71443], [6.48635, 49.71294], [6.48294, 49.70808], [6.48976, 49.70296], [6.49173, 49.70079], [6.41824, 49.66989], [6.40274, 49.65578], [6.4045, 49.65247], [6.4109, 49.64963], [6.417, 49.64576], [6.41793, 49.63914], [6.41525, 49.63465], [6.4077, 49.62741], [6.39757, 49.61387], [6.37153, 49.593], [6.35644, 49.5776], [6.35075, 49.56659], [6.35075, 49.53491], [6.34881, 49.52529], [6.34228, 49.493], [6.34538, 49.46272], [6.34531, 49.45535], [6.32533, 49.45672], [6.29877, 49.46623], [6.25112, 49.48946], [6.24937, 49.49031], [6.22198, 49.49744], [6.19355, 49.49941], [6.13609, 49.49527], [6.1426, 49.48608], [6.11439, 49.48437], [6.10726, 49.48251], [6.10198, 49.47641], [6.10209, 49.47001], [6.09981, 49.46463], [6.08772, 49.46163], [6.07801, 49.45202], [6.06333, 49.44846], [5.97806, 49.4451], [5.9607, 49.44132], [5.94695, 49.46995], [5.92814, 49.4823], [5.86469, 49.49217], [5.83957, 49.49987], [5.8221, 49.51052], [5.79068, 49.53775], [5.81446, 49.54514], [5.8374, 49.56111], [5.84691, 49.57672], [5.82996, 49.58276], [5.84122, 49.58969], [5.84918, 49.59971], [5.862, 49.62276], [5.86996, 49.62886], [5.87988, 49.63485], [5.88546, 49.64353], [5.87988, 49.65774], [5.87264, 49.66172], [5.85259, 49.66322], [5.84577, 49.66658], [5.84226, 49.67392], [5.8437, 49.67749], [5.8467, 49.68069], [5.84722, 49.6872], [5.84877, 49.69273], [5.85363, 49.6963], [5.85735, 49.70043], [5.8564, 49.70581], [5.856, 49.70808], [5.85022, 49.71402], [5.8437, 49.71433], [5.8373, 49.71294], [5.83172, 49.71361], [5.82572, 49.71578], [5.81177, 49.71852], [5.80536, 49.72188], [5.80577, 49.7242], [5.8036, 49.73815], [5.80205, 49.74286], [5.77849, 49.77304], [5.77187, 49.77939], [5.75916, 49.78446], [5.74841, 49.78564], [5.73829, 49.78885], [5.72774, 49.80022], [5.72164, 49.81278], [5.7202, 49.82471], [5.72464, 49.83427], [5.73653, 49.83944], [5.72692, 49.84523], [5.72867, 49.84884], [5.73053, 49.85117], [5.73198, 49.85417], [5.73188, 49.85995], [5.75813, 49.8582], [5.74883, 49.86729], [5.72671, 49.8782], [5.71493, 49.88187], [5.71896, 49.89137], [5.75358, 49.93018], [5.75761, 49.93654], [5.75999, 49.9416], [5.76371, 49.94682], [5.77156, 49.95354], [5.77859, 49.95659], [5.79337, 49.95881], [5.80164, 49.96382], [5.8126, 49.97757], [5.80856, 49.9831], [5.80154, 49.98868], [5.80267, 50.00248], [5.80887, 50.0078], [5.82913, 50.01359], [5.83637, 50.01855], [5.83885, 50.02646], [5.83885, 50.03586], [5.83771, 50.04744], [5.8437, 50.05364], [5.85828, 50.0618], [5.86437, 50.06749], [5.86686, 50.07431], [5.86882, 50.09054], [5.87244, 50.09689], [5.88897, 50.10661], [5.92618, 50.11834], [5.94106, 50.12831], [5.94902, 50.14268], [5.95316, 50.15637], [5.96163, 50.16562], [5.98292, 50.16707], [5.99832, 50.17498], [6.00473, 50.17048], [6.00804, 50.16092], [6.01413, 50.15358], [6.02297, 50.15082], [6.02736, 50.14945], [6.03863, 50.14841], [6.06137, 50.15074], [6.07005, 50.1542], [6.07646, 50.15864], [6.08421, 50.15932], [6.09713, 50.15131], [6.10147, 50.14211], [6.10033, 50.13265], [6.1026, 50.12474], [6.11749, 50.12046]]]}, "properties": {"id": "oSnE", "status": "validé", "pieces": [{"kind": "country"}]}}, {"type": "Feature", "geometry": {"type": "Polygon", "coordinates": [[[6.11749, 50.12046], [6.11056, 50.10599], [6.1057, 50.09224], [6.0994, 50.06413], [6.10116, 50.06341], [6.10715, 50.06377], [6.10942, 50.06356], [6.1057, 50.0603], [6.0964, 50.04863], [6.10726, 50.0446], [6.11377, 50.03638], [6.11997, 50.0155], [6.11718, 50.00439], [6.12152, 49.99628], [6.13878, 49.97933], [6.15397, 49.95122], [6.16193, 49.94248], [6.17268, 49.95623], [6.18983, 49.9383], [6.2227, 49.88714], [6.23831, 49.87691], [6.27221, 49.86714], [6.28678, 49.86104], [6.29153, 49.85556], [6.29557, 49.84862], [6.30156, 49.8383], [6.30259, 49.83494], [6.31065, 49.83448], [6.32564, 49.84037], [6.33442, 49.84022], [6.35137, 49.83329], [6.38011, 49.81556], [6.39706, 49.80859], [6.41452, 49.80549], [6.46248, 49.80549], [6.49328, 49.7996], [6.49721, 49.79944], [6.50258, 49.79567], [6.50227, 49.79588], [6.5001, 49.79448], [6.5, 49.78606], [6.49855, 49.78539], [6.49379, 49.76363], [6.49369, 49.75655], [6.49638, 49.75211], [6.49596, 49.74823], [6.48625, 49.7427], [6.48553, 49.73376], [6.4878, 49.7256], [6.49255, 49.71841], [6.49969, 49.71221], [6.491, 49.71443], [6.48635, 49.71294], [6.48294, 49.70808], [6.48976, 49.70296], [6.49173, 49.70079], [6.41824, 49.66989], [6.40274, 49.65578], [6.4045, 49.65247], [6.4109, 49.64963], [6.417, 49.64576], [6.41793, 49.63914], [6.41525, 49.63465], [6.4077, 49.62741], [6.39757, 49.61387], [6.37153, 49.593], [6.35644, 49.5776], [6.35075, 49.56659], [6.35075, 49.53491], [6.34881, 49.52529], [6.34228, 49.493], [6.34538, 49.46272], [6.34531, 49.45535], [6.32533, 49.45672], [6.29877, 49.46623], [6.25112, 49.48946], [6.24937, 49.49031], [6.22198, 49.49744], [6.19355, 49.49941], [6.13609, 49.49527], [6.1426, 49.48608], [6.11439, 49.48437], [6.10726, 49.48251], [6.10198, 49.47641], [6.10209, 49.47001], [6.09981, 49.46463], [6.08772, 49.46163], [6.07801, 49.45202], [6.06333, 49.44846], [5.97806, 49.4451], [5.9607, 49.44132], [5.94695, 49.46995], [5.92814, 49.4823], [5.86469, 49.49217], [5.83957, 49.49987], [5.8221, 49.51052], [5.79068, 49.53775], [5.81446, 49.54514], [5.8374, 49.56111], [5.84691, 49.57672], [5.82996, 49.58276], [5.84122, 49.58969], [5.84918, 49.59971], [5.862, 49.62276], [5.86996, 49.62886], [5.87988, 49.63485], [5.88546, 49.64353], [5.87988, 49.65774], [5.87264, 49.66172], [5.85259, 49.66322], [5.84577, 49.66658], [5.84226, 49.67392], [5.8437, 49.67749], [5.8467, 49.68069], [5.84722, 49.6872], [5.84877, 49.69273], [5.85363, 49.6963], [5.85735, 49.70043], [5.8564, 49.70581], [5.856, 49.70808], [5.85022, 49.71402], [5.8437, 49.71433], [5.8373, 49.71294], [5.83172, 49.71361], [5.82572, 49.71578], [5.81177, 49.71852], [5.80536, 49.72188], [5.80577, 49.7242], [5.8036, 49.73815], [5.80205, 49.74286], [5.77849, 49.77304], [5.77187, 49.77939], [5.75916, 49.78446], [5.74841, 49.78564], [5.73829, 49.78885], [5.72774, 49.80022], [5.72164, 49.81278], [5.7202, 49.82471], [5.72464, 49.83427], [5.73653, 49.83944], [5.72692, 49.84523], [5.72867, 49.84884], [5.73053, 49.85117], [5.73198, 49.85417], [5.73188, 49.85995], [5.75813, 49.8582], [5.74883, 49.86729], [5.72671, 49.8782], [5.71493, 49.88187], [5.71896, 49.89137], [5.75358, 49.93018], [5.75761, 49.93654], [5.75999, 49.9416], [5.76371, 49.94682], [5.77156, 49.95354], [5.77859, 49.95659], [5.79337, 49.95881], [5.80164, 49.96382], [5.8126, 49.97757], [5.80856, 49.9831], [5.80154, 49.98868], [5.80267, 50.00248], [5.80887, 50.0078], [5.82913, 50.01359], [5.83637, 50.01855], [5.83885, 50.02646], [5.83885, 50.03586], [5.83771, 50.04744], [5.8437, 50.05364], [5.85828, 50.0618], [5.86437, 50.06749], [5.86686, 50.07431], [5.86882, 50.09054], [5.87244, 50.09689], [5.88897, 50.10661], [5.92618, 50.11834], [5.94106, 50.12831], [5.94902, 50.14268], [5.95316, 50.15637], [5.96163, 50.16562], [5.98292, 50.16707], [5.99832, 50.17498], [6.00473, 50.17048], [6.00804, 50.16092], [6.01413, 50.15358], [6.02297, 50.15082], [6.02736, 50.14945], [6.03863, 50.14841], [6.06137, 50.15074], [6.07005, 50.1542], [6.07646, 50.15864], [6.08421, 50.15932], [6.09713, 50.15131], [6.10147, 50.14211], [6.10033, 50.13265], [6.1026, 50.12474], [6.11749, 50.12046]]]}, "properties": {"id": "t9UN", "status": "validé", "pieces": [{"kind": "country"}]}}, {"type": "Feature", "geometry": {"type": "Polygon", "coordinates": [[[6.18736, 49.57694], [6.18736, 49.63498], [6.06926, 49.63498], [6.06926, 49.57694], [6.18736, 49.57694]]]}, "properties": {"id": "wuhb", "status": "validé", "pieces": [{"kind": "rect", "bounds": [6.06926, 49.57694, 6.18736, 49.63498]}]}}, {"type": "Feature", "geometry": {"type": "Polygon", "coordinates": [[[6.11749, 50.12046], [6.11056, 50.10599], [6.1057, 50.09224], [6.0994, 50.06413], [6.10116, 50.06341], [6.10715, 50.06377], [6.10942, 50.06356], [6.1057, 50.0603], [6.0964, 50.04863], [6.10726, 50.0446], [6.11377, 50.03638], [6.11997, 50.0155], [6.11718, 50.00439], [6.12152, 49.99628], [6.13878, 49.97933], [6.15397, 49.95122], [6.16193, 49.94248], [6.17268, 49.95623], [6.18983, 49.9383], [6.2227, 49.88714], [6.23831, 49.87691], [6.27221, 49.86714], [6.28678, 49.86104], [6.29153, 49.85556], [6.29557, 49.84862], [6.30156, 49.8383], [6.30259, 49.83494], [6.31065, 49.83448], [6.32564, 49.84037], [6.33442, 49.84022], [6.35137, 49.83329], [6.38011, 49.81556], [6.39706, 49.80859], [6.41452, 49.80549], [6.46248, 49.80549], [6.49328, 49.7996], [6.49721, 49.79944], [6.50258, 49.79567], [6.50227, 49.79588], [6.5001, 49.79448], [6.5, 49.78606], [6.49855, 49.78539], [6.49379, 49.76363], [6.49369, 49.75655], [6.49638, 49.75211], [6.49596, 49.74823], [6.48625, 49.7427], [6.48553, 49.73376], [6.4878, 49.7256], [6.49255, 49.71841], [6.49969, 49.71221], [6.491, 49.71443], [6.48635, 49.71294], [6.48294, 49.70808], [6.48976, 49.70296], [6.49173, 49.70079], [6.41824, 49.66989], [6.40274, 49.65578], [6.4045, 49.65247], [6.4109, 49.64963], [6.417, 49.64576], [6.41793, 49.63914], [6.41525, 49.63465], [6.4077, 49.62741], [6.39757, 49.61387], [6.37153, 49.593], [6.35644, 49.5776], [6.35075, 49.56659], [6.35075, 49.53491], [6.34881, 49.52529], [6.34228, 49.493], [6.34538, 49.46272], [6.34531, 49.45535], [6.32533, 49.45672], [6.29877, 49.46623], [6.25112, 49.48946], [6.24937, 49.49031], [6.22198, 49.49744], [6.19355, 49.49941], [6.13609, 49.49527], [6.1426, 49.48608], [6.11439, 49.48437], [6.10726, 49.48251], [6.10198, 49.47641], [6.10209, 49.47001], [6.09981, 49.46463], [6.08772, 49.46163], [6.07801, 49.45202], [6.06333, 49.44846], [5.97806, 49.4451], [5.9607, 49.44132], [5.94695, 49.46995], [5.92814, 49.4823], [5.86469, 49.49217], [5.83957, 49.49987], [5.8221, 49.51052], [5.79068, 49.53775], [5.81446, 49.54514], [5.8374, 49.56111], [5.84691, 49.57672], [5.82996, 49.58276], [5.84122, 49.58969], [5.84918, 49.59971], [5.862, 49.62276], [5.86996, 49.62886], [5.87988, 49.63485], [5.88546, 49.64353], [5.87988, 49.65774], [5.87264, 49.66172], [5.85259, 49.66322], [5.84577, 49.66658], [5.84226, 49.67392], [5.8437, 49.67749], [5.8467, 49.68069], [5.84722, 49.6872], [5.84877, 49.69273], [5.85363, 49.6963], [5.85735, 49.70043], [5.8564, 49.70581], [5.856, 49.70808], [5.85022, 49.71402], [5.8437, 49.71433], [5.8373, 49.71294], [5.83172, 49.71361], [5.82572, 49.71578], [5.81177, 49.71852], [5.80536, 49.72188], [5.80577, 49.7242], [5.8036, 49.73815], [5.80205, 49.74286], [5.77849, 49.77304], [5.77187, 49.77939], [5.75916, 49.78446], [5.74841, 49.78564], [5.73829, 49.78885], [5.72774, 49.80022], [5.72164, 49.81278], [5.7202, 49.82471], [5.72464, 49.83427], [5.73653, 49.83944], [5.72692, 49.84523], [5.72867, 49.84884], [5.73053, 49.85117], [5.73198, 49.85417], [5.73188, 49.85995], [5.75813, 49.8582], [5.74883, 49.86729], [5.72671, 49.8782], [5.71493, 49.88187], [5.71896, 49.89137], [5.75358, 49.93018], [5.75761, 49.93654], [5.75999, 49.9416], [5.76371, 49.94682], [5.77156, 49.95354], [5.77859, 49.95659], [5.79337, 49.95881], [5.80164, 49.96382], [5.8126, 49.97757], [5.80856, 49.9831], [5.80154, 49.98868], [5.80267, 50.00248], [5.80887, 50.0078], [5.82913, 50.01359], [5.83637, 50.01855], [5.83885, 50.02646], [5.83885, 50.03586], [5.83771, 50.04744], [5.8437, 50.05364], [5.85828, 50.0618], [5.86437, 50.06749], [5.86686, 50.07431], [5.86882, 50.09054], [5.87244, 50.09689], [5.88897, 50.10661], [5.92618, 50.11834], [5.94106, 50.12831], [5.94902, 50.14268], [5.95316, 50.15637], [5.96163, 50.16562], [5.98292, 50.16707], [5.99832, 50.17498], [6.00473, 50.17048], [6.00804, 50.16092], [6.01413, 50.15358], [6.02297, 50.15082], [6.02736, 50.14945], [6.03863, 50.14841], [6.06137, 50.15074], [6.07005, 50.1542], [6.07646, 50.15864], [6.08421, 50.15932], [6.09713, 50.15131], [6.10147, 50.14211], [6.10033, 50.13265], [6.1026, 50.12474], [6.11749, 50.12046]]]}, "properties": {"id": "yx10", "status": "validé", "pieces": [{"kind": "country"}]}}]}