{"type": "FeatureCollection", "features": [{"type": "Feature", "geometry": null, "properties": {"id": "15Re", "status": "validé", "pieces": [{"kind": "country"}]}}, {"type": "Feature", "geometry": null, "properties": {"id": "6Wew", "status": "validé", "pieces": [{"kind": "country"}]}}, {"type": "Feature", "geometry": null, "properties": {"id": "94iJ", "status": "validé", "pieces": [{"kind": "country"}]}}, {"type": "Feature", "geometry": null, "properties": {"id": "BB6n", "status": "validé", "pieces": [{"kind": "country"}]}}, {"type": "Feature", "geometry": null, "properties": {"id": "CK38", "status": "validé", "pieces": [{"kind": "country"}]}}, {"type": "Feature", "geometry": null, "properties": {"id": "Ligx", "status": "validé", "pieces": [{"kind": "country"}]}}, {"type": "Feature", "geometry": {"type": "Polygon", "coordinates": [[[23.03833, 56.48786], [23.25806, 56.74166], [23.40088, 56.82588], [23.59863, 56.83189], [23.77441, 56.67535], [23.9502, 56.71756], [24.0271, 56.66328], [24.23584, 56.60288], [24.38965, 56.62705], [24.53247, 56.52422], [24.64021, 56.36044], [24.63915, 56.35997], [24.55791, 56.29858], [24.539, 56.28762], [24.48133, 56.26884], [24.44722, 56.26052], [24.41435, 56.26551], [24.35079, 56.29155], [24.31855, 56.29858], [24.28764, 56.29553], [24.16682, 56.26031], [24.14042, 56.2576], [24.13892, 56.25745], [24.10864, 56.2607], [24.07515, 56.27119], [23.98131, 56.3124], [23.87111, 56.33207], [23.85811, 56.33439], [23.82504, 56.33491], [23.7561, 56.32597], [23.72499, 56.32881], [23.72365, 56.33212], [23.72478, 56.3384], [23.72354, 56.34581], [23.71507, 56.35274], [23.7067, 56.35444], [23.67941, 56.35186], [23.60986, 56.35382], [23.57771, 56.3486], [23.51756, 56.32866], [23.48159, 56.3301], [23.37804, 56.35463], [23.31065, 56.37059], [23.28843, 56.37305], [23.17257, 56.35796], [23.15417, 56.35139], [23.16285, 56.34101], [23.11273, 56.31088], [23.08684, 56.30743], [23.0436, 56.31224], [23.01671, 56.32385], [23.00147, 56.34513], [23.03833, 56.48786]]]}, "properties": {"id": "PA6J", "status": "validé", "pieces": [{"kind": "polygon", "ring": [[22.99438, 56.31771], [23.03833, 56.48786], [23.25806, 56.74166], [23.40088, 56.82588], [23.59863, 56.83189], [23.77441, 56.67535], [23.9502, 56.71756], [24.0271, 56.66328], [24.23584, 56.60288], [24.38965, 56.62705], [24.53247, 56.52422], [24.66431, 56.3238], [24.64233, 56.13456]]}, {"kind": "clip"}]}}, {"type": "Feature", "geometry": null, "properties": {"id": "RplU", "status": "validé", "pieces": [{"kind": "country"}]}}, {"type": "Feature", "geometry": null, "properties": {"id": "T9gT", "status": "validé", "pieces": [{"kind": "country"}]}}, {"type": "Feature", "geometry": null, "properties": {"id": "ZHtQ", "status": "validé", "pieces": [{"kind": "country"}]}}, {"type": "Feature", "geometry": {"type": "Polygon", "coordinates": [[[24.27292, 56.8694], [24.27292, 57.02065], [23.96118, 57.02065], [23.96118, 56.8694], [24.27292, 56.8694]]]}, "properties": {"id": "b4Ic", "status": "validé", "pieces": [{"kind": "rect", "bounds": [23.96118, 56.8694, 24.27292, 57.02065]}]}}, {"type": "Feature", "geometry": null, "properties": {"id": "eZ93", "status": "validé", "pieces": [{"kind": "country"}]}}, {"type": "Feature", "geometry": null, "properties": {"id": "k1bL", "status": "validé", "pieces": [{"kind": "country"}]}}, {"type": "Feature", "geometry": null, "properties": {"id": "pjGP", "status": "validé", "pieces": [{"kind": "country"}]}}, {"type": "Feature", "geometry": null, "properties": {"id": "q1yp", "status": "validé", "pieces": [{"kind": "country"}]}}, {"type": "Feature", "geometry": null, "properties": {"id": "uPlz", "status": "validé", "pieces": [{"kind": "country"}]}}, {"type": "Feature", "geometry": null, "properties": {"id": "xps4", "status": "validé", "pieces": [{"kind": "country"}]}}, {"type": "Feature", "geometry": null, "properties": {"id": "xypN", "status": "validé", "pieces": [{"kind": "country"}]}}]}