{"type": "FeatureCollection", "features": [{"type": "Feature", "geometry": null, "properties": {"id": "1Jgd", "status": "rejeté", "pieces": []}}, {"type": "Feature", "geometry": {"type": "Polygon", "coordinates": [[[7.41839, 43.72472], [7.40912, 43.72962], [7.41268, 43.7316], [7.41307, 43.73322], [7.41281, 43.73477], [7.42096, 43.74022], [7.42586, 43.74199], [7.42985, 43.74797], [7.4347, 43.7498], [7.4377, 43.75107], [7.43684, 43.75172], [7.43856, 43.75122], [7.43856, 43.74949], [7.44148, 43.74788], [7.43392, 43.73151], [7.4238, 43.72438], [7.41839, 43.72472]]]}, "properties": {"id": "3BaL", "status": "validé", "pieces": [{"kind": "polygon", "ring": [[7.41839, 43.72472], [7.40912, 43.72962], [7.41268, 43.7316], [7.41307, 43.73322], [7.41281, 43.73477], [7.42096, 43.74022], [7.42586, 43.74199], [7.42985, 43.74797], [7.4347, 43.7498], [7.4377, 43.75107], [7.43684, 43.75172], [7.43856, 43.75122], [7.43856, 43.74949], [7.44148, 43.74788], [7.43392, 43.73151], [7.4238, 43.72438]]}]}}, {"type": "Feature", "geometry": {"type": "Polygon", "coordinates": [[[7.41903, 43.72424], [7.40908, 43.73044], [7.42264, 43.74185], [7.4374, 43.75177], [7.44307, 43.74706], [7.44118, 43.7359], [7.42521, 43.72511], [7.41903, 43.72424]]]}, "properties": {"id": "6LyB", "status": "validé", "pieces": [{"kind": "polygon", "ring": [[7.41903, 43.72424], [7.40908, 43.73044], [7.42264, 43.74185], [7.4374, 43.75177], [7.44307, 43.74706], [7.44118, 43.7359], [7.42521, 43.72511]]}]}}, {"type": "Feature", "geometry": null, "properties": {"id": "Dzdt", "status": "rejeté", "pieces": []}}, {"type": "Feature", "geometry": null, "properties": {"id": "W7d3", "status": "rejeté", "pieces": []}}, {"type": "Feature", "geometry": {"type": "Polygon", "coordinates": [[[7.41843, 43.72473], [7.40891, 43.72982], [7.41302, 43.73199], [7.41251, 43.73441], [7.42281, 43.74147], [7.42487, 43.7411], [7.42976, 43.74835], [7.43508, 43.74953], [7.43749, 43.75164], [7.44204, 43.7481], [7.43697, 43.72672], [7.41843, 43.72473]]]}, "properties": {"id": "c3Rx", "status": "validé", "pieces": [{"kind": "polygon", "ring": [[7.41843, 43.72473], [7.40891, 43.72982], [7.41302, 43.73199], [7.41251, 43.73441], [7.42281, 43.74147], [7.42487, 43.7411], [7.42976, 43.74835], [7.43508, 43.74953], [7.43749, 43.75164], [7.44204, 43.7481], [7.43697, 43.72672]]}]}}, {"type": "Feature", "geometry": {"type": "Polygon", "coordinates": [[[7.41886, 43.7246], [7.40925, 43.72931], [7.41062, 43.73167], [7.41302, 43.73179], [7.41285, 43.73514], [7.42281, 43.74196], [7.4247, 43.74121], [7.42933, 43.74791], [7.43723, 43.75026], [7.43895, 43.75101], [7.44186, 43.74791], [7.43414, 43.72584], [7.41886, 43.7246]]]}, "properties": {"id": "dU2m", "status": "validé", "pieces": [{"kind": "polygon", "ring": [[7.41886, 43.7246], [7.40925, 43.72931], [7.41062, 43.73167], [7.41302, 43.73179], [7.41285, 43.73514], [7.42281, 43.74196], [7.4247, 43.74121], [7.42933, 43.74791], [7.43723, 43.75026], [7.43895, 43.75101], [7.44186, 43.74791], [7.43414, 43.72584]]}]}}, {"type": "Feature", "geometry": {"type": "Polygon", "coordinates": [[[7.41869, 43.72479], [7.40908, 43.7295], [7.41071, 43.73118], [7.41277, 43.73143], [7.4126, 43.73477], [7.42238, 43.74184], [7.42453, 43.74103], [7.42959, 43.74835], [7.4362, 43.75027], [7.43731, 43.752], [7.43886, 43.74946], [7.44186, 43.7476], [7.42805, 43.72535], [7.41869, 43.72479]]]}, "properties": {"id": "gJQj", "status": "validé", "pieces": [{"kind": "polygon", "ring": [[7.41869, 43.72479], [7.40908, 43.7295], [7.41071, 43.73118], [7.41277, 43.73143], [7.4126, 43.73477], [7.42238, 43.74184], [7.42453, 43.74103], [7.42959, 43.74835], [7.4362, 43.75027], [7.43731, 43.752], [7.43886, 43.74946], [7.44186, 43.7476], [7.42805, 43.72535]]}]}}]}