{"type": "FeatureCollection", "features": [{"type": "Feature", "geometry": {"type": "Polygon", "coordinates": [[[18.49643, 42.41633], [18.49782, 42.43116], [18.49285, 42.44237], [18.47549, 42.44981], [18.46774, 42.45338], [18.45492, 42.46472], [18.44428, 42.47792], [18.43715, 42.4934], [18.43642, 42.51076], [18.44201, 42.54301], [18.43736, 42.55921], [18.44769, 42.56621], [18.45896, 42.56973], [18.47053, 42.56906], [18.4818, 42.56368], [18.49213, 42.56477], [18.49585, 42.57086], [18.49368, 42.57983], [18.48665, 42.58983], [18.5068, 42.59849], [18.51725, 42.60298], [18.53843, 42.6183], [18.54283, 42.62643], [18.5496, 42.63892], [18.55001, 42.66807], [18.53967, 42.69546], [18.52252, 42.71189], [18.50216, 42.72745], [18.46743, 42.7692], [18.45389, 42.79315], [18.44459, 42.81708], [18.44366, 42.83447], [18.45348, 42.84566], [18.46598, 42.85281], [18.47332, 42.86255], [18.46764, 42.8817], [18.44397, 42.91687], [18.43405, 42.93689], [18.43353, 42.9542], [18.45275, 42.9934], [18.48304, 43.01464], [18.53895, 43.02389], [18.59838, 43.02446], [18.639, 43.02024], [18.62112, 43.09644], [18.6206, 43.12256], [18.62113, 43.12458], [18.62907, 43.15489], [18.6453, 43.18018], [18.6884, 43.22447], [18.66432, 43.23318], [18.67951, 43.24948], [18.80715, 43.31803], [18.83351, 43.32415], [18.8303, 43.32816], [18.82462, 43.33741], [18.82121, 43.34139], [18.8396, 43.34782], [18.89914, 43.3519], [18.92342, 43.34684], [18.9503, 43.33307], [18.95732, 43.32586], [18.95794, 43.31898], [18.95712, 43.31183], [18.95949, 43.30346], [18.96859, 43.29222], [18.98895, 43.27294], [18.98951, 43.27202], [18.99246, 43.2671], [19.0029, 43.27395], [19.01086, 43.28232], [19.01716, 43.29116], [19.02254, 43.29655], [19.02471, 43.29873], [19.03628, 43.30333], [19.06254, 43.30439], [19.06967, 43.30883], [19.03959, 43.35071], [19.00993, 43.41099], [18.97531, 43.44427], [18.96828, 43.4481], [18.94626, 43.44394], [18.94637, 43.44908], [18.95071, 43.4573], [18.95123, 43.46381], [18.93789, 43.47895], [18.93066, 43.48228], [18.91526, 43.48538], [18.90565, 43.49063], [18.90513, 43.49905], [18.91102, 43.50727], [18.92053, 43.5122], [18.93893, 43.51895], [18.9627, 43.5383], [18.97748, 43.54623], [19.00021, 43.54789], [19.01427, 43.53778], [19.02502, 43.52303], [19.03815, 43.51102], [19.05499, 43.5067], [19.07639, 43.50724], [19.09602, 43.5129], [19.12279, 43.53595], [19.1477, 43.53815], [19.19534, 43.5328], [19.17519, 43.50962], [19.17591, 43.48089], [19.19224, 43.45453], [19.21839, 43.4382], [19.35564, 43.39306], [19.37229, 43.38423], [19.41404, 43.33839], [19.47305, 43.29328], [19.48515, 43.2801], [19.5023, 43.25194], [19.51243, 43.24064], [19.54784, 43.21881], [19.54995, 43.21752], [19.58085, 43.1878], [19.59811, 43.1762], [19.61868, 43.16824], [19.66302, 43.1585], [19.68462, 43.15672], [19.69733, 43.16021], [19.70549, 43.16618], [19.71356, 43.16561], [19.74281, 43.12652], [19.7612, 43.10874], [19.78177, 43.09647], [19.80513, 43.08996], [19.8383, 43.08835], [19.8722, 43.09037], [19.88378, 43.09569], [19.90714, 43.11326], [19.91664, 43.11706], [19.92915, 43.11391], [19.93659, 43.1059], [19.94228, 43.09564], [19.94982, 43.08592], [19.95974, 43.07856], [20.01989, 43.04735], [20.05439, 43.02222], [20.05634, 43.0208], [20.11694, 42.97665], [20.12946, 42.9736], [20.14092, 42.97082], [20.19456, 42.96684], [20.22319, 42.95766], [20.27559, 42.92989], [20.33708, 42.90697], [20.35362, 42.89097], [20.35517, 42.86617], [20.34535, 42.82744], [20.26443, 42.81726], [20.22608, 42.80677], [20.21761, 42.80274], [20.20924, 42.7917], [20.20841, 42.78209], [20.20996, 42.77297], [20.20841, 42.76328], [20.1834, 42.74251], [20.1495, 42.74987], [20.11209, 42.76654], [20.07633, 42.77344], [20.06506, 42.76946], [20.05564, 42.76387], [20.03467, 42.75142], [20.02651, 42.74321], [20.02475, 42.72341], [20.03612, 42.70799], [20.03701, 42.70736], [20.0942, 42.66698], [20.10196, 42.65667], [20.10392, 42.65311], [20.09059, 42.62735], [20.07922, 42.61125], [20.0757, 42.60309], [20.07539, 42.58696], [20.07819, 42.57291], [20.07705, 42.55991], [20.06496, 42.54676], [20.03922, 42.55777], [20.01772, 42.54624], [19.98176, 42.51076], [19.95633, 42.50531], [19.90755, 42.5064], [19.88274, 42.49361], [19.88254, 42.4934], [19.87334, 42.48684], [19.83551, 42.47025], [19.82906, 42.46872], [19.8196, 42.46648], [19.80141, 42.46813], [19.78446, 42.47457], [19.75159, 42.4934], [19.73433, 42.52438], [19.73092, 42.53366], [19.7303, 42.54043], [19.73216, 42.55554], [19.73392, 42.5626], [19.74136, 42.5744], [19.74601, 42.57993], [19.74777, 42.5789], [19.74688, 42.58893], [19.74601, 42.5989], [19.73753, 42.6244], [19.72213, 42.64608], [19.69929, 42.65481], [19.67604, 42.64668], [19.65804, 42.63461], [19.64793, 42.62784], [19.62178, 42.605], [19.60504, 42.58484], [19.59925, 42.57105], [19.59367, 42.54482], [19.58809, 42.53286], [19.57568, 42.52234], [19.56132, 42.51624], [19.54933, 42.50859], [19.54375, 42.49356], [19.54375, 42.4934], [19.53166, 42.47477], [19.51781, 42.45803], [19.50148, 42.44413], [19.48174, 42.43449], [19.4684, 42.41811], [19.41724, 42.37411], [19.41208, 42.3684], [19.40267, 42.35202], [19.40071, 42.34475], [19.40133, 42.33106], [19.4004, 42.32589], [19.30459, 42.2151], [19.27493, 42.19128], [19.27203, 42.18068], [19.28196, 42.16472], [19.28206, 42.16456], [19.29777, 42.15167], [19.35503, 42.12004], [19.37, 42.10651], [19.37249, 42.10425], [19.37487, 42.09467], [19.35657, 42.0648], [19.35172, 42.04762], [19.35058, 42.02782], [19.3542, 42.0087], [19.3634, 41.99364], [19.36371, 41.99348], [19.37104, 41.98656], [19.36577, 41.96971], [19.35978, 41.96599], [19.35161, 41.96517], [19.34645, 41.96155], [19.35285, 41.9385], [19.35048, 41.93137], [19.34665, 41.92618], [19.34541, 41.92119], [19.34593, 41.91447], [19.34531, 41.91034], [19.34769, 41.90636], [19.35699, 41.89964], [19.36495, 41.889], [19.36422, 41.86285], [19.36508, 41.85236], [19.34693, 41.86396], [19.31023, 41.89452], [19.29322, 41.90078], [19.22022, 41.91885], [19.20297, 41.92707], [19.17848, 41.93391], [19.17026, 41.93797], [19.16228, 41.94794], [19.16196, 41.95344], [19.16326, 41.95897], [19.16033, 41.96898], [19.15561, 41.97065], [19.14527, 41.97761], [19.13795, 41.9853], [19.14291, 41.98884], [19.14356, 41.99307], [19.13917, 42.04243], [19.08253, 42.0812], [19.07472, 42.09565], [19.08383, 42.11009], [19.07643, 42.11595], [19.06397, 42.12018], [19.04868, 42.1402], [19.01059, 42.13955], [19.00213, 42.15021], [18.99985, 42.16108], [18.9948, 42.16364], [18.98805, 42.16372], [18.98162, 42.16706], [18.96803, 42.18871], [18.95346, 42.19986], [18.91334, 42.22223], [18.9017, 42.23749], [18.8947, 42.27049], [18.886, 42.28437], [18.87159, 42.29047], [18.85402, 42.29047], [18.83888, 42.28571], [18.83139, 42.27753], [18.82651, 42.28221], [18.82049, 42.28669], [18.81764, 42.29116], [18.80152, 42.28437], [18.79396, 42.28034], [18.78875, 42.27603], [18.78639, 42.27412], [18.77858, 42.27147], [18.77198, 42.27692], [18.76246, 42.29116], [18.7295, 42.31159], [18.71453, 42.32526], [18.71412, 42.33893], [18.70834, 42.34248], [18.69972, 42.34984], [18.69361, 42.35322], [18.69361, 42.35944], [18.69581, 42.37376], [18.67848, 42.38597], [18.65854, 42.38662], [18.65317, 42.36628], [18.6465, 42.36628], [18.63844, 42.37031], [18.61671, 42.36807], [18.61231, 42.36994], [18.60711, 42.37641], [18.5949, 42.38373], [18.5809, 42.38984], [18.57065, 42.39297], [18.57301, 42.39643], [18.57309, 42.39753], [18.57407, 42.39826], [18.57814, 42.40038], [18.55299, 42.41364], [18.54518, 42.42357], [18.55014, 42.43513], [18.56284, 42.43854], [18.64495, 42.41836], [18.6565, 42.41551], [18.68556, 42.404], [18.70045, 42.39297], [18.70818, 42.40852], [18.70655, 42.42105], [18.68385, 42.45881], [18.68328, 42.46809], [18.68735, 42.4829], [18.65414, 42.45181], [18.60865, 42.44538], [18.50245, 42.45563], [18.50245, 42.44819], [18.52125, 42.43797], [18.51295, 42.409], [18.5298, 42.40038], [18.51027, 42.40526], [18.49643, 42.41633]]]}, "properties": {"id": "31mF", "status": "validé", "pieces": [{"kind": "country"}]}}, {"type": "Feature", "geometry": {"type": "MultiPolygon", "coordinates": [[[[19.7644, 42.58398], [19.74671, 42.59093], [19.74601, 42.5989], [19.73753, 42.6244], [19.72213, 42.64608], [19.69929, 42.65481], [19.67604, 42.64668], [19.67007, 42.64268], [19.66209, 42.66029], [19.65111, 42.68476], [19.6875, 42.72239], [19.67789, 42.76322], [19.64561, 42.8151], [19.65317, 42.8448], [19.71703, 42.82668], [19.8214, 42.7874], [19.86328, 42.78388], [19.85161, 42.7355], [19.9086, 42.69869], [20.00404, 42.70777], [20.03304, 42.71217], [20.03612, 42.70799], [20.03701, 42.70736], [20.0942, 42.66698], [20.10196, 42.65667], [20.10392, 42.65311], [20.09059, 42.62735], [20.07922, 42.61125], [20.0757, 42.60309], [20.07539, 42.58696], [20.07819, 42.57291], [20.07705, 42.55991], [20.06496, 42.54676], [20.03922, 42.55777], [20.01772, 42.54624], [19.98176, 42.51076], [19.97279, 42.50884], [19.9704, 42.50915], [19.94568, 42.60015], [19.87152, 42.60217], [19.7644, 42.58398]]], [[[20.01846, 42.77243], [19.99649, 42.82883], [20.01572, 42.86506], [20.0322, 42.8892], [20.00336, 42.90228], [20.01984, 42.93861], [20.11871, 42.96072], [20.12921, 42.97367], [20.12946, 42.9736], [20.14092, 42.97082], [20.19456, 42.96684], [20.22319, 42.95766], [20.27559, 42.92989], [20.33708, 42.90697], [20.35362, 42.89097], [20.35517, 42.86617], [20.34535, 42.82744], [20.26443, 42.81726], [20.22608, 42.80677], [20.21761, 42.80274], [20.20924, 42.7917], [20.20841, 42.78209], [20.20996, 42.77297], [20.20841, 42.76328], [20.1834, 42.74251], [20.1495, 42.74987], [20.11209, 42.76654], [20.07633, 42.77344], [20.06506, 42.76946], [20.05564, 42.76387], [20.04872, 42.75976], [20.01846, 42.77243]]], [[[19.07227, 42.90576], [19.02626, 42.90576], [18.97133, 42.92034], [18.93219, 42.93743], [18.9315, 42.96204], [18.9679, 42.97962], [19.01733, 42.9751], [19.0757, 42.96455], [19.07295, 42.94798], [19.07227, 42.90576]]], [[[19.03085, 43.36848], [19.00993, 43.41099], [18.97531, 43.44427], [18.96828, 43.4481], [18.94626, 43.44394], [18.94637, 43.44908], [18.95071, 43.4573], [18.95123, 43.46381], [18.93789, 43.47895], [18.93066, 43.48228], [18.91526, 43.48538], [18.90565, 43.49063], [18.90513, 43.49905], [18.91102, 43.50727], [18.92053, 43.5122], [18.93893, 43.51895], [18.9627, 43.5383], [18.97748, 43.54623], [19.00021, 43.54789], [19.01427, 43.53778], [19.02502, 43.52303], [19.03815, 43.51102], [19.05499, 43.5067], [19.07639, 43.50724], [19.09602, 43.5129], [19.12279, 43.53595], [19.1477, 43.53815], [19.19534, 43.5328], [19.17519, 43.50962], [19.17591, 43.48089], [19.19224, 43.45453], [19.21839, 43.4382], [19.23251, 43.43356], [19.03085, 43.36848]]]]}, "properties": {"id": "59VX", "status": "validé", "pieces": [{"kind": "polygon", "ring": [[19.01459, 43.36323], [19.33594, 43.46694], [19.1217, 43.63209], [18.77289, 43.56449], [18.84979, 43.42907]]}, {"kind": "clip"}, {"kind": "polygon", "ring": [[20.11871, 42.96072], [20.01984, 42.93861], [20.00336, 42.90228], [20.0322, 42.8892], [20.01572, 42.86506], [19.99649, 42.82883], [20.01846, 42.77243], [20.15579, 42.71496], [20.44968, 42.76033], [20.37415, 43.02684], [20.17639, 43.03186]]}, {"kind": "polygon", "ring": [[19.9704, 42.50915], [19.94568, 42.60015], [19.87152, 42.60217], [19.7644, 42.58398], [19.68201, 42.61632], [19.66209, 42.66029], [19.65111, 42.68476], [19.6875, 42.72239], [19.67789, 42.76322], [19.64561, 42.8151], [19.65317, 42.8448], [19.71703, 42.82668], [19.8214, 42.7874], [19.86328, 42.78388], [19.85161, 42.7355], [19.9086, 42.69869], [20.00404, 42.70777], [20.10361, 42.7229], [20.20042, 42.56588], [20.06927, 42.49659]]}, {"kind": "polygon", "ring": [[19.01733, 42.9751], [18.9679, 42.97962], [18.9315, 42.96204], [18.93219, 42.93743], [18.97133, 42.92034], [19.02626, 42.90576], [19.07227, 42.90576], [19.07295, 42.94798], [19.0757, 42.96455]]}]}}, {"type": "Feature", "geometry": null, "properties": {"id": "62xq", "status": "rejeté", "pieces": []}}, {"type": "Feature", "geometry": {"type": "Polygon", "coordinates": [[[19.45438, 42.38522], [19.45438, 42.4169], [19.34143, 42.4169], [19.34143, 42.38522], [19.45438, 42.38522]]]}, "properties": {"id": "9667", "status": "validé", "pieces": [{"kind": "rect", "bounds": [19.34143, 42.38522, 19.45438, 42.4169]}]}}, {"type": "Feature", "geometry": {"type": "Polygon", "coordinates": [[[18.49643, 42.41633], [18.49782, 42.43116], [18.49285, 42.44237], [18.47549, 42.44981], [18.46774, 42.45338], [18.45492, 42.46472], [18.44428, 42.47792], [18.43715, 42.4934], [18.43642, 42.51076], [18.44201, 42.54301], [18.43736, 42.55921], [18.44769, 42.56621], [18.45896, 42.56973], [18.47053, 42.56906], [18.4818, 42.56368], [18.49213, 42.56477], [18.49585, 42.57086], [18.49368, 42.57983], [18.48665, 42.58983], [18.5068, 42.59849], [18.51725, 42.60298], [18.53843, 42.6183], [18.54283, 42.62643], [18.5496, 42.63892], [18.55001, 42.66807], [18.53967, 42.69546], [18.52252, 42.71189], [18.50216, 42.72745], [18.46743, 42.7692], [18.45389, 42.79315], [18.44459, 42.81708], [18.44366, 42.83447], [18.45348, 42.84566], [18.46598, 42.85281], [18.47332, 42.86255], [18.46764, 42.8817], [18.44397, 42.91687], [18.43405, 42.93689], [18.43353, 42.9542], [18.45275, 42.9934], [18.48304, 43.01464], [18.53895, 43.02389], [18.59838, 43.02446], [18.639, 43.02024], [18.62112, 43.09644], [18.6206, 43.12256], [18.62113, 43.12458], [18.62907, 43.15489], [18.6453, 43.18018], [18.6884, 43.22447], [18.66432, 43.23318], [18.67951, 43.24948], [18.80715, 43.31803], [18.83351, 43.32415], [18.8303, 43.32816], [18.82462, 43.33741], [18.82121, 43.34139], [18.8396, 43.34782], [18.89914, 43.3519], [18.92342, 43.34684], [18.9503, 43.33307], [18.95732, 43.32586], [18.95794, 43.31898], [18.95712, 43.31183], [18.95949, 43.30346], [18.96859, 43.29222], [18.98895, 43.27294], [18.98951, 43.27202], [18.99246, 43.2671], [19.0029, 43.27395], [19.01086, 43.28232], [19.01716, 43.29116], [19.02254, 43.29655], [19.02471, 43.29873], [19.03628, 43.30333], [19.06254, 43.30439], [19.06967, 43.30883], [19.03959, 43.35071], [19.00993, 43.41099], [18.97531, 43.44427], [18.96828, 43.4481], [18.94626, 43.44394], [18.94637, 43.44908], [18.95071, 43.4573], [18.95123, 43.46381], [18.93789, 43.47895], [18.93066, 43.48228], [18.91526, 43.48538], [18.90565, 43.49063], [18.90513, 43.49905], [18.91102, 43.50727], [18.92053, 43.5122], [18.93893, 43.51895], [18.9627, 43.5383], [18.97748, 43.54623], [19.00021, 43.54789], [19.01427, 43.53778], [19.02502, 43.52303], [19.03815, 43.51102], [19.05499, 43.5067], [19.07639, 43.50724], [19.09602, 43.5129], [19.12279, 43.53595], [19.1477, 43.53815], [19.19534, 43.5328], [19.17519, 43.50962], [19.17591, 43.48089], [19.19224, 43.45453], [19.21839, 43.4382], [19.35564, 43.39306], [19.37229, 43.38423], [19.41404, 43.33839], [19.47305, 43.29328], [19.48515, 43.2801], [19.5023, 43.25194], [19.51243, 43.24064], [19.54784, 43.21881], [19.54995, 43.21752], [19.58085, 43.1878], [19.59811, 43.1762], [19.61868, 43.16824], [19.66302, 43.1585], [19.68462, 43.15672], [19.69733, 43.16021], [19.70549, 43.16618], [19.71356, 43.16561], [19.74281, 43.12652], [19.7612, 43.10874], [19.78177, 43.09647], [19.80513, 43.08996], [19.8383, 43.08835], [19.8722, 43.09037], [19.88378, 43.09569], [19.90714, 43.11326], [19.91664, 43.11706], [19.92915, 43.11391], [19.93659, 43.1059], [19.94228, 43.09564], [19.94982, 43.08592], [19.95974, 43.07856], [20.01989, 43.04735], [20.05439, 43.02222], [20.05634, 43.0208], [20.11694, 42.97665], [20.12946, 42.9736], [20.14092, 42.97082], [20.19456, 42.96684], [20.22319, 42.95766], [20.27559, 42.92989], [20.33708, 42.90697], [20.35362, 42.89097], [20.35517, 42.86617], [20.34535, 42.82744], [20.26443, 42.81726], [20.22608, 42.80677], [20.21761, 42.80274], [20.20924, 42.7917], [20.20841, 42.78209], [20.20996, 42.77297], [20.20841, 42.76328], [20.1834, 42.74251], [20.1495, 42.74987], [20.11209, 42.76654], [20.07633, 42.77344], [20.06506, 42.76946], [20.05564, 42.76387], [20.03467, 42.75142], [20.02651, 42.74321], [20.02475, 42.72341], [20.03612, 42.70799], [20.03701, 42.70736], [20.0942, 42.66698], [20.10196, 42.65667], [20.10392, 42.65311], [20.09059, 42.62735], [20.07922, 42.61125], [20.0757, 42.60309], [20.07539, 42.58696], [20.07819, 42.57291], [20.07705, 42.55991], [20.06496, 42.54676], [20.03922, 42.55777], [20.01772, 42.54624], [19.98176, 42.51076], [19.95633, 42.50531], [19.90755, 42.5064], [19.88274, 42.49361], [19.88254, 42.4934], [19.87334, 42.48684], [19.83551, 42.47025], [19.82906, 42.46872], [19.8196, 42.46648], [19.80141, 42.46813], [19.78446, 42.47457], [19.75159, 42.4934], [19.73433, 42.52438], [19.73092, 42.53366], [19.7303, 42.54043], [19.73216, 42.55554], [19.73392, 42.5626], [19.74136, 42.5744], [19.74601, 42.57993], [19.74777, 42.5789], [19.74688, 42.58893], [19.74601, 42.5989], [19.73753, 42.6244], [19.72213, 42.64608], [19.69929, 42.65481], [19.67604, 42.64668], [19.65804, 42.63461], [19.64793, 42.62784], [19.62178, 42.605], [19.60504, 42.58484], [19.59925, 42.57105], [19.59367, 42.54482], [19.58809, 42.53286], [19.57568, 42.52234], [19.56132, 42.51624], [19.54933, 42.50859], [19.54375, 42.49356], [19.54375, 42.4934], [19.53166, 42.47477], [19.51781, 42.45803], [19.50148, 42.44413], [19.48174, 42.43449], [19.4684, 42.41811], [19.41724, 42.37411], [19.41208, 42.3684], [19.40267, 42.35202], [19.40071, 42.34475], [19.40133, 42.33106], [19.4004, 42.32589], [19.30459, 42.2151], [19.27493, 42.19128], [19.27203, 42.18068], [19.28196, 42.16472], [19.28206, 42.16456], [19.29777, 42.15167], [19.35503, 42.12004], [19.37, 42.10651], [19.37249, 42.10425], [19.37487, 42.09467], [19.35657, 42.0648], [19.35172, 42.04762], [19.35058, 42.02782], [19.3542, 42.0087], [19.3634, 41.99364], [19.36371, 41.99348], [19.37104, 41.98656], [19.36577, 41.96971], [19.35978, 41.96599], [19.35161, 41.96517], [19.34645, 41.96155], [19.35285, 41.9385], [19.35048, 41.93137], [19.34665, 41.92618], [19.34541, 41.92119], [19.34593, 41.91447], [19.34531, 41.91034], [19.34769, 41.90636], [19.35699, 41.89964], [19.36495, 41.889], [19.36422, 41.86285], [19.36508, 41.85236], [19.34693, 41.86396], [19.31023, 41.89452], [19.29322, 41.90078], [19.22022, 41.91885], [19.20297, 41.92707], [19.17848, 41.93391], [19.17026, 41.93797], [19.16228, 41.94794], [19.16196, 41.95344], [19.16326, 41.95897], [19.16033, 41.96898], [19.15561, 41.97065], [19.14527, 41.97761], [19.13795, 41.9853], [19.14291, 41.98884], [19.14356, 41.99307], [19.13917, 42.04243], [19.08253, 42.0812], [19.07472, 42.09565], [19.08383, 42.11009], [19.07643, 42.11595], [19.06397, 42.12018], [19.04868, 42.1402], [19.01059, 42.13955], [19.00213, 42.15021], [18.99985, 42.16108], [18.9948, 42.16364], [18.98805, 42.16372], [18.98162, 42.16706], [18.96803, 42.18871], [18.95346, 42.19986], [18.91334, 42.22223], [18.9017, 42.23749], [18.8947, 42.27049], [18.886, 42.28437], [18.87159, 42.29047], [18.85402, 42.29047], [18.83888, 42.28571], [18.83139, 42.27753], [18.82651, 42.28221], [18.82049, 42.28669], [18.81764, 42.29116], [18.80152, 42.28437], [18.79396, 42.28034], [18.78875, 42.27603], [18.78639, 42.27412], [18.77858, 42.27147], [18.77198, 42.27692], [18.76246, 42.29116], [18.7295, 42.31159], [18.71453, 42.32526], [18.71412, 42.33893], [18.70834, 42.34248], [18.69972, 42.34984], [18.69361, 42.35322], [18.69361, 42.35944], [18.69581, 42.37376], [18.67848, 42.38597], [18.65854, 42.38662], [18.65317, 42.36628], [18.6465, 42.36628], [18.63844, 42.37031], [18.61671, 42.36807], [18.61231, 42.36994], [18.60711, 42.37641], [18.5949, 42.38373], [18.5809, 42.38984], [18.57065, 42.39297], [18.57301, 42.39643], [18.57309, 42.39753], [18.57407, 42.39826], [18.57814, 42.40038], [18.55299, 42.41364], [18.54518, 42.42357], [18.55014, 42.43513], [18.56284, 42.43854], [18.64495, 42.41836], [18.6565, 42.41551], [18.68556, 42.404], [18.70045, 42.39297], [18.70818, 42.40852], [18.70655, 42.42105], [18.68385, 42.45881], [18.68328, 42.46809], [18.68735, 42.4829], [18.65414, 42.45181], [18.60865, 42.44538], [18.50245, 42.45563], [18.50245, 42.44819], [18.52125, 42.43797], [18.51295, 42.409], [18.5298, 42.40038], [18.51027, 42.40526], [18.49643, 42.41633]]]}, "properties": {"id": "9laJ", "status": "validé", "pieces": [{"kind": "country"}]}}, {"type": "Feature", "geometry": {"type": "Polygon", "coordinates": [[[18.983, 43.13324], [18.9212, 43.13324], [18.91022, 43.09616], [18.95004, 43.04903], [18.97751, 43.04502], [19.02283, 43.06809], [19.07776, 43.06207], [19.10522, 43.10117], [19.09973, 43.13123], [19.05167, 43.15627], [19.00223, 43.15928], [18.983, 43.13324]]]}, "properties": {"id": "BFX1", "status": "validé", "pieces": [{"kind": "polygon", "ring": [[18.983, 43.13324], [18.9212, 43.13324], [18.91022, 43.09616], [18.95004, 43.04903], [18.97751, 43.04502], [19.02283, 43.06809], [19.07776, 43.06207], [19.10522, 43.10117], [19.09973, 43.13123], [19.05167, 43.15627], [19.00223, 43.15928]]}]}}, {"type": "Feature", "geometry": {"type": "Polygon", "coordinates": [[[19.11278, 42.2683], [19.12213, 42.273], [19.12359, 42.27128], [19.11398, 42.26703], [19.11278, 42.2683]]]}, "properties": {"id": "CFIQ", "status": "validé", "pieces": [{"kind": "polygon", "ring": [[19.11278, 42.2683], [19.12213, 42.273], [19.12359, 42.27128], [19.11398, 42.26703]]}]}}, {"type": "Feature", "geometry": {"type": "Polygon", "coordinates": [[[18.49643, 42.41633], [18.49782, 42.43116], [18.49285, 42.44237], [18.47549, 42.44981], [18.46774, 42.45338], [18.45492, 42.46472], [18.44428, 42.47792], [18.43715, 42.4934], [18.43642, 42.51076], [18.44201, 42.54301], [18.43736, 42.55921], [18.44769, 42.56621], [18.45896, 42.56973], [18.47053, 42.56906], [18.4818, 42.56368], [18.49213, 42.56477], [18.49585, 42.57086], [18.49368, 42.57983], [18.48665, 42.58983], [18.5068, 42.59849], [18.51725, 42.60298], [18.53843, 42.6183], [18.54283, 42.62643], [18.5496, 42.63892], [18.55001, 42.66807], [18.53967, 42.69546], [18.52252, 42.71189], [18.50216, 42.72745], [18.46743, 42.7692], [18.45389, 42.79315], [18.44459, 42.81708], [18.44366, 42.83447], [18.45348, 42.84566], [18.46598, 42.85281], [18.47332, 42.86255], [18.46764, 42.8817], [18.44397, 42.91687], [18.43405, 42.93689], [18.43353, 42.9542], [18.45275, 42.9934], [18.48304, 43.01464], [18.53895, 43.02389], [18.59838, 43.02446], [18.639, 43.02024], [18.62112, 43.09644], [18.6206, 43.12256], [18.62113, 43.12458], [18.62907, 43.15489], [18.6453, 43.18018], [18.6884, 43.22447], [18.66432, 43.23318], [18.67951, 43.24948], [18.80715, 43.31803], [18.83351, 43.32415], [18.8303, 43.32816], [18.82462, 43.33741], [18.82121, 43.34139], [18.8396, 43.34782], [18.89914, 43.3519], [18.92342, 43.34684], [18.9503, 43.33307], [18.95732, 43.32586], [18.95794, 43.31898], [18.95712, 43.31183], [18.95949, 43.30346], [18.96859, 43.29222], [18.98895, 43.27294], [18.98951, 43.27202], [18.99246, 43.2671], [19.0029, 43.27395], [19.01086, 43.28232], [19.01716, 43.29116], [19.02254, 43.29655], [19.02471, 43.29873], [19.03628, 43.30333], [19.06254, 43.30439], [19.06967, 43.30883], [19.03959, 43.35071], [19.00993, 43.41099], [18.97531, 43.44427], [18.96828, 43.4481], [18.94626, 43.44394], [18.94637, 43.44908], [18.95071, 43.4573], [18.95123, 43.46381], [18.93789, 43.47895], [18.93066, 43.48228], [18.91526, 43.48538], [18.90565, 43.49063], [18.90513, 43.49905], [18.91102, 43.50727], [18.92053, 43.5122], [18.93893, 43.51895], [18.9627, 43.5383], [18.97748, 43.54623], [19.00021, 43.54789], [19.01427, 43.53778], [19.02502, 43.52303], [19.03815, 43.51102], [19.05499, 43.5067], [19.07639, 43.50724], [19.09602, 43.5129], [19.12279, 43.53595], [19.1477, 43.53815], [19.19534, 43.5328], [19.17519, 43.50962], [19.17591, 43.48089], [19.19224, 43.45453], [19.21839, 43.4382], [19.35564, 43.39306], [19.37229, 43.38423], [19.41404, 43.33839], [19.47305, 43.29328], [19.48515, 43.2801], [19.5023, 43.25194], [19.51243, 43.24064], [19.54784, 43.21881], [19.54995, 43.21752], [19.58085, 43.1878], [19.59811, 43.1762], [19.61868, 43.16824], [19.66302, 43.1585], [19.68462, 43.15672], [19.69733, 43.16021], [19.70549, 43.16618], [19.71356, 43.16561], [19.74281, 43.12652], [19.7612, 43.10874], [19.78177, 43.09647], [19.80513, 43.08996], [19.8383, 43.08835], [19.8722, 43.09037], [19.88378, 43.09569], [19.90714, 43.11326], [19.91664, 43.11706], [19.92915, 43.11391], [19.93659, 43.1059], [19.94228, 43.09564], [19.94982, 43.08592], [19.95974, 43.07856], [20.01989, 43.04735], [20.05439, 43.02222], [20.05634, 43.0208], [20.11694, 42.97665], [20.12946, 42.9736], [20.14092, 42.97082], [20.19456, 42.96684], [20.22319, 42.95766], [20.27559, 42.92989], [20.33708, 42.90697], [20.35362, 42.89097], [20.35517, 42.86617], [20.34535, 42.82744], [20.26443, 42.81726], [20.22608, 42.80677], [20.21761, 42.80274], [20.20924, 42.7917], [20.20841, 42.78209], [20.20996, 42.77297], [20.20841, 42.76328], [20.1834, 42.74251], [20.1495, 42.74987], [20.11209, 42.76654], [20.07633, 42.77344], [20.06506, 42.76946], [20.05564, 42.76387], [20.03467, 42.75142], [20.02651, 42.74321], [20.02475, 42.72341], [20.03612, 42.70799], [20.03701, 42.70736], [20.0942, 42.66698], [20.10196, 42.65667], [20.10392, 42.65311], [20.09059, 42.62735], [20.07922, 42.61125], [20.0757, 42.60309], [20.07539, 42.58696], [20.07819, 42.57291], [20.07705, 42.55991], [20.06496, 42.54676], [20.03922, 42.55777], [20.01772, 42.54624], [19.98176, 42.51076], [19.95633, 42.50531], [19.90755, 42.5064], [19.88274, 42.49361], [19.88254, 42.4934], [19.87334, 42.48684], [19.83551, 42.47025], [19.82906, 42.46872], [19.8196, 42.46648], [19.80141, 42.46813], [19.78446, 42.47457], [19.75159, 42.4934], [19.73433, 42.52438], [19.73092, 42.53366], [19.7303, 42.54043], [19.73216, 42.55554], [19.73392, 42.5626], [19.74136, 42.5744], [19.74601, 42.57993], [19.74777, 42.5789], [19.74688, 42.58893], [19.74601, 42.5989], [19.73753, 42.6244], [19.72213, 42.64608], [19.69929, 42.65481], [19.67604, 42.64668], [19.65804, 42.63461], [19.64793, 42.62784], [19.62178, 42.605], [19.60504, 42.58484], [19.59925, 42.57105], [19.59367, 42.54482], [19.58809, 42.53286], [19.57568, 42.52234], [19.56132, 42.51624], [19.54933, 42.50859], [19.54375, 42.49356], [19.54375, 42.4934], [19.53166, 42.47477], [19.51781, 42.45803], [19.50148, 42.44413], [19.48174, 42.43449], [19.4684, 42.41811], [19.41724, 42.37411], [19.41208, 42.3684], [19.40267, 42.35202], [19.40071, 42.34475], [19.40133, 42.33106], [19.4004, 42.32589], [19.30459, 42.2151], [19.27493, 42.19128], [19.27203, 42.18068], [19.28196, 42.16472], [19.28206, 42.16456], [19.29777, 42.15167], [19.35503, 42.12004], [19.37, 42.10651], [19.37249, 42.10425], [19.37487, 42.09467], [19.35657, 42.0648], [19.35172, 42.04762], [19.35058, 42.02782], [19.3542, 42.0087], [19.3634, 41.99364], [19.36371, 41.99348], [19.37104, 41.98656], [19.36577, 41.96971], [19.35978, 41.96599], [19.35161, 41.96517], [19.34645, 41.96155], [19.35285, 41.9385], [19.35048, 41.93137], [19.34665, 41.92618], [19.34541, 41.92119], [19.34593, 41.91447], [19.34531, 41.91034], [19.34769, 41.90636], [19.35699, 41.89964], [19.36495, 41.889], [19.36422, 41.86285], [19.36508, 41.85236], [19.34693, 41.86396], [19.31023, 41.89452], [19.29322, 41.90078], [19.22022, 41.91885], [19.20297, 41.92707], [19.17848, 41.93391], [19.17026, 41.93797], [19.16228, 41.94794], [19.16196, 41.95344], [19.16326, 41.95897], [19.16033, 41.96898], [19.15561, 41.97065], [19.14527, 41.97761], [19.13795, 41.9853], [19.14291, 41.98884], [19.14356, 41.99307], [19.13917, 42.04243], [19.08253, 42.0812], [19.07472, 42.09565], [19.08383, 42.11009], [19.07643, 42.11595], [19.06397, 42.12018], [19.04868, 42.1402], [19.01059, 42.13955], [19.00213, 42.15021], [18.99985, 42.16108], [18.9948, 42.16364], [18.98805, 42.16372], [18.98162, 42.16706], [18.96803, 42.18871], [18.95346, 42.19986], [18.91334, 42.22223], [18.9017, 42.23749], [18.8947, 42.27049], [18.886, 42.28437], [18.87159, 42.29047], [18.85402, 42.29047], [18.83888, 42.28571], [18.83139, 42.27753], [18.82651, 42.28221], [18.82049, 42.28669], [18.81764, 42.29116], [18.80152, 42.28437], [18.79396, 42.28034], [18.78875, 42.27603], [18.78639, 42.27412], [18.77858, 42.27147], [18.77198, 42.27692], [18.76246, 42.29116], [18.7295, 42.31159], [18.71453, 42.32526], [18.71412, 42.33893], [18.70834, 42.34248], [18.69972, 42.34984], [18.69361, 42.35322], [18.69361, 42.35944], [18.69581, 42.37376], [18.67848, 42.38597], [18.65854, 42.38662], [18.65317, 42.36628], [18.6465, 42.36628], [18.63844, 42.37031], [18.61671, 42.36807], [18.61231, 42.36994], [18.60711, 42.37641], [18.5949, 42.38373], [18.5809, 42.38984], [18.57065, 42.39297], [18.57301, 42.39643], [18.57309, 42.39753], [18.57407, 42.39826], [18.57814, 42.40038], [18.55299, 42.41364], [18.54518, 42.42357], [18.55014, 42.43513], [18.56284, 42.43854], [18.64495, 42.41836], [18.6565, 42.41551], [18.68556, 42.404], [18.70045, 42.39297], [18.70818, 42.40852], [18.70655, 42.42105], [18.68385, 42.45881], [18.68328, 42.46809], [18.68735, 42.4829], [18.65414, 42.45181], [18.60865, 42.44538], [18.50245, 42.45563], [18.50245, 42.44819], [18.52125, 42.43797], [18.51295, 42.409], [18.5298, 42.40038], [18.51027, 42.40526], [18.49643, 42.41633]]]}, "properties": {"id": "ESKL", "status": "validé", "pieces": [{"kind": "country"}]}}, {"type": "Feature", "geometry": {"type": "Polygon", "coordinates": [[[18.83572, 42.77175], [18.82473, 42.75462], [18.82885, 42.74151], [18.85494, 42.73975], [18.88035, 42.74328], [18.88927, 42.75663], [18.88927, 42.772], [18.87554, 42.76898], [18.85838, 42.78359], [18.83572, 42.77175]]]}, "properties": {"id": "Ifx0", "status": "validé", "pieces": [{"kind": "polygon", "ring": [[18.83572, 42.77175], [18.82473, 42.75462], [18.82885, 42.74151], [18.85494, 42.73975], [18.88035, 42.74328], [18.88927, 42.75663], [18.88927, 42.772], [18.87554, 42.76898], [18.85838, 42.78359]]}]}}, {"type": "Feature", "geometry": {"type": "Polygon", "coordinates": [[[18.49643, 42.41633], [18.49782, 42.43116], [18.49285, 42.44237], [18.47549, 42.44981], [18.46774, 42.45338], [18.45492, 42.46472], [18.44428, 42.47792], [18.43715, 42.4934], [18.43642, 42.51076], [18.44201, 42.54301], [18.43736, 42.55921], [18.44769, 42.56621], [18.45896, 42.56973], [18.47053, 42.56906], [18.4818, 42.56368], [18.49213, 42.56477], [18.49585, 42.57086], [18.49368, 42.57983], [18.48665, 42.58983], [18.5068, 42.59849], [18.51725, 42.60298], [18.53843, 42.6183], [18.54283, 42.62643], [18.5496, 42.63892], [18.55001, 42.66807], [18.53967, 42.69546], [18.52252, 42.71189], [18.50216, 42.72745], [18.46743, 42.7692], [18.45389, 42.79315], [18.44459, 42.81708], [18.44366, 42.83447], [18.45348, 42.84566], [18.46598, 42.85281], [18.47332, 42.86255], [18.46764, 42.8817], [18.44397, 42.91687], [18.43405, 42.93689], [18.43353, 42.9542], [18.45275, 42.9934], [18.48304, 43.01464], [18.53895, 43.02389], [18.59838, 43.02446], [18.639, 43.02024], [18.62112, 43.09644], [18.6206, 43.12256], [18.62113, 43.12458], [18.62907, 43.15489], [18.6453, 43.18018], [18.6884, 43.22447], [18.66432, 43.23318], [18.67951, 43.24948], [18.80715, 43.31803], [18.83351, 43.32415], [18.8303, 43.32816], [18.82462, 43.33741], [18.82121, 43.34139], [18.8396, 43.34782], [18.89914, 43.3519], [18.92342, 43.34684], [18.9503, 43.33307], [18.95732, 43.32586], [18.95794, 43.31898], [18.95712, 43.31183], [18.95949, 43.30346], [18.96859, 43.29222], [18.98895, 43.27294], [18.98951, 43.27202], [18.99246, 43.2671], [19.0029, 43.27395], [19.01086, 43.28232], [19.01716, 43.29116], [19.02254, 43.29655], [19.02471, 43.29873], [19.03628, 43.30333], [19.06254, 43.30439], [19.06967, 43.30883], [19.03959, 43.35071], [19.00993, 43.41099], [18.97531, 43.44427], [18.96828, 43.4481], [18.94626, 43.44394], [18.94637, 43.44908], [18.95071, 43.4573], [18.95123, 43.46381], [18.93789, 43.47895], [18.93066, 43.48228], [18.91526, 43.48538], [18.90565, 43.49063], [18.90513, 43.49905], [18.91102, 43.50727], [18.92053, 43.5122], [18.93893, 43.51895], [18.9627, 43.5383], [18.97748, 43.54623], [19.00021, 43.54789], [19.01427, 43.53778], [19.02502, 43.52303], [19.03815, 43.51102], [19.05499, 43.5067], [19.07639, 43.50724], [19.09602, 43.5129], [19.12279, 43.53595], [19.1477, 43.53815], [19.19534, 43.5328], [19.17519, 43.50962], [19.17591, 43.48089], [19.19224, 43.45453], [19.21839, 43.4382], [19.35564, 43.39306], [19.37229, 43.38423], [19.41404, 43.33839], [19.47305, 43.29328], [19.48515, 43.2801], [19.5023, 43.25194], [19.51243, 43.24064], [19.54784, 43.21881], [19.54995, 43.21752], [19.58085, 43.1878], [19.59811, 43.1762], [19.61868, 43.16824], [19.66302, 43.1585], [19.68462, 43.15672], [19.69733, 43.16021], [19.70549, 43.16618], [19.71356, 43.16561], [19.74281, 43.12652], [19.7612, 43.10874], [19.78177, 43.09647], [19.80513, 43.08996], [19.8383, 43.08835], [19.8722, 43.09037], [19.88378, 43.09569], [19.90714, 43.11326], [19.91664, 43.11706], [19.92915, 43.11391], [19.93659, 43.1059], [19.94228, 43.09564], [19.94982, 43.08592], [19.95974, 43.07856], [20.01989, 43.04735], [20.05439, 43.02222], [20.05634, 43.0208], [20.11694, 42.97665], [20.12946, 42.9736], [20.14092, 42.97082], [20.19456, 42.96684], [20.22319, 42.95766], [20.27559, 42.92989], [20.33708, 42.90697], [20.35362, 42.89097], [20.35517, 42.86617], [20.34535, 42.82744], [20.26443, 42.81726], [20.22608, 42.80677], [20.21761, 42.80274], [20.20924, 42.7917], [20.20841, 42.78209], [20.20996, 42.77297], [20.20841, 42.76328], [20.1834, 42.74251], [20.1495, 42.74987], [20.11209, 42.76654], [20.07633, 42.77344], [20.06506, 42.76946], [20.05564, 42.76387], [20.03467, 42.75142], [20.02651, 42.74321], [20.02475, 42.72341], [20.03612, 42.70799], [20.03701, 42.70736], [20.0942, 42.66698], [20.10196, 42.65667], [20.10392, 42.65311], [20.09059, 42.62735], [20.07922, 42.61125], [20.0757, 42.60309], [20.07539, 42.58696], [20.07819, 42.57291], [20.07705, 42.55991], [20.06496, 42.54676], [20.03922, 42.55777], [20.01772, 42.54624], [19.98176, 42.51076], [19.95633, 42.50531], [19.90755, 42.5064], [19.88274, 42.49361], [19.88254, 42.4934], [19.87334, 42.48684], [19.83551, 42.47025], [19.82906, 42.46872], [19.8196, 42.46648], [19.80141, 42.46813], [19.78446, 42.47457], [19.75159, 42.4934], [19.73433, 42.52438], [19.73092, 42.53366], [19.7303, 42.54043], [19.73216, 42.55554], [19.73392, 42.5626], [19.74136, 42.5744], [19.74601, 42.57993], [19.74777, 42.5789], [19.74688, 42.58893], [19.74601, 42.5989], [19.73753, 42.6244], [19.72213, 42.64608], [19.69929, 42.65481], [19.67604, 42.64668], [19.65804, 42.63461], [19.64793, 42.62784], [19.62178, 42.605], [19.60504, 42.58484], [19.59925, 42.57105], [19.59367, 42.54482], [19.58809, 42.53286], [19.57568, 42.52234], [19.56132, 42.51624], [19.54933, 42.50859], [19.54375, 42.49356], [19.54375, 42.4934], [19.53166, 42.47477], [19.51781, 42.45803], [19.50148, 42.44413], [19.48174, 42.43449], [19.4684, 42.41811], [19.41724, 42.37411], [19.41208, 42.3684], [19.40267, 42.35202], [19.40071, 42.34475], [19.40133, 42.33106], [19.4004, 42.32589], [19.30459, 42.2151], [19.27493, 42.19128], [19.27203, 42.18068], [19.28196, 42.16472], [19.28206, 42.16456], [19.29777, 42.15167], [19.35503, 42.12004], [19.37, 42.10651], [19.37249, 42.10425], [19.37487, 42.09467], [19.35657, 42.0648], [19.35172, 42.04762], [19.35058, 42.02782], [19.3542, 42.0087], [19.3634, 41.99364], [19.36371, 41.99348], [19.37104, 41.98656], [19.36577, 41.96971], [19.35978, 41.96599], [19.35161, 41.96517], [19.34645, 41.96155], [19.35285, 41.9385], [19.35048, 41.93137], [19.34665, 41.92618], [19.34541, 41.92119], [19.34593, 41.91447], [19.34531, 41.91034], [19.34769, 41.90636], [19.35699, 41.89964], [19.36495, 41.889], [19.36422, 41.86285], [19.36508, 41.85236], [19.34693, 41.86396], [19.31023, 41.89452], [19.29322, 41.90078], [19.22022, 41.91885], [19.20297, 41.92707], [19.17848, 41.93391], [19.17026, 41.93797], [19.16228, 41.94794], [19.16196, 41.95344], [19.16326, 41.95897], [19.16033, 41.96898], [19.15561, 41.97065], [19.14527, 41.97761], [19.13795, 41.9853], [19.14291, 41.98884], [19.14356, 41.99307], [19.13917, 42.04243], [19.08253, 42.0812], [19.07472, 42.09565], [19.08383, 42.11009], [19.07643, 42.11595], [19.06397, 42.12018], [19.04868, 42.1402], [19.01059, 42.13955], [19.00213, 42.15021], [18.99985, 42.16108], [18.9948, 42.16364], [18.98805, 42.16372], [18.98162, 42.16706], [18.96803, 42.18871], [18.95346, 42.19986], [18.91334, 42.22223], [18.9017, 42.23749], [18.8947, 42.27049], [18.886, 42.28437], [18.87159, 42.29047], [18.85402, 42.29047], [18.83888, 42.28571], [18.83139, 42.27753], [18.82651, 42.28221], [18.82049, 42.28669], [18.81764, 42.29116], [18.80152, 42.28437], [18.79396, 42.28034], [18.78875, 42.27603], [18.78639, 42.27412], [18.77858, 42.27147], [18.77198, 42.27692], [18.76246, 42.29116], [18.7295, 42.31159], [18.71453, 42.32526], [18.71412, 42.33893], [18.70834, 42.34248], [18.69972, 42.34984], [18.69361, 42.35322], [18.69361, 42.35944], [18.69581, 42.37376], [18.67848, 42.38597], [18.65854, 42.38662], [18.65317, 42.36628], [18.6465, 42.36628], [18.63844, 42.37031], [18.61671, 42.36807], [18.61231, 42.36994], [18.60711, 42.37641], [18.5949, 42.38373], [18.5809, 42.38984], [18.57065, 42.39297], [18.57301, 42.39643], [18.57309, 42.39753], [18.57407, 42.39826], [18.57814, 42.40038], [18.55299, 42.41364], [18.54518, 42.42357], [18.55014, 42.43513], [18.56284, 42.43854], [18.64495, 42.41836], [18.6565, 42.41551], [18.68556, 42.404], [18.70045, 42.39297], [18.70818, 42.40852], [18.70655, 42.42105], [18.68385, 42.45881], [18.68328, 42.46809], [18.68735, 42.4829], [18.65414, 42.45181], [18.60865, 42.44538], [18.50245, 42.45563], [18.50245, 42.44819], [18.52125, 42.43797], [18.51295, 42.409], [18.5298, 42.40038], [18.51027, 42.40526], [18.49643, 42.41633]]]}, "properties": {"id": "MYa5", "status": "validé", "pieces": [{"kind": "country"}]}}, {"type": "Feature", "geometry": {"type": "Polygon", "coordinates": [[[18.49643, 42.41633], [18.49782, 42.43116], [18.49285, 42.44237], [18.47549, 42.44981], [18.46774, 42.45338], [18.45492, 42.46472], [18.44428, 42.47792], [18.43715, 42.4934], [18.43642, 42.51076], [18.44201, 42.54301], [18.43736, 42.55921], [18.44769, 42.56621], [18.45896, 42.56973], [18.47053, 42.56906], [18.4818, 42.56368], [18.49213, 42.56477], [18.49585, 42.57086], [18.49368, 42.57983], [18.48665, 42.58983], [18.5068, 42.59849], [18.51725, 42.60298], [18.53843, 42.6183], [18.54283, 42.62643], [18.5496, 42.63892], [18.55001, 42.66807], [18.53967, 42.69546], [18.52252, 42.71189], [18.50216, 42.72745], [18.46743, 42.7692], [18.45389, 42.79315], [18.44459, 42.81708], [18.44366, 42.83447], [18.45348, 42.84566], [18.46598, 42.85281], [18.47332, 42.86255], [18.46764, 42.8817], [18.44397, 42.91687], [18.43405, 42.93689], [18.43353, 42.9542], [18.45275, 42.9934], [18.48304, 43.01464], [18.53895, 43.02389], [18.59838, 43.02446], [18.639, 43.02024], [18.62112, 43.09644], [18.6206, 43.12256], [18.62113, 43.12458], [18.62907, 43.15489], [18.6453, 43.18018], [18.6884, 43.22447], [18.66432, 43.23318], [18.67951, 43.24948], [18.80715, 43.31803], [18.83351, 43.32415], [18.8303, 43.32816], [18.82462, 43.33741], [18.82121, 43.34139], [18.8396, 43.34782], [18.89914, 43.3519], [18.92342, 43.34684], [18.9503, 43.33307], [18.95732, 43.32586], [18.95794, 43.31898], [18.95712, 43.31183], [18.95949, 43.30346], [18.96859, 43.29222], [18.98895, 43.27294], [18.98951, 43.27202], [18.99246, 43.2671], [19.0029, 43.27395], [19.01086, 43.28232], [19.01716, 43.29116], [19.02254, 43.29655], [19.02471, 43.29873], [19.03628, 43.30333], [19.06254, 43.30439], [19.06967, 43.30883], [19.03959, 43.35071], [19.00993, 43.41099], [18.97531, 43.44427], [18.96828, 43.4481], [18.94626, 43.44394], [18.94637, 43.44908], [18.95071, 43.4573], [18.95123, 43.46381], [18.93789, 43.47895], [18.93066, 43.48228], [18.91526, 43.48538], [18.90565, 43.49063], [18.90513, 43.49905], [18.91102, 43.50727], [18.92053, 43.5122], [18.93893, 43.51895], [18.9627, 43.5383], [18.97748, 43.54623], [19.00021, 43.54789], [19.01427, 43.53778], [19.02502, 43.52303], [19.03815, 43.51102], [19.05499, 43.5067], [19.07639, 43.50724], [19.09602, 43.5129], [19.12279, 43.53595], [19.1477, 43.53815], [19.19534, 43.5328], [19.17519, 43.50962], [19.17591, 43.48089], [19.19224, 43.45453], [19.21839, 43.4382], [19.35564, 43.39306], [19.37229, 43.38423], [19.41404, 43.33839], [19.47305, 43.29328], [19.48515, 43.2801], [19.5023, 43.25194], [19.51243, 43.24064], [19.54784, 43.21881], [19.54995, 43.21752], [19.58085, 43.1878], [19.59811, 43.1762], [19.61868, 43.16824], [19.66302, 43.1585], [19.68462, 43.15672], [19.69733, 43.16021], [19.70549, 43.16618], [19.71356, 43.16561], [19.74281, 43.12652], [19.7612, 43.10874], [19.78177, 43.09647], [19.80513, 43.08996], [19.8383, 43.08835], [19.8722, 43.09037], [19.88378, 43.09569], [19.90714, 43.11326], [19.91664, 43.11706], [19.92915, 43.11391], [19.93659, 43.1059], [19.94228, 43.09564], [19.94982, 43.08592], [19.95974, 43.07856], [20.01989, 43.04735], [20.05439, 43.02222], [20.05634, 43.0208], [20.11694, 42.97665], [20.12946, 42.9736], [20.14092, 42.97082], [20.19456, 42.96684], [20.22319, 42.95766], [20.27559, 42.92989], [20.33708, 42.90697], [20.35362, 42.89097], [20.35517, 42.86617], [20.34535, 42.82744], [20.26443, 42.81726], [20.22608, 42.80677], [20.21761, 42.80274], [20.20924, 42.7917], [20.20841, 42.78209], [20.20996, 42.77297], [20.20841, 42.76328], [20.1834, 42.74251], [20.1495, 42.74987], [20.11209, 42.76654], [20.07633, 42.77344], [20.06506, 42.76946], [20.05564, 42.76387], [20.03467, 42.75142], [20.02651, 42.74321], [20.02475, 42.72341], [20.03612, 42.70799], [20.03701, 42.70736], [20.0942, 42.66698], [20.10196, 42.65667], [20.10392, 42.65311], [20.09059, 42.62735], [20.07922, 42.61125], [20.0757, 42.60309], [20.07539, 42.58696], [20.07819, 42.57291], [20.07705, 42.55991], [20.06496, 42.54676], [20.03922, 42.55777], [20.01772, 42.54624], [19.98176, 42.51076], [19.95633, 42.50531], [19.90755, 42.5064], [19.88274, 42.49361], [19.88254, 42.4934], [19.87334, 42.48684], [19.83551, 42.47025], [19.82906, 42.46872], [19.8196, 42.46648], [19.80141, 42.46813], [19.78446, 42.47457], [19.75159, 42.4934], [19.73433, 42.52438], [19.73092, 42.53366], [19.7303, 42.54043], [19.73216, 42.55554], [19.73392, 42.5626], [19.74136, 42.5744], [19.74601, 42.57993], [19.74777, 42.5789], [19.74688, 42.58893], [19.74601, 42.5989], [19.73753, 42.6244], [19.72213, 42.64608], [19.69929, 42.65481], [19.67604, 42.64668], [19.65804, 42.63461], [19.64793, 42.62784], [19.62178, 42.605], [19.60504, 42.58484], [19.59925, 42.57105], [19.59367, 42.54482], [19.58809, 42.53286], [19.57568, 42.52234], [19.56132, 42.51624], [19.54933, 42.50859], [19.54375, 42.49356], [19.54375, 42.4934], [19.53166, 42.47477], [19.51781, 42.45803], [19.50148, 42.44413], [19.48174, 42.43449], [19.4684, 42.41811], [19.41724, 42.37411], [19.41208, 42.3684], [19.40267, 42.35202], [19.40071, 42.34475], [19.40133, 42.33106], [19.4004, 42.32589], [19.30459, 42.2151], [19.27493, 42.19128], [19.27203, 42.18068], [19.28196, 42.16472], [19.28206, 42.16456], [19.29777, 42.15167], [19.35503, 42.12004], [19.37, 42.10651], [19.37249, 42.10425], [19.37487, 42.09467], [19.35657, 42.0648], [19.35172, 42.04762], [19.35058, 42.02782], [19.3542, 42.0087], [19.3634, 41.99364], [19.36371, 41.99348], [19.37104, 41.98656], [19.36577, 41.96971], [19.35978, 41.96599], [19.35161, 41.96517], [19.34645, 41.96155], [19.35285, 41.9385], [19.35048, 41.93137], [19.34665, 41.92618], [19.34541, 41.92119], [19.34593, 41.91447], [19.34531, 41.91034], [19.34769, 41.90636], [19.35699, 41.89964], [19.36495, 41.889], [19.36422, 41.86285], [19.36508, 41.85236], [19.34693, 41.86396], [19.31023, 41.89452], [19.29322, 41.90078], [19.22022, 41.91885], [19.20297, 41.92707], [19.17848, 41.93391], [19.17026, 41.93797], [19.16228, 41.94794], [19.16196, 41.95344], [19.16326, 41.95897], [19.16033, 41.96898], [19.15561, 41.97065], [19.14527, 41.97761], [19.13795, 41.9853], [19.14291, 41.98884], [19.14356, 41.99307], [19.13917, 42.04243], [19.08253, 42.0812], [19.07472, 42.09565], [19.08383, 42.11009], [19.07643, 42.11595], [19.06397, 42.12018], [19.04868, 42.1402], [19.01059, 42.13955], [19.00213, 42.15021], [18.99985, 42.16108], [18.9948, 42.16364], [18.98805, 42.16372], [18.98162, 42.16706], [18.96803, 42.18871], [18.95346, 42.19986], [18.91334, 42.22223], [18.9017, 42.23749], [18.8947, 42.27049], [18.886, 42.28437], [18.87159, 42.29047], [18.85402, 42.29047], [18.83888, 42.28571], [18.83139, 42.27753], [18.82651, 42.28221], [18.82049, 42.28669], [18.81764, 42.29116], [18.80152, 42.28437], [18.79396, 42.28034], [18.78875, 42.27603], [18.78639, 42.27412], [18.77858, 42.27147], [18.77198, 42.27692], [18.76246, 42.29116], [18.7295, 42.31159], [18.71453, 42.32526], [18.71412, 42.33893], [18.70834, 42.34248], [18.69972, 42.34984], [18.69361, 42.35322], [18.69361, 42.35944], [18.69581, 42.37376], [18.67848, 42.38597], [18.65854, 42.38662], [18.65317, 42.36628], [18.6465, 42.36628], [18.63844, 42.37031], [18.61671, 42.36807], [18.61231, 42.36994], [18.60711, 42.37641], [18.5949, 42.38373], [18.5809, 42.38984], [18.57065, 42.39297], [18.57301, 42.39643], [18.57309, 42.39753], [18.57407, 42.39826], [18.57814, 42.40038], [18.55299, 42.41364], [18.54518, 42.42357], [18.55014, 42.43513], [18.56284, 42.43854], [18.64495, 42.41836], [18.6565, 42.41551], [18.68556, 42.404], [18.70045, 42.39297], [18.70818, 42.40852], [18.70655, 42.42105], [18.68385, 42.45881], [18.68328, 42.46809], [18.68735, 42.4829], [18.65414, 42.45181], [18.60865, 42.44538], [18.50245, 42.45563], [18.50245, 42.44819], [18.52125, 42.43797], [18.51295, 42.409], [18.5298, 42.40038], [18.51027, 42.40526], [18.49643, 42.41633]]]}, "properties": {"id": "RPvd", "status": "validé", "pieces": [{"kind": "country"}]}}, {"type": "Feature", "geometry": {"type": "Polygon", "coordinates": [[[19.37456, 43.35434], [19.35568, 43.34766], [19.35276, 43.33331], [19.36727, 43.32807], [19.38709, 43.33668], [19.4058, 43.34816], [19.38186, 43.3602], [19.37456, 43.35434]]]}, "properties": {"id": "VuAe", "status": "validé", "pieces": [{"kind": "polygon", "ring": [[19.37456, 43.35434], [19.35568, 43.34766], [19.35276, 43.33331], [19.36727, 43.32807], [19.38709, 43.33668], [19.4058, 43.34816], [19.38186, 43.3602]]}]}}, {"type": "Feature", "geometry": {"type": "Polygon", "coordinates": [[[19.41833, 42.46234], [19.38538, 42.53116], [19.31122, 42.55544], [19.18488, 42.52307], [19.15192, 42.436], [19.15741, 42.33867], [19.21234, 42.29401], [19.27277, 42.28182], [19.34967, 42.3001], [19.4101, 42.38938], [19.41833, 42.46234]]]}, "properties": {"id": "YLJY", "status": "validé", "pieces": [{"kind": "polygon", "ring": [[19.41833, 42.46234], [19.38538, 42.53116], [19.31122, 42.55544], [19.18488, 42.52307], [19.15192, 42.436], [19.15741, 42.33867], [19.21234, 42.29401], [19.27277, 42.28182], [19.34967, 42.3001], [19.4101, 42.38938]]}]}}, {"type": "Feature", "geometry": {"type": "Polygon", "coordinates": [[[18.50029, 42.47676], [18.57376, 42.46765], [18.64517, 42.46663], [18.63899, 42.49043], [18.66028, 42.52129], [18.69392, 42.52888], [18.71864, 42.50561], [18.70422, 42.49397], [18.7722, 42.49954], [18.78387, 42.46917], [18.77975, 42.43777], [18.77975, 42.41091], [18.72139, 42.38405], [18.69555, 42.37206], [18.69581, 42.37376], [18.67848, 42.38597], [18.65854, 42.38662], [18.65317, 42.36628], [18.6465, 42.36628], [18.63844, 42.37031], [18.61671, 42.36807], [18.61231, 42.36994], [18.60711, 42.37641], [18.5949, 42.38373], [18.5809, 42.38984], [18.57065, 42.39297], [18.57301, 42.39643], [18.57309, 42.39753], [18.57407, 42.39826], [18.57814, 42.40038], [18.55299, 42.41364], [18.54518, 42.42357], [18.55014, 42.43513], [18.56284, 42.43854], [18.64495, 42.41836], [18.6565, 42.41551], [18.68556, 42.404], [18.70045, 42.39297], [18.70818, 42.40852], [18.70655, 42.42105], [18.68385, 42.45881], [18.68328, 42.46809], [18.68735, 42.4829], [18.65414, 42.45181], [18.60865, 42.44538], [18.50245, 42.45563], [18.50245, 42.44819], [18.52125, 42.43797], [18.51666, 42.42195], [18.49778, 42.43123], [18.49285, 42.44237], [18.48643, 42.44513], [18.49068, 42.44739], [18.50029, 42.47676]]]}, "properties": {"id": "arxV", "status": "validé", "pieces": [{"kind": "polygon", "ring": [[18.49068, 42.44739], [18.50029, 42.47676], [18.57376, 42.46765], [18.64517, 42.46663], [18.63899, 42.49043], [18.66028, 42.52129], [18.69392, 42.52888], [18.71864, 42.50561], [18.70422, 42.49397], [18.7722, 42.49954], [18.78387, 42.46917], [18.77975, 42.43777], [18.77975, 42.41091], [18.72139, 42.38405], [18.6438, 42.34804], [18.56277, 42.3516], [18.52982, 42.41548], [18.47832, 42.44081]]}, {"kind": "clip"}]}}, {"type": "Feature", "geometry": {"type": "Polygon", "coordinates": [[[19.31259, 42.4063], [19.31259, 42.4686], [19.21474, 42.4686], [19.21474, 42.4063], [19.31259, 42.4063]]]}, "properties": {"id": "cJhu", "status": "validé", "pieces": [{"kind": "rect", "bounds": [19.21474, 42.4063, 19.31259, 42.4686]}]}}, {"type": "Feature", "geometry": {"type": "Polygon", "coordinates": [[[18.49643, 42.41633], [18.49782, 42.43116], [18.49285, 42.44237], [18.47549, 42.44981], [18.46774, 42.45338], [18.45492, 42.46472], [18.44428, 42.47792], [18.43715, 42.4934], [18.43642, 42.51076], [18.44201, 42.54301], [18.43736, 42.55921], [18.44769, 42.56621], [18.45896, 42.56973], [18.47053, 42.56906], [18.4818, 42.56368], [18.49213, 42.56477], [18.49585, 42.57086], [18.49368, 42.57983], [18.48665, 42.58983], [18.5068, 42.59849], [18.51725, 42.60298], [18.53843, 42.6183], [18.54283, 42.62643], [18.5496, 42.63892], [18.55001, 42.66807], [18.53967, 42.69546], [18.52252, 42.71189], [18.50216, 42.72745], [18.46743, 42.7692], [18.45389, 42.79315], [18.44459, 42.81708], [18.44366, 42.83447], [18.45348, 42.84566], [18.46598, 42.85281], [18.47332, 42.86255], [18.46764, 42.8817], [18.44397, 42.91687], [18.43405, 42.93689], [18.43353, 42.9542], [18.45275, 42.9934], [18.48304, 43.01464], [18.53895, 43.02389], [18.59838, 43.02446], [18.639, 43.02024], [18.62112, 43.09644], [18.6206, 43.12256], [18.62113, 43.12458], [18.62907, 43.15489], [18.6453, 43.18018], [18.6884, 43.22447], [18.66432, 43.23318], [18.67951, 43.24948], [18.80715, 43.31803], [18.83351, 43.32415], [18.8303, 43.32816], [18.82462, 43.33741], [18.82121, 43.34139], [18.8396, 43.34782], [18.89914, 43.3519], [18.92342, 43.34684], [18.9503, 43.33307], [18.95732, 43.32586], [18.95794, 43.31898], [18.95712, 43.31183], [18.95949, 43.30346], [18.96859, 43.29222], [18.98895, 43.27294], [18.98951, 43.27202], [18.99246, 43.2671], [19.0029, 43.27395], [19.01086, 43.28232], [19.01716, 43.29116], [19.02254, 43.29655], [19.02471, 43.29873], [19.03628, 43.30333], [19.06254, 43.30439], [19.06967, 43.30883], [19.03959, 43.35071], [19.00993, 43.41099], [18.97531, 43.44427], [18.96828, 43.4481], [18.94626, 43.44394], [18.94637, 43.44908], [18.95071, 43.4573], [18.95123, 43.46381], [18.93789, 43.47895], [18.93066, 43.48228], [18.91526, 43.48538], [18.90565, 43.49063], [18.90513, 43.49905], [18.91102, 43.50727], [18.92053, 43.5122], [18.93893, 43.51895], [18.9627, 43.5383], [18.97748, 43.54623], [19.00021, 43.54789], [19.01427, 43.53778], [19.02502, 43.52303], [19.03815, 43.51102], [19.05499, 43.5067], [19.07639, 43.50724], [19.09602, 43.5129], [19.12279, 43.53595], [19.1477, 43.53815], [19.19534, 43.5328], [19.17519, 43.50962], [19.17591, 43.48089], [19.19224, 43.45453], [19.21839, 43.4382], [19.35564, 43.39306], [19.37229, 43.38423], [19.41404, 43.33839], [19.47305, 43.29328], [19.48515, 43.2801], [19.5023, 43.25194], [19.51243, 43.24064], [19.54784, 43.21881], [19.54995, 43.21752], [19.58085, 43.1878], [19.59811, 43.1762], [19.61868, 43.16824], [19.66302, 43.1585], [19.68462, 43.15672], [19.69733, 43.16021], [19.70549, 43.16618], [19.71356, 43.16561], [19.74281, 43.12652], [19.7612, 43.10874], [19.78177, 43.09647], [19.80513, 43.08996], [19.8383, 43.08835], [19.8722, 43.09037], [19.88378, 43.09569], [19.90714, 43.11326], [19.91664, 43.11706], [19.92915, 43.11391], [19.93659, 43.1059], [19.94228, 43.09564], [19.94982, 43.08592], [19.95974, 43.07856], [20.01989, 43.04735], [20.05439, 43.02222], [20.05634, 43.0208], [20.11694, 42.97665], [20.12946, 42.9736], [20.14092, 42.97082], [20.19456, 42.96684], [20.22319, 42.95766], [20.27559, 42.92989], [20.33708, 42.90697], [20.35362, 42.89097], [20.35517, 42.86617], [20.34535, 42.82744], [20.26443, 42.81726], [20.22608, 42.80677], [20.21761, 42.80274], [20.20924, 42.7917], [20.20841, 42.78209], [20.20996, 42.77297], [20.20841, 42.76328], [20.1834, 42.74251], [20.1495, 42.74987], [20.11209, 42.76654], [20.07633, 42.77344], [20.06506, 42.76946], [20.05564, 42.76387], [20.03467, 42.75142], [20.02651, 42.74321], [20.02475, 42.72341], [20.03612, 42.70799], [20.03701, 42.70736], [20.0942, 42.66698], [20.10196, 42.65667], [20.10392, 42.65311], [20.09059, 42.62735], [20.07922, 42.61125], [20.0757, 42.60309], [20.07539, 42.58696], [20.07819, 42.57291], [20.07705, 42.55991], [20.06496, 42.54676], [20.03922, 42.55777], [20.01772, 42.54624], [19.98176, 42.51076], [19.95633, 42.50531], [19.90755, 42.5064], [19.88274, 42.49361], [19.88254, 42.4934], [19.87334, 42.48684], [19.83551, 42.47025], [19.82906, 42.46872], [19.8196, 42.46648], [19.80141, 42.46813], [19.78446, 42.47457], [19.75159, 42.4934], [19.73433, 42.52438], [19.73092, 42.53366], [19.7303, 42.54043], [19.73216, 42.55554], [19.73392, 42.5626], [19.74136, 42.5744], [19.74601, 42.57993], [19.74777, 42.5789], [19.74688, 42.58893], [19.74601, 42.5989], [19.73753, 42.6244], [19.72213, 42.64608], [19.69929, 42.65481], [19.67604, 42.64668], [19.65804, 42.63461], [19.64793, 42.62784], [19.62178, 42.605], [19.60504, 42.58484], [19.59925, 42.57105], [19.59367, 42.54482], [19.58809, 42.53286], [19.57568, 42.52234], [19.56132, 42.51624], [19.54933, 42.50859], [19.54375, 42.49356], [19.54375, 42.4934], [19.53166, 42.47477], [19.51781, 42.45803], [19.50148, 42.44413], [19.48174, 42.43449], [19.4684, 42.41811], [19.41724, 42.37411], [19.41208, 42.3684], [19.40267, 42.35202], [19.40071, 42.34475], [19.40133, 42.33106], [19.4004, 42.32589], [19.30459, 42.2151], [19.27493, 42.19128], [19.27203, 42.18068], [19.28196, 42.16472], [19.28206, 42.16456], [19.29777, 42.15167], [19.35503, 42.12004], [19.37, 42.10651], [19.37249, 42.10425], [19.37487, 42.09467], [19.35657, 42.0648], [19.35172, 42.04762], [19.35058, 42.02782], [19.3542, 42.0087], [19.3634, 41.99364], [19.36371, 41.99348], [19.37104, 41.98656], [19.36577, 41.96971], [19.35978, 41.96599], [19.35161, 41.96517], [19.34645, 41.96155], [19.35285, 41.9385], [19.35048, 41.93137], [19.34665, 41.92618], [19.34541, 41.92119], [19.34593, 41.91447], [19.34531, 41.91034], [19.34769, 41.90636], [19.35699, 41.89964], [19.36495, 41.889], [19.36422, 41.86285], [19.36508, 41.85236], [19.34693, 41.86396], [19.31023, 41.89452], [19.29322, 41.90078], [19.22022, 41.91885], [19.20297, 41.92707], [19.17848, 41.93391], [19.17026, 41.93797], [19.16228, 41.94794], [19.16196, 41.95344], [19.16326, 41.95897], [19.16033, 41.96898], [19.15561, 41.97065], [19.14527, 41.97761], [19.13795, 41.9853], [19.14291, 41.98884], [19.14356, 41.99307], [19.13917, 42.04243], [19.08253, 42.0812], [19.07472, 42.09565], [19.08383, 42.11009], [19.07643, 42.11595], [19.06397, 42.12018], [19.04868, 42.1402], [19.01059, 42.13955], [19.00213, 42.15021], [18.99985, 42.16108], [18.9948, 42.16364], [18.98805, 42.16372], [18.98162, 42.16706], [18.96803, 42.18871], [18.95346, 42.19986], [18.91334, 42.22223], [18.9017, 42.23749], [18.8947, 42.27049], [18.886, 42.28437], [18.87159, 42.29047], [18.85402, 42.29047], [18.83888, 42.28571], [18.83139, 42.27753], [18.82651, 42.28221], [18.82049, 42.28669], [18.81764, 42.29116], [18.80152, 42.28437], [18.79396, 42.28034], [18.78875, 42.27603], [18.78639, 42.27412], [18.77858, 42.27147], [18.77198, 42.27692], [18.76246, 42.29116], [18.7295, 42.31159], [18.71453, 42.32526], [18.71412, 42.33893], [18.70834, 42.34248], [18.69972, 42.34984], [18.69361, 42.35322], [18.69361, 42.35944], [18.69581, 42.37376], [18.67848, 42.38597], [18.65854, 42.38662], [18.65317, 42.36628], [18.6465, 42.36628], [18.63844, 42.37031], [18.61671, 42.36807], [18.61231, 42.36994], [18.60711, 42.37641], [18.5949, 42.38373], [18.5809, 42.38984], [18.57065, 42.39297], [18.57301, 42.39643], [18.57309, 42.39753], [18.57407, 42.39826], [18.57814, 42.40038], [18.55299, 42.41364], [18.54518, 42.42357], [18.55014, 42.43513], [18.56284, 42.43854], [18.64495, 42.41836], [18.6565, 42.41551], [18.68556, 42.404], [18.70045, 42.39297], [18.70818, 42.40852], [18.70655, 42.42105], [18.68385, 42.45881], [18.68328, 42.46809], [18.68735, 42.4829], [18.65414, 42.45181], [18.60865, 42.44538], [18.50245, 42.45563], [18.50245, 42.44819], [18.52125, 42.43797], [18.51295, 42.409], [18.5298, 42.40038], [18.51027, 42.40526], [18.49643, 42.41633]]]}, "properties": {"id": "gPE6", "status": "validé", "pieces": [{"kind": "country"}]}}, {"type": "Feature", "geometry": {"type": "Polygon", "coordinates": [[[18.49643, 42.41633], [18.49782, 42.43116], [18.49285, 42.44237], [18.47549, 42.44981], [18.46774, 42.45338], [18.45492, 42.46472], [18.44428, 42.47792], [18.43715, 42.4934], [18.43642, 42.51076], [18.44201, 42.54301], [18.43736, 42.55921], [18.44769, 42.56621], [18.45896, 42.56973], [18.47053, 42.56906], [18.4818, 42.56368], [18.49213, 42.56477], [18.49585, 42.57086], [18.49368, 42.57983], [18.48665, 42.58983], [18.5068, 42.59849], [18.51725, 42.60298], [18.53843, 42.6183], [18.54283, 42.62643], [18.5496, 42.63892], [18.55001, 42.66807], [18.53967, 42.69546], [18.52252, 42.71189], [18.50216, 42.72745], [18.46743, 42.7692], [18.45389, 42.79315], [18.44459, 42.81708], [18.44366, 42.83447], [18.45348, 42.84566], [18.46598, 42.85281], [18.47332, 42.86255], [18.46764, 42.8817], [18.44397, 42.91687], [18.43405, 42.93689], [18.43353, 42.9542], [18.45275, 42.9934], [18.48304, 43.01464], [18.53895, 43.02389], [18.59838, 43.02446], [18.639, 43.02024], [18.62112, 43.09644], [18.6206, 43.12256], [18.62113, 43.12458], [18.62907, 43.15489], [18.6453, 43.18018], [18.6884, 43.22447], [18.66432, 43.23318], [18.67951, 43.24948], [18.80715, 43.31803], [18.83351, 43.32415], [18.8303, 43.32816], [18.82462, 43.33741], [18.82121, 43.34139], [18.8396, 43.34782], [18.89914, 43.3519], [18.92342, 43.34684], [18.9503, 43.33307], [18.95732, 43.32586], [18.95794, 43.31898], [18.95712, 43.31183], [18.95949, 43.30346], [18.96859, 43.29222], [18.98895, 43.27294], [18.98951, 43.27202], [18.99246, 43.2671], [19.0029, 43.27395], [19.01086, 43.28232], [19.01716, 43.29116], [19.02254, 43.29655], [19.02471, 43.29873], [19.03628, 43.30333], [19.06254, 43.30439], [19.06967, 43.30883], [19.03959, 43.35071], [19.00993, 43.41099], [18.97531, 43.44427], [18.96828, 43.4481], [18.94626, 43.44394], [18.94637, 43.44908], [18.95071, 43.4573], [18.95123, 43.46381], [18.93789, 43.47895], [18.93066, 43.48228], [18.91526, 43.48538], [18.90565, 43.49063], [18.90513, 43.49905], [18.91102, 43.50727], [18.92053, 43.5122], [18.93893, 43.51895], [18.9627, 43.5383], [18.97748, 43.54623], [19.00021, 43.54789], [19.01427, 43.53778], [19.02502, 43.52303], [19.03815, 43.51102], [19.05499, 43.5067], [19.07639, 43.50724], [19.09602, 43.5129], [19.12279, 43.53595], [19.1477, 43.53815], [19.19534, 43.5328], [19.17519, 43.50962], [19.17591, 43.48089], [19.19224, 43.45453], [19.21839, 43.4382], [19.35564, 43.39306], [19.37229, 43.38423], [19.41404, 43.33839], [19.47305, 43.29328], [19.48515, 43.2801], [19.5023, 43.25194], [19.51243, 43.24064], [19.54784, 43.21881], [19.54995, 43.21752], [19.58085, 43.1878], [19.59811, 43.1762], [19.61868, 43.16824], [19.66302, 43.1585], [19.68462, 43.15672], [19.69733, 43.16021], [19.70549, 43.16618], [19.71356, 43.16561], [19.74281, 43.12652], [19.7612, 43.10874], [19.78177, 43.09647], [19.80513, 43.08996], [19.8383, 43.08835], [19.8722, 43.09037], [19.88378, 43.09569], [19.90714, 43.11326], [19.91664, 43.11706], [19.92915, 43.11391], [19.93659, 43.1059], [19.94228, 43.09564], [19.94982, 43.08592], [19.95974, 43.07856], [20.01989, 43.04735], [20.05439, 43.02222], [20.05634, 43.0208], [20.11694, 42.97665], [20.12946, 42.9736], [20.14092, 42.97082], [20.19456, 42.96684], [20.22319, 42.95766], [20.27559, 42.92989], [20.33708, 42.90697], [20.35362, 42.89097], [20.35517, 42.86617], [20.34535, 42.82744], [20.26443, 42.81726], [20.22608, 42.80677], [20.21761, 42.80274], [20.20924, 42.7917], [20.20841, 42.78209], [20.20996, 42.77297], [20.20841, 42.76328], [20.1834, 42.74251], [20.1495, 42.74987], [20.11209, 42.76654], [20.07633, 42.77344], [20.06506, 42.76946], [20.05564, 42.76387], [20.03467, 42.75142], [20.02651, 42.74321], [20.02475, 42.72341], [20.03612, 42.70799], [20.03701, 42.70736], [20.0942, 42.66698], [20.10196, 42.65667], [20.10392, 42.65311], [20.09059, 42.62735], [20.07922, 42.61125], [20.0757, 42.60309], [20.07539, 42.58696], [20.07819, 42.57291], [20.07705, 42.55991], [20.06496, 42.54676], [20.03922, 42.55777], [20.01772, 42.54624], [19.98176, 42.51076], [19.95633, 42.50531], [19.90755, 42.5064], [19.88274, 42.49361], [19.88254, 42.4934], [19.87334, 42.48684], [19.83551, 42.47025], [19.82906, 42.46872], [19.8196, 42.46648], [19.80141, 42.46813], [19.78446, 42.47457], [19.75159, 42.4934], [19.73433, 42.52438], [19.73092, 42.53366], [19.7303, 42.54043], [19.73216, 42.55554], [19.73392, 42.5626], [19.74136, 42.5744], [19.74601, 42.57993], [19.74777, 42.5789], [19.74688, 42.58893], [19.74601, 42.5989], [19.73753, 42.6244], [19.72213, 42.64608], [19.69929, 42.65481], [19.67604, 42.64668], [19.65804, 42.63461], [19.64793, 42.62784], [19.62178, 42.605], [19.60504, 42.58484], [19.59925, 42.57105], [19.59367, 42.54482], [19.58809, 42.53286], [19.57568, 42.52234], [19.56132, 42.51624], [19.54933, 42.50859], [19.54375, 42.49356], [19.54375, 42.4934], [19.53166, 42.47477], [19.51781, 42.45803], [19.50148, 42.44413], [19.48174, 42.43449], [19.4684, 42.41811], [19.41724, 42.37411], [19.41208, 42.3684], [19.40267, 42.35202], [19.40071, 42.34475], [19.40133, 42.33106], [19.4004, 42.32589], [19.30459, 42.2151], [19.27493, 42.19128], [19.27203, 42.18068], [19.28196, 42.16472], [19.28206, 42.16456], [19.29777, 42.15167], [19.35503, 42.12004], [19.37, 42.10651], [19.37249, 42.10425], [19.37487, 42.09467], [19.35657, 42.0648], [19.35172, 42.04762], [19.35058, 42.02782], [19.3542, 42.0087], [19.3634, 41.99364], [19.36371, 41.99348], [19.37104, 41.98656], [19.36577, 41.96971], [19.35978, 41.96599], [19.35161, 41.96517], [19.34645, 41.96155], [19.35285, 41.9385], [19.35048, 41.93137], [19.34665, 41.92618], [19.34541, 41.92119], [19.34593, 41.91447], [19.34531, 41.91034], [19.34769, 41.90636], [19.35699, 41.89964], [19.36495, 41.889], [19.36422, 41.86285], [19.36508, 41.85236], [19.34693, 41.86396], [19.31023, 41.89452], [19.29322, 41.90078], [19.22022, 41.91885], [19.20297, 41.92707], [19.17848, 41.93391], [19.17026, 41.93797], [19.16228, 41.94794], [19.16196, 41.95344], [19.16326, 41.95897], [19.16033, 41.96898], [19.15561, 41.97065], [19.14527, 41.97761], [19.13795, 41.9853], [19.14291, 41.98884], [19.14356, 41.99307], [19.13917, 42.04243], [19.08253, 42.0812], [19.07472, 42.09565], [19.08383, 42.11009], [19.07643, 42.11595], [19.06397, 42.12018], [19.04868, 42.1402], [19.01059, 42.13955], [19.00213, 42.15021], [18.99985, 42.16108], [18.9948, 42.16364], [18.98805, 42.16372], [18.98162, 42.16706], [18.96803, 42.18871], [18.95346, 42.19986], [18.91334, 42.22223], [18.9017, 42.23749], [18.8947, 42.27049], [18.886, 42.28437], [18.87159, 42.29047], [18.85402, 42.29047], [18.83888, 42.28571], [18.83139, 42.27753], [18.82651, 42.28221], [18.82049, 42.28669], [18.81764, 42.29116], [18.80152, 42.28437], [18.79396, 42.28034], [18.78875, 42.27603], [18.78639, 42.27412], [18.77858, 42.27147], [18.77198, 42.27692], [18.76246, 42.29116], [18.7295, 42.31159], [18.71453, 42.32526], [18.71412, 42.33893], [18.70834, 42.34248], [18.69972, 42.34984], [18.69361, 42.35322], [18.69361, 42.35944], [18.69581, 42.37376], [18.67848, 42.38597], [18.65854, 42.38662], [18.65317, 42.36628], [18.6465, 42.36628], [18.63844, 42.37031], [18.61671, 42.36807], [18.61231, 42.36994], [18.60711, 42.37641], [18.5949, 42.38373], [18.5809, 42.38984], [18.57065, 42.39297], [18.57301, 42.39643], [18.57309, 42.39753], [18.57407, 42.39826], [18.57814, 42.40038], [18.55299, 42.41364], [18.54518, 42.42357], [18.55014, 42.43513], [18.56284, 42.43854], [18.64495, 42.41836], [18.6565, 42.41551], [18.68556, 42.404], [18.70045, 42.39297], [18.70818, 42.40852], [18.70655, 42.42105], [18.68385, 42.45881], [18.68328, 42.46809], [18.68735, 42.4829], [18.65414, 42.45181], [18.60865, 42.44538], [18.50245, 42.45563], [18.50245, 42.44819], [18.52125, 42.43797], [18.51295, 42.409], [18.5298, 42.40038], [18.51027, 42.40526], [18.49643, 42.41633]]]}, "properties": {"id": "gh0p", "status": "validé", "pieces": [{"kind": "country"}]}}, {"type": "Feature", "geometry": {"type": "Polygon", "coordinates": [[[18.49643, 42.41633], [18.49782, 42.43116], [18.49285, 42.44237], [18.47549, 42.44981], [18.46774, 42.45338], [18.45492, 42.46472], [18.44428, 42.47792], [18.43715, 42.4934], [18.43642, 42.51076], [18.44201, 42.54301], [18.43736, 42.55921], [18.44769, 42.56621], [18.45896, 42.56973], [18.47053, 42.56906], [18.4818, 42.56368], [18.49213, 42.56477], [18.49585, 42.57086], [18.49368, 42.57983], [18.48665, 42.58983], [18.5068, 42.59849], [18.51725, 42.60298], [18.53843, 42.6183], [18.54283, 42.62643], [18.5496, 42.63892], [18.55001, 42.66807], [18.53967, 42.69546], [18.52252, 42.71189], [18.50216, 42.72745], [18.46743, 42.7692], [18.45389, 42.79315], [18.44459, 42.81708], [18.44366, 42.83447], [18.45348, 42.84566], [18.46598, 42.85281], [18.47332, 42.86255], [18.46764, 42.8817], [18.44397, 42.91687], [18.43405, 42.93689], [18.43353, 42.9542], [18.45275, 42.9934], [18.48304, 43.01464], [18.53895, 43.02389], [18.59838, 43.02446], [18.639, 43.02024], [18.62112, 43.09644], [18.6206, 43.12256], [18.62113, 43.12458], [18.62907, 43.15489], [18.6453, 43.18018], [18.6884, 43.22447], [18.66432, 43.23318], [18.67951, 43.24948], [18.80715, 43.31803], [18.83351, 43.32415], [18.8303, 43.32816], [18.82462, 43.33741], [18.82121, 43.34139], [18.8396, 43.34782], [18.89914, 43.3519], [18.92342, 43.34684], [18.9503, 43.33307], [18.95732, 43.32586], [18.95794, 43.31898], [18.95712, 43.31183], [18.95949, 43.30346], [18.96859, 43.29222], [18.98895, 43.27294], [18.98951, 43.27202], [18.99246, 43.2671], [19.0029, 43.27395], [19.01086, 43.28232], [19.01716, 43.29116], [19.02254, 43.29655], [19.02471, 43.29873], [19.03628, 43.30333], [19.06254, 43.30439], [19.06967, 43.30883], [19.03959, 43.35071], [19.00993, 43.41099], [18.97531, 43.44427], [18.96828, 43.4481], [18.94626, 43.44394], [18.94637, 43.44908], [18.95071, 43.4573], [18.95123, 43.46381], [18.93789, 43.47895], [18.93066, 43.48228], [18.91526, 43.48538], [18.90565, 43.49063], [18.90513, 43.49905], [18.91102, 43.50727], [18.92053, 43.5122], [18.93893, 43.51895], [18.9627, 43.5383], [18.97748, 43.54623], [19.00021, 43.54789], [19.01427, 43.53778], [19.02502, 43.52303], [19.03815, 43.51102], [19.05499, 43.5067], [19.07639, 43.50724], [19.09602, 43.5129], [19.12279, 43.53595], [19.1477, 43.53815], [19.19534, 43.5328], [19.17519, 43.50962], [19.17591, 43.48089], [19.19224, 43.45453], [19.21839, 43.4382], [19.35564, 43.39306], [19.37229, 43.38423], [19.41404, 43.33839], [19.47305, 43.29328], [19.48515, 43.2801], [19.5023, 43.25194], [19.51243, 43.24064], [19.54784, 43.21881], [19.54995, 43.21752], [19.58085, 43.1878], [19.59811, 43.1762], [19.61868, 43.16824], [19.66302, 43.1585], [19.68462, 43.15672], [19.69733, 43.16021], [19.70549, 43.16618], [19.71356, 43.16561], [19.74281, 43.12652], [19.7612, 43.10874], [19.78177, 43.09647], [19.80513, 43.08996], [19.8383, 43.08835], [19.8722, 43.09037], [19.88378, 43.09569], [19.90714, 43.11326], [19.91664, 43.11706], [19.92915, 43.11391], [19.93659, 43.1059], [19.94228, 43.09564], [19.94982, 43.08592], [19.95974, 43.07856], [20.01989, 43.04735], [20.05439, 43.02222], [20.05634, 43.0208], [20.11694, 42.97665], [20.12946, 42.9736], [20.14092, 42.97082], [20.19456, 42.96684], [20.22319, 42.95766], [20.27559, 42.92989], [20.33708, 42.90697], [20.35362, 42.89097], [20.35517, 42.86617], [20.34535, 42.82744], [20.26443, 42.81726], [20.22608, 42.80677], [20.21761, 42.80274], [20.20924, 42.7917], [20.20841, 42.78209], [20.20996, 42.77297], [20.20841, 42.76328], [20.1834, 42.74251], [20.1495, 42.74987], [20.11209, 42.76654], [20.07633, 42.77344], [20.06506, 42.76946], [20.05564, 42.76387], [20.03467, 42.75142], [20.02651, 42.74321], [20.02475, 42.72341], [20.03612, 42.70799], [20.03701, 42.70736], [20.0942, 42.66698], [20.10196, 42.65667], [20.10392, 42.65311], [20.09059, 42.62735], [20.07922, 42.61125], [20.0757, 42.60309], [20.07539, 42.58696], [20.07819, 42.57291], [20.07705, 42.55991], [20.06496, 42.54676], [20.03922, 42.55777], [20.01772, 42.54624], [19.98176, 42.51076], [19.95633, 42.50531], [19.90755, 42.5064], [19.88274, 42.49361], [19.88254, 42.4934], [19.87334, 42.48684], [19.83551, 42.47025], [19.82906, 42.46872], [19.8196, 42.46648], [19.80141, 42.46813], [19.78446, 42.47457], [19.75159, 42.4934], [19.73433, 42.52438], [19.73092, 42.53366], [19.7303, 42.54043], [19.73216, 42.55554], [19.73392, 42.5626], [19.74136, 42.5744], [19.74601, 42.57993], [19.74777, 42.5789], [19.74688, 42.58893], [19.74601, 42.5989], [19.73753, 42.6244], [19.72213, 42.64608], [19.69929, 42.65481], [19.67604, 42.64668], [19.65804, 42.63461], [19.64793, 42.62784], [19.62178, 42.605], [19.60504, 42.58484], [19.59925, 42.57105], [19.59367, 42.54482], [19.58809, 42.53286], [19.57568, 42.52234], [19.56132, 42.51624], [19.54933, 42.50859], [19.54375, 42.49356], [19.54375, 42.4934], [19.53166, 42.47477], [19.51781, 42.45803], [19.50148, 42.44413], [19.48174, 42.43449], [19.4684, 42.41811], [19.41724, 42.37411], [19.41208, 42.3684], [19.40267, 42.35202], [19.40071, 42.34475], [19.40133, 42.33106], [19.4004, 42.32589], [19.30459, 42.2151], [19.27493, 42.19128], [19.27203, 42.18068], [19.28196, 42.16472], [19.28206, 42.16456], [19.29777, 42.15167], [19.35503, 42.12004], [19.37, 42.10651], [19.37249, 42.10425], [19.37487, 42.09467], [19.35657, 42.0648], [19.35172, 42.04762], [19.35058, 42.02782], [19.3542, 42.0087], [19.3634, 41.99364], [19.36371, 41.99348], [19.37104, 41.98656], [19.36577, 41.96971], [19.35978, 41.96599], [19.35161, 41.96517], [19.34645, 41.96155], [19.35285, 41.9385], [19.35048, 41.93137], [19.34665, 41.92618], [19.34541, 41.92119], [19.34593, 41.91447], [19.34531, 41.91034], [19.34769, 41.90636], [19.35699, 41.89964], [19.36495, 41.889], [19.36422, 41.86285], [19.36508, 41.85236], [19.34693, 41.86396], [19.31023, 41.89452], [19.29322, 41.90078], [19.22022, 41.91885], [19.20297, 41.92707], [19.17848, 41.93391], [19.17026, 41.93797], [19.16228, 41.94794], [19.16196, 41.95344], [19.16326, 41.95897], [19.16033, 41.96898], [19.15561, 41.97065], [19.14527, 41.97761], [19.13795, 41.9853], [19.14291, 41.98884], [19.14356, 41.99307], [19.13917, 42.04243], [19.08253, 42.0812], [19.07472, 42.09565], [19.08383, 42.11009], [19.07643, 42.11595], [19.06397, 42.12018], [19.04868, 42.1402], [19.01059, 42.13955], [19.00213, 42.15021], [18.99985, 42.16108], [18.9948, 42.16364], [18.98805, 42.16372], [18.98162, 42.16706], [18.96803, 42.18871], [18.95346, 42.19986], [18.91334, 42.22223], [18.9017, 42.23749], [18.8947, 42.27049], [18.886, 42.28437], [18.87159, 42.29047], [18.85402, 42.29047], [18.83888, 42.28571], [18.83139, 42.27753], [18.82651, 42.28221], [18.82049, 42.28669], [18.81764, 42.29116], [18.80152, 42.28437], [18.79396, 42.28034], [18.78875, 42.27603], [18.78639, 42.27412], [18.77858, 42.27147], [18.77198, 42.27692], [18.76246, 42.29116], [18.7295, 42.31159], [18.71453, 42.32526], [18.71412, 42.33893], [18.70834, 42.34248], [18.69972, 42.34984], [18.69361, 42.35322], [18.69361, 42.35944], [18.69581, 42.37376], [18.67848, 42.38597], [18.65854, 42.38662], [18.65317, 42.36628], [18.6465, 42.36628], [18.63844, 42.37031], [18.61671, 42.36807], [18.61231, 42.36994], [18.60711, 42.37641], [18.5949, 42.38373], [18.5809, 42.38984], [18.57065, 42.39297], [18.57301, 42.39643], [18.57309, 42.39753], [18.57407, 42.39826], [18.57814, 42.40038], [18.55299, 42.41364], [18.54518, 42.42357], [18.55014, 42.43513], [18.56284, 42.43854], [18.64495, 42.41836], [18.6565, 42.41551], [18.68556, 42.404], [18.70045, 42.39297], [18.70818, 42.40852], [18.70655, 42.42105], [18.68385, 42.45881], [18.68328, 42.46809], [18.68735, 42.4829], [18.65414, 42.45181], [18.60865, 42.44538], [18.50245, 42.45563], [18.50245, 42.44819], [18.52125, 42.43797], [18.51295, 42.409], [18.5298, 42.40038], [18.51027, 42.40526], [18.49643, 42.41633]]]}, "properties": {"id": "ioMs", "status": "validé", "pieces": [{"kind": "country"}]}}, {"type": "Feature", "geometry": {"type": "Polygon", "coordinates": [[[20.02651, 42.74321], [20.02475, 42.72341], [20.03612, 42.70799], [20.03701, 42.70736], [19.99912, 42.70352], [19.90941, 42.68928], [19.9091, 42.68964], [19.87965, 42.71569], [19.85923, 42.73269], [19.85923, 42.74969], [19.87763, 42.76328], [19.84337, 42.77008], [19.77593, 42.78509], [19.73231, 42.8086], [19.6873, 42.82643], [19.67573, 42.82529], [19.67542, 42.82757], [19.67113, 42.86979], [19.67899, 42.88165], [19.64167, 42.89017], [19.61506, 42.895], [19.57827, 42.90152], [19.51114, 42.90038], [19.44908, 42.89924], [19.4159, 42.91624], [19.3743, 42.93322], [19.37229, 42.93449], [19.34174, 42.95361], [19.33125, 42.98761], [19.33167, 42.99012], [19.33523, 43.01141], [19.34939, 43.02161], [19.38086, 43.02755], [19.40376, 43.042], [19.41115, 43.04518], [19.38732, 43.072], [19.35756, 43.09706], [19.32118, 43.12052], [19.27183, 43.14644], [19.22413, 43.16902], [19.18749, 43.18884], [19.14258, 43.20207], [19.10646, 43.19824], [19.07199, 43.19767], [19.04802, 43.2156], [19.03892, 43.24175], [19.02626, 43.2878], [19.02254, 43.29655], [19.02471, 43.29873], [19.03628, 43.30333], [19.06254, 43.30439], [19.06967, 43.30883], [19.03959, 43.35071], [19.00993, 43.41099], [18.97531, 43.44427], [18.96828, 43.4481], [18.94626, 43.44394], [18.94637, 43.44908], [18.95071, 43.4573], [18.95123, 43.46381], [18.93789, 43.47895], [18.93066, 43.48228], [18.91526, 43.48538], [18.90565, 43.49063], [18.90513, 43.49905], [18.91102, 43.50727], [18.92053, 43.5122], [18.93893, 43.51895], [18.9627, 43.5383], [18.97748, 43.54623], [19.00021, 43.54789], [19.01427, 43.53778], [19.02502, 43.52303], [19.03815, 43.51102], [19.05499, 43.5067], [19.07639, 43.50724], [19.09602, 43.5129], [19.12279, 43.53595], [19.1477, 43.53815], [19.19534, 43.5328], [19.17519, 43.50962], [19.17591, 43.48089], [19.19224, 43.45453], [19.21839, 43.4382], [19.35564, 43.39306], [19.37229, 43.38423], [19.41404, 43.33839], [19.47305, 43.29328], [19.48515, 43.2801], [19.5023, 43.25194], [19.51243, 43.24064], [19.54784, 43.21881], [19.54995, 43.21752], [19.58085, 43.1878], [19.59811, 43.1762], [19.61868, 43.16824], [19.66302, 43.1585], [19.68462, 43.15672], [19.69733, 43.16021], [19.70549, 43.16618], [19.71356, 43.16561], [19.74281, 43.12652], [19.7612, 43.10874], [19.78177, 43.09647], [19.80513, 43.08996], [19.8383, 43.08835], [19.8722, 43.09037], [19.88378, 43.09569], [19.90714, 43.11326], [19.91664, 43.11706], [19.92915, 43.11391], [19.93659, 43.1059], [19.94228, 43.09564], [19.94982, 43.08592], [19.95974, 43.07856], [20.01989, 43.04735], [20.05439, 43.02222], [20.05634, 43.0208], [20.11694, 42.97665], [20.12946, 42.9736], [20.14092, 42.97082], [20.19456, 42.96684], [20.22319, 42.95766], [20.27559, 42.92989], [20.33708, 42.90697], [20.35362, 42.89097], [20.35517, 42.86617], [20.34535, 42.82744], [20.31917, 42.82415], [20.26443, 42.81726], [20.22608, 42.80677], [20.21761, 42.80274], [20.20924, 42.7917], [20.20841, 42.78209], [20.20996, 42.77297], [20.20841, 42.76328], [20.1834, 42.74251], [20.1495, 42.74987], [20.11209, 42.76654], [20.07633, 42.77344], [20.06506, 42.76946], [20.05564, 42.76387], [20.03467, 42.75142], [20.02651, 42.74321]]]}, "properties": {"id": "vHGt", "status": "validé", "pieces": [{"kind": "admin1", "code": "MNE-1516"}, {"kind": "admin1", "code": "MNE-1510"}, {"kind": "admin1", "code": "MNE-1513"}, {"kind": "admin1", "code": "MNE-1509"}, {"kind": "admin1", "code": "MNE-1501"}]}}, {"type": "Feature", "geometry": {"type": "Polygon", "coordinates": [[[18.49643, 42.41633], [18.49782, 42.43116], [18.49285, 42.44237], [18.47549, 42.44981], [18.46774, 42.45338], [18.45492, 42.46472], [18.44428, 42.47792], [18.43715, 42.4934], [18.43642, 42.51076], [18.44201, 42.54301], [18.43736, 42.55921], [18.44769, 42.56621], [18.45896, 42.56973], [18.47053, 42.56906], [18.4818, 42.56368], [18.49213, 42.56477], [18.49585, 42.57086], [18.49368, 42.57983], [18.48665, 42.58983], [18.5068, 42.59849], [18.51725, 42.60298], [18.53843, 42.6183], [18.54283, 42.62643], [18.5496, 42.63892], [18.55001, 42.66807], [18.53967, 42.69546], [18.52252, 42.71189], [18.50216, 42.72745], [18.46743, 42.7692], [18.45389, 42.79315], [18.44459, 42.81708], [18.44366, 42.83447], [18.45348, 42.84566], [18.46598, 42.85281], [18.47332, 42.86255], [18.46764, 42.8817], [18.44397, 42.91687], [18.43405, 42.93689], [18.43353, 42.9542], [18.45275, 42.9934], [18.48304, 43.01464], [18.53895, 43.02389], [18.59838, 43.02446], [18.639, 43.02024], [18.62112, 43.09644], [18.6206, 43.12256], [18.62113, 43.12458], [18.62907, 43.15489], [18.6453, 43.18018], [18.6884, 43.22447], [18.66432, 43.23318], [18.67951, 43.24948], [18.80715, 43.31803], [18.83351, 43.32415], [18.8303, 43.32816], [18.82462, 43.33741], [18.82121, 43.34139], [18.8396, 43.34782], [18.89914, 43.3519], [18.92342, 43.34684], [18.9503, 43.33307], [18.95732, 43.32586], [18.95794, 43.31898], [18.95712, 43.31183], [18.95949, 43.30346], [18.96859, 43.29222], [18.98895, 43.27294], [18.98951, 43.27202], [18.99246, 43.2671], [19.0029, 43.27395], [19.01086, 43.28232], [19.01716, 43.29116], [19.02254, 43.29655], [19.02471, 43.29873], [19.03628, 43.30333], [19.06254, 43.30439], [19.06967, 43.30883], [19.03959, 43.35071], [19.00993, 43.41099], [18.97531, 43.44427], [18.96828, 43.4481], [18.94626, 43.44394], [18.94637, 43.44908], [18.95071, 43.4573], [18.95123, 43.46381], [18.93789, 43.47895], [18.93066, 43.48228], [18.91526, 43.48538], [18.90565, 43.49063], [18.90513, 43.49905], [18.91102, 43.50727], [18.92053, 43.5122], [18.93893, 43.51895], [18.9627, 43.5383], [18.97748, 43.54623], [19.00021, 43.54789], [19.01427, 43.53778], [19.02502, 43.52303], [19.03815, 43.51102], [19.05499, 43.5067], [19.07639, 43.50724], [19.09602, 43.5129], [19.12279, 43.53595], [19.1477, 43.53815], [19.19534, 43.5328], [19.17519, 43.50962], [19.17591, 43.48089], [19.19224, 43.45453], [19.21839, 43.4382], [19.35564, 43.39306], [19.37229, 43.38423], [19.41404, 43.33839], [19.47305, 43.29328], [19.48515, 43.2801], [19.5023, 43.25194], [19.51243, 43.24064], [19.54784, 43.21881], [19.54995, 43.21752], [19.58085, 43.1878], [19.59811, 43.1762], [19.61868, 43.16824], [19.66302, 43.1585], [19.68462, 43.15672], [19.69733, 43.16021], [19.70549, 43.16618], [19.71356, 43.16561], [19.74281, 43.12652], [19.7612, 43.10874], [19.78177, 43.09647], [19.80513, 43.08996], [19.8383, 43.08835], [19.8722, 43.09037], [19.88378, 43.09569], [19.90714, 43.11326], [19.91664, 43.11706], [19.92915, 43.11391], [19.93659, 43.1059], [19.94228, 43.09564], [19.94982, 43.08592], [19.95974, 43.07856], [20.01989, 43.04735], [20.05439, 43.02222], [20.05634, 43.0208], [20.11694, 42.97665], [20.12946, 42.9736], [20.14092, 42.97082], [20.19456, 42.96684], [20.22319, 42.95766], [20.27559, 42.92989], [20.33708, 42.90697], [20.35362, 42.89097], [20.35517, 42.86617], [20.34535, 42.82744], [20.26443, 42.81726], [20.22608, 42.80677], [20.21761, 42.80274], [20.20924, 42.7917], [20.20841, 42.78209], [20.20996, 42.77297], [20.20841, 42.76328], [20.1834, 42.74251], [20.1495, 42.74987], [20.11209, 42.76654], [20.07633, 42.77344], [20.06506, 42.76946], [20.05564, 42.76387], [20.03467, 42.75142], [20.02651, 42.74321], [20.02475, 42.72341], [20.03612, 42.70799], [20.03701, 42.70736], [20.0942, 42.66698], [20.10196, 42.65667], [20.10392, 42.65311], [20.09059, 42.62735], [20.07922, 42.61125], [20.0757, 42.60309], [20.07539, 42.58696], [20.07819, 42.57291], [20.07705, 42.55991], [20.06496, 42.54676], [20.03922, 42.55777], [20.01772, 42.54624], [19.98176, 42.51076], [19.95633, 42.50531], [19.90755, 42.5064], [19.88274, 42.49361], [19.88254, 42.4934], [19.87334, 42.48684], [19.83551, 42.47025], [19.82906, 42.46872], [19.8196, 42.46648], [19.80141, 42.46813], [19.78446, 42.47457], [19.75159, 42.4934], [19.73433, 42.52438], [19.73092, 42.53366], [19.7303, 42.54043], [19.73216, 42.55554], [19.73392, 42.5626], [19.74136, 42.5744], [19.74601, 42.57993], [19.74777, 42.5789], [19.74688, 42.58893], [19.74601, 42.5989], [19.73753, 42.6244], [19.72213, 42.64608], [19.69929, 42.65481], [19.67604, 42.64668], [19.65804, 42.63461], [19.64793, 42.62784], [19.62178, 42.605], [19.60504, 42.58484], [19.59925, 42.57105], [19.59367, 42.54482], [19.58809, 42.53286], [19.57568, 42.52234], [19.56132, 42.51624], [19.54933, 42.50859], [19.54375, 42.49356], [19.54375, 42.4934], [19.53166, 42.47477], [19.51781, 42.45803], [19.50148, 42.44413], [19.48174, 42.43449], [19.4684, 42.41811], [19.41724, 42.37411], [19.41208, 42.3684], [19.40267, 42.35202], [19.40071, 42.34475], [19.40133, 42.33106], [19.4004, 42.32589], [19.30459, 42.2151], [19.27493, 42.19128], [19.27203, 42.18068], [19.28196, 42.16472], [19.28206, 42.16456], [19.29777, 42.15167], [19.35503, 42.12004], [19.37, 42.10651], [19.37249, 42.10425], [19.37487, 42.09467], [19.35657, 42.0648], [19.35172, 42.04762], [19.35058, 42.02782], [19.3542, 42.0087], [19.3634, 41.99364], [19.36371, 41.99348], [19.37104, 41.98656], [19.36577, 41.96971], [19.35978, 41.96599], [19.35161, 41.96517], [19.34645, 41.96155], [19.35285, 41.9385], [19.35048, 41.93137], [19.34665, 41.92618], [19.34541, 41.92119], [19.34593, 41.91447], [19.34531, 41.91034], [19.34769, 41.90636], [19.35699, 41.89964], [19.36495, 41.889], [19.36422, 41.86285], [19.36508, 41.85236], [19.34693, 41.86396], [19.31023, 41.89452], [19.29322, 41.90078], [19.22022, 41.91885], [19.20297, 41.92707], [19.17848, 41.93391], [19.17026, 41.93797], [19.16228, 41.94794], [19.16196, 41.95344], [19.16326, 41.95897], [19.16033, 41.96898], [19.15561, 41.97065], [19.14527, 41.97761], [19.13795, 41.9853], [19.14291, 41.98884], [19.14356, 41.99307], [19.13917, 42.04243], [19.08253, 42.0812], [19.07472, 42.09565], [19.08383, 42.11009], [19.07643, 42.11595], [19.06397, 42.12018], [19.04868, 42.1402], [19.01059, 42.13955], [19.00213, 42.15021], [18.99985, 42.16108], [18.9948, 42.16364], [18.98805, 42.16372], [18.98162, 42.16706], [18.96803, 42.18871], [18.95346, 42.19986], [18.91334, 42.22223], [18.9017, 42.23749], [18.8947, 42.27049], [18.886, 42.28437], [18.87159, 42.29047], [18.85402, 42.29047], [18.83888, 42.28571], [18.83139, 42.27753], [18.82651, 42.28221], [18.82049, 42.28669], [18.81764, 42.29116], [18.80152, 42.28437], [18.79396, 42.28034], [18.78875, 42.27603], [18.78639, 42.27412], [18.77858, 42.27147], [18.77198, 42.27692], [18.76246, 42.29116], [18.7295, 42.31159], [18.71453, 42.32526], [18.71412, 42.33893], [18.70834, 42.34248], [18.69972, 42.34984], [18.69361, 42.35322], [18.69361, 42.35944], [18.69581, 42.37376], [18.67848, 42.38597], [18.65854, 42.38662], [18.65317, 42.36628], [18.6465, 42.36628], [18.63844, 42.37031], [18.61671, 42.36807], [18.61231, 42.36994], [18.60711, 42.37641], [18.5949, 42.38373], [18.5809, 42.38984], [18.57065, 42.39297], [18.57301, 42.39643], [18.57309, 42.39753], [18.57407, 42.39826], [18.57814, 42.40038], [18.55299, 42.41364], [18.54518, 42.42357], [18.55014, 42.43513], [18.56284, 42.43854], [18.64495, 42.41836], [18.6565, 42.41551], [18.68556, 42.404], [18.70045, 42.39297], [18.70818, 42.40852], [18.70655, 42.42105], [18.68385, 42.45881], [18.68328, 42.46809], [18.68735, 42.4829], [18.65414, 42.45181], [18.60865, 42.44538], [18.50245, 42.45563], [18.50245, 42.44819], [18.52125, 42.43797], [18.51295, 42.409], [18.5298, 42.40038], [18.51027, 42.40526], [18.49643, 42.41633]]]}, "properties": {"id": "y5eW", "status": "validé", "pieces": [{"kind": "country"}]}}]}