{"type": "FeatureCollection", "features": [{"type": "Feature", "geometry": {"type": "Polygon", "coordinates": [[[43.7664, -23.55678], [43.7664, -23.54702], [43.7579, -23.54702], [43.7579, -23.55678], [43.7664, -23.55678]]]}, "properties": {"id": "0dG7", "status": "validé", "pieces": [{"kind": "rect", "bounds": [43.7579, -23.55678, 43.7664, -23.54702]}]}}, {"type": "Feature", "geometry": {"type": "Polygon", "coordinates": [[[43.78455, -23.55689], [43.78455, -23.54022], [43.76524, -23.54022], [43.76524, -23.55689], [43.78455, -23.55689]]]}, "properties": {"id": "2sOi", "status": "validé", "pieces": [{"kind": "rect", "bounds": [43.76524, -23.55689, 43.78455, -23.54022]}]}}, {"type": "Feature", "geometry": {"type": "Polygon", "coordinates": [[[48.46087, -13.68801], [48.46087, -13.65208], [48.44499, -13.65208], [48.44499, -13.68801], [48.46087, -13.68801]]]}, "properties": {"id": "3Ucb", "status": "validé", "pieces": [{"kind": "rect", "bounds": [48.44499, -13.68801, 48.46087, -13.65208]}]}}, {"type": "Feature", "geometry": {"type": "Polygon", "coordinates": [[[43.9278, -20.92963], [43.9278, -20.85236], [43.87974, -20.85236], [43.87974, -20.92963], [43.9278, -20.92963]]]}, "properties": {"id": "4v0Z", "status": "validé", "pieces": [{"kind": "rect", "bounds": [43.87974, -20.92963, 43.9278, -20.85236]}]}}, {"type": "Feature", "geometry": {"type": "Polygon", "coordinates": [[[43.30605, -21.84283], [43.30605, -21.81129], [43.28321, -21.81129], [43.28321, -21.84283], [43.30605, -21.84283]]]}, "properties": {"id": "61Nb", "status": "validé", "pieces": [{"kind": "rect", "bounds": [43.28321, -21.84283, 43.30605, -21.81129]}]}}, {"type": "Feature", "geometry": {"type": "Polygon", "coordinates": [[[44.00162, -18.62119], [44.00162, -18.17571], [43.67752, -18.17571], [43.67752, -18.62119], [44.00162, -18.62119]]]}, "properties": {"id": "6Icy", "status": "validé", "pieces": [{"kind": "rect", "bounds": [43.67752, -18.62119, 44.00162, -18.17571]}]}}, {"type": "Feature", "geometry": {"type": "Polygon", "coordinates": [[[48.36491, -13.52913], [48.36662, -13.54882], [48.37212, -13.56116], [48.38585, -13.54114], [48.41709, -13.52679], [48.44627, -13.53213], [48.44833, -13.51812], [48.42293, -13.50677], [48.38722, -13.51345], [48.36491, -13.52913]]]}, "properties": {"id": "6fjx", "status": "validé", "pieces": [{"kind": "polygon", "ring": [[48.36491, -13.52913], [48.36662, -13.54882], [48.37212, -13.56116], [48.38585, -13.54114], [48.41709, -13.52679], [48.44627, -13.53213], [48.44833, -13.51812], [48.42293, -13.50677], [48.38722, -13.51345]]}]}}, {"type": "Feature", "geometry": {"type": "Polygon", "coordinates": [[[43.27412, -22.06742], [43.27412, -21.92614], [43.24459, -21.92614], [43.24459, -22.06742], [43.27412, -22.06742]]]}, "properties": {"id": "7g5M", "status": "validé", "pieces": [{"kind": "rect", "bounds": [43.24459, -22.06742, 43.27412, -21.92614]}]}}, {"type": "Feature", "geometry": {"type": "Polygon", "coordinates": [[[47.60719, -19.00682], [47.60719, -18.84645], [47.47673, -18.84645], [47.47673, -19.00682], [47.60719, -19.00682]]]}, "properties": {"id": "8CI7", "status": "validé", "pieces": [{"kind": "rect", "bounds": [47.47673, -19.00682, 47.60719, -18.84645]}]}}, {"type": "Feature", "geometry": {"type": "Polygon", "coordinates": [[[48.48885, -13.54385], [48.48885, -13.51899], [48.45881, -13.51899], [48.45881, -13.54385], [48.48885, -13.54385]]]}, "properties": {"id": "8VEn", "status": "validé", "pieces": [{"kind": "rect", "bounds": [48.45881, -13.54385, 48.48885, -13.51899]}]}}, {"type": "Feature", "geometry": {"type": "Polygon", "coordinates": [[[43.26759, -22.10849], [43.26759, -22.06684], [43.23257, -22.06684], [43.23257, -22.10849], [43.26759, -22.10849]]]}, "properties": {"id": "8VYx", "status": "validé", "pieces": [{"kind": "rect", "bounds": [43.23257, -22.10849, 43.26759, -22.06684]}]}}, {"type": "Feature", "geometry": {"type": "Polygon", "coordinates": [[[48.45366, -13.53667], [48.45366, -13.52433], [48.4437, -13.52433], [48.4437, -13.53667], [48.45366, -13.53667]]]}, "properties": {"id": "8jw5", "status": "validé", "pieces": [{"kind": "rect", "bounds": [48.4437, -13.53667, 48.45366, -13.52433]}]}}, {"type": "Feature", "geometry": {"type": "Polygon", "coordinates": [[[44.55162, -20.16904], [44.55162, -20.12651], [44.42974, -20.12651], [44.42974, -20.16904], [44.55162, -20.16904]]]}, "properties": {"id": "AmoS", "status": "validé", "pieces": [{"kind": "rect", "bounds": [44.42974, -20.16904, 44.55162, -20.12651]}]}}, {"type": "Feature", "geometry": {"type": "Polygon", "coordinates": [[[44.27748, -20.29246], [44.26881, -20.30164], [44.26023, -20.2981], [44.26392, -20.29037], [44.27413, -20.28337], [44.27816, -20.28562], [44.27748, -20.29246]]]}, "properties": {"id": "D7s5", "status": "validé", "pieces": [{"kind": "polygon", "ring": [[44.27748, -20.29246], [44.26881, -20.30164], [44.26023, -20.2981], [44.26392, -20.29037], [44.27413, -20.28337], [44.27816, -20.28562]]}]}}, {"type": "Feature", "geometry": {"type": "Polygon", "coordinates": [[[44.2834, -20.29794], [44.2834, -20.29037], [44.27276, -20.29037], [44.27276, -20.29794], [44.2834, -20.29794]]]}, "properties": {"id": "FAEV", "status": "validé", "pieces": [{"kind": "rect", "bounds": [44.27276, -20.29794, 44.2834, -20.29037]}]}}, {"type": "Feature", "geometry": {"type": "Polygon", "coordinates": [[[43.78567, -23.58692], [43.78567, -23.56427], [43.74859, -23.56427], [43.74859, -23.58692], [43.78567, -23.58692]]]}, "properties": {"id": "FYx3", "status": "validé", "pieces": [{"kind": "rect", "bounds": [43.74859, -23.58692, 43.78567, -23.56427]}]}}, {"type": "Feature", "geometry": {"type": "Polygon", "coordinates": [[[43.25309, -22.18239], [43.25309, -22.17588], [43.24622, -22.17588], [43.24622, -22.18239], [43.25309, -22.18239]]]}, "properties": {"id": "Gu8N", "status": "validé", "pieces": [{"kind": "rect", "bounds": [43.24622, -22.18239, 43.25309, -22.17588]}]}}, {"type": "Feature", "geometry": {"type": "Polygon", "coordinates": [[[43.2621, -22.07592], [43.2621, -22.05962], [43.24991, -22.05962], [43.24991, -22.07592], [43.2621, -22.07592]]]}, "properties": {"id": "IywX", "status": "validé", "pieces": [{"kind": "rect", "bounds": [43.24991, -22.07592, 43.2621, -22.05962]}]}}, {"type": "Feature", "geometry": {"type": "Polygon", "coordinates": [[[44.00943, -20.74146], [44.00943, -20.73312], [43.99994, -20.73312], [43.99994, -20.74146], [44.00943, -20.74146]]]}, "properties": {"id": "JKHg", "status": "validé", "pieces": [{"kind": "rect", "bounds": [43.99994, -20.74146, 44.00943, -20.73312]}]}}, {"type": "Feature", "geometry": {"type": "Polygon", "coordinates": [[[44.42648, -20.26572], [44.42648, -20.24495], [44.39867, -20.24495], [44.39867, -20.26572], [44.42648, -20.26572]]]}, "properties": {"id": "KdDD", "status": "validé", "pieces": [{"kind": "rect", "bounds": [44.39867, -20.26572, 44.42648, -20.24495]}]}}, {"type": "Feature", "geometry": {"type": "Polygon", "coordinates": [[[44.53686, -20.16776], [44.53686, -20.14151], [44.50373, -20.14151], [44.50373, -20.16776], [44.53686, -20.16776]]]}, "properties": {"id": "Kgz7", "status": "validé", "pieces": [{"kind": "rect", "bounds": [44.50373, -20.16776, 44.53686, -20.14151]}]}}, {"type": "Feature", "geometry": {"type": "Polygon", "coordinates": [[[43.27875, -22.23345], [43.27875, -22.21376], [43.25712, -22.21376], [43.25712, -22.23345], [43.27875, -22.23345]]]}, "properties": {"id": "M3tI", "status": "validé", "pieces": [{"kind": "rect", "bounds": [43.25712, -22.23345, 43.27875, -22.21376]}]}}, {"type": "Feature", "geometry": {"type": "Polygon", "coordinates": [[[43.26528, -21.95789], [43.26528, -21.95359], [43.25914, -21.95359], [43.25914, -21.95789], [43.26528, -21.95789]]]}, "properties": {"id": "MGm7", "status": "validé", "pieces": [{"kind": "rect", "bounds": [43.25914, -21.95789, 43.26528, -21.95359]}]}}, {"type": "Feature", "geometry": {"type": "Polygon", "coordinates": [[[48.47456, -13.81236], [48.47456, -13.80282], [48.46953, -13.80282], [48.46953, -13.81236], [48.47456, -13.81236]]]}, "properties": {"id": "Ma9o", "status": "validé", "pieces": [{"kind": "rect", "bounds": [48.46953, -13.81236, 48.47456, -13.80282]}]}}, {"type": "Feature", "geometry": {"type": "Polygon", "coordinates": [[[43.24837, -22.08109], [43.24837, -22.06487], [43.233, -22.06487], [43.233, -22.08109], [43.24837, -22.08109]]]}, "properties": {"id": "NzF4", "status": "validé", "pieces": [{"kind": "rect", "bounds": [43.233, -22.08109, 43.24837, -22.06487]}]}}, {"type": "Feature", "geometry": {"type": "Polygon", "coordinates": [[[44.00213, -20.7496], [44.00213, -20.73885], [43.98823, -20.73885], [43.98823, -20.7496], [44.00213, -20.7496]]]}, "properties": {"id": "QWtV", "status": "validé", "pieces": [{"kind": "rect", "bounds": [43.98823, -20.7496, 44.00213, -20.73885]}]}}, {"type": "Feature", "geometry": {"type": "Polygon", "coordinates": [[[46.78837, -22.09642], [46.78837, -22.07161], [46.75919, -22.07161], [46.75919, -22.09642], [46.78837, -22.09642]]]}, "properties": {"id": "Sm22", "status": "validé", "pieces": [{"kind": "rect", "bounds": [46.75919, -22.09642, 46.78837, -22.07161]}]}}, {"type": "Feature", "geometry": null, "properties": {"id": "TxsK", "status": "rejeté", "pieces": []}}, {"type": "Feature", "geometry": {"type": "Polygon", "coordinates": [[[43.96008, -18.61756], [43.96008, -18.53493], [43.84197, -18.53493], [43.84197, -18.61756], [43.96008, -18.61756]]]}, "properties": {"id": "U5fc", "status": "validé", "pieces": [{"kind": "rect", "bounds": [43.84197, -18.61756, 43.96008, -18.53493]}]}}, {"type": "Feature", "geometry": null, "properties": {"id": "V2nD", "status": "rejeté", "pieces": []}}, {"type": "Feature", "geometry": {"type": "Polygon", "coordinates": [[[48.3577, -13.4709], [48.3577, -13.43852], [48.31839, -13.43852], [48.31839, -13.4709], [48.3577, -13.4709]]]}, "properties": {"id": "VJ9Z", "status": "validé", "pieces": [{"kind": "rect", "bounds": [48.31839, -13.4709, 48.3577, -13.43852]}]}}, {"type": "Feature", "geometry": {"type": "Polygon", "coordinates": [[[43.25738, -22.10852], [43.25738, -22.09143], [43.24648, -22.09143], [43.24648, -22.10852], [43.25738, -22.10852]]]}, "properties": {"id": "Vjwp", "status": "validé", "pieces": [{"kind": "rect", "bounds": [43.24648, -22.10852, 43.25738, -22.09143]}]}}, {"type": "Feature", "geometry": null, "properties": {"id": "WE2E", "status": "validé", "pieces": [{"kind": "country"}]}}, {"type": "Feature", "geometry": {"type": "Polygon", "coordinates": [[[43.30939, -22.25794], [43.30939, -22.23547], [43.29755, -22.23547], [43.29755, -22.25794], [43.30939, -22.25794]]]}, "properties": {"id": "X1Fm", "status": "validé", "pieces": [{"kind": "rect", "bounds": [43.29755, -22.25794, 43.30939, -22.23547]}]}}, {"type": "Feature", "geometry": {"type": "Polygon", "coordinates": [[[43.26382, -22.18798], [43.26382, -22.11202], [43.2336, -22.11202], [43.2336, -22.18798], [43.26382, -22.18798]]]}, "properties": {"id": "YZcR", "status": "validé", "pieces": [{"kind": "rect", "bounds": [43.2336, -22.18798, 43.26382, -22.11202]}]}}, {"type": "Feature", "geometry": {"type": "Polygon", "coordinates": [[[48.47134, -13.56303], [48.47134, -13.54785], [48.44404, -13.54785], [48.44404, -13.56303], [48.47134, -13.56303]]]}, "properties": {"id": "Zrpg", "status": "validé", "pieces": [{"kind": "rect", "bounds": [48.44404, -13.56303, 48.47134, -13.54785]}]}}, {"type": "Feature", "geometry": {"type": "Polygon", "coordinates": [[[46.77841, -22.13106], [46.77841, -22.07287], [46.74271, -22.07287], [46.74271, -22.13106], [46.77841, -22.13106]]]}, "properties": {"id": "bzxa", "status": "validé", "pieces": [{"kind": "rect", "bounds": [46.74271, -22.13106, 46.77841, -22.07287]}]}}, {"type": "Feature", "geometry": {"type": "Polygon", "coordinates": [[[43.30639, -22.24645], [43.30639, -22.18227], [43.21472, -22.18227], [43.21472, -22.24645], [43.30639, -22.24645]]]}, "properties": {"id": "dsgX", "status": "validé", "pieces": [{"kind": "rect", "bounds": [43.21472, -22.24645, 43.30639, -22.18227]}]}}, {"type": "Feature", "geometry": {"type": "Polygon", "coordinates": [[[48.50103, -13.79304], [48.50103, -13.74837], [48.47202, -13.74837], [48.47202, -13.79304], [48.50103, -13.79304]]]}, "properties": {"id": "hzyJ", "status": "validé", "pieces": [{"kind": "rect", "bounds": [48.47202, -13.79304, 48.50103, -13.74837]}]}}, {"type": "Feature", "geometry": {"type": "Polygon", "coordinates": [[[48.40765, -13.58724], [48.40765, -13.57072], [48.38207, -13.57072], [48.38207, -13.58724], [48.40765, -13.58724]]]}, "properties": {"id": "iNsg", "status": "validé", "pieces": [{"kind": "rect", "bounds": [48.38207, -13.58724, 48.40765, -13.57072]}]}}, {"type": "Feature", "geometry": {"type": "Polygon", "coordinates": [[[44.00574, -18.63433], [44.00574, -18.36355], [43.7352, -18.36355], [43.7352, -18.63433], [44.00574, -18.63433]]]}, "properties": {"id": "ih6i", "status": "validé", "pieces": [{"kind": "rect", "bounds": [43.7352, -18.63433, 44.00574, -18.36355]}]}}, {"type": "Feature", "geometry": null, "properties": {"id": "jaEx", "status": "validé", "pieces": [{"kind": "country"}]}}, {"type": "Feature", "geometry": {"type": "Polygon", "coordinates": [[[48.35461, -13.44738], [48.35461, -13.43912], [48.34293, -13.43912], [48.34293, -13.44738], [48.35461, -13.44738]]]}, "properties": {"id": "jwVN", "status": "validé", "pieces": [{"kind": "rect", "bounds": [48.34293, -13.44738, 48.35461, -13.43912]}]}}, {"type": "Feature", "geometry": {"type": "Polygon", "coordinates": [[[48.49915, -13.79673], [48.49915, -13.70006], [48.44559, -13.70006], [48.44559, -13.79673], [48.49915, -13.79673]]]}, "properties": {"id": "k6M6", "status": "validé", "pieces": [{"kind": "rect", "bounds": [48.44559, -13.79673, 48.49915, -13.70006]}]}}, {"type": "Feature", "geometry": null, "properties": {"id": "lIiH", "status": "validé", "pieces": [{"kind": "country"}]}}, {"type": "Feature", "geometry": null, "properties": {"id": "peJo", "status": "rejeté", "pieces": []}}, {"type": "Feature", "geometry": {"type": "Polygon", "coordinates": [[[43.67881, -23.36021], [43.67881, -23.34863], [43.66319, -23.34863], [43.66319, -23.36021], [43.67881, -23.36021]]]}, "properties": {"id": "puA3", "status": "validé", "pieces": [{"kind": "rect", "bounds": [43.66319, -23.36021, 43.67881, -23.34863]}]}}, {"type": "Feature", "geometry": {"type": "Polygon", "coordinates": [[[43.25991, -22.23611], [43.25991, -22.22598], [43.23884, -22.22598], [43.23884, -22.23611], [43.25991, -22.23611]]]}, "properties": {"id": "trNX", "status": "validé", "pieces": [{"kind": "rect", "bounds": [43.23884, -22.23611, 43.25991, -22.22598]}]}}, {"type": "Feature", "geometry": null, "properties": {"id": "uY1o", "status": "rejeté", "pieces": []}}, {"type": "Feature", "geometry": {"type": "Polygon", "coordinates": [[[48.37881, -13.50428], [48.37881, -13.4377], [48.31341, -13.4377], [48.31341, -13.50428], [48.37881, -13.50428]]]}, "properties": {"id": "wCgg", "status": "validé", "pieces": [{"kind": "rect", "bounds": [48.31341, -13.50428, 48.37881, -13.4377]}]}}, {"type": "Feature", "geometry": {"type": "Polygon", "coordinates": [[[44.34494, -20.95734], [44.34494, -20.57099], [43.97415, -20.57099], [43.97415, -20.95734], [44.34494, -20.95734]]]}, "properties": {"id": "x1Ap", "status": "validé", "pieces": [{"kind": "rect", "bounds": [43.97415, -20.95734, 44.34494, -20.57099]}]}}, {"type": "Feature", "geometry": {"type": "Polygon", "coordinates": [[[43.90566, -20.89721], [43.90566, -20.87982], [43.88952, -20.87982], [43.88952, -20.89721], [43.90566, -20.89721]]]}, "properties": {"id": "xeXN", "status": "validé", "pieces": [{"kind": "rect", "bounds": [43.88952, -20.89721, 43.90566, -20.87982]}]}}]}