{"type": "FeatureCollection", "features": [{"type": "Feature", "geometry": {"type": "Polygon", "coordinates": [[[21.50642, 41.94732], [21.50642, 42.04322], [21.35536, 42.04322], [21.35536, 41.94732], [21.50642, 41.94732]]]}, "properties": {"id": "3Unt", "status": "validé", "pieces": [{"kind": "rect", "bounds": [21.35536, 41.94732, 21.50642, 42.04322]}]}}, {"type": "Feature", "geometry": {"type": "Polygon", "coordinates": [[[21.77422, 42.10488], [21.77422, 42.16545], [21.66161, 42.16545], [21.66161, 42.10488], [21.77422, 42.10488]]]}, "properties": {"id": "BqvX", "status": "validé", "pieces": [{"kind": "rect", "bounds": [21.66161, 42.10488, 21.77422, 42.16545]}]}}, {"type": "Feature", "geometry": {"type": "Polygon", "coordinates": [[[21.80786, 41.68681], [21.80786, 41.74624], [21.74881, 41.74624], [21.74881, 41.68681], [21.80786, 41.68681]]]}, "properties": {"id": "CyWV", "status": "validé", "pieces": [{"kind": "rect", "bounds": [21.74881, 41.68681, 21.80786, 41.74624]}]}}, {"type": "Feature", "geometry": {"type": "Polygon", "coordinates": [[[21.00517, 41.95697], [21.00517, 42.03348], [20.93719, 42.03348], [20.93719, 41.95697], [21.00517, 41.95697]]]}, "properties": {"id": "F1Jf", "status": "validé", "pieces": [{"kind": "rect", "bounds": [20.93719, 41.95697, 21.00517, 42.03348]}]}}, {"type": "Feature", "geometry": null, "properties": {"id": "F1TE", "status": "rejeté", "pieces": []}}, {"type": "Feature", "geometry": null, "properties": {"id": "FsbE", "status": "validé", "pieces": [{"kind": "country"}]}}, {"type": "Feature", "geometry": {"type": "Polygon", "coordinates": [[[20.84999, 41.06134], [20.84999, 41.1534], [20.77309, 41.1534], [20.77309, 41.06134], [20.84999, 41.06134]]]}, "properties": {"id": "GLwG", "status": "validé", "pieces": [{"kind": "rect", "bounds": [20.77309, 41.06134, 20.84999, 41.1534]}]}}, {"type": "Feature", "geometry": null, "properties": {"id": "Gary", "status": "validé", "pieces": [{"kind": "country"}]}}, {"type": "Feature", "geometry": null, "properties": {"id": "IeVN", "status": "validé", "pieces": [{"kind": "country"}]}}, {"type": "Feature", "geometry": null, "properties": {"id": "NOTA", "status": "validé", "pieces": [{"kind": "country"}]}}, {"type": "Feature", "geometry": {"type": "Polygon", "coordinates": [[[21.40205, 41.00022], [21.40205, 41.07632], [21.28464, 41.07632], [21.28464, 41.00022], [21.40205, 41.00022]]]}, "properties": {"id": "RmZb", "status": "validé", "pieces": [{"kind": "rect", "bounds": [21.28464, 41.00022, 21.40205, 41.07632]}]}}, {"type": "Feature", "geometry": null, "properties": {"id": "VYOQ", "status": "validé", "pieces": [{"kind": "country"}]}}, {"type": "Feature", "geometry": null, "properties": {"id": "dKOW", "status": "validé", "pieces": [{"kind": "country"}]}}, {"type": "Feature", "geometry": {"type": "Polygon", "coordinates": [[[22.68883, 41.4047], [22.68883, 41.46902], [22.59888, 41.46902], [22.59888, 41.4047], [22.68883, 41.4047]]]}, "properties": {"id": "f8ti", "status": "validé", "pieces": [{"kind": "rect", "bounds": [22.59888, 41.4047, 22.68883, 41.46902]}]}}, {"type": "Feature", "geometry": null, "properties": {"id": "jQXp", "status": "validé", "pieces": [{"kind": "country"}]}}, {"type": "Feature", "geometry": null, "properties": {"id": "k3sg", "status": "validé", "pieces": [{"kind": "country"}]}}, {"type": "Feature", "geometry": null, "properties": {"id": "lNYT", "status": "validé", "pieces": [{"kind": "country"}]}}, {"type": "Feature", "geometry": null, "properties": {"id": "lY5z", "status": "validé", "pieces": [{"kind": "country"}]}}, {"type": "Feature", "geometry": {"type": "Polygon", "coordinates": [[[21.52496337890625, 41.372095663483236], [21.50985717773438, 41.34219203606687], [21.513290405273438, 41.30195515277771], [21.563415527343754, 41.30556716983496], [21.594314575195316, 41.33497186079251], [21.602554321289066, 41.374672919137986], [21.550369262695312, 41.375703792809134], [21.52496337890625, 41.372095663483236]]]}, "properties": {"id": "man-2b88", "status": "validé", "pieces": [{"kind": "polygon", "ring": [[21.52496, 41.3721], [21.50986, 41.34219], [21.51329, 41.30196], [21.56342, 41.30557], [21.59431, 41.33497], [21.60255, 41.37467], [21.55037, 41.3757]]}]}}, {"type": "Feature", "geometry": {"type": "Polygon", "coordinates": [[[21.60324, 41.31098], [21.60324, 41.37178], [21.51123, 41.37178], [21.51123, 41.31098], [21.60324, 41.31098]]]}, "properties": {"id": "v0r9", "status": "validé", "pieces": [{"kind": "rect", "bounds": [21.51123, 41.31098, 21.60324, 41.37178]}]}}, {"type": "Feature", "geometry": null, "properties": {"id": "wBz4", "status": "validé", "pieces": [{"kind": "country"}]}}]}