{"type": "FeatureCollection", "features": [{"type": "Feature", "geometry": null, "properties": {"id": "3QHj", "status": "validé", "pieces": [{"kind": "country"}]}}, {"type": "Feature", "geometry": null, "properties": {"id": "5pnX", "status": "validé", "pieces": [{"kind": "country"}]}}, {"type": "Feature", "geometry": {"type": "Polygon", "coordinates": [[[113.53168, 22.17771], [113.53864, 22.16508], [113.54113, 22.16587], [113.5346, 22.1793], [113.53168, 22.17771]]]}, "properties": {"id": "Hhsi", "status": "validé", "pieces": [{"kind": "polygon", "ring": [[113.53168, 22.17771], [113.53864, 22.16508], [113.54113, 22.16587], [113.5346, 22.1793]]}]}}, {"type": "Feature", "geometry": {"type": "MultiPolygon", "coordinates": [[[[113.52516, 22.09746], [113.5461, 22.09968], [113.56052, 22.08792], [113.56052, 22.07043], [113.48225, 22.05961], [113.48259, 22.07233], [113.52516, 22.09746]]], [[[113.48568, 22.11667], [113.47847, 22.12716], [113.48225, 22.13082], [113.49546, 22.1305], [113.53203, 22.11747], [113.53203, 22.10872], [113.52276, 22.103], [113.51126, 22.10093], [113.50267, 22.10586], [113.48568, 22.11667]]], [[[113.53443, 22.13225], [113.53254, 22.14687], [113.53889, 22.15911], [113.54971, 22.16531], [113.57769, 22.16356], [113.5825, 22.15545], [113.58713, 22.14179], [113.58404, 22.13384], [113.56859, 22.13082], [113.56585, 22.12271], [113.55967, 22.11683], [113.54439, 22.10554], [113.53838, 22.11524], [113.53443, 22.13225]]]]}, "properties": {"id": "HyRc", "status": "validé", "pieces": [{"kind": "polygon", "ring": [[113.48259, 22.07233], [113.52516, 22.09746], [113.5461, 22.09968], [113.56052, 22.08792], [113.56052, 22.07043], [113.48225, 22.05961]]}, {"kind": "polygon", "ring": [[113.54439, 22.10554], [113.53838, 22.11524], [113.53443, 22.13225], [113.53254, 22.14687], [113.53889, 22.15911], [113.54971, 22.16531], [113.57769, 22.16356], [113.5825, 22.15545], [113.58713, 22.14179], [113.58404, 22.13384], [113.56859, 22.13082], [113.56585, 22.12271], [113.55967, 22.11683]]}, {"kind": "polygon", "ring": [[113.51126, 22.10093], [113.50267, 22.10586], [113.48568, 22.11667], [113.47847, 22.12716], [113.48225, 22.13082], [113.49546, 22.1305], [113.53203, 22.11747], [113.53203, 22.10872], [113.52276, 22.103]]}]}}, {"type": "Feature", "geometry": null, "properties": {"id": "Q02G", "status": "validé", "pieces": [{"kind": "country"}]}}, {"type": "Feature", "geometry": null, "properties": {"id": "Rskk", "status": "validé", "pieces": [{"kind": "country"}]}}, {"type": "Feature", "geometry": {"type": "Polygon", "coordinates": [[[113.5625, 22.16549], [113.56258, 22.19791], [113.56009, 22.20426], [113.56198, 22.20482], [113.5637, 22.20013], [113.5643, 22.17614], [113.56421, 22.16732], [113.5625, 22.16549]]]}, "properties": {"id": "UfMe", "status": "validé", "pieces": [{"kind": "polygon", "ring": [[113.5625, 22.16549], [113.56258, 22.19791], [113.56009, 22.20426], [113.56198, 22.20482], [113.5637, 22.20013], [113.5643, 22.17614], [113.56421, 22.16732]]}]}}, {"type": "Feature", "geometry": null, "properties": {"id": "YpXQ", "status": "validé", "pieces": [{"kind": "country"}]}}, {"type": "Feature", "geometry": null, "properties": {"id": "aq1W", "status": "validé", "pieces": [{"kind": "country"}]}}, {"type": "Feature", "geometry": null, "properties": {"id": "vB8M", "status": "rejeté", "pieces": []}}, {"type": "Feature", "geometry": null, "properties": {"id": "xDZU", "status": "validé", "pieces": [{"kind": "country"}]}}]}