{"type": "FeatureCollection", "features": [{"type": "Feature", "geometry": null, "properties": {"id": "2NSb", "status": "validé", "pieces": [{"kind": "country"}]}}, {"type": "Feature", "geometry": null, "properties": {"id": "4Uer", "status": "rejeté", "pieces": []}}, {"type": "Feature", "geometry": null, "properties": {"id": "7SWm", "status": "validé", "pieces": [{"kind": "country"}]}}, {"type": "Feature", "geometry": null, "properties": {"id": "H2l8", "status": "validé", "pieces": [{"kind": "country"}]}}, {"type": "Feature", "geometry": null, "properties": {"id": "H5Sf", "status": "rejeté", "pieces": []}}, {"type": "Feature", "geometry": {"type": "Polygon", "coordinates": [[[145.81806, 15.27115], [145.81806, 15.282], [145.80535, 15.282], [145.80535, 15.27115], [145.81806, 15.27115]]]}, "properties": {"id": "MPiv", "status": "validé", "pieces": [{"kind": "rect", "bounds": [145.80535, 15.27115, 145.81806, 15.282]}]}}, {"type": "Feature", "geometry": null, "properties": {"id": "QEJK", "status": "validé", "pieces": [{"kind": "country"}]}}, {"type": "Feature", "geometry": null, "properties": {"id": "c1Di", "status": "validé", "pieces": [{"kind": "country"}]}}, {"type": "Feature", "geometry": null, "properties": {"id": "jle0", "status": "validé", "pieces": [{"kind": "country"}]}}, {"type": "Feature", "geometry": null, "properties": {"id": "lSGS", "status": "validé", "pieces": [{"kind": "country"}]}}, {"type": "Feature", "geometry": {"type": "Polygon", "coordinates": [[[145.73020935058597, 15.200795444851547], [145.71990966796878, 15.171318817499998], [145.71201324462893, 15.14382567232263], [145.6989669799805, 15.11334717028124], [145.68218294894714, 15.11634654103921], [145.68214, 15.116523], [145.683849, 15.131293], [145.695811, 15.16828], [145.696951, 15.182563], [145.696462, 15.193671], [145.698253, 15.203192], [145.705821, 15.212348], [145.711111, 15.215522], [145.729991, 15.222886], [145.7308447654835, 15.22408546806664], [145.73020935058597, 15.200795444851547]]]}, "properties": {"id": "sU1n", "status": "validé", "pieces": [{"kind": "polygon", "ring": [[145.7309, 15.22596], [145.73021, 15.2008], [145.71991, 15.17132], [145.71201, 15.14383], [145.69897, 15.11335], [145.66189, 15.11997], [145.70995, 15.24351]]}, {"kind": "clip"}]}}]}