{"type": "FeatureCollection", "features": [{"type": "Feature", "geometry": {"type": "MultiPolygon", "coordinates": [[[[14.56316, 35.87002], [14.56715, 35.84561], [14.56178, 35.82982], [14.54803, 35.83601], [14.53248, 35.82197], [14.52752, 35.81354], [14.52752, 35.80121], [14.51149, 35.80646], [14.50709, 35.80866], [14.47267, 35.81143], [14.42449, 35.82368], [14.38152, 35.84296], [14.36305, 35.86668], [14.35987, 35.8697], [14.34571, 35.87592], [14.34262, 35.88068], [14.34262, 35.91169], [14.33823, 35.94697], [14.33253, 35.96284], [14.32203, 35.97313], [14.33473, 35.98237], [14.3475, 35.98871], [14.3615, 35.99242], [14.37729, 35.99364], [14.37729, 35.98623], [14.36818, 35.98485], [14.36232, 35.98241], [14.34938, 35.97313], [14.42848, 35.96572], [14.44508, 35.96035], [14.47869, 35.93696], [14.50782, 35.92853], [14.51287, 35.9208], [14.51401, 35.91083], [14.51393, 35.90082], [14.5193, 35.89997], [14.54803, 35.89004], [14.56316, 35.87002]]], [[[14.28256, 36.06786], [14.31479, 36.05109], [14.33424, 36.03437], [14.32203, 36.02717], [14.30445, 36.0266], [14.2776, 36.01667], [14.26002, 36.01349], [14.24147, 36.01463], [14.22088, 36.01919], [14.20118, 36.02607], [14.18491, 36.03461], [14.188, 36.0454], [14.18434, 36.0563], [14.1836, 36.06477], [14.19549, 36.0681], [14.2566, 36.07559], [14.28256, 36.06786]]]]}, "properties": {"id": "0i5u", "status": "validé", "pieces": [{"kind": "country"}]}}, {"type": "Feature", "geometry": {"type": "MultiPolygon", "coordinates": [[[[14.56316, 35.87002], [14.56715, 35.84561], [14.56178, 35.82982], [14.54803, 35.83601], [14.53248, 35.82197], [14.52752, 35.81354], [14.52752, 35.80121], [14.51149, 35.80646], [14.50709, 35.80866], [14.47267, 35.81143], [14.42449, 35.82368], [14.38152, 35.84296], [14.36305, 35.86668], [14.35987, 35.8697], [14.34571, 35.87592], [14.34262, 35.88068], [14.34262, 35.91169], [14.33823, 35.94697], [14.33253, 35.96284], [14.32203, 35.97313], [14.33473, 35.98237], [14.3475, 35.98871], [14.3615, 35.99242], [14.37729, 35.99364], [14.37729, 35.98623], [14.36818, 35.98485], [14.36232, 35.98241], [14.34938, 35.97313], [14.42848, 35.96572], [14.44508, 35.96035], [14.47869, 35.93696], [14.50782, 35.92853], [14.51287, 35.9208], [14.51401, 35.91083], [14.51393, 35.90082], [14.5193, 35.89997], [14.54803, 35.89004], [14.56316, 35.87002]]], [[[14.28256, 36.06786], [14.31479, 36.05109], [14.33424, 36.03437], [14.32203, 36.02717], [14.30445, 36.0266], [14.2776, 36.01667], [14.26002, 36.01349], [14.24147, 36.01463], [14.22088, 36.01919], [14.20118, 36.02607], [14.18491, 36.03461], [14.188, 36.0454], [14.18434, 36.0563], [14.1836, 36.06477], [14.19549, 36.0681], [14.2566, 36.07559], [14.28256, 36.06786]]]]}, "properties": {"id": "4s8H", "status": "validé", "pieces": [{"kind": "country"}]}}, {"type": "Feature", "geometry": {"type": "MultiPolygon", "coordinates": [[[[14.56316, 35.87002], [14.56715, 35.84561], [14.56178, 35.82982], [14.54803, 35.83601], [14.53248, 35.82197], [14.52752, 35.81354], [14.52752, 35.80121], [14.51149, 35.80646], [14.50709, 35.80866], [14.47267, 35.81143], [14.42449, 35.82368], [14.38152, 35.84296], [14.36305, 35.86668], [14.35987, 35.8697], [14.34571, 35.87592], [14.34262, 35.88068], [14.34262, 35.91169], [14.33823, 35.94697], [14.33253, 35.96284], [14.32203, 35.97313], [14.33473, 35.98237], [14.3475, 35.98871], [14.3615, 35.99242], [14.37729, 35.99364], [14.37729, 35.98623], [14.36818, 35.98485], [14.36232, 35.98241], [14.34938, 35.97313], [14.42848, 35.96572], [14.44508, 35.96035], [14.47869, 35.93696], [14.50782, 35.92853], [14.51287, 35.9208], [14.51401, 35.91083], [14.51393, 35.90082], [14.5193, 35.89997], [14.54803, 35.89004], [14.56316, 35.87002]]], [[[14.28256, 36.06786], [14.31479, 36.05109], [14.33424, 36.03437], [14.32203, 36.02717], [14.30445, 36.0266], [14.2776, 36.01667], [14.26002, 36.01349], [14.24147, 36.01463], [14.22088, 36.01919], [14.20118, 36.02607], [14.18491, 36.03461], [14.188, 36.0454], [14.18434, 36.0563], [14.1836, 36.06477], [14.19549, 36.0681], [14.2566, 36.07559], [14.28256, 36.06786]]]]}, "properties": {"id": "A85X", "status": "validé", "pieces": [{"kind": "country"}]}}, {"type": "Feature", "geometry": {"type": "Polygon", "coordinates": [[[14.5174, 35.90466], [14.50127, 35.89785], [14.50195, 35.88784], [14.50899, 35.88561], [14.52358, 35.89965], [14.52221, 35.90549], [14.5174, 35.90466]]]}, "properties": {"id": "CXV5", "status": "validé", "pieces": [{"kind": "polygon", "ring": [[14.5174, 35.90466], [14.50127, 35.89785], [14.50195, 35.88784], [14.50899, 35.88561], [14.52358, 35.89965], [14.52221, 35.90549]]}]}}, {"type": "Feature", "geometry": {"type": "MultiPolygon", "coordinates": [[[[14.56316, 35.87002], [14.56715, 35.84561], [14.56178, 35.82982], [14.54803, 35.83601], [14.53248, 35.82197], [14.52752, 35.81354], [14.52752, 35.80121], [14.51149, 35.80646], [14.50709, 35.80866], [14.47267, 35.81143], [14.42449, 35.82368], [14.38152, 35.84296], [14.36305, 35.86668], [14.35987, 35.8697], [14.34571, 35.87592], [14.34262, 35.88068], [14.34262, 35.91169], [14.33823, 35.94697], [14.33253, 35.96284], [14.32203, 35.97313], [14.33473, 35.98237], [14.3475, 35.98871], [14.3615, 35.99242], [14.37729, 35.99364], [14.37729, 35.98623], [14.36818, 35.98485], [14.36232, 35.98241], [14.34938, 35.97313], [14.42848, 35.96572], [14.44508, 35.96035], [14.47869, 35.93696], [14.50782, 35.92853], [14.51287, 35.9208], [14.51401, 35.91083], [14.51393, 35.90082], [14.5193, 35.89997], [14.54803, 35.89004], [14.56316, 35.87002]]], [[[14.28256, 36.06786], [14.31479, 36.05109], [14.33424, 36.03437], [14.32203, 36.02717], [14.30445, 36.0266], [14.2776, 36.01667], [14.26002, 36.01349], [14.24147, 36.01463], [14.22088, 36.01919], [14.20118, 36.02607], [14.18491, 36.03461], [14.188, 36.0454], [14.18434, 36.0563], [14.1836, 36.06477], [14.19549, 36.0681], [14.2566, 36.07559], [14.28256, 36.06786]]]]}, "properties": {"id": "CkGF", "status": "validé", "pieces": [{"kind": "country"}]}}, {"type": "Feature", "geometry": {"type": "Polygon", "coordinates": [[[14.28256, 36.06786], [14.31479, 36.05109], [14.33424, 36.03437], [14.32203, 36.02717], [14.30445, 36.0266], [14.2776, 36.01667], [14.26002, 36.01349], [14.24147, 36.01463], [14.22088, 36.01919], [14.20118, 36.02607], [14.18491, 36.03461], [14.188, 36.0454], [14.18434, 36.0563], [14.1836, 36.06477], [14.19549, 36.0681], [14.2566, 36.07559], [14.28256, 36.06786]]]}, "properties": {"id": "LOnP", "status": "validé", "pieces": [{"kind": "polygon", "ring": [[14.16275, 36.08473], [14.17236, 36.00981], [14.26987, 36.00703], [14.36188, 36.03534], [14.26506, 36.10414]]}, {"kind": "clip"}]}}, {"type": "Feature", "geometry": {"type": "MultiPolygon", "coordinates": [[[[14.56316, 35.87002], [14.56715, 35.84561], [14.56178, 35.82982], [14.54803, 35.83601], [14.53248, 35.82197], [14.52752, 35.81354], [14.52752, 35.80121], [14.51149, 35.80646], [14.50709, 35.80866], [14.47267, 35.81143], [14.42449, 35.82368], [14.38152, 35.84296], [14.36305, 35.86668], [14.35987, 35.8697], [14.34571, 35.87592], [14.34262, 35.88068], [14.34262, 35.91169], [14.33823, 35.94697], [14.33253, 35.96284], [14.32203, 35.97313], [14.33473, 35.98237], [14.3475, 35.98871], [14.3615, 35.99242], [14.37729, 35.99364], [14.37729, 35.98623], [14.36818, 35.98485], [14.36232, 35.98241], [14.34938, 35.97313], [14.42848, 35.96572], [14.44508, 35.96035], [14.47869, 35.93696], [14.50782, 35.92853], [14.51287, 35.9208], [14.51401, 35.91083], [14.51393, 35.90082], [14.5193, 35.89997], [14.54803, 35.89004], [14.56316, 35.87002]]], [[[14.28256, 36.06786], [14.31479, 36.05109], [14.33424, 36.03437], [14.32203, 36.02717], [14.30445, 36.0266], [14.2776, 36.01667], [14.26002, 36.01349], [14.24147, 36.01463], [14.22088, 36.01919], [14.20118, 36.02607], [14.18491, 36.03461], [14.188, 36.0454], [14.18434, 36.0563], [14.1836, 36.06477], [14.19549, 36.0681], [14.2566, 36.07559], [14.28256, 36.06786]]]]}, "properties": {"id": "S9ac", "status": "validé", "pieces": [{"kind": "country"}]}}, {"type": "Feature", "geometry": {"type": "MultiPolygon", "coordinates": [[[[14.56316, 35.87002], [14.56715, 35.84561], [14.56178, 35.82982], [14.54803, 35.83601], [14.53248, 35.82197], [14.52752, 35.81354], [14.52752, 35.80121], [14.51149, 35.80646], [14.50709, 35.80866], [14.47267, 35.81143], [14.42449, 35.82368], [14.38152, 35.84296], [14.36305, 35.86668], [14.35987, 35.8697], [14.34571, 35.87592], [14.34262, 35.88068], [14.34262, 35.91169], [14.33823, 35.94697], [14.33253, 35.96284], [14.32203, 35.97313], [14.33473, 35.98237], [14.3475, 35.98871], [14.3615, 35.99242], [14.37729, 35.99364], [14.37729, 35.98623], [14.36818, 35.98485], [14.36232, 35.98241], [14.34938, 35.97313], [14.42848, 35.96572], [14.44508, 35.96035], [14.47869, 35.93696], [14.50782, 35.92853], [14.51287, 35.9208], [14.51401, 35.91083], [14.51393, 35.90082], [14.5193, 35.89997], [14.54803, 35.89004], [14.56316, 35.87002]]], [[[14.28256, 36.06786], [14.31479, 36.05109], [14.33424, 36.03437], [14.32203, 36.02717], [14.30445, 36.0266], [14.2776, 36.01667], [14.26002, 36.01349], [14.24147, 36.01463], [14.22088, 36.01919], [14.20118, 36.02607], [14.18491, 36.03461], [14.188, 36.0454], [14.18434, 36.0563], [14.1836, 36.06477], [14.19549, 36.0681], [14.2566, 36.07559], [14.28256, 36.06786]]]]}, "properties": {"id": "XUts", "status": "validé", "pieces": [{"kind": "country"}]}}, {"type": "Feature", "geometry": {"type": "MultiPolygon", "coordinates": [[[[14.56316, 35.87002], [14.56715, 35.84561], [14.56178, 35.82982], [14.54803, 35.83601], [14.53248, 35.82197], [14.52752, 35.81354], [14.52752, 35.80121], [14.51149, 35.80646], [14.50709, 35.80866], [14.47267, 35.81143], [14.42449, 35.82368], [14.38152, 35.84296], [14.36305, 35.86668], [14.35987, 35.8697], [14.34571, 35.87592], [14.34262, 35.88068], [14.34262, 35.91169], [14.33823, 35.94697], [14.33253, 35.96284], [14.32203, 35.97313], [14.33473, 35.98237], [14.3475, 35.98871], [14.3615, 35.99242], [14.37729, 35.99364], [14.37729, 35.98623], [14.36818, 35.98485], [14.36232, 35.98241], [14.34938, 35.97313], [14.42848, 35.96572], [14.44508, 35.96035], [14.47869, 35.93696], [14.50782, 35.92853], [14.51287, 35.9208], [14.51401, 35.91083], [14.51393, 35.90082], [14.5193, 35.89997], [14.54803, 35.89004], [14.56316, 35.87002]]], [[[14.28256, 36.06786], [14.31479, 36.05109], [14.33424, 36.03437], [14.32203, 36.02717], [14.30445, 36.0266], [14.2776, 36.01667], [14.26002, 36.01349], [14.24147, 36.01463], [14.22088, 36.01919], [14.20118, 36.02607], [14.18491, 36.03461], [14.188, 36.0454], [14.18434, 36.0563], [14.1836, 36.06477], [14.19549, 36.0681], [14.2566, 36.07559], [14.28256, 36.06786]]]]}, "properties": {"id": "ZuPI", "status": "validé", "pieces": [{"kind": "country"}]}}, {"type": "Feature", "geometry": null, "properties": {"id": "aUAp", "status": "rejeté", "pieces": []}}, {"type": "Feature", "geometry": {"type": "MultiPolygon", "coordinates": [[[[14.56316, 35.87002], [14.56715, 35.84561], [14.56178, 35.82982], [14.54803, 35.83601], [14.53248, 35.82197], [14.52752, 35.81354], [14.52752, 35.80121], [14.51149, 35.80646], [14.50709, 35.80866], [14.47267, 35.81143], [14.42449, 35.82368], [14.38152, 35.84296], [14.36305, 35.86668], [14.35987, 35.8697], [14.34571, 35.87592], [14.34262, 35.88068], [14.34262, 35.91169], [14.33823, 35.94697], [14.33253, 35.96284], [14.32203, 35.97313], [14.33473, 35.98237], [14.3475, 35.98871], [14.3615, 35.99242], [14.37729, 35.99364], [14.37729, 35.98623], [14.36818, 35.98485], [14.36232, 35.98241], [14.34938, 35.97313], [14.42848, 35.96572], [14.44508, 35.96035], [14.47869, 35.93696], [14.50782, 35.92853], [14.51287, 35.9208], [14.51401, 35.91083], [14.51393, 35.90082], [14.5193, 35.89997], [14.54803, 35.89004], [14.56316, 35.87002]]], [[[14.28256, 36.06786], [14.31479, 36.05109], [14.33424, 36.03437], [14.32203, 36.02717], [14.30445, 36.0266], [14.2776, 36.01667], [14.26002, 36.01349], [14.24147, 36.01463], [14.22088, 36.01919], [14.20118, 36.02607], [14.18491, 36.03461], [14.188, 36.0454], [14.18434, 36.0563], [14.1836, 36.06477], [14.19549, 36.0681], [14.2566, 36.07559], [14.28256, 36.06786]]]]}, "properties": {"id": "eHEp", "status": "validé", "pieces": [{"kind": "country"}]}}, {"type": "Feature", "geometry": {"type": "Polygon", "coordinates": [[[14.18129, 36.08021], [14.17408, 36.03222], [14.23382, 36.00696], [14.32755, 36.02361], [14.35158, 36.05192], [14.25201, 36.08853], [14.19571, 36.08132], [14.18129, 36.08021]]]}, "properties": {"id": "rb2X", "status": "validé", "pieces": [{"kind": "polygon", "ring": [[14.18129, 36.08021], [14.17408, 36.03222], [14.23382, 36.00696], [14.32755, 36.02361], [14.35158, 36.05192], [14.25201, 36.08853], [14.19571, 36.08132]]}]}}, {"type": "Feature", "geometry": {"type": "MultiPolygon", "coordinates": [[[[14.56316, 35.87002], [14.56715, 35.84561], [14.56178, 35.82982], [14.54803, 35.83601], [14.53248, 35.82197], [14.52752, 35.81354], [14.52752, 35.80121], [14.51149, 35.80646], [14.50709, 35.80866], [14.47267, 35.81143], [14.42449, 35.82368], [14.38152, 35.84296], [14.36305, 35.86668], [14.35987, 35.8697], [14.34571, 35.87592], [14.34262, 35.88068], [14.34262, 35.91169], [14.33823, 35.94697], [14.33253, 35.96284], [14.32203, 35.97313], [14.33473, 35.98237], [14.3475, 35.98871], [14.3615, 35.99242], [14.37729, 35.99364], [14.37729, 35.98623], [14.36818, 35.98485], [14.36232, 35.98241], [14.34938, 35.97313], [14.42848, 35.96572], [14.44508, 35.96035], [14.47869, 35.93696], [14.50782, 35.92853], [14.51287, 35.9208], [14.51401, 35.91083], [14.51393, 35.90082], [14.5193, 35.89997], [14.54803, 35.89004], [14.56316, 35.87002]]], [[[14.28256, 36.06786], [14.31479, 36.05109], [14.33424, 36.03437], [14.32203, 36.02717], [14.30445, 36.0266], [14.2776, 36.01667], [14.26002, 36.01349], [14.24147, 36.01463], [14.22088, 36.01919], [14.20118, 36.02607], [14.18491, 36.03461], [14.188, 36.0454], [14.18434, 36.0563], [14.1836, 36.06477], [14.19549, 36.0681], [14.2566, 36.07559], [14.28256, 36.06786]]]]}, "properties": {"id": "v6Vj", "status": "validé", "pieces": [{"kind": "country"}]}}, {"type": "Feature", "geometry": {"type": "MultiPolygon", "coordinates": [[[[14.56316, 35.87002], [14.56715, 35.84561], [14.56178, 35.82982], [14.54803, 35.83601], [14.53248, 35.82197], [14.52752, 35.81354], [14.52752, 35.80121], [14.51149, 35.80646], [14.50709, 35.80866], [14.47267, 35.81143], [14.42449, 35.82368], [14.38152, 35.84296], [14.36305, 35.86668], [14.35987, 35.8697], [14.34571, 35.87592], [14.34262, 35.88068], [14.34262, 35.91169], [14.33823, 35.94697], [14.33253, 35.96284], [14.32203, 35.97313], [14.33473, 35.98237], [14.3475, 35.98871], [14.3615, 35.99242], [14.37729, 35.99364], [14.37729, 35.98623], [14.36818, 35.98485], [14.36232, 35.98241], [14.34938, 35.97313], [14.42848, 35.96572], [14.44508, 35.96035], [14.47869, 35.93696], [14.50782, 35.92853], [14.51287, 35.9208], [14.51401, 35.91083], [14.51393, 35.90082], [14.5193, 35.89997], [14.54803, 35.89004], [14.56316, 35.87002]]], [[[14.28256, 36.06786], [14.31479, 36.05109], [14.33424, 36.03437], [14.32203, 36.02717], [14.30445, 36.0266], [14.2776, 36.01667], [14.26002, 36.01349], [14.24147, 36.01463], [14.22088, 36.01919], [14.20118, 36.02607], [14.18491, 36.03461], [14.188, 36.0454], [14.18434, 36.0563], [14.1836, 36.06477], [14.19549, 36.0681], [14.2566, 36.07559], [14.28256, 36.06786]]]]}, "properties": {"id": "vABj", "status": "validé", "pieces": [{"kind": "country"}]}}, {"type": "Feature", "geometry": {"type": "MultiPolygon", "coordinates": [[[[14.56316, 35.87002], [14.56715, 35.84561], [14.56178, 35.82982], [14.54803, 35.83601], [14.53248, 35.82197], [14.52752, 35.81354], [14.52752, 35.80121], [14.51149, 35.80646], [14.50709, 35.80866], [14.47267, 35.81143], [14.42449, 35.82368], [14.38152, 35.84296], [14.36305, 35.86668], [14.35987, 35.8697], [14.34571, 35.87592], [14.34262, 35.88068], [14.34262, 35.91169], [14.33823, 35.94697], [14.33253, 35.96284], [14.32203, 35.97313], [14.33473, 35.98237], [14.3475, 35.98871], [14.3615, 35.99242], [14.37729, 35.99364], [14.37729, 35.98623], [14.36818, 35.98485], [14.36232, 35.98241], [14.34938, 35.97313], [14.42848, 35.96572], [14.44508, 35.96035], [14.47869, 35.93696], [14.50782, 35.92853], [14.51287, 35.9208], [14.51401, 35.91083], [14.51393, 35.90082], [14.5193, 35.89997], [14.54803, 35.89004], [14.56316, 35.87002]]], [[[14.28256, 36.06786], [14.31479, 36.05109], [14.33424, 36.03437], [14.32203, 36.02717], [14.30445, 36.0266], [14.2776, 36.01667], [14.26002, 36.01349], [14.24147, 36.01463], [14.22088, 36.01919], [14.20118, 36.02607], [14.18491, 36.03461], [14.188, 36.0454], [14.18434, 36.0563], [14.1836, 36.06477], [14.19549, 36.0681], [14.2566, 36.07559], [14.28256, 36.06786]]]]}, "properties": {"id": "xVAC", "status": "validé", "pieces": [{"kind": "country"}]}}]}