{"type": "FeatureCollection", "features": [{"type": "Feature", "geometry": {"type": "MultiPolygon", "coordinates": [[[[114.79134, 3.98018], [114.79134, 4.06645], [114.81537, 4.06645], [114.81537, 3.98018], [114.79134, 3.98018]]], [[[114.81606, 3.90143], [114.81606, 4.16024], [114.99664, 4.16024], [114.99664, 3.90143], [114.81606, 3.90143]]]]}, "properties": {"id": "0dJK", "status": "validé", "pieces": [{"kind": "rect", "bounds": [114.81606, 3.90143, 114.99664, 4.16024]}, {"kind": "rect", "bounds": [114.79134, 3.98018, 114.81537, 4.06645]}]}}, {"type": "Feature", "geometry": null, "properties": {"id": "1Mkw", "status": "rejeté", "pieces": []}}, {"type": "Feature", "geometry": null, "properties": {"id": "3C19", "status": "validé", "pieces": [{"kind": "country"}]}}, {"type": "Feature", "geometry": {"type": "Polygon", "coordinates": [[[115.28435, 5.20056], [115.28435, 5.40148], [115.11887, 5.40148], [115.11887, 5.20056], [115.28435, 5.20056]]]}, "properties": {"id": "4Be2", "status": "validé", "pieces": [{"kind": "rect", "bounds": [115.11887, 5.20056, 115.28435, 5.40148]}]}}, {"type": "Feature", "geometry": null, "properties": {"id": "4IDp", "status": "validé", "pieces": [{"kind": "admin1", "code": "MYS-1187"}]}}, {"type": "Feature", "geometry": null, "properties": {"id": "4IWF", "status": "rejeté", "pieces": []}}, {"type": "Feature", "geometry": null, "properties": {"id": "5Y5B", "status": "validé", "pieces": [{"kind": "country"}]}}, {"type": "Feature", "geometry": null, "properties": {"id": "7iWU", "status": "validé", "pieces": [{"kind": "admin1", "code": "MYS-1141"}, {"kind": "admin1", "code": "MYS-1140"}]}}, {"type": "Feature", "geometry": null, "properties": {"id": "AlbW", "status": "validé", "pieces": [{"kind": "admin1", "code": "MYS-1186"}]}}, {"type": "Feature", "geometry": null, "properties": {"id": "DVpF", "status": "validé", "pieces": [{"kind": "admin1", "code": "MYS-1143"}]}}, {"type": "Feature", "geometry": null, "properties": {"id": "Dwit", "status": "validé", "pieces": [{"kind": "country"}]}}, {"type": "Feature", "geometry": null, "properties": {"id": "FTvY", "status": "validé", "pieces": [{"kind": "country"}]}}, {"type": "Feature", "geometry": null, "properties": {"id": "Fn5n", "status": "validé", "pieces": [{"kind": "admin1", "code": "MYS-1143"}, {"kind": "admin1", "code": "MYS-1147"}, {"kind": "admin1", "code": "MYS-1149"}, {"kind": "admin1", "code": "MYS-1144"}, {"kind": "admin1", "code": "MYS-1137"}, {"kind": "admin1", "code": "MYS-1140"}, {"kind": "admin1", "code": "MYS-1141"}, {"kind": "admin1", "code": "MYS-1148"}, {"kind": "admin1", "code": "MYS-1145"}, {"kind": "admin1", "code": "MYS-1146"}, {"kind": "admin1", "code": "MYS-1139"}, {"kind": "admin1", "code": "MYS-4831"}]}}, {"type": "Feature", "geometry": null, "properties": {"id": "FqOz", "status": "validé", "pieces": [{"kind": "admin1", "code": "MYS-1187"}]}}, {"type": "Feature", "geometry": null, "properties": {"id": "GMuK", "status": "validé", "pieces": [{"kind": "country"}]}}, {"type": "Feature", "geometry": null, "properties": {"id": "GNKN", "status": "validé", "pieces": [{"kind": "country"}]}}, {"type": "Feature", "geometry": null, "properties": {"id": "H5tX", "status": "validé", "pieces": [{"kind": "country"}]}}, {"type": "Feature", "geometry": null, "properties": {"id": "LlHN", "status": "validé", "pieces": [{"kind": "country"}]}}, {"type": "Feature", "geometry": null, "properties": {"id": "PHYA", "status": "validé", "pieces": [{"kind": "admin1", "code": "MYS-1143"}, {"kind": "admin1", "code": "MYS-1147"}, {"kind": "admin1", "code": "MYS-1149"}, {"kind": "admin1", "code": "MYS-1144"}, {"kind": "admin1", "code": "MYS-1137"}, {"kind": "admin1", "code": "MYS-1140"}, {"kind": "admin1", "code": "MYS-1141"}, {"kind": "admin1", "code": "MYS-1139"}, {"kind": "admin1", "code": "MYS-1148"}, {"kind": "admin1", "code": "MYS-4831"}, {"kind": "admin1", "code": "MYS-1145"}, {"kind": "admin1", "code": "MYS-1146"}]}}, {"type": "Feature", "geometry": null, "properties": {"id": "SLFX", "status": "validé", "pieces": [{"kind": "admin1", "code": "MYS-1147"}, {"kind": "admin1", "code": "MYS-4831"}]}}, {"type": "Feature", "geometry": null, "properties": {"id": "TekU", "status": "validé", "pieces": [{"kind": "country"}]}}, {"type": "Feature", "geometry": null, "properties": {"id": "VXzD", "status": "validé", "pieces": [{"kind": "admin1", "code": "MYS-1187"}]}}, {"type": "Feature", "geometry": null, "properties": {"id": "VZEz", "status": "validé", "pieces": [{"kind": "admin1", "code": "MYS-1143"}, {"kind": "admin1", "code": "MYS-1145"}, {"kind": "admin1", "code": "MYS-1146"}]}}, {"type": "Feature", "geometry": null, "properties": {"id": "X4Fj", "status": "validé", "pieces": [{"kind": "country"}]}}, {"type": "Feature", "geometry": null, "properties": {"id": "ZWP5", "status": "validé", "pieces": [{"kind": "admin1", "code": "MYS-1186"}]}}, {"type": "Feature", "geometry": null, "properties": {"id": "c4nQ", "status": "validé", "pieces": [{"kind": "admin1", "code": "MYS-1143"}, {"kind": "admin1", "code": "MYS-1147"}, {"kind": "admin1", "code": "MYS-1149"}, {"kind": "admin1", "code": "MYS-1144"}, {"kind": "admin1", "code": "MYS-1137"}, {"kind": "admin1", "code": "MYS-1140"}, {"kind": "admin1", "code": "MYS-1141"}, {"kind": "admin1", "code": "MYS-1139"}, {"kind": "admin1", "code": "MYS-1146"}, {"kind": "admin1", "code": "MYS-1148"}, {"kind": "admin1", "code": "MYS-4831"}, {"kind": "admin1", "code": "MYS-1145"}]}}, {"type": "Feature", "geometry": null, "properties": {"id": "lopw", "status": "validé", "pieces": [{"kind": "admin1", "code": "MYS-1143"}]}}, {"type": "Feature", "geometry": null, "properties": {"id": "m7su", "status": "validé", "pieces": [{"kind": "admin1", "code": "MYS-1186"}]}}, {"type": "Feature", "geometry": null, "properties": {"id": "r0EY", "status": "validé", "pieces": [{"kind": "country"}]}}, {"type": "Feature", "geometry": null, "properties": {"id": "rEQ4", "status": "validé", "pieces": [{"kind": "country"}]}}, {"type": "Feature", "geometry": null, "properties": {"id": "tGn7", "status": "rejeté", "pieces": []}}, {"type": "Feature", "geometry": {"type": "Polygon", "coordinates": [[[100.36011, 6.55117], [100.60181, 6.4857], [100.45349, 5.55741], [100.30518, 5.57852], [100.16235, 6.12004], [100.16703, 6.30588], [100.15284, 6.33393], [100.13746, 6.38052], [100.13111, 6.42341], [100.12729, 6.44229], [100.13557, 6.45772], [100.14436, 6.47958], [100.14849, 6.50449], [100.14808, 6.51322], [100.14482, 6.53058], [100.1457, 6.53952], [100.15242, 6.54999], [100.1612, 6.55746], [100.1672, 6.56614], [100.16518, 6.58032], [100.15717, 6.60353], [100.15609, 6.62058], [100.16275, 6.66112], [100.16405, 6.68373], [100.16684, 6.69512], [100.1733, 6.70342], [100.18756, 6.70796], [100.19665, 6.70249], [100.1992, 6.69941], [100.20378, 6.69388], [100.21236, 6.68918], [100.2275, 6.68887], [100.2275, 6.69083], [100.24265, 6.70026], [100.25174, 6.70109], [100.26332, 6.70001], [100.27396, 6.69626], [100.28078, 6.68892], [100.31789, 6.57671], [100.3292, 6.55777], [100.34879, 6.54061], [100.35003, 6.54001], [100.36011, 6.55117]]]}, "properties": {"id": "vYmT", "status": "validé", "pieces": [{"kind": "admin1", "code": "MYS-1141"}, {"kind": "polygon", "ring": [[100.45349, 5.55741], [100.60181, 6.4857], [100.36011, 6.55117], [100.16785, 6.33838], [100.16235, 6.12004], [100.30518, 5.57852]]}]}}]}