{"type": "FeatureCollection", "features": [{"type": "Feature", "geometry": {"type": "MultiPolygon", "coordinates": [[[[5.4657, 6.10926], [5.4657, 6.4913], [5.8667, 6.4913], [5.8667, 6.10926], [5.4657, 6.10926]]], [[[7.39792, 6.33065], [7.39792, 6.55436], [7.68631, 6.55436], [7.68631, 6.33065], [7.39792, 6.33065]]]]}, "properties": {"id": "2I7W", "status": "validé", "pieces": [{"kind": "rect", "bounds": [7.39792, 6.33065, 7.68631, 6.55436]}, {"kind": "rect", "bounds": [5.4657, 6.10926, 5.8667, 6.4913]}]}}, {"type": "Feature", "geometry": null, "properties": {"id": "3nIu", "status": "rejeté", "pieces": []}}, {"type": "Feature", "geometry": null, "properties": {"id": "3ygO", "status": "validé", "pieces": [{"kind": "admin1", "code": "NGA-2869"}]}}, {"type": "Feature", "geometry": null, "properties": {"id": "6QNl", "status": "validé", "pieces": [{"kind": "country"}]}}, {"type": "Feature", "geometry": null, "properties": {"id": "Fghi", "status": "validé", "pieces": [{"kind": "country"}]}}, {"type": "Feature", "geometry": {"type": "Polygon", "coordinates": [[[9.4455, 6.32297], [9.4455, 6.55759], [9.33426, 6.55759], [9.33426, 6.32297], [9.4455, 6.32297]]]}, "properties": {"id": "JPLG", "status": "validé", "pieces": [{"kind": "rect", "bounds": [9.33426, 6.32297, 9.4455, 6.55759]}]}}, {"type": "Feature", "geometry": {"type": "Polygon", "coordinates": [[[7.04773, 10.27826], [7.62451, 11.27692], [8.1189, 11.50299], [8.61328, 11.09377], [8.50342, 10.69477], [8.7561, 10.61922], [8.78906, 10.39247], [8.60229, 9.85193], [8.65723, 9.38635], [8.53638, 8.92015], [8.04199, 9.1479], [7.60254, 9.39718], [7.30591, 9.34301], [7.28394, 10.06825], [6.87744, 10.13312], [7.04773, 10.27826]]]}, "properties": {"id": "Mh2Y", "status": "validé", "pieces": [{"kind": "polygon", "ring": [[7.04773, 10.27826], [7.62451, 11.27692], [8.1189, 11.50299], [8.61328, 11.09377], [8.50342, 10.69477], [8.7561, 10.61922], [8.78906, 10.39247], [8.60229, 9.85193], [8.65723, 9.38635], [8.53638, 8.92015], [8.04199, 9.1479], [7.60254, 9.39718], [7.30591, 9.34301], [7.28394, 10.06825], [6.87744, 10.13312]]}]}}, {"type": "Feature", "geometry": null, "properties": {"id": "N7jK", "status": "rejeté", "pieces": []}}, {"type": "Feature", "geometry": null, "properties": {"id": "P6Jg", "status": "validé", "pieces": [{"kind": "admin1", "code": "NGA-3470"}]}}, {"type": "Feature", "geometry": null, "properties": {"id": "PVr3", "status": "rejeté", "pieces": []}}, {"type": "Feature", "geometry": null, "properties": {"id": "PoWp", "status": "validé", "pieces": [{"kind": "country"}]}}, {"type": "Feature", "geometry": null, "properties": {"id": "Pu6a", "status": "validé", "pieces": [{"kind": "admin1", "code": "NGA-2846"}]}}, {"type": "Feature", "geometry": {"type": "Polygon", "coordinates": [[[11.08521, 11.78219], [11.07971, 11.62088], [12.19482, 11.67466], [12.26074, 11.83593], [11.08521, 11.78219]]]}, "properties": {"id": "QcE0", "status": "validé", "pieces": [{"kind": "polygon", "ring": [[11.08521, 11.78219], [11.07971, 11.62088], [12.19482, 11.67466], [12.26074, 11.83593]]}]}}, {"type": "Feature", "geometry": null, "properties": {"id": "UAra", "status": "validé", "pieces": [{"kind": "admin1", "code": "NGA-2851"}]}}, {"type": "Feature", "geometry": null, "properties": {"id": "YLLW", "status": "rejeté", "pieces": []}}, {"type": "Feature", "geometry": null, "properties": {"id": "ZNLu", "status": "validé", "pieces": [{"kind": "country"}]}}, {"type": "Feature", "geometry": null, "properties": {"id": "ZihY", "status": "validé", "pieces": [{"kind": "country"}]}}, {"type": "Feature", "geometry": null, "properties": {"id": "c2cO", "status": "validé", "pieces": [{"kind": "country"}]}}, {"type": "Feature", "geometry": null, "properties": {"id": "eIgz", "status": "rejeté", "pieces": []}}, {"type": "Feature", "geometry": null, "properties": {"id": "eMZn", "status": "validé", "pieces": [{"kind": "country"}]}}, {"type": "Feature", "geometry": null, "properties": {"id": "hCzH", "status": "validé", "pieces": [{"kind": "country"}]}}, {"type": "Feature", "geometry": null, "properties": {"id": "hvhF", "status": "rejeté", "pieces": []}}, {"type": "Feature", "geometry": null, "properties": {"id": "lrDl", "status": "validé", "pieces": [{"kind": "country"}]}}, {"type": "Feature", "geometry": null, "properties": {"id": "op6f", "status": "validé", "pieces": [{"kind": "admin1", "code": "NGA-2858"}, {"kind": "admin1", "code": "NGA-2881"}, {"kind": "admin1", "code": "NGA-2859"}, {"kind": "admin1", "code": "NGA-2866"}, {"kind": "admin1", "code": "NGA-2848"}]}}, {"type": "Feature", "geometry": {"type": "Polygon", "coordinates": [[[3.42773, 6.36762], [4.29291, 6.35944], [4.22424, 6.4331], [4.13361, 6.49039], [3.8562, 6.51221], [3.48267, 6.47675], [3.42773, 6.36762]]]}, "properties": {"id": "pXX3", "status": "validé", "pieces": [{"kind": "polygon", "ring": [[3.42773, 6.36762], [4.29291, 6.35944], [4.22424, 6.4331], [4.13361, 6.49039], [3.8562, 6.51221], [3.48267, 6.47675]]}]}}, {"type": "Feature", "geometry": {"type": "Polygon", "coordinates": [[[3.66255, 11.14315], [3.48333, 11.3923], [3.46845, 11.41948], [3.46669, 11.44248], [3.48674, 11.49628], [3.49305, 11.5115], [3.50493, 11.55656], [3.57439, 11.67304], [3.5964, 11.69577], [3.64777, 11.726], [3.65986, 11.7381], [3.66699, 11.7597], [3.66203, 11.77949], [3.64973, 11.79783], [3.62627, 11.82254], [3.62203, 11.82502], [3.61862, 11.82837], [3.61294, 11.83897], [3.60973, 11.84879], [3.60394, 11.90558], [3.60849, 11.92196], [3.61955, 11.93628], [3.6366, 11.95359], [3.65355, 11.98681], [3.6489, 12.02102], [3.62399, 12.09425], [3.62451, 12.13766], [3.65149, 12.26902], [3.64156, 12.518], [3.6457, 12.52854], [3.86439, 12.68967], [3.92909, 12.75039], [4.08877, 12.99624], [4.12033, 13.21061], [4.12371, 13.23359], [4.12577, 13.47298], [4.19047, 13.47502], [4.22055, 13.48062], [4.24845, 13.49414], [4.40576, 13.64124], [4.45258, 13.67377], [4.50673, 13.69467], [4.62584, 13.72315], [4.82485, 13.77074], [4.85689, 13.7741], [4.87984, 13.76402], [4.90237, 13.74299], [4.92511, 13.73309], [4.98319, 13.72968], [5.08437, 13.74753], [5.22762, 13.74133], [5.26204, 13.74774], [5.27351, 13.75252], [5.3042, 13.77394], [5.31805, 13.78993], [5.33479, 13.8267], [5.34627, 13.84156], [5.37407, 13.85525], [5.52176, 13.88029], [5.55432, 13.87342], [5.83735, 13.76375], [6.12038, 13.65408], [6.12948, 13.64907], [6.13578, 13.64366], [6.14239, 13.64082], [6.15283, 13.64356], [6.21061, 13.67526], [6.22983, 13.67919], [6.28421, 13.66766], [6.30218, 13.66384], [6.36894, 13.62627], [6.5093, 13.49605], [6.67254, 13.32118], [6.75388, 13.1749], [6.77869, 13.13029], [6.83791, 13.06349], [6.87418, 13.0305], [6.90664, 13.00686], [6.93713, 12.99541], [6.97051, 12.99184], [7.04492, 12.99221], [7.06292, 12.99514], [7.04632, 12.89033], [7.07795, 12.47846], [7.09934, 12.42761], [7.09438, 12.36775], [7.12177, 12.31486], [7.13634, 12.26465], [7.14223, 12.21318], [7.15174, 12.18424], [7.15753, 12.15399], [7.15091, 12.12799], [7.12911, 12.06983], [7.11298, 12.03841], [7.13272, 12.01431], [7.16704, 11.99847], [7.22202, 11.95446], [7.23318, 11.89519], [7.20342, 11.88413], [7.17179, 11.89235], [7.1537, 11.87506], [7.15102, 11.85812], [7.37732, 11.62635], [7.53113, 11.85752], [7.80029, 12.35145], [7.86072, 12.29781], [7.72339, 11.68013], [7.43774, 11.48648], [7.30042, 11.37346], [7.02026, 11.76078], [7.05288, 11.78979], [7.0518, 11.79096], [7.0457, 11.79295], [6.97139, 11.79292], [6.91341, 11.76628], [6.87537, 11.5872], [6.90989, 11.52576], [6.90349, 11.49245], [6.90659, 11.45729], [6.89739, 11.41083], [6.88178, 11.3661], [6.86566, 11.33616], [6.8454, 11.31693], [6.77471, 11.27316], [6.75445, 11.24802], [6.74329, 11.2182], [6.72458, 11.12772], [6.71466, 11.10635], [6.70184, 11.0895], [6.68644, 11.0763], [6.66857, 11.06566], [6.58475, 11.03385], [6.57596, 11.02938], [6.56718, 11.02765], [6.55064, 11.02928], [6.53979, 11.02811], [6.47405, 11.00946], [6.45152, 11.00953], [6.4293, 11.01426], [6.36378, 11.03747], [6.34269, 11.03964], [6.32285, 11.03219], [6.31065, 11.01791], [6.29236, 10.98067], [6.28027, 10.96499], [6.27014, 10.95889], [6.24606, 10.95013], [6.23593, 10.94318], [6.22787, 10.93016], [6.22642, 10.91747], [6.22642, 10.90466], [6.22239, 10.89117], [6.20771, 10.87799], [6.16193, 10.86275], [6.14643, 10.92926], [6.06974, 11.05635], [6.02705, 11.11121], [5.99636, 11.13082], [5.96132, 11.12896], [5.94654, 11.11733], [5.92132, 11.08925], [5.91078, 11.07359], [5.88515, 11.05341], [5.85042, 11.05057], [5.81601, 11.04142], [5.64299, 10.96887], [5.57664, 10.95737], [5.4767, 10.95719], [5.44972, 10.96641], [5.43701, 11.00155], [5.43557, 11.04077], [5.44146, 11.11757], [5.42554, 11.15097], [5.39371, 11.17092], [5.35805, 11.23466], [5.34431, 11.30931], [5.28519, 11.34448], [5.21232, 11.34665], [4.91673, 11.28763], [4.77938, 11.22694], [4.76305, 11.16381], [4.82651, 11.11656], [4.89854, 11.08671], [4.97492, 11.0748], [4.99198, 11.07473], [5.00541, 11.06744], [5.01358, 11.04977], [5.0266, 11.0416], [5.05409, 11.03344], [5.06628, 11.00468], [5.07569, 10.96411], [5.07827, 10.92378], [5.03032, 10.86376], [5.07114, 10.81316], [5.09305, 10.74777], [5.06618, 10.72658], [4.99538, 10.70679], [4.92831, 10.67488], [4.85886, 10.68431], [4.82713, 10.6731], [4.81018, 10.60667], [4.81555, 10.53163], [4.8109, 10.4968], [4.81658, 10.46329], [4.86371, 10.40254], [4.8942, 10.33467], [4.8694, 10.26917], [4.84056, 10.24826], [4.80646, 10.23715], [4.69049, 10.21287], [4.65535, 10.20114], [4.64481, 10.16641], [4.6443, 10.12628], [4.63189, 10.09931], [4.56368, 10.10305], [4.5395, 10.12439], [4.55469, 10.19832], [4.56099, 10.27092], [4.53939, 10.29428], [4.51366, 10.31348], [4.49836, 10.3481], [4.49433, 10.38606], [4.50063, 10.46042], [4.53836, 10.52424], [4.65473, 10.58904], [4.65618, 10.60716], [4.6813, 10.63237], [4.68905, 10.64581], [4.69091, 10.66317], [4.6906, 10.70097], [4.72388, 10.87949], [4.72212, 10.90422], [4.65784, 10.92352], [4.53681, 11.00178], [4.43542, 11.02853], [4.33165, 11.01328], [4.05808, 11.00618], [4.00516, 11.0122], [3.89323, 11.06289], [3.80424, 11.11757], [3.71278, 11.1279], [3.70565, 11.12079], [3.70558, 11.12073], [3.7044, 11.12079], [3.695, 11.11912], [3.68673, 11.12049], [3.66255, 11.14315]]]}, "properties": {"id": "qoOw", "status": "validé", "pieces": [{"kind": "admin1", "code": "NGA-2871"}, {"kind": "admin1", "code": "NGA-2879"}, {"kind": "admin1", "code": "NGA-2872"}, {"kind": "polygon", "ring": [[7.02026, 11.76078], [7.30042, 11.37346], [7.43774, 11.48648], [7.72339, 11.68013], [7.86072, 12.29781], [7.80029, 12.35145], [7.53113, 11.85752], [7.37732, 11.62635], [7.14111, 11.86827]]}]}}, {"type": "Feature", "geometry": null, "properties": {"id": "xB4U", "status": "validé", "pieces": [{"kind": "country"}]}}, {"type": "Feature", "geometry": {"type": "Polygon", "coordinates": [[[3.94958, 6.73643], [4.49341, 6.65463], [5.02075, 6.73643], [5.35034, 6.57827], [5.53711, 6.44734], [5.63049, 6.49098], [5.53162, 6.65463], [5.224, 6.79096], [4.823, 6.84548], [4.28467, 6.80186], [3.99353, 6.84003], [3.94958, 6.73643]]]}, "properties": {"id": "xTa2", "status": "validé", "pieces": [{"kind": "polygon", "ring": [[3.94958, 6.73643], [4.49341, 6.65463], [5.02075, 6.73643], [5.35034, 6.57827], [5.53711, 6.44734], [5.63049, 6.49098], [5.53162, 6.65463], [5.224, 6.79096], [4.823, 6.84548], [4.28467, 6.80186], [3.99353, 6.84003]]}]}}, {"type": "Feature", "geometry": null, "properties": {"id": "yfEi", "status": "validé", "pieces": [{"kind": "country"}]}}]}