{"type": "FeatureCollection", "features": [{"type": "Feature", "geometry": {"type": "Polygon", "coordinates": [[[73.46558, 33.87018], [73.46558, 33.87901], [73.45081, 33.87901], [73.45081, 33.87018], [73.46558, 33.87018]]]}, "properties": {"id": "0iLc", "status": "validé", "pieces": [{"kind": "rect", "bounds": [73.45081, 33.87018, 73.46558, 33.87901]}]}}, {"type": "Feature", "geometry": {"type": "Polygon", "coordinates": [[[74.47906, 31.35041], [74.47906, 31.62784], [74.18793, 31.62784], [74.18793, 31.35041], [74.47906, 31.35041]]]}, "properties": {"id": "6RPD", "status": "validé", "pieces": [{"kind": "rect", "bounds": [74.18793, 31.35041, 74.47906, 31.62784]}]}}, {"type": "Feature", "geometry": null, "properties": {"id": "9S3l", "status": "rejeté", "pieces": []}}, {"type": "Feature", "geometry": {"type": "Polygon", "coordinates": [[[74.54086, 31.45352], [74.54086, 31.62433], [74.41589, 31.62433], [74.41589, 31.45352], [74.54086, 31.45352]]]}, "properties": {"id": "9r6V", "status": "validé", "pieces": [{"kind": "rect", "bounds": [74.41589, 31.45352, 74.54086, 31.62433]}]}}, {"type": "Feature", "geometry": {"type": "Polygon", "coordinates": [[[73.49854, 30.29482], [73.49854, 30.3967], [73.29666, 30.3967], [73.29666, 30.29482], [73.49854, 30.29482]]]}, "properties": {"id": "D9uS", "status": "validé", "pieces": [{"kind": "rect", "bounds": [73.29666, 30.29482, 73.49854, 30.3967]}]}}, {"type": "Feature", "geometry": {"type": "Polygon", "coordinates": [[[74.20921, 31.35611], [74.20921, 31.41646], [74.133, 31.41646], [74.133, 31.35611], [74.20921, 31.35611]]]}, "properties": {"id": "JW5b", "status": "validé", "pieces": [{"kind": "rect", "bounds": [74.133, 31.35611, 74.20921, 31.41646]}]}}, {"type": "Feature", "geometry": {"type": "Polygon", "coordinates": [[[73.0172, 32.669], [73.0172, 32.74639], [72.93068, 32.74639], [72.93068, 32.669], [73.0172, 32.669]]]}, "properties": {"id": "K3qO", "status": "validé", "pieces": [{"kind": "rect", "bounds": [72.93068, 32.669, 73.0172, 32.74639]}]}}, {"type": "Feature", "geometry": null, "properties": {"id": "Kxq2", "status": "validé", "pieces": [{"kind": "country"}]}}, {"type": "Feature", "geometry": {"type": "Polygon", "coordinates": [[[74.34105, 31.5453], [74.34105, 31.60027], [74.26895, 31.60027], [74.26895, 31.5453], [74.34105, 31.5453]]]}, "properties": {"id": "Q2S5", "status": "validé", "pieces": [{"kind": "rect", "bounds": [74.26895, 31.5453, 74.34105, 31.60027]}]}}, {"type": "Feature", "geometry": {"type": "Polygon", "coordinates": [[[74.33899, 31.56511], [74.33899, 31.59814], [74.30122, 31.59814], [74.30122, 31.56511], [74.33899, 31.56511]]]}, "properties": {"id": "Rtub", "status": "validé", "pieces": [{"kind": "rect", "bounds": [74.30122, 31.56511, 74.33899, 31.59814]}]}}, {"type": "Feature", "geometry": {"type": "Polygon", "coordinates": [[[74.35341, 31.52413], [74.35341, 31.54753], [74.32972, 31.54753], [74.32972, 31.52413], [74.35341, 31.52413]]]}, "properties": {"id": "TP63", "status": "validé", "pieces": [{"kind": "rect", "bounds": [74.32972, 31.52413, 74.35341, 31.54753]}]}}, {"type": "Feature", "geometry": null, "properties": {"id": "Ujiq", "status": "rejeté", "pieces": []}}, {"type": "Feature", "geometry": {"type": "Polygon", "coordinates": [[[73.42026, 30.32262], [73.42026, 30.36942], [73.36052, 30.36942], [73.36052, 30.32262], [73.42026, 30.32262]]]}, "properties": {"id": "VlpT", "status": "validé", "pieces": [{"kind": "rect", "bounds": [73.36052, 30.32262, 73.42026, 30.36942]}]}}, {"type": "Feature", "geometry": {"type": "Polygon", "coordinates": [[[74.32594, 31.57067], [74.32594, 31.58353], [74.30603, 31.58353], [74.30603, 31.57067], [74.32594, 31.57067]]]}, "properties": {"id": "XzFd", "status": "validé", "pieces": [{"kind": "rect", "bounds": [74.30603, 31.57067, 74.32594, 31.58353]}]}}, {"type": "Feature", "geometry": {"type": "Polygon", "coordinates": [[[74.05472, 31.02741], [74.05472, 31.11471], [73.94039, 31.11471], [73.94039, 31.02741], [74.05472, 31.02741]]]}, "properties": {"id": "aJMI", "status": "validé", "pieces": [{"kind": "rect", "bounds": [73.94039, 31.02741, 74.05472, 31.11471]}]}}, {"type": "Feature", "geometry": {"type": "Polygon", "coordinates": [[[72.88914, 30.61551], [72.88914, 30.64534], [72.84863, 30.64534], [72.84863, 30.61551], [72.88914, 30.61551]]]}, "properties": {"id": "ciEV", "status": "validé", "pieces": [{"kind": "rect", "bounds": [72.84863, 30.61551, 72.88914, 30.64534]}]}}, {"type": "Feature", "geometry": null, "properties": {"id": "evsi", "status": "validé", "pieces": [{"kind": "country"}]}}, {"type": "Feature", "geometry": {"type": "Polygon", "coordinates": [[[74.49348, 31.08302], [74.49348, 31.14413], [74.41246, 31.14413], [74.41246, 31.08302], [74.49348, 31.08302]]]}, "properties": {"id": "mIzg", "status": "validé", "pieces": [{"kind": "rect", "bounds": [74.41246, 31.08302, 74.49348, 31.14413]}]}}, {"type": "Feature", "geometry": {"type": "Polygon", "coordinates": [[[73.61664, 32.93792], [73.61664, 32.98399], [73.56583, 32.98399], [73.56583, 32.93792], [73.61664, 32.93792]]]}, "properties": {"id": "qZn2", "status": "validé", "pieces": [{"kind": "rect", "bounds": [73.56583, 32.93792, 73.61664, 32.98399]}]}}, {"type": "Feature", "geometry": {"type": "Polygon", "coordinates": [[[74.31942, 31.56512], [74.31942, 31.57462], [74.30586, 31.57462], [74.30586, 31.56512], [74.31942, 31.56512]]]}, "properties": {"id": "rucD", "status": "validé", "pieces": [{"kind": "rect", "bounds": [74.30586, 31.56512, 74.31942, 31.57462]}]}}, {"type": "Feature", "geometry": {"type": "Polygon", "coordinates": [[[74.31805, 31.58499], [74.31805, 31.59324], [74.30835, 31.59324], [74.30835, 31.58499], [74.31805, 31.58499]]]}, "properties": {"id": "wAJF", "status": "validé", "pieces": [{"kind": "rect", "bounds": [74.30835, 31.58499, 74.31805, 31.59324]}]}}, {"type": "Feature", "geometry": {"type": "Polygon", "coordinates": [[[73.9603, 31.73709], [73.9603, 31.74701], [73.94949, 31.74701], [73.94949, 31.73709], [73.9603, 31.73709]]]}, "properties": {"id": "y4Tl", "status": "validé", "pieces": [{"kind": "rect", "bounds": [73.94949, 31.73709, 73.9603, 31.74701]}]}}, {"type": "Feature", "geometry": null, "properties": {"id": "yktB", "status": "validé", "pieces": [{"kind": "country"}]}}, {"type": "Feature", "geometry": null, "properties": {"id": "zWRb", "status": "validé", "pieces": [{"kind": "country"}]}}, {"type": "Feature", "geometry": {"type": "Polygon", "coordinates": [[[73.40515, 30.32833], [73.40515, 30.35602], [73.37408, 30.35602], [73.37408, 30.32833], [73.40515, 30.32833]]]}, "properties": {"id": "zl6e", "status": "validé", "pieces": [{"kind": "rect", "bounds": [73.37408, 30.32833, 73.40515, 30.35602]}]}}]}