{"type": "FeatureCollection", "features": [{"type": "Feature", "geometry": {"type": "MultiPolygon", "coordinates": [[[[21.99463, 51.22198], [22.12646, 51.00827], [21.82983, 50.80051], [21.76392, 50.70324], [21.46729, 50.90451], [21.59912, 51.14626], [21.99463, 51.22198]]], [[[21.48926, 52.2973], [21.59912, 52.01432], [21.48926, 51.5933], [20.47852, 51.36075], [20.25879, 51.77034], [20.61035, 52.09536], [21.48926, 52.2973]]]]}, "properties": {"id": "1VXO", "status": "validé", "pieces": [{"kind": "polygon", "ring": [[20.61035, 52.09536], [20.25879, 51.77034], [20.47852, 51.36075], [21.48926, 51.5933], [21.59912, 52.01432], [21.48926, 52.2973]]}, {"kind": "polygon", "ring": [[21.59912, 51.14626], [21.46729, 50.90451], [21.76392, 50.70324], [21.82983, 50.80051], [22.12646, 51.00827], [21.99463, 51.22198]]}]}}, {"type": "Feature", "geometry": null, "properties": {"id": "1Vb3", "status": "validé", "pieces": [{"kind": "country"}]}}, {"type": "Feature", "geometry": null, "properties": {"id": "4nMB", "status": "validé", "pieces": [{"kind": "country"}]}}, {"type": "Feature", "geometry": null, "properties": {"id": "6stB", "status": "validé", "pieces": [{"kind": "country"}]}}, {"type": "Feature", "geometry": null, "properties": {"id": "8spo", "status": "validé", "pieces": [{"kind": "country"}]}}, {"type": "Feature", "geometry": null, "properties": {"id": "E5c9", "status": "validé", "pieces": [{"kind": "country"}]}}, {"type": "Feature", "geometry": null, "properties": {"id": "EKCR", "status": "validé", "pieces": [{"kind": "country"}]}}, {"type": "Feature", "geometry": {"type": "Polygon", "coordinates": [[[17.07275, 52.31704], [17.07275, 52.48539], [16.76651, 52.48539], [16.76651, 52.31704], [17.07275, 52.31704]]]}, "properties": {"id": "EruS", "status": "validé", "pieces": [{"kind": "rect", "bounds": [16.76651, 52.31704, 17.07275, 52.48539]}]}}, {"type": "Feature", "geometry": {"type": "MultiPolygon", "coordinates": [[[[23.43384, 50.77995], [23.57666, 50.50137], [23.23608, 50.34044], [23.26904, 50.09449], [23.08228, 49.94632], [22.63184, 49.55607], [20.63232, 49.63437], [20.52246, 49.9887], [20.72021, 50.20708], [23.12622, 50.88399], [23.43384, 50.77995]]], [[[15.86426, 52.39009], [16.46851, 51.76919], [17.69897, 51.3047], [18.05054, 51.13963], [18.85254, 51.41442], [19.32495, 51.33902], [19.33594, 51.07068], [18.76465, 50.8632], [17.83081, 50.81465], [17.33643, 50.29837], [16.875, 50.50835], [16.98486, 50.24221], [16.62231, 50.11562], [16.18286, 50.48041], [16.46851, 50.59209], [16.24878, 50.73131], [15.99609, 50.67567], [15.05127, 51.03616], [14.63379, 52.55732], [14.16138, 52.85674], [14.40308, 53.16069], [15.93018, 53.10799], [15.86426, 52.39009]]], [[[20.84106, 51.89135], [20.80811, 51.66714], [20.4895, 51.6467], [20.2478, 51.6467], [19.98413, 51.742], [19.87427, 51.97937], [20.14893, 52.14816], [20.63232, 52.18184], [20.84106, 51.89135]]], [[[23.58765, 53.08161], [23.19214, 53.25935], [23.21411, 53.59307], [23.57666, 53.74271], [23.89526, 53.10799], [23.58765, 53.08161]]]]}, "properties": {"id": "ILmx", "status": "validé", "pieces": [{"kind": "polygon", "ring": [[14.40308, 53.16069], [15.93018, 53.10799], [15.86426, 52.39009], [16.46851, 51.76919], [17.69897, 51.3047], [18.05054, 51.13963], [18.85254, 51.41442], [19.32495, 51.33902], [19.33594, 51.07068], [18.76465, 50.8632], [17.83081, 50.81465], [17.33643, 50.29837], [16.875, 50.50835], [16.98486, 50.24221], [16.62231, 50.11562], [16.18286, 50.48041], [16.46851, 50.59209], [16.24878, 50.73131], [15.99609, 50.67567], [15.05127, 51.03616], [14.63379, 52.55732], [14.16138, 52.85674]]}, {"kind": "polygon", "ring": [[20.14893, 52.14816], [19.87427, 51.97937], [19.98413, 51.742], [20.2478, 51.6467], [20.4895, 51.6467], [20.80811, 51.66714], [20.84106, 51.89135], [20.63232, 52.18184]]}, {"kind": "polygon", "ring": [[23.57666, 53.74271], [23.21411, 53.59307], [23.19214, 53.25935], [23.58765, 53.08161], [23.89526, 53.10799]]}, {"kind": "polygon", "ring": [[20.72021, 50.20708], [20.52246, 49.9887], [20.63232, 49.63437], [22.63184, 49.55607], [23.08228, 49.94632], [23.26904, 50.09449], [23.23608, 50.34044], [23.57666, 50.50137], [23.43384, 50.77995], [23.12622, 50.88399]]}]}}, {"type": "Feature", "geometry": {"type": "Polygon", "coordinates": [[[18.45154, 54.80751], [18.42957, 54.74417], [18.81409, 54.57265], [18.91296, 54.6839], [18.45154, 54.80751]]]}, "properties": {"id": "JBtU", "status": "validé", "pieces": [{"kind": "polygon", "ring": [[18.45154, 54.80751], [18.42957, 54.74417], [18.81409, 54.57265], [18.91296, 54.6839]]}]}}, {"type": "Feature", "geometry": null, "properties": {"id": "LU2Z", "status": "validé", "pieces": [{"kind": "country"}]}}, {"type": "Feature", "geometry": null, "properties": {"id": "LdxT", "status": "validé", "pieces": [{"kind": "country"}]}}, {"type": "Feature", "geometry": null, "properties": {"id": "OH23", "status": "rejeté", "pieces": []}}, {"type": "Feature", "geometry": null, "properties": {"id": "Pahm", "status": "validé", "pieces": [{"kind": "country"}]}}, {"type": "Feature", "geometry": {"type": "MultiPolygon", "coordinates": [[[[20.01709, 49.75514], [20.64331, 49.73385], [20.90698, 49.34189], [20.30273, 49.41339], [20.05005, 49.1914], [19.7644, 49.21293], [19.56665, 49.49192], [20.01709, 49.75514]]], [[[20.61035, 50.1649], [20.15991, 50.37547], [20.66528, 51.90491], [21.88477, 51.79637], [21.90674, 51.98614], [22.5, 52.05372], [22.69775, 52.3968], [23.15918, 52.28945], [23.66455, 52.05372], [23.65356, 51.29097], [24.04907, 50.88399], [24.00513, 50.43147], [23.24707, 50.05221], [21.99463, 50.6339], [20.61035, 50.1649]]], [[[17.25952, 54.20132], [17.16064, 53.79464], [16.89697, 53.52131], [16.41357, 53.37743], [15.79834, 53.68422], [15.85327, 54.21417], [16.99585, 54.62947], [17.25952, 54.20132]]]]}, "properties": {"id": "PuJB", "status": "validé", "pieces": [{"kind": "polygon", "ring": [[15.85327, 54.21417], [15.79834, 53.68422], [16.41357, 53.37743], [16.89697, 53.52131], [17.16064, 53.79464], [17.25952, 54.20132], [16.99585, 54.62947]]}, {"kind": "polygon", "ring": [[19.56665, 49.49192], [20.01709, 49.75514], [20.64331, 49.73385], [20.90698, 49.34189], [20.30273, 49.41339], [20.05005, 49.1914], [19.7644, 49.21293]]}, {"kind": "polygon", "ring": [[23.24707, 50.05221], [21.99463, 50.6339], [20.61035, 50.1649], [20.15991, 50.37547], [20.66528, 51.90491], [21.88477, 51.79637], [21.90674, 51.98614], [22.5, 52.05372], [22.69775, 52.3968], [23.15918, 52.28945], [23.66455, 52.05372], [23.65356, 51.29097], [24.04907, 50.88399], [24.00513, 50.43147]]}]}}, {"type": "Feature", "geometry": {"type": "Polygon", "coordinates": [[[18.75778, 54.28143], [18.75778, 54.41744], [18.5257, 54.41744], [18.5257, 54.28143], [18.75778, 54.28143]]]}, "properties": {"id": "QKpM", "status": "validé", "pieces": [{"kind": "rect", "bounds": [18.5257, 54.28143, 18.75778, 54.41744]}]}}, {"type": "Feature", "geometry": {"type": "MultiPolygon", "coordinates": [[[[17.18262, 54.05368], [17.51221, 52.79076], [19.10522, 52.78412], [19.19312, 53.04899], [19.86328, 53.04899], [19.87427, 53.78204], [20.43457, 53.96979], [20.84106, 53.56084], [21.11572, 53.53474], [21.07178, 53.97625], [21.54419, 53.9827], [21.5332, 53.50862], [21.97266, 52.91014], [21.80786, 52.79076], [22.0166, 52.56438], [22.39014, 52.65108], [23.19214, 52.26967], [24.11499, 50.55064], [22.59888, 49.52798], [22.82959, 49.06965], [21.67603, 49.41379], [20.02808, 49.29218], [16.9519, 50.42487], [16.74316, 50.12307], [16.23779, 50.43886], [16.41357, 50.58551], [15.39185, 50.83586], [15.11719, 52.69769], [14.43604, 52.69103], [14.26025, 54.02143], [16.40259, 54.39395], [17.18262, 54.05368]]], [[[19.41284, 54.00853], [19.17114, 53.75607], [19.4458, 53.6195], [19.30298, 53.50862], [18.56689, 53.82095], [18.56689, 54.07946], [18.34717, 54.20169], [18.58887, 54.38116], [19.41284, 54.00853]]]]}, "properties": {"id": "QRyL", "status": "validé", "pieces": [{"kind": "polygon", "ring": [[16.40259, 54.39395], [17.18262, 54.05368], [17.51221, 52.79076], [19.10522, 52.78412], [19.19312, 53.04899], [19.86328, 53.04899], [19.87427, 53.78204], [20.43457, 53.96979], [20.84106, 53.56084], [21.11572, 53.53474], [21.07178, 53.97625], [21.54419, 53.9827], [21.5332, 53.50862], [21.97266, 52.91014], [21.80786, 52.79076], [22.0166, 52.56438], [22.39014, 52.65108], [23.19214, 52.26967], [24.11499, 50.55064], [22.59888, 49.52798], [22.82959, 49.06965], [21.67603, 49.41379], [20.02808, 49.29218], [16.9519, 50.42487], [16.74316, 50.12307], [16.23779, 50.43886], [16.41357, 50.58551], [15.39185, 50.83586], [15.11719, 52.69769], [14.43604, 52.69103], [14.26025, 54.02143]]}, {"kind": "polygon", "ring": [[18.58887, 54.38116], [18.34717, 54.20169], [18.56689, 54.07946], [18.56689, 53.82095], [19.30298, 53.50862], [19.4458, 53.6195], [19.17114, 53.75607], [19.41284, 54.00853]]}]}}, {"type": "Feature", "geometry": {"type": "MultiPolygon", "coordinates": [[[[22.85889, 54.39921], [22.91884, 54.38113], [22.92969, 54.3803], [22.95243, 54.38309], [22.96266, 54.3817], [22.9733, 54.37539], [22.97899, 54.36759], [22.98343, 54.35978], [22.98974, 54.35338], [23.001, 54.34888], [23.03532, 54.3465], [23.04162, 54.34097], [23.038, 54.33147], [23.03222, 54.32015], [23.03211, 54.30955], [23.0501, 54.29483], [23.07304, 54.29488], [23.09691, 54.30082], [23.11707, 54.30346], [23.13526, 54.29829], [23.19727, 54.26785], [23.23541, 54.25416], [23.31602, 54.23628], [23.33599, 54.22629], [23.35447, 54.21705], [23.36408, 54.20827], [23.38227, 54.18786], [23.39147, 54.1801], [23.40181, 54.17597], [23.4233, 54.17251], [23.4325, 54.16931], [23.44904, 54.15494], [23.46299, 54.13494], [23.47395, 54.11256], [23.48159, 54.09122], [23.49617, 54.04456], [23.49648, 54.02197], [23.48159, 54.00663], [23.4695, 54.00068], [23.46413, 53.99676], [23.45927, 53.99231], [23.45865, 53.98162], [23.46289, 53.97252], [23.47095, 53.96529], [23.48159, 53.96012], [23.48749, 53.95562], [23.49038, 53.95061], [23.48976, 53.94513], [23.48562, 53.93929], [23.48687, 53.90999], [23.4972, 53.88555], [23.51043, 53.8625], [23.52066, 53.83734], [23.52986, 53.78416], [23.5404, 53.76359], [23.56469, 53.7424], [23.56479, 53.7424], [23.56707, 53.68101], [23.59094, 53.61125], [23.6758, 53.45571], [23.72292, 53.3971], [23.74297, 53.36548], [23.78297, 53.27094], [23.80064, 53.24246], [23.81863, 53.22797], [23.82845, 53.21383], [23.8362, 53.19929], [23.84808, 53.18381], [23.86596, 53.172], [23.88312, 53.16399], [23.89366, 53.15195], [23.89139, 53.12771], [23.8824, 53.1133], [23.8703, 53.10126], [23.86069, 53.08748], [23.85935, 53.06798], [23.86793, 53.05103], [23.89821, 53.02754], [23.90968, 53.01273], [23.91134, 53.00506], [23.90896, 52.99305], [23.90906, 52.98666], [23.91754, 52.95881], [23.91795, 52.9508], [23.91495, 52.94463], [23.90389, 52.93114], [23.9011, 52.92326], [23.90203, 52.91253], [23.90545, 52.90654], [23.90948, 52.9015], [23.91206, 52.89385], [23.92043, 52.77262], [23.9225, 52.7426], [23.90875, 52.69986], [23.86896, 52.67004], [23.73615, 52.6149], [23.56903, 52.58589], [23.48046, 52.55442], [23.3923, 52.50964], [23.27055, 52.39512], [23.23045, 52.36507], [23.21205, 52.3475], [23.16565, 52.28939], [23.16875, 52.28893], [23.17608, 52.28513], [23.16813, 52.28172], [23.15025, 52.28156], [23.11883, 52.29319], [23.10053, 52.29598], [23.08699, 52.29234], [23.07191, 52.28596], [23.05568, 52.28286], [23.03904, 52.28916], [23.04204, 52.29376], [23.0471, 52.3042], [23.05206, 52.30962], [23.02395, 52.33047], [23.00576, 52.33701], [22.98447, 52.33014], [22.97506, 52.35283], [22.95201, 52.36652], [22.92277, 52.37226], [22.84463, 52.36564], [22.68898, 52.38538], [22.63627, 52.38363], [22.61188, 52.38727], [22.6002, 52.39902], [22.58294, 52.39453], [22.56268, 52.40406], [22.54584, 52.41871], [22.53881, 52.42944], [22.54481, 52.46253], [22.54222, 52.46729], [22.52817, 52.46868], [22.51979, 52.47333], [22.51504, 52.48176], [22.51142, 52.49457], [22.51235, 52.50341], [22.51669, 52.51132], [22.5201, 52.51953], [22.51762, 52.52935], [22.5107, 52.53529], [22.48858, 52.54677], [22.46781, 52.56434], [22.41189, 52.60064], [22.41499, 52.62234], [22.41179, 52.65971], [22.3997, 52.695], [22.3935, 52.74712], [22.37789, 52.79412], [22.31991, 52.78422], [22.26358, 52.76709], [22.23237, 52.78029], [22.20725, 52.80169], [22.22307, 52.85688], [22.1747, 52.87905], [22.12478, 52.84639], [22.04892, 52.83957], [21.97761, 52.86199], [21.95115, 52.89124], [21.9374, 52.92793], [21.92283, 52.95276], [21.89833, 52.96801], [21.8602, 52.98064], [21.83467, 53.00819], [21.83053, 53.03361], [21.84676, 53.05165], [21.80087, 53.07304], [21.74589, 53.07782], [21.69276, 53.09526], [21.65597, 53.138], [21.60037, 53.22207], [21.57525, 53.337], [21.55923, 53.37635], [21.53629, 53.40876], [21.52295, 53.44351], [21.59572, 53.46258], [21.73876, 53.45756], [21.80159, 53.47079], [21.83095, 53.48464], [21.86257, 53.49268], [21.9373, 53.49932], [22.1099, 53.56986], [22.20705, 53.63523], [22.48558, 53.73791], [22.54305, 53.7739], [22.57788, 53.83219], [22.6185, 53.87816], [22.62211, 53.9248], [22.51597, 54.01236], [22.46522, 54.04172], [22.45458, 54.06941], [22.4491, 54.09923], [22.34812, 54.1786], [22.44218, 54.257], [22.66531, 54.27534], [22.73167, 54.3017], [22.78872, 54.33658], [22.81394, 54.385], [22.81134, 54.39263], [22.8127, 54.3941], [22.8376, 54.40092], [22.85889, 54.39921]]], [[[18.84155, 54.33068], [18.68774, 54.24735], [18.3252, 54.35628], [18.55591, 54.45217], [18.84155, 54.33068]]]]}, "properties": {"id": "QpLU", "status": "validé", "pieces": [{"kind": "admin1", "code": "POL-3150"}, {"kind": "polygon", "ring": [[18.55591, 54.45217], [18.3252, 54.35628], [18.68774, 54.24735], [18.84155, 54.33068]]}]}}, {"type": "Feature", "geometry": {"type": "MultiPolygon", "coordinates": [[[[22.1814, 50.10797], [22.91748, 49.81833], [22.63184, 49.51269], [22.84058, 49.02542], [22.00562, 49.23382], [21.88477, 49.36987], [21.08276, 49.41276], [20.90698, 49.31263], [20.35767, 49.41276], [20.10498, 49.2123], [19.79736, 49.24099], [19.77539, 49.39132], [19.45679, 49.61241], [19.21509, 49.41276], [19.00635, 49.36987], [18.61084, 49.80416], [22.1814, 50.10797]]], [[[17.42432, 50.61239], [17.17163, 50.38186], [16.89697, 50.41686], [16.99585, 50.24862], [16.61133, 50.12205], [16.13892, 50.39587], [16.42456, 50.57753], [16.34766, 50.64722], [14.88647, 50.89724], [15.0293, 51.2354], [17.42432, 50.61239]]]]}, "properties": {"id": "RD4g", "status": "validé", "pieces": [{"kind": "polygon", "ring": [[15.0293, 51.2354], [14.88647, 50.89724], [16.34766, 50.64722], [16.42456, 50.57753], [16.13892, 50.39587], [16.61133, 50.12205], [16.99585, 50.24862], [16.89697, 50.41686], [17.17163, 50.38186], [17.42432, 50.61239]]}, {"kind": "polygon", "ring": [[18.61084, 49.80416], [22.1814, 50.10797], [22.91748, 49.81833], [22.63184, 49.51269], [22.84058, 49.02542], [22.00562, 49.23382], [21.88477, 49.36987], [21.08276, 49.41276], [20.90698, 49.31263], [20.35767, 49.41276], [20.10498, 49.2123], [19.79736, 49.24099], [19.77539, 49.39132], [19.45679, 49.61241], [19.21509, 49.41276], [19.00635, 49.36987]]}]}}, {"type": "Feature", "geometry": null, "properties": {"id": "WkuT", "status": "validé", "pieces": [{"kind": "country"}]}}, {"type": "Feature", "geometry": {"type": "MultiPolygon", "coordinates": [[[[19.85229, 50.61289], [20.0061, 50.39637], [20.30273, 50.21401], [19.83032, 49.33462], [19.51172, 49.57733], [19.13818, 49.40613], [18.92944, 49.50607], [18.06152, 50.04505], [19.85229, 50.61289]]], [[[17.02881, 50.22103], [16.65527, 50.0803], [16.21582, 50.45934], [16.45752, 50.58501], [16.86401, 50.45234], [17.02881, 50.22103]]], [[[21.81885, 51.37484], [20.85205, 51.47071], [20.01709, 52.24391], [17.20459, 52.81842], [15.73242, 54.2156], [16.98486, 54.66266], [18.39111, 54.82747], [18.61084, 54.38222], [19.07227, 54.3054], [19.46777, 54.27977], [20.08301, 53.98378], [20.47852, 53.71168], [21.09375, 53.67267], [21.90674, 53.94502], [22.23633, 54.33103], [22.89551, 54.34383], [23.53271, 54.1642], [23.73047, 53.29365], [23.92822, 53.08309], [23.90625, 52.7653], [23.59863, 52.56549], [23.13721, 52.28423], [23.66455, 52.01469], [23.64258, 51.70271], [22.34619, 51.89287], [21.81885, 51.37484]]]]}, "properties": {"id": "ZbOn", "status": "validé", "pieces": [{"kind": "polygon", "ring": [[16.45752, 50.58501], [16.86401, 50.45234], [17.02881, 50.22103], [16.65527, 50.0803], [16.21582, 50.45934]]}, {"kind": "polygon", "ring": [[18.06152, 50.04505], [19.85229, 50.61289], [20.0061, 50.39637], [20.30273, 50.21401], [19.83032, 49.33462], [19.51172, 49.57733], [19.13818, 49.40613], [18.92944, 49.50607]]}, {"kind": "polygon", "ring": [[23.64258, 51.70271], [22.34619, 51.89287], [21.81885, 51.37484], [20.85205, 51.47071], [20.01709, 52.24391], [17.20459, 52.81842], [15.73242, 54.2156], [16.98486, 54.66266], [18.39111, 54.82747], [18.61084, 54.38222], [19.07227, 54.3054], [19.46777, 54.27977], [20.08301, 53.98378], [20.47852, 53.71168], [21.09375, 53.67267], [21.90674, 53.94502], [22.23633, 54.33103], [22.89551, 54.34383], [23.53271, 54.1642], [23.73047, 53.29365], [23.92822, 53.08309], [23.90625, 52.7653], [23.59863, 52.56549], [23.13721, 52.28423], [23.66455, 52.01469]]}]}}, {"type": "Feature", "geometry": {"type": "Polygon", "coordinates": [[[14.66675, 53.363], [14.66675, 53.48978], [14.44977, 53.48978], [14.44977, 53.363], [14.66675, 53.363]]]}, "properties": {"id": "blym", "status": "validé", "pieces": [{"kind": "rect", "bounds": [14.44977, 53.363, 14.66675, 53.48978]}]}}, {"type": "Feature", "geometry": null, "properties": {"id": "dcsB", "status": "validé", "pieces": [{"kind": "country"}]}}, {"type": "Feature", "geometry": null, "properties": {"id": "doge", "status": "validé", "pieces": [{"kind": "country"}]}}, {"type": "Feature", "geometry": {"type": "Polygon", "coordinates": [[[20.20935, 49.17876], [20.20935, 49.44724], [19.7644, 49.44724], [19.7644, 49.17876], [20.20935, 49.17876]]]}, "properties": {"id": "dx99", "status": "validé", "pieces": [{"kind": "rect", "bounds": [19.7644, 49.17876, 20.20935, 49.44724]}]}}, {"type": "Feature", "geometry": null, "properties": {"id": "gOOw", "status": "validé", "pieces": [{"kind": "country"}]}}, {"type": "Feature", "geometry": {"type": "MultiPolygon", "coordinates": [[[[21.26816, 49.5664], [21.33408, 49.57263], [21.34644, 49.49067], [21.36292, 49.44785], [21.25854, 49.45053], [21.23657, 49.50939], [21.26816, 49.5664]]], [[[18.06152, 50.14325], [17.70996, 50.42393], [18.07251, 50.61943], [17.69897, 50.828], [18.57788, 50.84187], [18.35815, 50.25572], [18.06152, 50.14325]]], [[[23.40225, 52.59023], [23.29445, 52.52763], [23.26149, 52.56353], [23.2972, 52.59231], [23.32741, 52.61732], [23.40225, 52.59023]]], [[[17.81982, 53.79516], [17.38037, 53.93763], [17.1167, 53.87293], [16.98486, 54.08605], [17.39136, 54.22752], [17.41333, 54.48989], [17.79785, 54.41966], [18.02856, 54.62998], [18.21533, 54.56636], [18.50098, 54.20184], [18.20435, 54.11181], [17.81982, 53.79516]]], [[[23.2196, 54.26528], [23.09875, 54.21876], [22.9422, 54.28452], [23.04657, 54.33898], [23.07404, 54.29894], [23.16193, 54.30375], [23.2196, 54.26528]]]]}, "properties": {"id": "gxrJ", "status": "validé", "pieces": [{"kind": "polygon", "ring": [[23.04657, 54.33898], [22.9422, 54.28452], [23.09875, 54.21876], [23.2196, 54.26528], [23.16193, 54.30375], [23.07404, 54.29894]]}, {"kind": "polygon", "ring": [[23.2972, 52.59231], [23.26149, 52.56353], [23.29445, 52.52763], [23.40225, 52.59023], [23.32741, 52.61732]]}, {"kind": "polygon", "ring": [[21.25854, 49.45053], [21.23657, 49.50939], [21.26816, 49.5664], [21.33408, 49.57263], [21.34644, 49.49067], [21.36292, 49.44785]]}, {"kind": "polygon", "ring": [[18.57788, 50.84187], [18.35815, 50.25572], [18.06152, 50.14325], [17.70996, 50.42393], [18.07251, 50.61943], [17.69897, 50.828]]}, {"kind": "polygon", "ring": [[18.21533, 54.56636], [18.50098, 54.20184], [18.20435, 54.11181], [17.81982, 53.79516], [17.38037, 53.93763], [17.1167, 53.87293], [16.98486, 54.08605], [17.39136, 54.22752], [17.41333, 54.48989], [17.79785, 54.41966], [18.02856, 54.62998]]}]}}, {"type": "Feature", "geometry": null, "properties": {"id": "hZvJ", "status": "rejeté", "pieces": []}}, {"type": "Feature", "geometry": null, "properties": {"id": "htL5", "status": "validé", "pieces": [{"kind": "country"}]}}, {"type": "Feature", "geometry": null, "properties": {"id": "k6sd", "status": "validé", "pieces": [{"kind": "admin1", "code": "POL-3150"}]}}, {"type": "Feature", "geometry": null, "properties": {"id": "kRKi", "status": "validé", "pieces": [{"kind": "country"}]}}, {"type": "Feature", "geometry": null, "properties": {"id": "mshS", "status": "validé", "pieces": [{"kind": "country"}]}}, {"type": "Feature", "geometry": null, "properties": {"id": "oHYD", "status": "validé", "pieces": [{"kind": "country"}]}}, {"type": "Feature", "geometry": null, "properties": {"id": "rudj", "status": "validé", "pieces": [{"kind": "country"}]}}, {"type": "Feature", "geometry": {"type": "Polygon", "coordinates": [[[23.25394, 53.0917], [23.25394, 53.18064], [23.05618, 53.18064], [23.05618, 53.0917], [23.25394, 53.0917]]]}, "properties": {"id": "v82S", "status": "validé", "pieces": [{"kind": "rect", "bounds": [23.05618, 53.0917, 23.25394, 53.18064]}]}}, {"type": "Feature", "geometry": null, "properties": {"id": "vySo", "status": "validé", "pieces": [{"kind": "country"}]}}, {"type": "Feature", "geometry": null, "properties": {"id": "y2jz", "status": "validé", "pieces": [{"kind": "country"}]}}]}