{"type": "FeatureCollection", "features": [{"type": "Feature", "geometry": {"type": "MultiPolygon", "coordinates": [[[[-130.13409, -25.09175], [-130.13409, -25.05009], [-130.07504, -25.05009], [-130.07504, -25.09175], [-130.13409, -25.09175]]], [[[-128.37799, -24.45708], [-128.37799, -24.3183], [-128.25027, -24.3183], [-128.25027, -24.45708], [-128.37799, -24.45708]]]]}, "properties": {"id": "98o5", "status": "validé", "pieces": [{"kind": "rect", "bounds": [-130.13409, -25.09175, -130.07504, -25.05009]}, {"kind": "rect", "bounds": [-128.37799, -24.45708, -128.25027, -24.3183]}]}}, {"type": "Feature", "geometry": {"type": "Polygon", "coordinates": [[[-130.05615, -25.098], [-130.05615, -25.03707], [-130.14816, -25.03707], [-130.14816, -25.098], [-130.05615, -25.098]]]}, "properties": {"id": "NJg9", "status": "validé", "pieces": [{"kind": "rect", "bounds": [-130.14816, -25.098, -130.05615, -25.03707]}]}}, {"type": "Feature", "geometry": {"type": "Polygon", "coordinates": [[[-130.06027, -25.10791], [-130.06027, -25.04077], [-130.15366, -25.04077], [-130.15366, -25.10791], [-130.06027, -25.10791]]]}, "properties": {"id": "No2U", "status": "validé", "pieces": [{"kind": "rect", "bounds": [-130.15366, -25.10791, -130.06027, -25.04077]}]}}, {"type": "Feature", "geometry": {"type": "Polygon", "coordinates": [[[-130.03143, -25.10788], [-130.03143, -25.03079], [-130.177, -25.03079], [-130.177, -25.10788], [-130.03143, -25.10788]]]}, "properties": {"id": "Vx9G", "status": "validé", "pieces": [{"kind": "rect", "bounds": [-130.177, -25.10788, -130.03143, -25.03079]}]}}, {"type": "Feature", "geometry": {"type": "Polygon", "coordinates": [[[-130.10134, -25.06301], [-130.10542, -25.06531], [-130.10314, -25.07016], [-130.09941, -25.07067], [-130.0949, -25.06912], [-130.09795, -25.0636], [-130.10134, -25.06301]]]}, "properties": {"id": "YjoB", "status": "validé", "pieces": [{"kind": "polygon", "ring": [[-130.10134, -25.06301], [-130.10542, -25.06531], [-130.10314, -25.07016], [-130.09941, -25.07067], [-130.0949, -25.06912], [-130.09795, -25.0636]]}]}}, {"type": "Feature", "geometry": null, "properties": {"id": "jfvK", "status": "rejeté", "pieces": []}}, {"type": "Feature", "geometry": {"type": "Polygon", "coordinates": [[[-130.09528, -25.06949], [-130.09528, -25.06834], [-130.09641, -25.06834], [-130.09641, -25.06949], [-130.09528, -25.06949]]]}, "properties": {"id": "rcoG", "status": "validé", "pieces": [{"kind": "rect", "bounds": [-130.09641, -25.06949, -130.09528, -25.06834]}]}}, {"type": "Feature", "geometry": {"type": "Polygon", "coordinates": [[[-128.24066162109378, -24.459387509720845], [-128.24066162109378, -24.318111359775326], [-128.38073730468753, -24.318111359775326], [-128.38073730468753, -24.459387509720845], [-128.24066162109378, -24.459387509720845]]]}, "properties": {"id": "wWlg", "status": "validé", "pieces": [{"kind": "rect", "bounds": [-128.38074, -24.45939, -128.24066, -24.31811]}]}}]}