{"type": "FeatureCollection", "features": [{"type": "Feature", "geometry": {"type": "Polygon", "coordinates": [[[-66.66229, 18.01308], [-66.57166, 18.05224], [-66.4563, 18.06529], [-66.11572, 18.03919], [-66.00586, 18.01308], [-65.92896, 17.97913], [-65.92744, 17.97439], [-65.93912, 17.97053], [-65.96166, 17.97102], [-65.98453, 17.97565], [-66.00499, 17.97752], [-66.01708, 17.97508], [-66.04654, 17.96385], [-66.05358, 17.96312], [-66.0841, 17.96385], [-66.10464, 17.95893], [-66.16324, 17.92914], [-66.17561, 17.92821], [-66.18663, 17.92862], [-66.19628, 17.92772], [-66.20421, 17.92292], [-66.20857, 17.92914], [-66.20983, 17.93187], [-66.21044, 17.93659], [-66.19957, 17.9396], [-66.19701, 17.9444], [-66.20116, 17.95051], [-66.21044, 17.9571], [-66.22989, 17.94042], [-66.24136, 17.93732], [-66.25552, 17.94066], [-66.28307, 17.94343], [-66.29259, 17.94575], [-66.29772, 17.9514], [-66.30138, 17.9582], [-66.30663, 17.96385], [-66.31916, 17.97036], [-66.32811, 17.97232], [-66.34447, 17.97134], [-66.36767, 17.96601], [-66.39615, 17.94725], [-66.41649, 17.94961], [-66.4359, 17.96402], [-66.45214, 17.98216], [-66.46915, 17.99266], [-66.4878, 17.98885], [-66.50197, 17.98711], [-66.51252, 17.982], [-66.52701, 17.97931], [-66.55988, 17.97752], [-66.57042, 17.97236], [-66.58064, 17.96581], [-66.59252, 17.96357], [-66.60827, 17.97134], [-66.61531, 17.96674], [-66.62255, 17.96385], [-66.62938, 17.97517], [-66.6466, 17.97663], [-66.68741, 17.97134], [-66.69498, 17.97309], [-66.71706, 17.98139], [-66.66229, 18.01308]]]}, "properties": {"id": "1NMP", "status": "validé", "pieces": [{"kind": "polygon", "ring": [[-66.72546, 17.97652], [-66.66229, 18.01308], [-66.57166, 18.05224], [-66.4563, 18.06529], [-66.11572, 18.03919], [-66.00586, 18.01308], [-65.92896, 17.97913], [-65.90149, 17.89294], [-66.50024, 17.87987]]}, {"kind": "clip"}]}}, {"type": "Feature", "geometry": {"type": "MultiPolygon", "coordinates": [[[[-67.01385, 18.04975], [-66.91223, 18.04714], [-66.72546, 18.06019], [-66.58813, 18.08368], [-66.50299, 18.09151], [-66.39313, 18.07324], [-66.36017, 18.03409], [-66.23383, 18.01581], [-66.15143, 18.00015], [-66.05804, 18.00015], [-65.98938, 18.00276], [-65.91045, 17.98002], [-65.93912, 17.97053], [-65.96166, 17.97102], [-65.98453, 17.97565], [-66.00499, 17.97752], [-66.01708, 17.97508], [-66.04654, 17.96385], [-66.05358, 17.96312], [-66.0841, 17.96385], [-66.10464, 17.95893], [-66.16324, 17.92914], [-66.17561, 17.92821], [-66.18663, 17.92862], [-66.19628, 17.92772], [-66.20421, 17.92292], [-66.20857, 17.92914], [-66.20983, 17.93187], [-66.21044, 17.93659], [-66.19957, 17.9396], [-66.19701, 17.9444], [-66.20116, 17.95051], [-66.21044, 17.9571], [-66.22989, 17.94042], [-66.24136, 17.93732], [-66.25552, 17.94066], [-66.28307, 17.94343], [-66.29259, 17.94575], [-66.29772, 17.9514], [-66.30138, 17.9582], [-66.30663, 17.96385], [-66.31916, 17.97036], [-66.32811, 17.97232], [-66.34447, 17.97134], [-66.36767, 17.96601], [-66.39615, 17.94725], [-66.41649, 17.94961], [-66.4359, 17.96402], [-66.45214, 17.98216], [-66.46915, 17.99266], [-66.4878, 17.98885], [-66.50197, 17.98711], [-66.51252, 17.982], [-66.52701, 17.97931], [-66.55988, 17.97752], [-66.57042, 17.97236], [-66.58064, 17.96581], [-66.59252, 17.96357], [-66.60827, 17.97134], [-66.61531, 17.96674], [-66.62255, 17.96385], [-66.62938, 17.97517], [-66.6466, 17.97663], [-66.68741, 17.97134], [-66.69498, 17.97309], [-66.72496, 17.98436], [-66.76594, 17.98436], [-66.76513, 17.99803], [-66.77404, 18.00218], [-66.78746, 17.99933], [-66.80012, 17.99185], [-66.80012, 17.98436], [-66.78645, 17.98436], [-66.79796, 17.96931], [-66.8177, 17.95897], [-66.84057, 17.9527], [-66.86148, 17.94961], [-66.89265, 17.95067], [-66.90783, 17.9492], [-66.91902, 17.95014], [-66.92422, 17.94961], [-66.92821, 17.94554], [-66.92992, 17.93862], [-66.93041, 17.92914], [-66.94913, 17.93122], [-66.96325, 17.94107], [-66.98571, 17.96385], [-67.00596, 17.96491], [-67.02853, 17.96854], [-67.05271, 17.96817], [-67.06701, 17.97256], [-67.08092, 17.96125], [-67.09732, 17.95287], [-67.11197, 17.94961], [-67.12401, 17.95116], [-67.15856, 17.95457], [-67.18047, 17.96612], [-67.19122, 17.95799], [-67.18419, 17.93507], [-67.19507, 17.93568], [-67.20961, 17.95689], [-67.21477, 17.96634], [-67.21435, 17.99414], [-67.1905, 18.00483], [-67.18334, 18.00853], [-67.17422, 18.01118], [-67.16649, 18.01504], [-67.1632, 18.02253], [-67.16723, 18.0279], [-67.17687, 18.0327], [-67.19008, 18.03031], [-67.20288, 18.03572], [-67.20213, 18.05436], [-67.20199, 18.05456], [-67.10724, 18.05236], [-67.01385, 18.04975]]], [[[-65.81909, 18.10186], [-65.81635, 18.1723], [-65.73669, 18.2349], [-65.68726, 18.26619], [-65.68451, 18.33396], [-65.74493, 18.36523], [-65.88501, 18.38868], [-66.00037, 18.4017], [-66.06628, 18.39128], [-66.16516, 18.37304], [-66.2558, 18.37304], [-66.32446, 18.38086], [-66.40411, 18.41212], [-66.51123, 18.40691], [-66.64856, 18.40431], [-66.82983, 18.43556], [-66.95892, 18.4538], [-67.07016, 18.47971], [-67.14157, 18.47841], [-67.14569, 18.39767], [-67.22672, 18.34947], [-67.22122, 18.31299], [-67.19101, 18.30647], [-67.16217, 18.26215], [-67.15697, 18.21157], [-67.15847, 18.21396], [-67.1712, 18.22487], [-67.18708, 18.27277], [-67.19651, 18.29134], [-67.21883, 18.29557], [-67.23691, 18.29986], [-67.25277, 18.32934], [-67.2626, 18.34381], [-67.27084, 18.36183], [-67.26883, 18.3689], [-67.24027, 18.37681], [-67.21736, 18.38618], [-67.19839, 18.3937], [-67.18432, 18.40209], [-67.15945, 18.42091], [-67.15812, 18.44311], [-67.1687, 18.46061], [-67.17001, 18.48602], [-67.15168, 18.50894], [-67.10171, 18.52277], [-67.04845, 18.52115], [-67.01236, 18.50576], [-66.90732, 18.48532], [-66.80346, 18.49828], [-66.78921, 18.49653], [-66.7517, 18.48404], [-66.73681, 18.48314], [-66.69766, 18.49144], [-66.64086, 18.4964], [-66.61433, 18.49323], [-66.5878, 18.48404], [-66.57144, 18.48701], [-66.50707, 18.4864], [-66.46744, 18.47529], [-66.3824, 18.49144], [-66.30386, 18.46882], [-66.25813, 18.48151], [-66.20519, 18.4654], [-66.19399, 18.47359], [-66.1809, 18.4715], [-66.17369, 18.46296], [-66.17007, 18.45734], [-66.16158, 18.4533], [-66.15201, 18.45872], [-66.14409, 18.4687], [-66.13415, 18.46589], [-66.13747, 18.45276], [-66.11808, 18.44303], [-66.11486, 18.43317], [-66.10847, 18.42064], [-66.09317, 18.41983], [-66.06021, 18.42939], [-66.06021, 18.43683], [-66.07677, 18.43887], [-66.09496, 18.4477], [-66.10936, 18.46141], [-66.12163, 18.47347], [-66.0559, 18.4538], [-66.0397, 18.45051], [-66.02818, 18.44687], [-66.0121, 18.44396], [-65.99772, 18.45019], [-65.98888, 18.46308], [-65.96622, 18.45844], [-65.92044, 18.44589], [-65.90483, 18.45593], [-65.89281, 18.4536], [-65.88052, 18.44481], [-65.8483, 18.43789], [-65.8308, 18.4287], [-65.81261, 18.41041], [-65.80163, 18.41544], [-65.79417, 18.42541], [-65.78835, 18.42325], [-65.78715, 18.41831], [-65.79232, 18.41276], [-65.79631, 18.40503], [-65.78878, 18.40674], [-65.77837, 18.41067], [-65.77203, 18.41457], [-65.755, 18.39104], [-65.73811, 18.38237], [-65.72485, 18.39127], [-65.69801, 18.37111], [-65.6632, 18.36641], [-65.64574, 18.3784], [-65.63777, 18.38569], [-65.62938, 18.39106], [-65.62141, 18.38906], [-65.621, 18.38227], [-65.63077, 18.33283], [-65.63296, 18.291], [-65.62881, 18.2792], [-65.63292, 18.26691], [-65.6258, 18.25983], [-65.61759, 18.25634], [-65.6037, 18.26286], [-65.60659, 18.25361], [-65.60377, 18.24634], [-65.59176, 18.23089], [-65.60211, 18.22375], [-65.60353, 18.21527], [-65.61244, 18.2145], [-65.62222, 18.22926], [-65.63336, 18.22918], [-65.63699, 18.21857], [-65.62723, 18.20593], [-65.63683, 18.1981], [-65.64874, 18.20013], [-65.66552, 18.20844], [-65.68297, 18.20283], [-65.70128, 18.19424], [-65.72102, 18.18985], [-65.73754, 18.18268], [-65.75487, 18.16625], [-65.79029, 18.11397], [-65.79314, 18.08763], [-65.80055, 18.07836], [-65.81909, 18.10186]]]]}, "properties": {"id": "2LXU", "status": "validé", "pieces": [{"kind": "polygon", "ring": [[-67.21985, 18.05497], [-67.10724, 18.05236], [-67.01385, 18.04975], [-66.91223, 18.04714], [-66.72546, 18.06019], [-66.58813, 18.08368], [-66.50299, 18.09151], [-66.39313, 18.07324], [-66.36017, 18.03409], [-66.23383, 18.01581], [-66.15143, 18.00015], [-66.05804, 18.00015], [-65.98938, 18.00276], [-65.89874, 17.97664], [-65.93719, 17.81205], [-67.24182, 17.84864], [-67.35992, 17.98187]]}, {"kind": "clip"}, {"kind": "polygon", "ring": [[-67.15668, 18.2087], [-67.16217, 18.26215], [-67.19101, 18.30647], [-67.22122, 18.31299], [-67.22672, 18.34947], [-67.14569, 18.39767], [-67.14157, 18.47841], [-67.07016, 18.47971], [-66.95892, 18.4538], [-66.82983, 18.43556], [-66.64856, 18.40431], [-66.51123, 18.40691], [-66.40411, 18.41212], [-66.32446, 18.38086], [-66.2558, 18.37304], [-66.16516, 18.37304], [-66.06628, 18.39128], [-66.00037, 18.4017], [-65.88501, 18.38868], [-65.74493, 18.36523], [-65.68451, 18.33396], [-65.68726, 18.26619], [-65.73669, 18.2349], [-65.81635, 18.1723], [-65.81909, 18.10186], [-65.76141, 18.02878], [-65.41809, 18.32614], [-65.87952, 18.58917], [-67.30225, 18.59957], [-67.41486, 18.24272]]}]}}, {"type": "Feature", "geometry": null, "properties": {"id": "4QdF", "status": "rejeté", "pieces": []}}, {"type": "Feature", "geometry": {"type": "MultiPolygon", "coordinates": [[[[-67.84415, 18.09756], [-67.84976, 18.09064], [-67.85993, 18.07315], [-67.86417, 18.06875], [-67.86754, 18.0642], [-67.86889, 18.05634], [-67.87316, 18.05345], [-67.88256, 18.05256], [-67.89196, 18.05345], [-67.89623, 18.05634], [-67.9027, 18.06542], [-67.93114, 18.08051], [-67.93782, 18.09422], [-67.9313, 18.10871], [-67.91975, 18.11449], [-67.86189, 18.11612], [-67.85586, 18.11469], [-67.84435, 18.10456], [-67.84415, 18.09756]]], [[[-65.37121, 18.11953], [-65.39025, 18.11197], [-65.46858, 18.09443], [-65.48424, 18.08735], [-65.50487, 18.09365], [-65.536, 18.09007], [-65.56509, 18.09394], [-65.58043, 18.12214], [-65.56493, 18.12263], [-65.55993, 18.12214], [-65.54015, 18.12376], [-65.52025, 18.13093], [-65.50219, 18.14126], [-65.48794, 18.15229], [-65.4785, 18.15705], [-65.39855, 18.16934], [-65.38581, 18.16718], [-65.35106, 18.15571], [-65.29857, 18.15371], [-65.28555, 18.14887], [-65.27575, 18.13715], [-65.28307, 18.13349], [-65.3098, 18.1352], [-65.31656, 18.1328], [-65.33556, 18.12027], [-65.34081, 18.11469], [-65.34773, 18.11469], [-65.3566, 18.12287], [-65.37121, 18.11953]]], [[[-65.6258, 18.25983], [-65.61759, 18.25634], [-65.6037, 18.26286], [-65.60659, 18.25361], [-65.60377, 18.24634], [-65.59176, 18.23089], [-65.60211, 18.22375], [-65.60353, 18.21527], [-65.61244, 18.2145], [-65.62222, 18.22926], [-65.63336, 18.22918], [-65.63699, 18.21857], [-65.62723, 18.20593], [-65.63683, 18.1981], [-65.64874, 18.20013], [-65.66552, 18.20844], [-65.68297, 18.20283], [-65.70128, 18.19424], [-65.72102, 18.18985], [-65.73754, 18.18268], [-65.75487, 18.16625], [-65.79029, 18.11397], [-65.79314, 18.08763], [-65.807, 18.0703], [-65.81216, 18.06729], [-65.83528, 18.06249], [-65.84048, 18.05634], [-65.83027, 18.02691], [-65.84975, 18.00971], [-65.88718, 17.98773], [-65.93912, 17.97053], [-65.96166, 17.97102], [-65.98453, 17.97565], [-66.00499, 17.97752], [-66.01708, 17.97508], [-66.04654, 17.96385], [-66.05358, 17.96312], [-66.0841, 17.96385], [-66.10464, 17.95893], [-66.16324, 17.92914], [-66.17561, 17.92821], [-66.18663, 17.92862], [-66.19628, 17.92772], [-66.20421, 17.92292], [-66.20857, 17.92914], [-66.20983, 17.93187], [-66.21044, 17.93659], [-66.19957, 17.9396], [-66.19701, 17.9444], [-66.20116, 17.95051], [-66.21044, 17.9571], [-66.22989, 17.94042], [-66.24136, 17.93732], [-66.25552, 17.94066], [-66.28307, 17.94343], [-66.29259, 17.94575], [-66.29772, 17.9514], [-66.30138, 17.9582], [-66.30663, 17.96385], [-66.31916, 17.97036], [-66.32811, 17.97232], [-66.34447, 17.97134], [-66.36767, 17.96601], [-66.39615, 17.94725], [-66.41649, 17.94961], [-66.4359, 17.96402], [-66.45214, 17.98216], [-66.46915, 17.99266], [-66.4878, 17.98885], [-66.50197, 17.98711], [-66.51252, 17.982], [-66.52701, 17.97931], [-66.55988, 17.97752], [-66.57042, 17.97236], [-66.58064, 17.96581], [-66.59252, 17.96357], [-66.60827, 17.97134], [-66.61531, 17.96674], [-66.62255, 17.96385], [-66.62938, 17.97517], [-66.6466, 17.97663], [-66.68741, 17.97134], [-66.69498, 17.97309], [-66.72496, 17.98436], [-66.76594, 17.98436], [-66.76513, 17.99803], [-66.77404, 18.00218], [-66.78746, 17.99933], [-66.80012, 17.99185], [-66.80012, 17.98436], [-66.78645, 17.98436], [-66.79796, 17.96931], [-66.8177, 17.95897], [-66.84057, 17.9527], [-66.86148, 17.94961], [-66.89265, 17.95067], [-66.90783, 17.9492], [-66.91902, 17.95014], [-66.92422, 17.94961], [-66.92821, 17.94554], [-66.92992, 17.93862], [-66.93041, 17.92914], [-66.94913, 17.93122], [-66.96325, 17.94107], [-66.98571, 17.96385], [-67.00596, 17.96491], [-67.02853, 17.96854], [-67.05271, 17.96817], [-67.06701, 17.97256], [-67.08092, 17.96125], [-67.09732, 17.95287], [-67.11197, 17.94961], [-67.12401, 17.95116], [-67.15856, 17.95457], [-67.18047, 17.96612], [-67.19122, 17.95799], [-67.18419, 17.93507], [-67.19507, 17.93568], [-67.20961, 17.95689], [-67.21477, 17.96634], [-67.21435, 17.99414], [-67.1905, 18.00483], [-67.18334, 18.00853], [-67.17422, 18.01118], [-67.16649, 18.01504], [-67.1632, 18.02253], [-67.16723, 18.0279], [-67.17687, 18.0327], [-67.19008, 18.03031], [-67.20288, 18.03572], [-67.20213, 18.05436], [-67.1954, 18.06377], [-67.18569, 18.07043], [-67.18974, 18.08061], [-67.19388, 18.0973], [-67.18324, 18.10769], [-67.18378, 18.13995], [-67.17369, 18.17617], [-67.16591, 18.18407], [-67.15754, 18.19173], [-67.15186, 18.20339], [-67.15847, 18.21396], [-67.1712, 18.22487], [-67.18708, 18.27277], [-67.19651, 18.29134], [-67.21883, 18.29557], [-67.23691, 18.29986], [-67.25277, 18.32934], [-67.2626, 18.34381], [-67.27084, 18.36183], [-67.26883, 18.3689], [-67.24027, 18.37681], [-67.21736, 18.38618], [-67.19839, 18.3937], [-67.18432, 18.40209], [-67.15945, 18.42091], [-67.15812, 18.44311], [-67.1687, 18.46061], [-67.17001, 18.48602], [-67.15168, 18.50894], [-67.10171, 18.52277], [-67.04845, 18.52115], [-67.01236, 18.50576], [-66.90732, 18.48532], [-66.80346, 18.49828], [-66.78921, 18.49653], [-66.7517, 18.48404], [-66.73681, 18.48314], [-66.69766, 18.49144], [-66.64086, 18.4964], [-66.61433, 18.49323], [-66.5878, 18.48404], [-66.57144, 18.48701], [-66.50707, 18.4864], [-66.46744, 18.47529], [-66.3824, 18.49144], [-66.30386, 18.46882], [-66.25813, 18.48151], [-66.20519, 18.4654], [-66.19399, 18.47359], [-66.1809, 18.4715], [-66.17369, 18.46296], [-66.17007, 18.45734], [-66.16158, 18.4533], [-66.15201, 18.45872], [-66.14409, 18.4687], [-66.13415, 18.46589], [-66.13747, 18.45276], [-66.11808, 18.44303], [-66.11486, 18.43317], [-66.10847, 18.42064], [-66.09317, 18.41983], [-66.06021, 18.42939], [-66.06021, 18.43683], [-66.07677, 18.43887], [-66.09496, 18.4477], [-66.10936, 18.46141], [-66.12163, 18.47347], [-66.0559, 18.4538], [-66.0397, 18.45051], [-66.02818, 18.44687], [-66.0121, 18.44396], [-65.99772, 18.45019], [-65.98888, 18.46308], [-65.96622, 18.45844], [-65.92044, 18.44589], [-65.90483, 18.45593], [-65.89281, 18.4536], [-65.88052, 18.44481], [-65.8483, 18.43789], [-65.8308, 18.4287], [-65.81261, 18.41041], [-65.80163, 18.41544], [-65.79417, 18.42541], [-65.78835, 18.42325], [-65.78715, 18.41831], [-65.79232, 18.41276], [-65.79631, 18.40503], [-65.78878, 18.40674], [-65.77837, 18.41067], [-65.77203, 18.41457], [-65.755, 18.39104], [-65.73811, 18.38237], [-65.72485, 18.39127], [-65.69801, 18.37111], [-65.6632, 18.36641], [-65.64574, 18.3784], [-65.63777, 18.38569], [-65.62938, 18.39106], [-65.62141, 18.38906], [-65.621, 18.38227], [-65.63077, 18.33283], [-65.63296, 18.291], [-65.62881, 18.2792], [-65.63292, 18.26691], [-65.6258, 18.25983]]], [[[-65.33434, 18.3371], [-65.33406, 18.34064], [-65.30944, 18.34077], [-65.28091, 18.33527], [-65.25666, 18.32392], [-65.24462, 18.30654], [-65.24755, 18.30585], [-65.25829, 18.30654], [-65.25145, 18.29971], [-65.26211, 18.29922], [-65.27042, 18.30142], [-65.27603, 18.30634], [-65.2788, 18.31395], [-65.28555, 18.31395], [-65.27652, 18.29694], [-65.27481, 18.28901], [-65.2788, 18.2792], [-65.29259, 18.29995], [-65.33434, 18.3371]]]]}, "properties": {"id": "8rin", "status": "validé", "pieces": [{"kind": "country"}]}}, {"type": "Feature", "geometry": {"type": "Polygon", "coordinates": [[[-67.06879, 18.39916], [-67.06055, 18.33923], [-67.09625, 18.26104], [-67.10449, 18.09931], [-66.85455, 18.08366], [-66.68701, 18.11236], [-66.42059, 18.0967], [-66.31897, 18.07322], [-66.1377, 18.07061], [-65.98938, 18.02884], [-65.89325, 18.03667], [-65.84106, 18.16454], [-65.73395, 18.23757], [-65.66528, 18.31578], [-65.74219, 18.35487], [-65.82733, 18.36529], [-65.92346, 18.27668], [-66.05804, 18.31838], [-66.16241, 18.35487], [-66.26129, 18.31317], [-66.39862, 18.35226], [-66.56342, 18.3236], [-66.65405, 18.3705], [-66.85455, 18.42261], [-67.07703, 18.44605], [-67.06879, 18.39916]]]}, "properties": {"id": "CcDj", "status": "validé", "pieces": [{"kind": "polygon", "ring": [[-67.06879, 18.39916], [-67.06055, 18.33923], [-67.09625, 18.26104], [-67.10449, 18.09931], [-66.85455, 18.08366], [-66.68701, 18.11236], [-66.42059, 18.0967], [-66.31897, 18.07322], [-66.1377, 18.07061], [-65.98938, 18.02884], [-65.89325, 18.03667], [-65.84106, 18.16454], [-65.73395, 18.23757], [-65.66528, 18.31578], [-65.74219, 18.35487], [-65.82733, 18.36529], [-65.92346, 18.27668], [-66.05804, 18.31838], [-66.16241, 18.35487], [-66.26129, 18.31317], [-66.39862, 18.35226], [-66.56342, 18.3236], [-66.65405, 18.3705], [-66.85455, 18.42261], [-67.07703, 18.44605]]}]}}, {"type": "Feature", "geometry": {"type": "MultiPolygon", "coordinates": [[[[-67.84415, 18.09756], [-67.84976, 18.09064], [-67.85993, 18.07315], [-67.86417, 18.06875], [-67.86754, 18.0642], [-67.86889, 18.05634], [-67.87316, 18.05345], [-67.88256, 18.05256], [-67.89196, 18.05345], [-67.89623, 18.05634], [-67.9027, 18.06542], [-67.93114, 18.08051], [-67.93782, 18.09422], [-67.9313, 18.10871], [-67.91975, 18.11449], [-67.86189, 18.11612], [-67.85586, 18.11469], [-67.84435, 18.10456], [-67.84415, 18.09756]]], [[[-65.37121, 18.11953], [-65.39025, 18.11197], [-65.46858, 18.09443], [-65.48424, 18.08735], [-65.50487, 18.09365], [-65.536, 18.09007], [-65.56509, 18.09394], [-65.58043, 18.12214], [-65.56493, 18.12263], [-65.55993, 18.12214], [-65.54015, 18.12376], [-65.52025, 18.13093], [-65.50219, 18.14126], [-65.48794, 18.15229], [-65.4785, 18.15705], [-65.39855, 18.16934], [-65.38581, 18.16718], [-65.35106, 18.15571], [-65.29857, 18.15371], [-65.28555, 18.14887], [-65.27575, 18.13715], [-65.28307, 18.13349], [-65.3098, 18.1352], [-65.31656, 18.1328], [-65.33556, 18.12027], [-65.34081, 18.11469], [-65.34773, 18.11469], [-65.3566, 18.12287], [-65.37121, 18.11953]]], [[[-65.6258, 18.25983], [-65.61759, 18.25634], [-65.6037, 18.26286], [-65.60659, 18.25361], [-65.60377, 18.24634], [-65.59176, 18.23089], [-65.60211, 18.22375], [-65.60353, 18.21527], [-65.61244, 18.2145], [-65.62222, 18.22926], [-65.63336, 18.22918], [-65.63699, 18.21857], [-65.62723, 18.20593], [-65.63683, 18.1981], [-65.64874, 18.20013], [-65.66552, 18.20844], [-65.68297, 18.20283], [-65.70128, 18.19424], [-65.72102, 18.18985], [-65.73754, 18.18268], [-65.75487, 18.16625], [-65.79029, 18.11397], [-65.79314, 18.08763], [-65.807, 18.0703], [-65.81216, 18.06729], [-65.83528, 18.06249], [-65.84048, 18.05634], [-65.83027, 18.02691], [-65.84975, 18.00971], [-65.88718, 17.98773], [-65.93912, 17.97053], [-65.96166, 17.97102], [-65.98453, 17.97565], [-66.00499, 17.97752], [-66.01708, 17.97508], [-66.04654, 17.96385], [-66.05358, 17.96312], [-66.0841, 17.96385], [-66.10464, 17.95893], [-66.16324, 17.92914], [-66.17561, 17.92821], [-66.18663, 17.92862], [-66.19628, 17.92772], [-66.20421, 17.92292], [-66.20857, 17.92914], [-66.20983, 17.93187], [-66.21044, 17.93659], [-66.19957, 17.9396], [-66.19701, 17.9444], [-66.20116, 17.95051], [-66.21044, 17.9571], [-66.22989, 17.94042], [-66.24136, 17.93732], [-66.25552, 17.94066], [-66.28307, 17.94343], [-66.29259, 17.94575], [-66.29772, 17.9514], [-66.30138, 17.9582], [-66.30663, 17.96385], [-66.31916, 17.97036], [-66.32811, 17.97232], [-66.34447, 17.97134], [-66.36767, 17.96601], [-66.39615, 17.94725], [-66.41649, 17.94961], [-66.4359, 17.96402], [-66.45214, 17.98216], [-66.46915, 17.99266], [-66.4878, 17.98885], [-66.50197, 17.98711], [-66.51252, 17.982], [-66.52701, 17.97931], [-66.55988, 17.97752], [-66.57042, 17.97236], [-66.58064, 17.96581], [-66.59252, 17.96357], [-66.60827, 17.97134], [-66.61531, 17.96674], [-66.62255, 17.96385], [-66.62938, 17.97517], [-66.6466, 17.97663], [-66.68741, 17.97134], [-66.69498, 17.97309], [-66.72496, 17.98436], [-66.76594, 17.98436], [-66.76513, 17.99803], [-66.77404, 18.00218], [-66.78746, 17.99933], [-66.80012, 17.99185], [-66.80012, 17.98436], [-66.78645, 17.98436], [-66.79796, 17.96931], [-66.8177, 17.95897], [-66.84057, 17.9527], [-66.86148, 17.94961], [-66.89265, 17.95067], [-66.90783, 17.9492], [-66.91902, 17.95014], [-66.92422, 17.94961], [-66.92821, 17.94554], [-66.92992, 17.93862], [-66.93041, 17.92914], [-66.94913, 17.93122], [-66.96325, 17.94107], [-66.98571, 17.96385], [-67.00596, 17.96491], [-67.02853, 17.96854], [-67.05271, 17.96817], [-67.06701, 17.97256], [-67.08092, 17.96125], [-67.09732, 17.95287], [-67.11197, 17.94961], [-67.12401, 17.95116], [-67.15856, 17.95457], [-67.18047, 17.96612], [-67.19122, 17.95799], [-67.18419, 17.93507], [-67.19507, 17.93568], [-67.20961, 17.95689], [-67.21477, 17.96634], [-67.21435, 17.99414], [-67.1905, 18.00483], [-67.18334, 18.00853], [-67.17422, 18.01118], [-67.16649, 18.01504], [-67.1632, 18.02253], [-67.16723, 18.0279], [-67.17687, 18.0327], [-67.19008, 18.03031], [-67.20288, 18.03572], [-67.20213, 18.05436], [-67.1954, 18.06377], [-67.18569, 18.07043], [-67.18974, 18.08061], [-67.19388, 18.0973], [-67.18324, 18.10769], [-67.18378, 18.13995], [-67.17369, 18.17617], [-67.16591, 18.18407], [-67.15754, 18.19173], [-67.15186, 18.20339], [-67.15847, 18.21396], [-67.1712, 18.22487], [-67.18708, 18.27277], [-67.19651, 18.29134], [-67.21883, 18.29557], [-67.23691, 18.29986], [-67.25277, 18.32934], [-67.2626, 18.34381], [-67.27084, 18.36183], [-67.26883, 18.3689], [-67.24027, 18.37681], [-67.21736, 18.38618], [-67.19839, 18.3937], [-67.18432, 18.40209], [-67.15945, 18.42091], [-67.15812, 18.44311], [-67.1687, 18.46061], [-67.17001, 18.48602], [-67.15168, 18.50894], [-67.10171, 18.52277], [-67.04845, 18.52115], [-67.01236, 18.50576], [-66.90732, 18.48532], [-66.80346, 18.49828], [-66.78921, 18.49653], [-66.7517, 18.48404], [-66.73681, 18.48314], [-66.69766, 18.49144], [-66.64086, 18.4964], [-66.61433, 18.49323], [-66.5878, 18.48404], [-66.57144, 18.48701], [-66.50707, 18.4864], [-66.46744, 18.47529], [-66.3824, 18.49144], [-66.30386, 18.46882], [-66.25813, 18.48151], [-66.20519, 18.4654], [-66.19399, 18.47359], [-66.1809, 18.4715], [-66.17369, 18.46296], [-66.17007, 18.45734], [-66.16158, 18.4533], [-66.15201, 18.45872], [-66.14409, 18.4687], [-66.13415, 18.46589], [-66.13747, 18.45276], [-66.11808, 18.44303], [-66.11486, 18.43317], [-66.10847, 18.42064], [-66.09317, 18.41983], [-66.06021, 18.42939], [-66.06021, 18.43683], [-66.07677, 18.43887], [-66.09496, 18.4477], [-66.10936, 18.46141], [-66.12163, 18.47347], [-66.0559, 18.4538], [-66.0397, 18.45051], [-66.02818, 18.44687], [-66.0121, 18.44396], [-65.99772, 18.45019], [-65.98888, 18.46308], [-65.96622, 18.45844], [-65.92044, 18.44589], [-65.90483, 18.45593], [-65.89281, 18.4536], [-65.88052, 18.44481], [-65.8483, 18.43789], [-65.8308, 18.4287], [-65.81261, 18.41041], [-65.80163, 18.41544], [-65.79417, 18.42541], [-65.78835, 18.42325], [-65.78715, 18.41831], [-65.79232, 18.41276], [-65.79631, 18.40503], [-65.78878, 18.40674], [-65.77837, 18.41067], [-65.77203, 18.41457], [-65.755, 18.39104], [-65.73811, 18.38237], [-65.72485, 18.39127], [-65.69801, 18.37111], [-65.6632, 18.36641], [-65.64574, 18.3784], [-65.63777, 18.38569], [-65.62938, 18.39106], [-65.62141, 18.38906], [-65.621, 18.38227], [-65.63077, 18.33283], [-65.63296, 18.291], [-65.62881, 18.2792], [-65.63292, 18.26691], [-65.6258, 18.25983]]], [[[-65.33434, 18.3371], [-65.33406, 18.34064], [-65.30944, 18.34077], [-65.28091, 18.33527], [-65.25666, 18.32392], [-65.24462, 18.30654], [-65.24755, 18.30585], [-65.25829, 18.30654], [-65.25145, 18.29971], [-65.26211, 18.29922], [-65.27042, 18.30142], [-65.27603, 18.30634], [-65.2788, 18.31395], [-65.28555, 18.31395], [-65.27652, 18.29694], [-65.27481, 18.28901], [-65.2788, 18.2792], [-65.29259, 18.29995], [-65.33434, 18.3371]]]]}, "properties": {"id": "FSsp", "status": "validé", "pieces": [{"kind": "country"}]}}, {"type": "Feature", "geometry": {"type": "MultiPolygon", "coordinates": [[[[-67.84415, 18.09756], [-67.84976, 18.09064], [-67.85993, 18.07315], [-67.86417, 18.06875], [-67.86754, 18.0642], [-67.86889, 18.05634], [-67.87316, 18.05345], [-67.88256, 18.05256], [-67.89196, 18.05345], [-67.89623, 18.05634], [-67.9027, 18.06542], [-67.93114, 18.08051], [-67.93782, 18.09422], [-67.9313, 18.10871], [-67.91975, 18.11449], [-67.86189, 18.11612], [-67.85586, 18.11469], [-67.84435, 18.10456], [-67.84415, 18.09756]]], [[[-65.37121, 18.11953], [-65.39025, 18.11197], [-65.46858, 18.09443], [-65.48424, 18.08735], [-65.50487, 18.09365], [-65.536, 18.09007], [-65.56509, 18.09394], [-65.58043, 18.12214], [-65.56493, 18.12263], [-65.55993, 18.12214], [-65.54015, 18.12376], [-65.52025, 18.13093], [-65.50219, 18.14126], [-65.48794, 18.15229], [-65.4785, 18.15705], [-65.39855, 18.16934], [-65.38581, 18.16718], [-65.35106, 18.15571], [-65.29857, 18.15371], [-65.28555, 18.14887], [-65.27575, 18.13715], [-65.28307, 18.13349], [-65.3098, 18.1352], [-65.31656, 18.1328], [-65.33556, 18.12027], [-65.34081, 18.11469], [-65.34773, 18.11469], [-65.3566, 18.12287], [-65.37121, 18.11953]]], [[[-65.6258, 18.25983], [-65.61759, 18.25634], [-65.6037, 18.26286], [-65.60659, 18.25361], [-65.60377, 18.24634], [-65.59176, 18.23089], [-65.60211, 18.22375], [-65.60353, 18.21527], [-65.61244, 18.2145], [-65.62222, 18.22926], [-65.63336, 18.22918], [-65.63699, 18.21857], [-65.62723, 18.20593], [-65.63683, 18.1981], [-65.64874, 18.20013], [-65.66552, 18.20844], [-65.68297, 18.20283], [-65.70128, 18.19424], [-65.72102, 18.18985], [-65.73754, 18.18268], [-65.75487, 18.16625], [-65.79029, 18.11397], [-65.79314, 18.08763], [-65.807, 18.0703], [-65.81216, 18.06729], [-65.83528, 18.06249], [-65.84048, 18.05634], [-65.83027, 18.02691], [-65.84975, 18.00971], [-65.88718, 17.98773], [-65.93912, 17.97053], [-65.96166, 17.97102], [-65.98453, 17.97565], [-66.00499, 17.97752], [-66.01708, 17.97508], [-66.04654, 17.96385], [-66.05358, 17.96312], [-66.0841, 17.96385], [-66.10464, 17.95893], [-66.16324, 17.92914], [-66.17561, 17.92821], [-66.18663, 17.92862], [-66.19628, 17.92772], [-66.20421, 17.92292], [-66.20857, 17.92914], [-66.20983, 17.93187], [-66.21044, 17.93659], [-66.19957, 17.9396], [-66.19701, 17.9444], [-66.20116, 17.95051], [-66.21044, 17.9571], [-66.22989, 17.94042], [-66.24136, 17.93732], [-66.25552, 17.94066], [-66.28307, 17.94343], [-66.29259, 17.94575], [-66.29772, 17.9514], [-66.30138, 17.9582], [-66.30663, 17.96385], [-66.31916, 17.97036], [-66.32811, 17.97232], [-66.34447, 17.97134], [-66.36767, 17.96601], [-66.39615, 17.94725], [-66.41649, 17.94961], [-66.4359, 17.96402], [-66.45214, 17.98216], [-66.46915, 17.99266], [-66.4878, 17.98885], [-66.50197, 17.98711], [-66.51252, 17.982], [-66.52701, 17.97931], [-66.55988, 17.97752], [-66.57042, 17.97236], [-66.58064, 17.96581], [-66.59252, 17.96357], [-66.60827, 17.97134], [-66.61531, 17.96674], [-66.62255, 17.96385], [-66.62938, 17.97517], [-66.6466, 17.97663], [-66.68741, 17.97134], [-66.69498, 17.97309], [-66.72496, 17.98436], [-66.76594, 17.98436], [-66.76513, 17.99803], [-66.77404, 18.00218], [-66.78746, 17.99933], [-66.80012, 17.99185], [-66.80012, 17.98436], [-66.78645, 17.98436], [-66.79796, 17.96931], [-66.8177, 17.95897], [-66.84057, 17.9527], [-66.86148, 17.94961], [-66.89265, 17.95067], [-66.90783, 17.9492], [-66.91902, 17.95014], [-66.92422, 17.94961], [-66.92821, 17.94554], [-66.92992, 17.93862], [-66.93041, 17.92914], [-66.94913, 17.93122], [-66.96325, 17.94107], [-66.98571, 17.96385], [-67.00596, 17.96491], [-67.02853, 17.96854], [-67.05271, 17.96817], [-67.06701, 17.97256], [-67.08092, 17.96125], [-67.09732, 17.95287], [-67.11197, 17.94961], [-67.12401, 17.95116], [-67.15856, 17.95457], [-67.18047, 17.96612], [-67.19122, 17.95799], [-67.18419, 17.93507], [-67.19507, 17.93568], [-67.20961, 17.95689], [-67.21477, 17.96634], [-67.21435, 17.99414], [-67.1905, 18.00483], [-67.18334, 18.00853], [-67.17422, 18.01118], [-67.16649, 18.01504], [-67.1632, 18.02253], [-67.16723, 18.0279], [-67.17687, 18.0327], [-67.19008, 18.03031], [-67.20288, 18.03572], [-67.20213, 18.05436], [-67.1954, 18.06377], [-67.18569, 18.07043], [-67.18974, 18.08061], [-67.19388, 18.0973], [-67.18324, 18.10769], [-67.18378, 18.13995], [-67.17369, 18.17617], [-67.16591, 18.18407], [-67.15754, 18.19173], [-67.15186, 18.20339], [-67.15847, 18.21396], [-67.1712, 18.22487], [-67.18708, 18.27277], [-67.19651, 18.29134], [-67.21883, 18.29557], [-67.23691, 18.29986], [-67.25277, 18.32934], [-67.2626, 18.34381], [-67.27084, 18.36183], [-67.26883, 18.3689], [-67.24027, 18.37681], [-67.21736, 18.38618], [-67.19839, 18.3937], [-67.18432, 18.40209], [-67.15945, 18.42091], [-67.15812, 18.44311], [-67.1687, 18.46061], [-67.17001, 18.48602], [-67.15168, 18.50894], [-67.10171, 18.52277], [-67.04845, 18.52115], [-67.01236, 18.50576], [-66.90732, 18.48532], [-66.80346, 18.49828], [-66.78921, 18.49653], [-66.7517, 18.48404], [-66.73681, 18.48314], [-66.69766, 18.49144], [-66.64086, 18.4964], [-66.61433, 18.49323], [-66.5878, 18.48404], [-66.57144, 18.48701], [-66.50707, 18.4864], [-66.46744, 18.47529], [-66.3824, 18.49144], [-66.30386, 18.46882], [-66.25813, 18.48151], [-66.20519, 18.4654], [-66.19399, 18.47359], [-66.1809, 18.4715], [-66.17369, 18.46296], [-66.17007, 18.45734], [-66.16158, 18.4533], [-66.15201, 18.45872], [-66.14409, 18.4687], [-66.13415, 18.46589], [-66.13747, 18.45276], [-66.11808, 18.44303], [-66.11486, 18.43317], [-66.10847, 18.42064], [-66.09317, 18.41983], [-66.06021, 18.42939], [-66.06021, 18.43683], [-66.07677, 18.43887], [-66.09496, 18.4477], [-66.10936, 18.46141], [-66.12163, 18.47347], [-66.0559, 18.4538], [-66.0397, 18.45051], [-66.02818, 18.44687], [-66.0121, 18.44396], [-65.99772, 18.45019], [-65.98888, 18.46308], [-65.96622, 18.45844], [-65.92044, 18.44589], [-65.90483, 18.45593], [-65.89281, 18.4536], [-65.88052, 18.44481], [-65.8483, 18.43789], [-65.8308, 18.4287], [-65.81261, 18.41041], [-65.80163, 18.41544], [-65.79417, 18.42541], [-65.78835, 18.42325], [-65.78715, 18.41831], [-65.79232, 18.41276], [-65.79631, 18.40503], [-65.78878, 18.40674], [-65.77837, 18.41067], [-65.77203, 18.41457], [-65.755, 18.39104], [-65.73811, 18.38237], [-65.72485, 18.39127], [-65.69801, 18.37111], [-65.6632, 18.36641], [-65.64574, 18.3784], [-65.63777, 18.38569], [-65.62938, 18.39106], [-65.62141, 18.38906], [-65.621, 18.38227], [-65.63077, 18.33283], [-65.63296, 18.291], [-65.62881, 18.2792], [-65.63292, 18.26691], [-65.6258, 18.25983]]], [[[-65.33434, 18.3371], [-65.33406, 18.34064], [-65.30944, 18.34077], [-65.28091, 18.33527], [-65.25666, 18.32392], [-65.24462, 18.30654], [-65.24755, 18.30585], [-65.25829, 18.30654], [-65.25145, 18.29971], [-65.26211, 18.29922], [-65.27042, 18.30142], [-65.27603, 18.30634], [-65.2788, 18.31395], [-65.28555, 18.31395], [-65.27652, 18.29694], [-65.27481, 18.28901], [-65.2788, 18.2792], [-65.29259, 18.29995], [-65.33434, 18.3371]]]]}, "properties": {"id": "MALI", "status": "validé", "pieces": [{"kind": "country"}]}}, {"type": "Feature", "geometry": {"type": "MultiPolygon", "coordinates": [[[[-67.84415, 18.09756], [-67.84976, 18.09064], [-67.85993, 18.07315], [-67.86417, 18.06875], [-67.86754, 18.0642], [-67.86889, 18.05634], [-67.87316, 18.05345], [-67.88256, 18.05256], [-67.89196, 18.05345], [-67.89623, 18.05634], [-67.9027, 18.06542], [-67.93114, 18.08051], [-67.93782, 18.09422], [-67.9313, 18.10871], [-67.91975, 18.11449], [-67.86189, 18.11612], [-67.85586, 18.11469], [-67.84435, 18.10456], [-67.84415, 18.09756]]], [[[-65.37121, 18.11953], [-65.39025, 18.11197], [-65.46858, 18.09443], [-65.48424, 18.08735], [-65.50487, 18.09365], [-65.536, 18.09007], [-65.56509, 18.09394], [-65.58043, 18.12214], [-65.56493, 18.12263], [-65.55993, 18.12214], [-65.54015, 18.12376], [-65.52025, 18.13093], [-65.50219, 18.14126], [-65.48794, 18.15229], [-65.4785, 18.15705], [-65.39855, 18.16934], [-65.38581, 18.16718], [-65.35106, 18.15571], [-65.29857, 18.15371], [-65.28555, 18.14887], [-65.27575, 18.13715], [-65.28307, 18.13349], [-65.3098, 18.1352], [-65.31656, 18.1328], [-65.33556, 18.12027], [-65.34081, 18.11469], [-65.34773, 18.11469], [-65.3566, 18.12287], [-65.37121, 18.11953]]], [[[-65.6258, 18.25983], [-65.61759, 18.25634], [-65.6037, 18.26286], [-65.60659, 18.25361], [-65.60377, 18.24634], [-65.59176, 18.23089], [-65.60211, 18.22375], [-65.60353, 18.21527], [-65.61244, 18.2145], [-65.62222, 18.22926], [-65.63336, 18.22918], [-65.63699, 18.21857], [-65.62723, 18.20593], [-65.63683, 18.1981], [-65.64874, 18.20013], [-65.66552, 18.20844], [-65.68297, 18.20283], [-65.70128, 18.19424], [-65.72102, 18.18985], [-65.73754, 18.18268], [-65.75487, 18.16625], [-65.79029, 18.11397], [-65.79314, 18.08763], [-65.807, 18.0703], [-65.81216, 18.06729], [-65.83528, 18.06249], [-65.84048, 18.05634], [-65.83027, 18.02691], [-65.84975, 18.00971], [-65.88718, 17.98773], [-65.93912, 17.97053], [-65.96166, 17.97102], [-65.98453, 17.97565], [-66.00499, 17.97752], [-66.01708, 17.97508], [-66.04654, 17.96385], [-66.05358, 17.96312], [-66.0841, 17.96385], [-66.10464, 17.95893], [-66.16324, 17.92914], [-66.17561, 17.92821], [-66.18663, 17.92862], [-66.19628, 17.92772], [-66.20421, 17.92292], [-66.20857, 17.92914], [-66.20983, 17.93187], [-66.21044, 17.93659], [-66.19957, 17.9396], [-66.19701, 17.9444], [-66.20116, 17.95051], [-66.21044, 17.9571], [-66.22989, 17.94042], [-66.24136, 17.93732], [-66.25552, 17.94066], [-66.28307, 17.94343], [-66.29259, 17.94575], [-66.29772, 17.9514], [-66.30138, 17.9582], [-66.30663, 17.96385], [-66.31916, 17.97036], [-66.32811, 17.97232], [-66.34447, 17.97134], [-66.36767, 17.96601], [-66.39615, 17.94725], [-66.41649, 17.94961], [-66.4359, 17.96402], [-66.45214, 17.98216], [-66.46915, 17.99266], [-66.4878, 17.98885], [-66.50197, 17.98711], [-66.51252, 17.982], [-66.52701, 17.97931], [-66.55988, 17.97752], [-66.57042, 17.97236], [-66.58064, 17.96581], [-66.59252, 17.96357], [-66.60827, 17.97134], [-66.61531, 17.96674], [-66.62255, 17.96385], [-66.62938, 17.97517], [-66.6466, 17.97663], [-66.68741, 17.97134], [-66.69498, 17.97309], [-66.72496, 17.98436], [-66.76594, 17.98436], [-66.76513, 17.99803], [-66.77404, 18.00218], [-66.78746, 17.99933], [-66.80012, 17.99185], [-66.80012, 17.98436], [-66.78645, 17.98436], [-66.79796, 17.96931], [-66.8177, 17.95897], [-66.84057, 17.9527], [-66.86148, 17.94961], [-66.89265, 17.95067], [-66.90783, 17.9492], [-66.91902, 17.95014], [-66.92422, 17.94961], [-66.92821, 17.94554], [-66.92992, 17.93862], [-66.93041, 17.92914], [-66.94913, 17.93122], [-66.96325, 17.94107], [-66.98571, 17.96385], [-67.00596, 17.96491], [-67.02853, 17.96854], [-67.05271, 17.96817], [-67.06701, 17.97256], [-67.08092, 17.96125], [-67.09732, 17.95287], [-67.11197, 17.94961], [-67.12401, 17.95116], [-67.15856, 17.95457], [-67.18047, 17.96612], [-67.19122, 17.95799], [-67.18419, 17.93507], [-67.19507, 17.93568], [-67.20961, 17.95689], [-67.21477, 17.96634], [-67.21435, 17.99414], [-67.1905, 18.00483], [-67.18334, 18.00853], [-67.17422, 18.01118], [-67.16649, 18.01504], [-67.1632, 18.02253], [-67.16723, 18.0279], [-67.17687, 18.0327], [-67.19008, 18.03031], [-67.20288, 18.03572], [-67.20213, 18.05436], [-67.1954, 18.06377], [-67.18569, 18.07043], [-67.18974, 18.08061], [-67.19388, 18.0973], [-67.18324, 18.10769], [-67.18378, 18.13995], [-67.17369, 18.17617], [-67.16591, 18.18407], [-67.15754, 18.19173], [-67.15186, 18.20339], [-67.15847, 18.21396], [-67.1712, 18.22487], [-67.18708, 18.27277], [-67.19651, 18.29134], [-67.21883, 18.29557], [-67.23691, 18.29986], [-67.25277, 18.32934], [-67.2626, 18.34381], [-67.27084, 18.36183], [-67.26883, 18.3689], [-67.24027, 18.37681], [-67.21736, 18.38618], [-67.19839, 18.3937], [-67.18432, 18.40209], [-67.15945, 18.42091], [-67.15812, 18.44311], [-67.1687, 18.46061], [-67.17001, 18.48602], [-67.15168, 18.50894], [-67.10171, 18.52277], [-67.04845, 18.52115], [-67.01236, 18.50576], [-66.90732, 18.48532], [-66.80346, 18.49828], [-66.78921, 18.49653], [-66.7517, 18.48404], [-66.73681, 18.48314], [-66.69766, 18.49144], [-66.64086, 18.4964], [-66.61433, 18.49323], [-66.5878, 18.48404], [-66.57144, 18.48701], [-66.50707, 18.4864], [-66.46744, 18.47529], [-66.3824, 18.49144], [-66.30386, 18.46882], [-66.25813, 18.48151], [-66.20519, 18.4654], [-66.19399, 18.47359], [-66.1809, 18.4715], [-66.17369, 18.46296], [-66.17007, 18.45734], [-66.16158, 18.4533], [-66.15201, 18.45872], [-66.14409, 18.4687], [-66.13415, 18.46589], [-66.13747, 18.45276], [-66.11808, 18.44303], [-66.11486, 18.43317], [-66.10847, 18.42064], [-66.09317, 18.41983], [-66.06021, 18.42939], [-66.06021, 18.43683], [-66.07677, 18.43887], [-66.09496, 18.4477], [-66.10936, 18.46141], [-66.12163, 18.47347], [-66.0559, 18.4538], [-66.0397, 18.45051], [-66.02818, 18.44687], [-66.0121, 18.44396], [-65.99772, 18.45019], [-65.98888, 18.46308], [-65.96622, 18.45844], [-65.92044, 18.44589], [-65.90483, 18.45593], [-65.89281, 18.4536], [-65.88052, 18.44481], [-65.8483, 18.43789], [-65.8308, 18.4287], [-65.81261, 18.41041], [-65.80163, 18.41544], [-65.79417, 18.42541], [-65.78835, 18.42325], [-65.78715, 18.41831], [-65.79232, 18.41276], [-65.79631, 18.40503], [-65.78878, 18.40674], [-65.77837, 18.41067], [-65.77203, 18.41457], [-65.755, 18.39104], [-65.73811, 18.38237], [-65.72485, 18.39127], [-65.69801, 18.37111], [-65.6632, 18.36641], [-65.64574, 18.3784], [-65.63777, 18.38569], [-65.62938, 18.39106], [-65.62141, 18.38906], [-65.621, 18.38227], [-65.63077, 18.33283], [-65.63296, 18.291], [-65.62881, 18.2792], [-65.63292, 18.26691], [-65.6258, 18.25983]]], [[[-65.33434, 18.3371], [-65.33406, 18.34064], [-65.30944, 18.34077], [-65.28091, 18.33527], [-65.25666, 18.32392], [-65.24462, 18.30654], [-65.24755, 18.30585], [-65.25829, 18.30654], [-65.25145, 18.29971], [-65.26211, 18.29922], [-65.27042, 18.30142], [-65.27603, 18.30634], [-65.2788, 18.31395], [-65.28555, 18.31395], [-65.27652, 18.29694], [-65.27481, 18.28901], [-65.2788, 18.2792], [-65.29259, 18.29995], [-65.33434, 18.3371]]]]}, "properties": {"id": "Npkn", "status": "validé", "pieces": [{"kind": "country"}]}}, {"type": "Feature", "geometry": {"type": "MultiPolygon", "coordinates": [[[[-67.84415, 18.09756], [-67.84976, 18.09064], [-67.85993, 18.07315], [-67.86417, 18.06875], [-67.86754, 18.0642], [-67.86889, 18.05634], [-67.87316, 18.05345], [-67.88256, 18.05256], [-67.89196, 18.05345], [-67.89623, 18.05634], [-67.9027, 18.06542], [-67.93114, 18.08051], [-67.93782, 18.09422], [-67.9313, 18.10871], [-67.91975, 18.11449], [-67.86189, 18.11612], [-67.85586, 18.11469], [-67.84435, 18.10456], [-67.84415, 18.09756]]], [[[-65.37121, 18.11953], [-65.39025, 18.11197], [-65.46858, 18.09443], [-65.48424, 18.08735], [-65.50487, 18.09365], [-65.536, 18.09007], [-65.56509, 18.09394], [-65.58043, 18.12214], [-65.56493, 18.12263], [-65.55993, 18.12214], [-65.54015, 18.12376], [-65.52025, 18.13093], [-65.50219, 18.14126], [-65.48794, 18.15229], [-65.4785, 18.15705], [-65.39855, 18.16934], [-65.38581, 18.16718], [-65.35106, 18.15571], [-65.29857, 18.15371], [-65.28555, 18.14887], [-65.27575, 18.13715], [-65.28307, 18.13349], [-65.3098, 18.1352], [-65.31656, 18.1328], [-65.33556, 18.12027], [-65.34081, 18.11469], [-65.34773, 18.11469], [-65.3566, 18.12287], [-65.37121, 18.11953]]], [[[-65.6258, 18.25983], [-65.61759, 18.25634], [-65.6037, 18.26286], [-65.60659, 18.25361], [-65.60377, 18.24634], [-65.59176, 18.23089], [-65.60211, 18.22375], [-65.60353, 18.21527], [-65.61244, 18.2145], [-65.62222, 18.22926], [-65.63336, 18.22918], [-65.63699, 18.21857], [-65.62723, 18.20593], [-65.63683, 18.1981], [-65.64874, 18.20013], [-65.66552, 18.20844], [-65.68297, 18.20283], [-65.70128, 18.19424], [-65.72102, 18.18985], [-65.73754, 18.18268], [-65.75487, 18.16625], [-65.79029, 18.11397], [-65.79314, 18.08763], [-65.807, 18.0703], [-65.81216, 18.06729], [-65.83528, 18.06249], [-65.84048, 18.05634], [-65.83027, 18.02691], [-65.84975, 18.00971], [-65.88718, 17.98773], [-65.93912, 17.97053], [-65.96166, 17.97102], [-65.98453, 17.97565], [-66.00499, 17.97752], [-66.01708, 17.97508], [-66.04654, 17.96385], [-66.05358, 17.96312], [-66.0841, 17.96385], [-66.10464, 17.95893], [-66.16324, 17.92914], [-66.17561, 17.92821], [-66.18663, 17.92862], [-66.19628, 17.92772], [-66.20421, 17.92292], [-66.20857, 17.92914], [-66.20983, 17.93187], [-66.21044, 17.93659], [-66.19957, 17.9396], [-66.19701, 17.9444], [-66.20116, 17.95051], [-66.21044, 17.9571], [-66.22989, 17.94042], [-66.24136, 17.93732], [-66.25552, 17.94066], [-66.28307, 17.94343], [-66.29259, 17.94575], [-66.29772, 17.9514], [-66.30138, 17.9582], [-66.30663, 17.96385], [-66.31916, 17.97036], [-66.32811, 17.97232], [-66.34447, 17.97134], [-66.36767, 17.96601], [-66.39615, 17.94725], [-66.41649, 17.94961], [-66.4359, 17.96402], [-66.45214, 17.98216], [-66.46915, 17.99266], [-66.4878, 17.98885], [-66.50197, 17.98711], [-66.51252, 17.982], [-66.52701, 17.97931], [-66.55988, 17.97752], [-66.57042, 17.97236], [-66.58064, 17.96581], [-66.59252, 17.96357], [-66.60827, 17.97134], [-66.61531, 17.96674], [-66.62255, 17.96385], [-66.62938, 17.97517], [-66.6466, 17.97663], [-66.68741, 17.97134], [-66.69498, 17.97309], [-66.72496, 17.98436], [-66.76594, 17.98436], [-66.76513, 17.99803], [-66.77404, 18.00218], [-66.78746, 17.99933], [-66.80012, 17.99185], [-66.80012, 17.98436], [-66.78645, 17.98436], [-66.79796, 17.96931], [-66.8177, 17.95897], [-66.84057, 17.9527], [-66.86148, 17.94961], [-66.89265, 17.95067], [-66.90783, 17.9492], [-66.91902, 17.95014], [-66.92422, 17.94961], [-66.92821, 17.94554], [-66.92992, 17.93862], [-66.93041, 17.92914], [-66.94913, 17.93122], [-66.96325, 17.94107], [-66.98571, 17.96385], [-67.00596, 17.96491], [-67.02853, 17.96854], [-67.05271, 17.96817], [-67.06701, 17.97256], [-67.08092, 17.96125], [-67.09732, 17.95287], [-67.11197, 17.94961], [-67.12401, 17.95116], [-67.15856, 17.95457], [-67.18047, 17.96612], [-67.19122, 17.95799], [-67.18419, 17.93507], [-67.19507, 17.93568], [-67.20961, 17.95689], [-67.21477, 17.96634], [-67.21435, 17.99414], [-67.1905, 18.00483], [-67.18334, 18.00853], [-67.17422, 18.01118], [-67.16649, 18.01504], [-67.1632, 18.02253], [-67.16723, 18.0279], [-67.17687, 18.0327], [-67.19008, 18.03031], [-67.20288, 18.03572], [-67.20213, 18.05436], [-67.1954, 18.06377], [-67.18569, 18.07043], [-67.18974, 18.08061], [-67.19388, 18.0973], [-67.18324, 18.10769], [-67.18378, 18.13995], [-67.17369, 18.17617], [-67.16591, 18.18407], [-67.15754, 18.19173], [-67.15186, 18.20339], [-67.15847, 18.21396], [-67.1712, 18.22487], [-67.18708, 18.27277], [-67.19651, 18.29134], [-67.21883, 18.29557], [-67.23691, 18.29986], [-67.25277, 18.32934], [-67.2626, 18.34381], [-67.27084, 18.36183], [-67.26883, 18.3689], [-67.24027, 18.37681], [-67.21736, 18.38618], [-67.19839, 18.3937], [-67.18432, 18.40209], [-67.15945, 18.42091], [-67.15812, 18.44311], [-67.1687, 18.46061], [-67.17001, 18.48602], [-67.15168, 18.50894], [-67.10171, 18.52277], [-67.04845, 18.52115], [-67.01236, 18.50576], [-66.90732, 18.48532], [-66.80346, 18.49828], [-66.78921, 18.49653], [-66.7517, 18.48404], [-66.73681, 18.48314], [-66.69766, 18.49144], [-66.64086, 18.4964], [-66.61433, 18.49323], [-66.5878, 18.48404], [-66.57144, 18.48701], [-66.50707, 18.4864], [-66.46744, 18.47529], [-66.3824, 18.49144], [-66.30386, 18.46882], [-66.25813, 18.48151], [-66.20519, 18.4654], [-66.19399, 18.47359], [-66.1809, 18.4715], [-66.17369, 18.46296], [-66.17007, 18.45734], [-66.16158, 18.4533], [-66.15201, 18.45872], [-66.14409, 18.4687], [-66.13415, 18.46589], [-66.13747, 18.45276], [-66.11808, 18.44303], [-66.11486, 18.43317], [-66.10847, 18.42064], [-66.09317, 18.41983], [-66.06021, 18.42939], [-66.06021, 18.43683], [-66.07677, 18.43887], [-66.09496, 18.4477], [-66.10936, 18.46141], [-66.12163, 18.47347], [-66.0559, 18.4538], [-66.0397, 18.45051], [-66.02818, 18.44687], [-66.0121, 18.44396], [-65.99772, 18.45019], [-65.98888, 18.46308], [-65.96622, 18.45844], [-65.92044, 18.44589], [-65.90483, 18.45593], [-65.89281, 18.4536], [-65.88052, 18.44481], [-65.8483, 18.43789], [-65.8308, 18.4287], [-65.81261, 18.41041], [-65.80163, 18.41544], [-65.79417, 18.42541], [-65.78835, 18.42325], [-65.78715, 18.41831], [-65.79232, 18.41276], [-65.79631, 18.40503], [-65.78878, 18.40674], [-65.77837, 18.41067], [-65.77203, 18.41457], [-65.755, 18.39104], [-65.73811, 18.38237], [-65.72485, 18.39127], [-65.69801, 18.37111], [-65.6632, 18.36641], [-65.64574, 18.3784], [-65.63777, 18.38569], [-65.62938, 18.39106], [-65.62141, 18.38906], [-65.621, 18.38227], [-65.63077, 18.33283], [-65.63296, 18.291], [-65.62881, 18.2792], [-65.63292, 18.26691], [-65.6258, 18.25983]]], [[[-65.33434, 18.3371], [-65.33406, 18.34064], [-65.30944, 18.34077], [-65.28091, 18.33527], [-65.25666, 18.32392], [-65.24462, 18.30654], [-65.24755, 18.30585], [-65.25829, 18.30654], [-65.25145, 18.29971], [-65.26211, 18.29922], [-65.27042, 18.30142], [-65.27603, 18.30634], [-65.2788, 18.31395], [-65.28555, 18.31395], [-65.27652, 18.29694], [-65.27481, 18.28901], [-65.2788, 18.2792], [-65.29259, 18.29995], [-65.33434, 18.3371]]]]}, "properties": {"id": "TIjg", "status": "validé", "pieces": [{"kind": "country"}]}}, {"type": "Feature", "geometry": {"type": "MultiPolygon", "coordinates": [[[[-67.84415, 18.09756], [-67.84976, 18.09064], [-67.85993, 18.07315], [-67.86417, 18.06875], [-67.86754, 18.0642], [-67.86889, 18.05634], [-67.87316, 18.05345], [-67.88256, 18.05256], [-67.89196, 18.05345], [-67.89623, 18.05634], [-67.9027, 18.06542], [-67.93114, 18.08051], [-67.93782, 18.09422], [-67.9313, 18.10871], [-67.91975, 18.11449], [-67.86189, 18.11612], [-67.85586, 18.11469], [-67.84435, 18.10456], [-67.84415, 18.09756]]], [[[-65.37121, 18.11953], [-65.39025, 18.11197], [-65.46858, 18.09443], [-65.48424, 18.08735], [-65.50487, 18.09365], [-65.536, 18.09007], [-65.56509, 18.09394], [-65.58043, 18.12214], [-65.56493, 18.12263], [-65.55993, 18.12214], [-65.54015, 18.12376], [-65.52025, 18.13093], [-65.50219, 18.14126], [-65.48794, 18.15229], [-65.4785, 18.15705], [-65.39855, 18.16934], [-65.38581, 18.16718], [-65.35106, 18.15571], [-65.29857, 18.15371], [-65.28555, 18.14887], [-65.27575, 18.13715], [-65.28307, 18.13349], [-65.3098, 18.1352], [-65.31656, 18.1328], [-65.33556, 18.12027], [-65.34081, 18.11469], [-65.34773, 18.11469], [-65.3566, 18.12287], [-65.37121, 18.11953]]], [[[-65.6258, 18.25983], [-65.61759, 18.25634], [-65.6037, 18.26286], [-65.60659, 18.25361], [-65.60377, 18.24634], [-65.59176, 18.23089], [-65.60211, 18.22375], [-65.60353, 18.21527], [-65.61244, 18.2145], [-65.62222, 18.22926], [-65.63336, 18.22918], [-65.63699, 18.21857], [-65.62723, 18.20593], [-65.63683, 18.1981], [-65.64874, 18.20013], [-65.66552, 18.20844], [-65.68297, 18.20283], [-65.70128, 18.19424], [-65.72102, 18.18985], [-65.73754, 18.18268], [-65.75487, 18.16625], [-65.79029, 18.11397], [-65.79314, 18.08763], [-65.807, 18.0703], [-65.81216, 18.06729], [-65.83528, 18.06249], [-65.84048, 18.05634], [-65.83027, 18.02691], [-65.84975, 18.00971], [-65.88718, 17.98773], [-65.93912, 17.97053], [-65.96166, 17.97102], [-65.98453, 17.97565], [-66.00499, 17.97752], [-66.01708, 17.97508], [-66.04654, 17.96385], [-66.05358, 17.96312], [-66.0841, 17.96385], [-66.10464, 17.95893], [-66.16324, 17.92914], [-66.17561, 17.92821], [-66.18663, 17.92862], [-66.19628, 17.92772], [-66.20421, 17.92292], [-66.20857, 17.92914], [-66.20983, 17.93187], [-66.21044, 17.93659], [-66.19957, 17.9396], [-66.19701, 17.9444], [-66.20116, 17.95051], [-66.21044, 17.9571], [-66.22989, 17.94042], [-66.24136, 17.93732], [-66.25552, 17.94066], [-66.28307, 17.94343], [-66.29259, 17.94575], [-66.29772, 17.9514], [-66.30138, 17.9582], [-66.30663, 17.96385], [-66.31916, 17.97036], [-66.32811, 17.97232], [-66.34447, 17.97134], [-66.36767, 17.96601], [-66.39615, 17.94725], [-66.41649, 17.94961], [-66.4359, 17.96402], [-66.45214, 17.98216], [-66.46915, 17.99266], [-66.4878, 17.98885], [-66.50197, 17.98711], [-66.51252, 17.982], [-66.52701, 17.97931], [-66.55988, 17.97752], [-66.57042, 17.97236], [-66.58064, 17.96581], [-66.59252, 17.96357], [-66.60827, 17.97134], [-66.61531, 17.96674], [-66.62255, 17.96385], [-66.62938, 17.97517], [-66.6466, 17.97663], [-66.68741, 17.97134], [-66.69498, 17.97309], [-66.72496, 17.98436], [-66.76594, 17.98436], [-66.76513, 17.99803], [-66.77404, 18.00218], [-66.78746, 17.99933], [-66.80012, 17.99185], [-66.80012, 17.98436], [-66.78645, 17.98436], [-66.79796, 17.96931], [-66.8177, 17.95897], [-66.84057, 17.9527], [-66.86148, 17.94961], [-66.89265, 17.95067], [-66.90783, 17.9492], [-66.91902, 17.95014], [-66.92422, 17.94961], [-66.92821, 17.94554], [-66.92992, 17.93862], [-66.93041, 17.92914], [-66.94913, 17.93122], [-66.96325, 17.94107], [-66.98571, 17.96385], [-67.00596, 17.96491], [-67.02853, 17.96854], [-67.05271, 17.96817], [-67.06701, 17.97256], [-67.08092, 17.96125], [-67.09732, 17.95287], [-67.11197, 17.94961], [-67.12401, 17.95116], [-67.15856, 17.95457], [-67.18047, 17.96612], [-67.19122, 17.95799], [-67.18419, 17.93507], [-67.19507, 17.93568], [-67.20961, 17.95689], [-67.21477, 17.96634], [-67.21435, 17.99414], [-67.1905, 18.00483], [-67.18334, 18.00853], [-67.17422, 18.01118], [-67.16649, 18.01504], [-67.1632, 18.02253], [-67.16723, 18.0279], [-67.17687, 18.0327], [-67.19008, 18.03031], [-67.20288, 18.03572], [-67.20213, 18.05436], [-67.1954, 18.06377], [-67.18569, 18.07043], [-67.18974, 18.08061], [-67.19388, 18.0973], [-67.18324, 18.10769], [-67.18378, 18.13995], [-67.17369, 18.17617], [-67.16591, 18.18407], [-67.15754, 18.19173], [-67.15186, 18.20339], [-67.15847, 18.21396], [-67.1712, 18.22487], [-67.18708, 18.27277], [-67.19651, 18.29134], [-67.21883, 18.29557], [-67.23691, 18.29986], [-67.25277, 18.32934], [-67.2626, 18.34381], [-67.27084, 18.36183], [-67.26883, 18.3689], [-67.24027, 18.37681], [-67.21736, 18.38618], [-67.19839, 18.3937], [-67.18432, 18.40209], [-67.15945, 18.42091], [-67.15812, 18.44311], [-67.1687, 18.46061], [-67.17001, 18.48602], [-67.15168, 18.50894], [-67.10171, 18.52277], [-67.04845, 18.52115], [-67.01236, 18.50576], [-66.90732, 18.48532], [-66.80346, 18.49828], [-66.78921, 18.49653], [-66.7517, 18.48404], [-66.73681, 18.48314], [-66.69766, 18.49144], [-66.64086, 18.4964], [-66.61433, 18.49323], [-66.5878, 18.48404], [-66.57144, 18.48701], [-66.50707, 18.4864], [-66.46744, 18.47529], [-66.3824, 18.49144], [-66.30386, 18.46882], [-66.25813, 18.48151], [-66.20519, 18.4654], [-66.19399, 18.47359], [-66.1809, 18.4715], [-66.17369, 18.46296], [-66.17007, 18.45734], [-66.16158, 18.4533], [-66.15201, 18.45872], [-66.14409, 18.4687], [-66.13415, 18.46589], [-66.13747, 18.45276], [-66.11808, 18.44303], [-66.11486, 18.43317], [-66.10847, 18.42064], [-66.09317, 18.41983], [-66.06021, 18.42939], [-66.06021, 18.43683], [-66.07677, 18.43887], [-66.09496, 18.4477], [-66.10936, 18.46141], [-66.12163, 18.47347], [-66.0559, 18.4538], [-66.0397, 18.45051], [-66.02818, 18.44687], [-66.0121, 18.44396], [-65.99772, 18.45019], [-65.98888, 18.46308], [-65.96622, 18.45844], [-65.92044, 18.44589], [-65.90483, 18.45593], [-65.89281, 18.4536], [-65.88052, 18.44481], [-65.8483, 18.43789], [-65.8308, 18.4287], [-65.81261, 18.41041], [-65.80163, 18.41544], [-65.79417, 18.42541], [-65.78835, 18.42325], [-65.78715, 18.41831], [-65.79232, 18.41276], [-65.79631, 18.40503], [-65.78878, 18.40674], [-65.77837, 18.41067], [-65.77203, 18.41457], [-65.755, 18.39104], [-65.73811, 18.38237], [-65.72485, 18.39127], [-65.69801, 18.37111], [-65.6632, 18.36641], [-65.64574, 18.3784], [-65.63777, 18.38569], [-65.62938, 18.39106], [-65.62141, 18.38906], [-65.621, 18.38227], [-65.63077, 18.33283], [-65.63296, 18.291], [-65.62881, 18.2792], [-65.63292, 18.26691], [-65.6258, 18.25983]]], [[[-65.33434, 18.3371], [-65.33406, 18.34064], [-65.30944, 18.34077], [-65.28091, 18.33527], [-65.25666, 18.32392], [-65.24462, 18.30654], [-65.24755, 18.30585], [-65.25829, 18.30654], [-65.25145, 18.29971], [-65.26211, 18.29922], [-65.27042, 18.30142], [-65.27603, 18.30634], [-65.2788, 18.31395], [-65.28555, 18.31395], [-65.27652, 18.29694], [-65.27481, 18.28901], [-65.2788, 18.2792], [-65.29259, 18.29995], [-65.33434, 18.3371]]]]}, "properties": {"id": "avsT", "status": "validé", "pieces": [{"kind": "country"}]}}, {"type": "Feature", "geometry": {"type": "MultiPolygon", "coordinates": [[[[-67.84415, 18.09756], [-67.84976, 18.09064], [-67.85993, 18.07315], [-67.86417, 18.06875], [-67.86754, 18.0642], [-67.86889, 18.05634], [-67.87316, 18.05345], [-67.88256, 18.05256], [-67.89196, 18.05345], [-67.89623, 18.05634], [-67.9027, 18.06542], [-67.93114, 18.08051], [-67.93782, 18.09422], [-67.9313, 18.10871], [-67.91975, 18.11449], [-67.86189, 18.11612], [-67.85586, 18.11469], [-67.84435, 18.10456], [-67.84415, 18.09756]]], [[[-65.37121, 18.11953], [-65.39025, 18.11197], [-65.46858, 18.09443], [-65.48424, 18.08735], [-65.50487, 18.09365], [-65.536, 18.09007], [-65.56509, 18.09394], [-65.58043, 18.12214], [-65.56493, 18.12263], [-65.55993, 18.12214], [-65.54015, 18.12376], [-65.52025, 18.13093], [-65.50219, 18.14126], [-65.48794, 18.15229], [-65.4785, 18.15705], [-65.39855, 18.16934], [-65.38581, 18.16718], [-65.35106, 18.15571], [-65.29857, 18.15371], [-65.28555, 18.14887], [-65.27575, 18.13715], [-65.28307, 18.13349], [-65.3098, 18.1352], [-65.31656, 18.1328], [-65.33556, 18.12027], [-65.34081, 18.11469], [-65.34773, 18.11469], [-65.3566, 18.12287], [-65.37121, 18.11953]]], [[[-65.6258, 18.25983], [-65.61759, 18.25634], [-65.6037, 18.26286], [-65.60659, 18.25361], [-65.60377, 18.24634], [-65.59176, 18.23089], [-65.60211, 18.22375], [-65.60353, 18.21527], [-65.61244, 18.2145], [-65.62222, 18.22926], [-65.63336, 18.22918], [-65.63699, 18.21857], [-65.62723, 18.20593], [-65.63683, 18.1981], [-65.64874, 18.20013], [-65.66552, 18.20844], [-65.68297, 18.20283], [-65.70128, 18.19424], [-65.72102, 18.18985], [-65.73754, 18.18268], [-65.75487, 18.16625], [-65.79029, 18.11397], [-65.79314, 18.08763], [-65.807, 18.0703], [-65.81216, 18.06729], [-65.83528, 18.06249], [-65.84048, 18.05634], [-65.83027, 18.02691], [-65.84975, 18.00971], [-65.88718, 17.98773], [-65.93912, 17.97053], [-65.96166, 17.97102], [-65.98453, 17.97565], [-66.00499, 17.97752], [-66.01708, 17.97508], [-66.04654, 17.96385], [-66.05358, 17.96312], [-66.0841, 17.96385], [-66.10464, 17.95893], [-66.16324, 17.92914], [-66.17561, 17.92821], [-66.18663, 17.92862], [-66.19628, 17.92772], [-66.20421, 17.92292], [-66.20857, 17.92914], [-66.20983, 17.93187], [-66.21044, 17.93659], [-66.19957, 17.9396], [-66.19701, 17.9444], [-66.20116, 17.95051], [-66.21044, 17.9571], [-66.22989, 17.94042], [-66.24136, 17.93732], [-66.25552, 17.94066], [-66.28307, 17.94343], [-66.29259, 17.94575], [-66.29772, 17.9514], [-66.30138, 17.9582], [-66.30663, 17.96385], [-66.31916, 17.97036], [-66.32811, 17.97232], [-66.34447, 17.97134], [-66.36767, 17.96601], [-66.39615, 17.94725], [-66.41649, 17.94961], [-66.4359, 17.96402], [-66.45214, 17.98216], [-66.46915, 17.99266], [-66.4878, 17.98885], [-66.50197, 17.98711], [-66.51252, 17.982], [-66.52701, 17.97931], [-66.55988, 17.97752], [-66.57042, 17.97236], [-66.58064, 17.96581], [-66.59252, 17.96357], [-66.60827, 17.97134], [-66.61531, 17.96674], [-66.62255, 17.96385], [-66.62938, 17.97517], [-66.6466, 17.97663], [-66.68741, 17.97134], [-66.69498, 17.97309], [-66.72496, 17.98436], [-66.76594, 17.98436], [-66.76513, 17.99803], [-66.77404, 18.00218], [-66.78746, 17.99933], [-66.80012, 17.99185], [-66.80012, 17.98436], [-66.78645, 17.98436], [-66.79796, 17.96931], [-66.8177, 17.95897], [-66.84057, 17.9527], [-66.86148, 17.94961], [-66.89265, 17.95067], [-66.90783, 17.9492], [-66.91902, 17.95014], [-66.92422, 17.94961], [-66.92821, 17.94554], [-66.92992, 17.93862], [-66.93041, 17.92914], [-66.94913, 17.93122], [-66.96325, 17.94107], [-66.98571, 17.96385], [-67.00596, 17.96491], [-67.02853, 17.96854], [-67.05271, 17.96817], [-67.06701, 17.97256], [-67.08092, 17.96125], [-67.09732, 17.95287], [-67.11197, 17.94961], [-67.12401, 17.95116], [-67.15856, 17.95457], [-67.18047, 17.96612], [-67.19122, 17.95799], [-67.18419, 17.93507], [-67.19507, 17.93568], [-67.20961, 17.95689], [-67.21477, 17.96634], [-67.21435, 17.99414], [-67.1905, 18.00483], [-67.18334, 18.00853], [-67.17422, 18.01118], [-67.16649, 18.01504], [-67.1632, 18.02253], [-67.16723, 18.0279], [-67.17687, 18.0327], [-67.19008, 18.03031], [-67.20288, 18.03572], [-67.20213, 18.05436], [-67.1954, 18.06377], [-67.18569, 18.07043], [-67.18974, 18.08061], [-67.19388, 18.0973], [-67.18324, 18.10769], [-67.18378, 18.13995], [-67.17369, 18.17617], [-67.16591, 18.18407], [-67.15754, 18.19173], [-67.15186, 18.20339], [-67.15847, 18.21396], [-67.1712, 18.22487], [-67.18708, 18.27277], [-67.19651, 18.29134], [-67.21883, 18.29557], [-67.23691, 18.29986], [-67.25277, 18.32934], [-67.2626, 18.34381], [-67.27084, 18.36183], [-67.26883, 18.3689], [-67.24027, 18.37681], [-67.21736, 18.38618], [-67.19839, 18.3937], [-67.18432, 18.40209], [-67.15945, 18.42091], [-67.15812, 18.44311], [-67.1687, 18.46061], [-67.17001, 18.48602], [-67.15168, 18.50894], [-67.10171, 18.52277], [-67.04845, 18.52115], [-67.01236, 18.50576], [-66.90732, 18.48532], [-66.80346, 18.49828], [-66.78921, 18.49653], [-66.7517, 18.48404], [-66.73681, 18.48314], [-66.69766, 18.49144], [-66.64086, 18.4964], [-66.61433, 18.49323], [-66.5878, 18.48404], [-66.57144, 18.48701], [-66.50707, 18.4864], [-66.46744, 18.47529], [-66.3824, 18.49144], [-66.30386, 18.46882], [-66.25813, 18.48151], [-66.20519, 18.4654], [-66.19399, 18.47359], [-66.1809, 18.4715], [-66.17369, 18.46296], [-66.17007, 18.45734], [-66.16158, 18.4533], [-66.15201, 18.45872], [-66.14409, 18.4687], [-66.13415, 18.46589], [-66.13747, 18.45276], [-66.11808, 18.44303], [-66.11486, 18.43317], [-66.10847, 18.42064], [-66.09317, 18.41983], [-66.06021, 18.42939], [-66.06021, 18.43683], [-66.07677, 18.43887], [-66.09496, 18.4477], [-66.10936, 18.46141], [-66.12163, 18.47347], [-66.0559, 18.4538], [-66.0397, 18.45051], [-66.02818, 18.44687], [-66.0121, 18.44396], [-65.99772, 18.45019], [-65.98888, 18.46308], [-65.96622, 18.45844], [-65.92044, 18.44589], [-65.90483, 18.45593], [-65.89281, 18.4536], [-65.88052, 18.44481], [-65.8483, 18.43789], [-65.8308, 18.4287], [-65.81261, 18.41041], [-65.80163, 18.41544], [-65.79417, 18.42541], [-65.78835, 18.42325], [-65.78715, 18.41831], [-65.79232, 18.41276], [-65.79631, 18.40503], [-65.78878, 18.40674], [-65.77837, 18.41067], [-65.77203, 18.41457], [-65.755, 18.39104], [-65.73811, 18.38237], [-65.72485, 18.39127], [-65.69801, 18.37111], [-65.6632, 18.36641], [-65.64574, 18.3784], [-65.63777, 18.38569], [-65.62938, 18.39106], [-65.62141, 18.38906], [-65.621, 18.38227], [-65.63077, 18.33283], [-65.63296, 18.291], [-65.62881, 18.2792], [-65.63292, 18.26691], [-65.6258, 18.25983]]], [[[-65.33434, 18.3371], [-65.33406, 18.34064], [-65.30944, 18.34077], [-65.28091, 18.33527], [-65.25666, 18.32392], [-65.24462, 18.30654], [-65.24755, 18.30585], [-65.25829, 18.30654], [-65.25145, 18.29971], [-65.26211, 18.29922], [-65.27042, 18.30142], [-65.27603, 18.30634], [-65.2788, 18.31395], [-65.28555, 18.31395], [-65.27652, 18.29694], [-65.27481, 18.28901], [-65.2788, 18.2792], [-65.29259, 18.29995], [-65.33434, 18.3371]]]]}, "properties": {"id": "eA8V", "status": "validé", "pieces": [{"kind": "country"}]}}, {"type": "Feature", "geometry": {"type": "Polygon", "coordinates": [[[-66.10808, 18.45723], [-66.10808, 18.47294], [-66.12679, 18.47294], [-66.12679, 18.45723], [-66.10808, 18.45723]]]}, "properties": {"id": "hatM", "status": "validé", "pieces": [{"kind": "rect", "bounds": [-66.12679, 18.45723, -66.10808, 18.47294]}]}}, {"type": "Feature", "geometry": {"type": "MultiPolygon", "coordinates": [[[[-67.84415, 18.09756], [-67.84976, 18.09064], [-67.85993, 18.07315], [-67.86417, 18.06875], [-67.86754, 18.0642], [-67.86889, 18.05634], [-67.87316, 18.05345], [-67.88256, 18.05256], [-67.89196, 18.05345], [-67.89623, 18.05634], [-67.9027, 18.06542], [-67.93114, 18.08051], [-67.93782, 18.09422], [-67.9313, 18.10871], [-67.91975, 18.11449], [-67.86189, 18.11612], [-67.85586, 18.11469], [-67.84435, 18.10456], [-67.84415, 18.09756]]], [[[-65.37121, 18.11953], [-65.39025, 18.11197], [-65.46858, 18.09443], [-65.48424, 18.08735], [-65.50487, 18.09365], [-65.536, 18.09007], [-65.56509, 18.09394], [-65.58043, 18.12214], [-65.56493, 18.12263], [-65.55993, 18.12214], [-65.54015, 18.12376], [-65.52025, 18.13093], [-65.50219, 18.14126], [-65.48794, 18.15229], [-65.4785, 18.15705], [-65.39855, 18.16934], [-65.38581, 18.16718], [-65.35106, 18.15571], [-65.29857, 18.15371], [-65.28555, 18.14887], [-65.27575, 18.13715], [-65.28307, 18.13349], [-65.3098, 18.1352], [-65.31656, 18.1328], [-65.33556, 18.12027], [-65.34081, 18.11469], [-65.34773, 18.11469], [-65.3566, 18.12287], [-65.37121, 18.11953]]], [[[-65.6258, 18.25983], [-65.61759, 18.25634], [-65.6037, 18.26286], [-65.60659, 18.25361], [-65.60377, 18.24634], [-65.59176, 18.23089], [-65.60211, 18.22375], [-65.60353, 18.21527], [-65.61244, 18.2145], [-65.62222, 18.22926], [-65.63336, 18.22918], [-65.63699, 18.21857], [-65.62723, 18.20593], [-65.63683, 18.1981], [-65.64874, 18.20013], [-65.66552, 18.20844], [-65.68297, 18.20283], [-65.70128, 18.19424], [-65.72102, 18.18985], [-65.73754, 18.18268], [-65.75487, 18.16625], [-65.79029, 18.11397], [-65.79314, 18.08763], [-65.807, 18.0703], [-65.81216, 18.06729], [-65.83528, 18.06249], [-65.84048, 18.05634], [-65.83027, 18.02691], [-65.84975, 18.00971], [-65.88718, 17.98773], [-65.93912, 17.97053], [-65.96166, 17.97102], [-65.98453, 17.97565], [-66.00499, 17.97752], [-66.01708, 17.97508], [-66.04654, 17.96385], [-66.05358, 17.96312], [-66.0841, 17.96385], [-66.10464, 17.95893], [-66.16324, 17.92914], [-66.17561, 17.92821], [-66.18663, 17.92862], [-66.19628, 17.92772], [-66.20421, 17.92292], [-66.20857, 17.92914], [-66.20983, 17.93187], [-66.21044, 17.93659], [-66.19957, 17.9396], [-66.19701, 17.9444], [-66.20116, 17.95051], [-66.21044, 17.9571], [-66.22989, 17.94042], [-66.24136, 17.93732], [-66.25552, 17.94066], [-66.28307, 17.94343], [-66.29259, 17.94575], [-66.29772, 17.9514], [-66.30138, 17.9582], [-66.30663, 17.96385], [-66.31916, 17.97036], [-66.32811, 17.97232], [-66.34447, 17.97134], [-66.36767, 17.96601], [-66.39615, 17.94725], [-66.41649, 17.94961], [-66.4359, 17.96402], [-66.45214, 17.98216], [-66.46915, 17.99266], [-66.4878, 17.98885], [-66.50197, 17.98711], [-66.51252, 17.982], [-66.52701, 17.97931], [-66.55988, 17.97752], [-66.57042, 17.97236], [-66.58064, 17.96581], [-66.59252, 17.96357], [-66.60827, 17.97134], [-66.61531, 17.96674], [-66.62255, 17.96385], [-66.62938, 17.97517], [-66.6466, 17.97663], [-66.68741, 17.97134], [-66.69498, 17.97309], [-66.72496, 17.98436], [-66.76594, 17.98436], [-66.76513, 17.99803], [-66.77404, 18.00218], [-66.78746, 17.99933], [-66.80012, 17.99185], [-66.80012, 17.98436], [-66.78645, 17.98436], [-66.79796, 17.96931], [-66.8177, 17.95897], [-66.84057, 17.9527], [-66.86148, 17.94961], [-66.89265, 17.95067], [-66.90783, 17.9492], [-66.91902, 17.95014], [-66.92422, 17.94961], [-66.92821, 17.94554], [-66.92992, 17.93862], [-66.93041, 17.92914], [-66.94913, 17.93122], [-66.96325, 17.94107], [-66.98571, 17.96385], [-67.00596, 17.96491], [-67.02853, 17.96854], [-67.05271, 17.96817], [-67.06701, 17.97256], [-67.08092, 17.96125], [-67.09732, 17.95287], [-67.11197, 17.94961], [-67.12401, 17.95116], [-67.15856, 17.95457], [-67.18047, 17.96612], [-67.19122, 17.95799], [-67.18419, 17.93507], [-67.19507, 17.93568], [-67.20961, 17.95689], [-67.21477, 17.96634], [-67.21435, 17.99414], [-67.1905, 18.00483], [-67.18334, 18.00853], [-67.17422, 18.01118], [-67.16649, 18.01504], [-67.1632, 18.02253], [-67.16723, 18.0279], [-67.17687, 18.0327], [-67.19008, 18.03031], [-67.20288, 18.03572], [-67.20213, 18.05436], [-67.1954, 18.06377], [-67.18569, 18.07043], [-67.18974, 18.08061], [-67.19388, 18.0973], [-67.18324, 18.10769], [-67.18378, 18.13995], [-67.17369, 18.17617], [-67.16591, 18.18407], [-67.15754, 18.19173], [-67.15186, 18.20339], [-67.15847, 18.21396], [-67.1712, 18.22487], [-67.18708, 18.27277], [-67.19651, 18.29134], [-67.21883, 18.29557], [-67.23691, 18.29986], [-67.25277, 18.32934], [-67.2626, 18.34381], [-67.27084, 18.36183], [-67.26883, 18.3689], [-67.24027, 18.37681], [-67.21736, 18.38618], [-67.19839, 18.3937], [-67.18432, 18.40209], [-67.15945, 18.42091], [-67.15812, 18.44311], [-67.1687, 18.46061], [-67.17001, 18.48602], [-67.15168, 18.50894], [-67.10171, 18.52277], [-67.04845, 18.52115], [-67.01236, 18.50576], [-66.90732, 18.48532], [-66.80346, 18.49828], [-66.78921, 18.49653], [-66.7517, 18.48404], [-66.73681, 18.48314], [-66.69766, 18.49144], [-66.64086, 18.4964], [-66.61433, 18.49323], [-66.5878, 18.48404], [-66.57144, 18.48701], [-66.50707, 18.4864], [-66.46744, 18.47529], [-66.3824, 18.49144], [-66.30386, 18.46882], [-66.25813, 18.48151], [-66.20519, 18.4654], [-66.19399, 18.47359], [-66.1809, 18.4715], [-66.17369, 18.46296], [-66.17007, 18.45734], [-66.16158, 18.4533], [-66.15201, 18.45872], [-66.14409, 18.4687], [-66.13415, 18.46589], [-66.13747, 18.45276], [-66.11808, 18.44303], [-66.11486, 18.43317], [-66.10847, 18.42064], [-66.09317, 18.41983], [-66.06021, 18.42939], [-66.06021, 18.43683], [-66.07677, 18.43887], [-66.09496, 18.4477], [-66.10936, 18.46141], [-66.12163, 18.47347], [-66.0559, 18.4538], [-66.0397, 18.45051], [-66.02818, 18.44687], [-66.0121, 18.44396], [-65.99772, 18.45019], [-65.98888, 18.46308], [-65.96622, 18.45844], [-65.92044, 18.44589], [-65.90483, 18.45593], [-65.89281, 18.4536], [-65.88052, 18.44481], [-65.8483, 18.43789], [-65.8308, 18.4287], [-65.81261, 18.41041], [-65.80163, 18.41544], [-65.79417, 18.42541], [-65.78835, 18.42325], [-65.78715, 18.41831], [-65.79232, 18.41276], [-65.79631, 18.40503], [-65.78878, 18.40674], [-65.77837, 18.41067], [-65.77203, 18.41457], [-65.755, 18.39104], [-65.73811, 18.38237], [-65.72485, 18.39127], [-65.69801, 18.37111], [-65.6632, 18.36641], [-65.64574, 18.3784], [-65.63777, 18.38569], [-65.62938, 18.39106], [-65.62141, 18.38906], [-65.621, 18.38227], [-65.63077, 18.33283], [-65.63296, 18.291], [-65.62881, 18.2792], [-65.63292, 18.26691], [-65.6258, 18.25983]]], [[[-65.33434, 18.3371], [-65.33406, 18.34064], [-65.30944, 18.34077], [-65.28091, 18.33527], [-65.25666, 18.32392], [-65.24462, 18.30654], [-65.24755, 18.30585], [-65.25829, 18.30654], [-65.25145, 18.29971], [-65.26211, 18.29922], [-65.27042, 18.30142], [-65.27603, 18.30634], [-65.2788, 18.31395], [-65.28555, 18.31395], [-65.27652, 18.29694], [-65.27481, 18.28901], [-65.2788, 18.2792], [-65.29259, 18.29995], [-65.33434, 18.3371]]]]}, "properties": {"id": "m45n", "status": "validé", "pieces": [{"kind": "country"}]}}, {"type": "Feature", "geometry": {"type": "MultiPolygon", "coordinates": [[[[-67.84415, 18.09756], [-67.84976, 18.09064], [-67.85993, 18.07315], [-67.86417, 18.06875], [-67.86754, 18.0642], [-67.86889, 18.05634], [-67.87316, 18.05345], [-67.88256, 18.05256], [-67.89196, 18.05345], [-67.89623, 18.05634], [-67.9027, 18.06542], [-67.93114, 18.08051], [-67.93782, 18.09422], [-67.9313, 18.10871], [-67.91975, 18.11449], [-67.86189, 18.11612], [-67.85586, 18.11469], [-67.84435, 18.10456], [-67.84415, 18.09756]]], [[[-65.37121, 18.11953], [-65.39025, 18.11197], [-65.46858, 18.09443], [-65.48424, 18.08735], [-65.50487, 18.09365], [-65.536, 18.09007], [-65.56509, 18.09394], [-65.58043, 18.12214], [-65.56493, 18.12263], [-65.55993, 18.12214], [-65.54015, 18.12376], [-65.52025, 18.13093], [-65.50219, 18.14126], [-65.48794, 18.15229], [-65.4785, 18.15705], [-65.39855, 18.16934], [-65.38581, 18.16718], [-65.35106, 18.15571], [-65.29857, 18.15371], [-65.28555, 18.14887], [-65.27575, 18.13715], [-65.28307, 18.13349], [-65.3098, 18.1352], [-65.31656, 18.1328], [-65.33556, 18.12027], [-65.34081, 18.11469], [-65.34773, 18.11469], [-65.3566, 18.12287], [-65.37121, 18.11953]]], [[[-65.6258, 18.25983], [-65.61759, 18.25634], [-65.6037, 18.26286], [-65.60659, 18.25361], [-65.60377, 18.24634], [-65.59176, 18.23089], [-65.60211, 18.22375], [-65.60353, 18.21527], [-65.61244, 18.2145], [-65.62222, 18.22926], [-65.63336, 18.22918], [-65.63699, 18.21857], [-65.62723, 18.20593], [-65.63683, 18.1981], [-65.64874, 18.20013], [-65.66552, 18.20844], [-65.68297, 18.20283], [-65.70128, 18.19424], [-65.72102, 18.18985], [-65.73754, 18.18268], [-65.75487, 18.16625], [-65.79029, 18.11397], [-65.79314, 18.08763], [-65.807, 18.0703], [-65.81216, 18.06729], [-65.83528, 18.06249], [-65.84048, 18.05634], [-65.83027, 18.02691], [-65.84975, 18.00971], [-65.88718, 17.98773], [-65.93912, 17.97053], [-65.96166, 17.97102], [-65.98453, 17.97565], [-66.00499, 17.97752], [-66.01708, 17.97508], [-66.04654, 17.96385], [-66.05358, 17.96312], [-66.0841, 17.96385], [-66.10464, 17.95893], [-66.16324, 17.92914], [-66.17561, 17.92821], [-66.18663, 17.92862], [-66.19628, 17.92772], [-66.20421, 17.92292], [-66.20857, 17.92914], [-66.20983, 17.93187], [-66.21044, 17.93659], [-66.19957, 17.9396], [-66.19701, 17.9444], [-66.20116, 17.95051], [-66.21044, 17.9571], [-66.22989, 17.94042], [-66.24136, 17.93732], [-66.25552, 17.94066], [-66.28307, 17.94343], [-66.29259, 17.94575], [-66.29772, 17.9514], [-66.30138, 17.9582], [-66.30663, 17.96385], [-66.31916, 17.97036], [-66.32811, 17.97232], [-66.34447, 17.97134], [-66.36767, 17.96601], [-66.39615, 17.94725], [-66.41649, 17.94961], [-66.4359, 17.96402], [-66.45214, 17.98216], [-66.46915, 17.99266], [-66.4878, 17.98885], [-66.50197, 17.98711], [-66.51252, 17.982], [-66.52701, 17.97931], [-66.55988, 17.97752], [-66.57042, 17.97236], [-66.58064, 17.96581], [-66.59252, 17.96357], [-66.60827, 17.97134], [-66.61531, 17.96674], [-66.62255, 17.96385], [-66.62938, 17.97517], [-66.6466, 17.97663], [-66.68741, 17.97134], [-66.69498, 17.97309], [-66.72496, 17.98436], [-66.76594, 17.98436], [-66.76513, 17.99803], [-66.77404, 18.00218], [-66.78746, 17.99933], [-66.80012, 17.99185], [-66.80012, 17.98436], [-66.78645, 17.98436], [-66.79796, 17.96931], [-66.8177, 17.95897], [-66.84057, 17.9527], [-66.86148, 17.94961], [-66.89265, 17.95067], [-66.90783, 17.9492], [-66.91902, 17.95014], [-66.92422, 17.94961], [-66.92821, 17.94554], [-66.92992, 17.93862], [-66.93041, 17.92914], [-66.94913, 17.93122], [-66.96325, 17.94107], [-66.98571, 17.96385], [-67.00596, 17.96491], [-67.02853, 17.96854], [-67.05271, 17.96817], [-67.06701, 17.97256], [-67.08092, 17.96125], [-67.09732, 17.95287], [-67.11197, 17.94961], [-67.12401, 17.95116], [-67.15856, 17.95457], [-67.18047, 17.96612], [-67.19122, 17.95799], [-67.18419, 17.93507], [-67.19507, 17.93568], [-67.20961, 17.95689], [-67.21477, 17.96634], [-67.21435, 17.99414], [-67.1905, 18.00483], [-67.18334, 18.00853], [-67.17422, 18.01118], [-67.16649, 18.01504], [-67.1632, 18.02253], [-67.16723, 18.0279], [-67.17687, 18.0327], [-67.19008, 18.03031], [-67.20288, 18.03572], [-67.20213, 18.05436], [-67.1954, 18.06377], [-67.18569, 18.07043], [-67.18974, 18.08061], [-67.19388, 18.0973], [-67.18324, 18.10769], [-67.18378, 18.13995], [-67.17369, 18.17617], [-67.16591, 18.18407], [-67.15754, 18.19173], [-67.15186, 18.20339], [-67.15847, 18.21396], [-67.1712, 18.22487], [-67.18708, 18.27277], [-67.19651, 18.29134], [-67.21883, 18.29557], [-67.23691, 18.29986], [-67.25277, 18.32934], [-67.2626, 18.34381], [-67.27084, 18.36183], [-67.26883, 18.3689], [-67.24027, 18.37681], [-67.21736, 18.38618], [-67.19839, 18.3937], [-67.18432, 18.40209], [-67.15945, 18.42091], [-67.15812, 18.44311], [-67.1687, 18.46061], [-67.17001, 18.48602], [-67.15168, 18.50894], [-67.10171, 18.52277], [-67.04845, 18.52115], [-67.01236, 18.50576], [-66.90732, 18.48532], [-66.80346, 18.49828], [-66.78921, 18.49653], [-66.7517, 18.48404], [-66.73681, 18.48314], [-66.69766, 18.49144], [-66.64086, 18.4964], [-66.61433, 18.49323], [-66.5878, 18.48404], [-66.57144, 18.48701], [-66.50707, 18.4864], [-66.46744, 18.47529], [-66.3824, 18.49144], [-66.30386, 18.46882], [-66.25813, 18.48151], [-66.20519, 18.4654], [-66.19399, 18.47359], [-66.1809, 18.4715], [-66.17369, 18.46296], [-66.17007, 18.45734], [-66.16158, 18.4533], [-66.15201, 18.45872], [-66.14409, 18.4687], [-66.13415, 18.46589], [-66.13747, 18.45276], [-66.11808, 18.44303], [-66.11486, 18.43317], [-66.10847, 18.42064], [-66.09317, 18.41983], [-66.06021, 18.42939], [-66.06021, 18.43683], [-66.07677, 18.43887], [-66.09496, 18.4477], [-66.10936, 18.46141], [-66.12163, 18.47347], [-66.0559, 18.4538], [-66.0397, 18.45051], [-66.02818, 18.44687], [-66.0121, 18.44396], [-65.99772, 18.45019], [-65.98888, 18.46308], [-65.96622, 18.45844], [-65.92044, 18.44589], [-65.90483, 18.45593], [-65.89281, 18.4536], [-65.88052, 18.44481], [-65.8483, 18.43789], [-65.8308, 18.4287], [-65.81261, 18.41041], [-65.80163, 18.41544], [-65.79417, 18.42541], [-65.78835, 18.42325], [-65.78715, 18.41831], [-65.79232, 18.41276], [-65.79631, 18.40503], [-65.78878, 18.40674], [-65.77837, 18.41067], [-65.77203, 18.41457], [-65.755, 18.39104], [-65.73811, 18.38237], [-65.72485, 18.39127], [-65.69801, 18.37111], [-65.6632, 18.36641], [-65.64574, 18.3784], [-65.63777, 18.38569], [-65.62938, 18.39106], [-65.62141, 18.38906], [-65.621, 18.38227], [-65.63077, 18.33283], [-65.63296, 18.291], [-65.62881, 18.2792], [-65.63292, 18.26691], [-65.6258, 18.25983]]], [[[-65.33434, 18.3371], [-65.33406, 18.34064], [-65.30944, 18.34077], [-65.28091, 18.33527], [-65.25666, 18.32392], [-65.24462, 18.30654], [-65.24755, 18.30585], [-65.25829, 18.30654], [-65.25145, 18.29971], [-65.26211, 18.29922], [-65.27042, 18.30142], [-65.27603, 18.30634], [-65.2788, 18.31395], [-65.28555, 18.31395], [-65.27652, 18.29694], [-65.27481, 18.28901], [-65.2788, 18.2792], [-65.29259, 18.29995], [-65.33434, 18.3371]]]]}, "properties": {"id": "nXMf", "status": "validé", "pieces": [{"kind": "country"}]}}, {"type": "Feature", "geometry": {"type": "Polygon", "coordinates": [[[-66.56136, 17.95986], [-66.56136, 18.03722], [-66.66229, 18.03722], [-66.66229, 17.95986], [-66.56136, 17.95986]]]}, "properties": {"id": "nsPb", "status": "validé", "pieces": [{"kind": "rect", "bounds": [-66.66229, 17.95986, -66.56136, 18.03722]}]}}, {"type": "Feature", "geometry": {"type": "MultiPolygon", "coordinates": [[[[-67.84415, 18.09756], [-67.84976, 18.09064], [-67.85993, 18.07315], [-67.86417, 18.06875], [-67.86754, 18.0642], [-67.86889, 18.05634], [-67.87316, 18.05345], [-67.88256, 18.05256], [-67.89196, 18.05345], [-67.89623, 18.05634], [-67.9027, 18.06542], [-67.93114, 18.08051], [-67.93782, 18.09422], [-67.9313, 18.10871], [-67.91975, 18.11449], [-67.86189, 18.11612], [-67.85586, 18.11469], [-67.84435, 18.10456], [-67.84415, 18.09756]]], [[[-65.37121, 18.11953], [-65.39025, 18.11197], [-65.46858, 18.09443], [-65.48424, 18.08735], [-65.50487, 18.09365], [-65.536, 18.09007], [-65.56509, 18.09394], [-65.58043, 18.12214], [-65.56493, 18.12263], [-65.55993, 18.12214], [-65.54015, 18.12376], [-65.52025, 18.13093], [-65.50219, 18.14126], [-65.48794, 18.15229], [-65.4785, 18.15705], [-65.39855, 18.16934], [-65.38581, 18.16718], [-65.35106, 18.15571], [-65.29857, 18.15371], [-65.28555, 18.14887], [-65.27575, 18.13715], [-65.28307, 18.13349], [-65.3098, 18.1352], [-65.31656, 18.1328], [-65.33556, 18.12027], [-65.34081, 18.11469], [-65.34773, 18.11469], [-65.3566, 18.12287], [-65.37121, 18.11953]]], [[[-65.6258, 18.25983], [-65.61759, 18.25634], [-65.6037, 18.26286], [-65.60659, 18.25361], [-65.60377, 18.24634], [-65.59176, 18.23089], [-65.60211, 18.22375], [-65.60353, 18.21527], [-65.61244, 18.2145], [-65.62222, 18.22926], [-65.63336, 18.22918], [-65.63699, 18.21857], [-65.62723, 18.20593], [-65.63683, 18.1981], [-65.64874, 18.20013], [-65.66552, 18.20844], [-65.68297, 18.20283], [-65.70128, 18.19424], [-65.72102, 18.18985], [-65.73754, 18.18268], [-65.75487, 18.16625], [-65.79029, 18.11397], [-65.79314, 18.08763], [-65.807, 18.0703], [-65.81216, 18.06729], [-65.83528, 18.06249], [-65.84048, 18.05634], [-65.83027, 18.02691], [-65.84975, 18.00971], [-65.88718, 17.98773], [-65.93912, 17.97053], [-65.96166, 17.97102], [-65.98453, 17.97565], [-66.00499, 17.97752], [-66.01708, 17.97508], [-66.04654, 17.96385], [-66.05358, 17.96312], [-66.0841, 17.96385], [-66.10464, 17.95893], [-66.16324, 17.92914], [-66.17561, 17.92821], [-66.18663, 17.92862], [-66.19628, 17.92772], [-66.20421, 17.92292], [-66.20857, 17.92914], [-66.20983, 17.93187], [-66.21044, 17.93659], [-66.19957, 17.9396], [-66.19701, 17.9444], [-66.20116, 17.95051], [-66.21044, 17.9571], [-66.22989, 17.94042], [-66.24136, 17.93732], [-66.25552, 17.94066], [-66.28307, 17.94343], [-66.29259, 17.94575], [-66.29772, 17.9514], [-66.30138, 17.9582], [-66.30663, 17.96385], [-66.31916, 17.97036], [-66.32811, 17.97232], [-66.34447, 17.97134], [-66.36767, 17.96601], [-66.39615, 17.94725], [-66.41649, 17.94961], [-66.4359, 17.96402], [-66.45214, 17.98216], [-66.46915, 17.99266], [-66.4878, 17.98885], [-66.50197, 17.98711], [-66.51252, 17.982], [-66.52701, 17.97931], [-66.55988, 17.97752], [-66.57042, 17.97236], [-66.58064, 17.96581], [-66.59252, 17.96357], [-66.60827, 17.97134], [-66.61531, 17.96674], [-66.62255, 17.96385], [-66.62938, 17.97517], [-66.6466, 17.97663], [-66.68741, 17.97134], [-66.69498, 17.97309], [-66.72496, 17.98436], [-66.76594, 17.98436], [-66.76513, 17.99803], [-66.77404, 18.00218], [-66.78746, 17.99933], [-66.80012, 17.99185], [-66.80012, 17.98436], [-66.78645, 17.98436], [-66.79796, 17.96931], [-66.8177, 17.95897], [-66.84057, 17.9527], [-66.86148, 17.94961], [-66.89265, 17.95067], [-66.90783, 17.9492], [-66.91902, 17.95014], [-66.92422, 17.94961], [-66.92821, 17.94554], [-66.92992, 17.93862], [-66.93041, 17.92914], [-66.94913, 17.93122], [-66.96325, 17.94107], [-66.98571, 17.96385], [-67.00596, 17.96491], [-67.02853, 17.96854], [-67.05271, 17.96817], [-67.06701, 17.97256], [-67.08092, 17.96125], [-67.09732, 17.95287], [-67.11197, 17.94961], [-67.12401, 17.95116], [-67.15856, 17.95457], [-67.18047, 17.96612], [-67.19122, 17.95799], [-67.18419, 17.93507], [-67.19507, 17.93568], [-67.20961, 17.95689], [-67.21477, 17.96634], [-67.21435, 17.99414], [-67.1905, 18.00483], [-67.18334, 18.00853], [-67.17422, 18.01118], [-67.16649, 18.01504], [-67.1632, 18.02253], [-67.16723, 18.0279], [-67.17687, 18.0327], [-67.19008, 18.03031], [-67.20288, 18.03572], [-67.20213, 18.05436], [-67.1954, 18.06377], [-67.18569, 18.07043], [-67.18974, 18.08061], [-67.19388, 18.0973], [-67.18324, 18.10769], [-67.18378, 18.13995], [-67.17369, 18.17617], [-67.16591, 18.18407], [-67.15754, 18.19173], [-67.15186, 18.20339], [-67.15847, 18.21396], [-67.1712, 18.22487], [-67.18708, 18.27277], [-67.19651, 18.29134], [-67.21883, 18.29557], [-67.23691, 18.29986], [-67.25277, 18.32934], [-67.2626, 18.34381], [-67.27084, 18.36183], [-67.26883, 18.3689], [-67.24027, 18.37681], [-67.21736, 18.38618], [-67.19839, 18.3937], [-67.18432, 18.40209], [-67.15945, 18.42091], [-67.15812, 18.44311], [-67.1687, 18.46061], [-67.17001, 18.48602], [-67.15168, 18.50894], [-67.10171, 18.52277], [-67.04845, 18.52115], [-67.01236, 18.50576], [-66.90732, 18.48532], [-66.80346, 18.49828], [-66.78921, 18.49653], [-66.7517, 18.48404], [-66.73681, 18.48314], [-66.69766, 18.49144], [-66.64086, 18.4964], [-66.61433, 18.49323], [-66.5878, 18.48404], [-66.57144, 18.48701], [-66.50707, 18.4864], [-66.46744, 18.47529], [-66.3824, 18.49144], [-66.30386, 18.46882], [-66.25813, 18.48151], [-66.20519, 18.4654], [-66.19399, 18.47359], [-66.1809, 18.4715], [-66.17369, 18.46296], [-66.17007, 18.45734], [-66.16158, 18.4533], [-66.15201, 18.45872], [-66.14409, 18.4687], [-66.13415, 18.46589], [-66.13747, 18.45276], [-66.11808, 18.44303], [-66.11486, 18.43317], [-66.10847, 18.42064], [-66.09317, 18.41983], [-66.06021, 18.42939], [-66.06021, 18.43683], [-66.07677, 18.43887], [-66.09496, 18.4477], [-66.10936, 18.46141], [-66.12163, 18.47347], [-66.0559, 18.4538], [-66.0397, 18.45051], [-66.02818, 18.44687], [-66.0121, 18.44396], [-65.99772, 18.45019], [-65.98888, 18.46308], [-65.96622, 18.45844], [-65.92044, 18.44589], [-65.90483, 18.45593], [-65.89281, 18.4536], [-65.88052, 18.44481], [-65.8483, 18.43789], [-65.8308, 18.4287], [-65.81261, 18.41041], [-65.80163, 18.41544], [-65.79417, 18.42541], [-65.78835, 18.42325], [-65.78715, 18.41831], [-65.79232, 18.41276], [-65.79631, 18.40503], [-65.78878, 18.40674], [-65.77837, 18.41067], [-65.77203, 18.41457], [-65.755, 18.39104], [-65.73811, 18.38237], [-65.72485, 18.39127], [-65.69801, 18.37111], [-65.6632, 18.36641], [-65.64574, 18.3784], [-65.63777, 18.38569], [-65.62938, 18.39106], [-65.62141, 18.38906], [-65.621, 18.38227], [-65.63077, 18.33283], [-65.63296, 18.291], [-65.62881, 18.2792], [-65.63292, 18.26691], [-65.6258, 18.25983]]], [[[-65.33434, 18.3371], [-65.33406, 18.34064], [-65.30944, 18.34077], [-65.28091, 18.33527], [-65.25666, 18.32392], [-65.24462, 18.30654], [-65.24755, 18.30585], [-65.25829, 18.30654], [-65.25145, 18.29971], [-65.26211, 18.29922], [-65.27042, 18.30142], [-65.27603, 18.30634], [-65.2788, 18.31395], [-65.28555, 18.31395], [-65.27652, 18.29694], [-65.27481, 18.28901], [-65.2788, 18.2792], [-65.29259, 18.29995], [-65.33434, 18.3371]]]]}, "properties": {"id": "sbGW", "status": "validé", "pieces": [{"kind": "country"}]}}, {"type": "Feature", "geometry": {"type": "MultiPolygon", "coordinates": [[[[-67.84415, 18.09756], [-67.84976, 18.09064], [-67.85993, 18.07315], [-67.86417, 18.06875], [-67.86754, 18.0642], [-67.86889, 18.05634], [-67.87316, 18.05345], [-67.88256, 18.05256], [-67.89196, 18.05345], [-67.89623, 18.05634], [-67.9027, 18.06542], [-67.93114, 18.08051], [-67.93782, 18.09422], [-67.9313, 18.10871], [-67.91975, 18.11449], [-67.86189, 18.11612], [-67.85586, 18.11469], [-67.84435, 18.10456], [-67.84415, 18.09756]]], [[[-65.37121, 18.11953], [-65.39025, 18.11197], [-65.46858, 18.09443], [-65.48424, 18.08735], [-65.50487, 18.09365], [-65.536, 18.09007], [-65.56509, 18.09394], [-65.58043, 18.12214], [-65.56493, 18.12263], [-65.55993, 18.12214], [-65.54015, 18.12376], [-65.52025, 18.13093], [-65.50219, 18.14126], [-65.48794, 18.15229], [-65.4785, 18.15705], [-65.39855, 18.16934], [-65.38581, 18.16718], [-65.35106, 18.15571], [-65.29857, 18.15371], [-65.28555, 18.14887], [-65.27575, 18.13715], [-65.28307, 18.13349], [-65.3098, 18.1352], [-65.31656, 18.1328], [-65.33556, 18.12027], [-65.34081, 18.11469], [-65.34773, 18.11469], [-65.3566, 18.12287], [-65.37121, 18.11953]]], [[[-65.6258, 18.25983], [-65.61759, 18.25634], [-65.6037, 18.26286], [-65.60659, 18.25361], [-65.60377, 18.24634], [-65.59176, 18.23089], [-65.60211, 18.22375], [-65.60353, 18.21527], [-65.61244, 18.2145], [-65.62222, 18.22926], [-65.63336, 18.22918], [-65.63699, 18.21857], [-65.62723, 18.20593], [-65.63683, 18.1981], [-65.64874, 18.20013], [-65.66552, 18.20844], [-65.68297, 18.20283], [-65.70128, 18.19424], [-65.72102, 18.18985], [-65.73754, 18.18268], [-65.75487, 18.16625], [-65.79029, 18.11397], [-65.79314, 18.08763], [-65.807, 18.0703], [-65.81216, 18.06729], [-65.83528, 18.06249], [-65.84048, 18.05634], [-65.83027, 18.02691], [-65.84975, 18.00971], [-65.88718, 17.98773], [-65.93912, 17.97053], [-65.96166, 17.97102], [-65.98453, 17.97565], [-66.00499, 17.97752], [-66.01708, 17.97508], [-66.04654, 17.96385], [-66.05358, 17.96312], [-66.0841, 17.96385], [-66.10464, 17.95893], [-66.16324, 17.92914], [-66.17561, 17.92821], [-66.18663, 17.92862], [-66.19628, 17.92772], [-66.20421, 17.92292], [-66.20857, 17.92914], [-66.20983, 17.93187], [-66.21044, 17.93659], [-66.19957, 17.9396], [-66.19701, 17.9444], [-66.20116, 17.95051], [-66.21044, 17.9571], [-66.22989, 17.94042], [-66.24136, 17.93732], [-66.25552, 17.94066], [-66.28307, 17.94343], [-66.29259, 17.94575], [-66.29772, 17.9514], [-66.30138, 17.9582], [-66.30663, 17.96385], [-66.31916, 17.97036], [-66.32811, 17.97232], [-66.34447, 17.97134], [-66.36767, 17.96601], [-66.39615, 17.94725], [-66.41649, 17.94961], [-66.4359, 17.96402], [-66.45214, 17.98216], [-66.46915, 17.99266], [-66.4878, 17.98885], [-66.50197, 17.98711], [-66.51252, 17.982], [-66.52701, 17.97931], [-66.55988, 17.97752], [-66.57042, 17.97236], [-66.58064, 17.96581], [-66.59252, 17.96357], [-66.60827, 17.97134], [-66.61531, 17.96674], [-66.62255, 17.96385], [-66.62938, 17.97517], [-66.6466, 17.97663], [-66.68741, 17.97134], [-66.69498, 17.97309], [-66.72496, 17.98436], [-66.76594, 17.98436], [-66.76513, 17.99803], [-66.77404, 18.00218], [-66.78746, 17.99933], [-66.80012, 17.99185], [-66.80012, 17.98436], [-66.78645, 17.98436], [-66.79796, 17.96931], [-66.8177, 17.95897], [-66.84057, 17.9527], [-66.86148, 17.94961], [-66.89265, 17.95067], [-66.90783, 17.9492], [-66.91902, 17.95014], [-66.92422, 17.94961], [-66.92821, 17.94554], [-66.92992, 17.93862], [-66.93041, 17.92914], [-66.94913, 17.93122], [-66.96325, 17.94107], [-66.98571, 17.96385], [-67.00596, 17.96491], [-67.02853, 17.96854], [-67.05271, 17.96817], [-67.06701, 17.97256], [-67.08092, 17.96125], [-67.09732, 17.95287], [-67.11197, 17.94961], [-67.12401, 17.95116], [-67.15856, 17.95457], [-67.18047, 17.96612], [-67.19122, 17.95799], [-67.18419, 17.93507], [-67.19507, 17.93568], [-67.20961, 17.95689], [-67.21477, 17.96634], [-67.21435, 17.99414], [-67.1905, 18.00483], [-67.18334, 18.00853], [-67.17422, 18.01118], [-67.16649, 18.01504], [-67.1632, 18.02253], [-67.16723, 18.0279], [-67.17687, 18.0327], [-67.19008, 18.03031], [-67.20288, 18.03572], [-67.20213, 18.05436], [-67.1954, 18.06377], [-67.18569, 18.07043], [-67.18974, 18.08061], [-67.19388, 18.0973], [-67.18324, 18.10769], [-67.18378, 18.13995], [-67.17369, 18.17617], [-67.16591, 18.18407], [-67.15754, 18.19173], [-67.15186, 18.20339], [-67.15847, 18.21396], [-67.1712, 18.22487], [-67.18708, 18.27277], [-67.19651, 18.29134], [-67.21883, 18.29557], [-67.23691, 18.29986], [-67.25277, 18.32934], [-67.2626, 18.34381], [-67.27084, 18.36183], [-67.26883, 18.3689], [-67.24027, 18.37681], [-67.21736, 18.38618], [-67.19839, 18.3937], [-67.18432, 18.40209], [-67.15945, 18.42091], [-67.15812, 18.44311], [-67.1687, 18.46061], [-67.17001, 18.48602], [-67.15168, 18.50894], [-67.10171, 18.52277], [-67.04845, 18.52115], [-67.01236, 18.50576], [-66.90732, 18.48532], [-66.80346, 18.49828], [-66.78921, 18.49653], [-66.7517, 18.48404], [-66.73681, 18.48314], [-66.69766, 18.49144], [-66.64086, 18.4964], [-66.61433, 18.49323], [-66.5878, 18.48404], [-66.57144, 18.48701], [-66.50707, 18.4864], [-66.46744, 18.47529], [-66.3824, 18.49144], [-66.30386, 18.46882], [-66.25813, 18.48151], [-66.20519, 18.4654], [-66.19399, 18.47359], [-66.1809, 18.4715], [-66.17369, 18.46296], [-66.17007, 18.45734], [-66.16158, 18.4533], [-66.15201, 18.45872], [-66.14409, 18.4687], [-66.13415, 18.46589], [-66.13747, 18.45276], [-66.11808, 18.44303], [-66.11486, 18.43317], [-66.10847, 18.42064], [-66.09317, 18.41983], [-66.06021, 18.42939], [-66.06021, 18.43683], [-66.07677, 18.43887], [-66.09496, 18.4477], [-66.10936, 18.46141], [-66.12163, 18.47347], [-66.0559, 18.4538], [-66.0397, 18.45051], [-66.02818, 18.44687], [-66.0121, 18.44396], [-65.99772, 18.45019], [-65.98888, 18.46308], [-65.96622, 18.45844], [-65.92044, 18.44589], [-65.90483, 18.45593], [-65.89281, 18.4536], [-65.88052, 18.44481], [-65.8483, 18.43789], [-65.8308, 18.4287], [-65.81261, 18.41041], [-65.80163, 18.41544], [-65.79417, 18.42541], [-65.78835, 18.42325], [-65.78715, 18.41831], [-65.79232, 18.41276], [-65.79631, 18.40503], [-65.78878, 18.40674], [-65.77837, 18.41067], [-65.77203, 18.41457], [-65.755, 18.39104], [-65.73811, 18.38237], [-65.72485, 18.39127], [-65.69801, 18.37111], [-65.6632, 18.36641], [-65.64574, 18.3784], [-65.63777, 18.38569], [-65.62938, 18.39106], [-65.62141, 18.38906], [-65.621, 18.38227], [-65.63077, 18.33283], [-65.63296, 18.291], [-65.62881, 18.2792], [-65.63292, 18.26691], [-65.6258, 18.25983]]], [[[-65.33434, 18.3371], [-65.33406, 18.34064], [-65.30944, 18.34077], [-65.28091, 18.33527], [-65.25666, 18.32392], [-65.24462, 18.30654], [-65.24755, 18.30585], [-65.25829, 18.30654], [-65.25145, 18.29971], [-65.26211, 18.29922], [-65.27042, 18.30142], [-65.27603, 18.30634], [-65.2788, 18.31395], [-65.28555, 18.31395], [-65.27652, 18.29694], [-65.27481, 18.28901], [-65.2788, 18.2792], [-65.29259, 18.29995], [-65.33434, 18.3371]]]]}, "properties": {"id": "x00D", "status": "validé", "pieces": [{"kind": "country"}]}}, {"type": "Feature", "geometry": {"type": "MultiPolygon", "coordinates": [[[[-67.844146, 18.097561], [-67.849762, 18.090644], [-67.859934, 18.073147], [-67.864166, 18.068752], [-67.867543, 18.064195], [-67.868886, 18.056342], [-67.873158, 18.053453], [-67.882558, 18.052558], [-67.891957, 18.053453], [-67.89623, 18.056342], [-67.902699, 18.065416], [-67.931142, 18.080512], [-67.937815, 18.094224], [-67.931304, 18.10871], [-67.919749, 18.114488], [-67.861887, 18.116116], [-67.855865, 18.114691], [-67.84435, 18.10456], [-67.844146, 18.097561]]], [[[-65.371205, 18.119534], [-65.390248, 18.111965], [-65.468577, 18.094428], [-65.484242, 18.087348], [-65.504872, 18.093655], [-65.536, 18.090074], [-65.565094, 18.09394], [-65.580434, 18.122138], [-65.564931, 18.122626], [-65.559926, 18.122138], [-65.540151, 18.123765], [-65.520253, 18.130927], [-65.502187, 18.141262], [-65.487945, 18.152289], [-65.478505, 18.15705], [-65.398549, 18.169338], [-65.385813, 18.167182], [-65.351064, 18.155707], [-65.298573, 18.153713], [-65.285553, 18.148871], [-65.275746, 18.137152], [-65.28307, 18.13349], [-65.309804, 18.135199], [-65.316558, 18.132799], [-65.335561, 18.120266], [-65.34081, 18.114691], [-65.347727, 18.114691], [-65.356597, 18.12287], [-65.371205, 18.119534]]], [[[-65.625803, 18.259833], [-65.617591, 18.256344], [-65.603702, 18.262861], [-65.606587, 18.25361], [-65.603773, 18.24634], [-65.591764, 18.230885], [-65.602112, 18.223753], [-65.603533, 18.21527], [-65.612443, 18.214503], [-65.622218, 18.229263], [-65.633363, 18.229183], [-65.636995, 18.21857], [-65.627235, 18.205929], [-65.636831, 18.198097], [-65.648735, 18.200131], [-65.665517, 18.208441], [-65.682973, 18.202826], [-65.701283, 18.194241], [-65.721018, 18.189846], [-65.737538, 18.182685], [-65.754872, 18.166246], [-65.790289, 18.113973], [-65.793142, 18.087631], [-65.806996, 18.070299], [-65.812164, 18.067288], [-65.835276, 18.062486], [-65.840484, 18.056342], [-65.830269, 18.026907], [-65.849746, 18.009711], [-65.887178, 17.987727], [-65.939117, 17.970526], [-65.961659, 17.971015], [-65.984527, 17.975653], [-66.004994, 17.977525], [-66.017079, 17.975084], [-66.046539, 17.963853], [-66.053578, 17.963121], [-66.084096, 17.963853], [-66.104644, 17.95893], [-66.163238, 17.929145], [-66.175608, 17.928209], [-66.186635, 17.928616], [-66.196278, 17.92772], [-66.204213, 17.922919], [-66.208567, 17.929145], [-66.209828, 17.931871], [-66.210439, 17.936591], [-66.199574, 17.939602], [-66.197011, 17.944403], [-66.201161, 17.950507], [-66.210439, 17.957099], [-66.229888, 17.940416], [-66.241363, 17.937323], [-66.255523, 17.94066], [-66.28307, 17.943427], [-66.292592, 17.945746], [-66.297719, 17.951402], [-66.301381, 17.958197], [-66.30663, 17.963853], [-66.319163, 17.970364], [-66.328114, 17.972317], [-66.344472, 17.97134], [-66.367665, 17.96601], [-66.396148, 17.947252], [-66.416493, 17.949612], [-66.435902, 17.964016], [-66.452138, 17.982164], [-66.469146, 17.992662], [-66.4878, 17.988854], [-66.501969, 17.987115], [-66.512522, 17.982001], [-66.527008, 17.979315], [-66.559885, 17.977525], [-66.570424, 17.972357], [-66.580637, 17.965806], [-66.592519, 17.963568], [-66.608266, 17.97134], [-66.615305, 17.966742], [-66.622548, 17.963853], [-66.629384, 17.975165], [-66.646596, 17.97663], [-66.687408, 17.97134], [-66.694976, 17.97309], [-66.724965, 17.984361], [-66.76594, 17.984361], [-66.765126, 17.998033], [-66.774037, 18.002183], [-66.787465, 17.999335], [-66.80012, 17.991848], [-66.80012, 17.984361], [-66.786448, 17.984361], [-66.797963, 17.969306], [-66.817698, 17.95897], [-66.840566, 17.952704], [-66.86148, 17.949612], [-66.892649, 17.95067], [-66.907826, 17.949205], [-66.919016, 17.950141], [-66.924224, 17.949612], [-66.928212, 17.945543], [-66.929921, 17.938625], [-66.930409, 17.929145], [-66.949127, 17.93122], [-66.963246, 17.941067], [-66.985707, 17.963853], [-67.005959, 17.964911], [-67.028528, 17.968538], [-67.052713, 17.968166], [-67.067006, 17.972561], [-67.080922, 17.961249], [-67.09732, 17.952867], [-67.111969, 17.949612], [-67.124013, 17.951158], [-67.15856, 17.954569], [-67.180467, 17.966118], [-67.191221, 17.957994], [-67.184192, 17.935072], [-67.195073, 17.935682], [-67.20961, 17.95689], [-67.214771, 17.966335], [-67.214349, 17.994144], [-67.1905, 18.004828], [-67.183339, 18.008531], [-67.174224, 18.011176], [-67.166493, 18.015041], [-67.163197, 18.022528], [-67.167226, 18.027899], [-67.176869, 18.032701], [-67.190076, 18.030314], [-67.202875, 18.035716], [-67.202134, 18.054358], [-67.1954, 18.063768], [-67.185693, 18.070427], [-67.189741, 18.08061], [-67.193877, 18.097302], [-67.183245, 18.107689], [-67.183778, 18.139945], [-67.173695, 18.176174], [-67.165909, 18.184074], [-67.157536, 18.191734], [-67.151858, 18.203392], [-67.158465, 18.213958], [-67.171198, 18.22487], [-67.187082, 18.272773], [-67.196512, 18.291339], [-67.218829, 18.295574], [-67.236906, 18.299862], [-67.252774, 18.329337], [-67.262601, 18.343813], [-67.270842, 18.361826], [-67.268825, 18.3689], [-67.240267, 18.376812], [-67.217356, 18.386176], [-67.198394, 18.393704], [-67.184316, 18.402086], [-67.159451, 18.420911], [-67.158118, 18.443111], [-67.168699, 18.460605], [-67.170007, 18.48602], [-67.151682, 18.508938], [-67.101715, 18.522773], [-67.048451, 18.521145], [-67.012359, 18.505764], [-66.907316, 18.485325], [-66.803456, 18.498277], [-66.789215, 18.496527], [-66.751698, 18.484036], [-66.736806, 18.48314], [-66.697662, 18.491441], [-66.640859, 18.496405], [-66.614329, 18.493232], [-66.587799, 18.484036], [-66.571441, 18.487006], [-66.507069, 18.486396], [-66.467437, 18.475287], [-66.382395, 18.491441], [-66.303863, 18.468817], [-66.258127, 18.481513], [-66.20519, 18.465399], [-66.193989, 18.473587], [-66.180898, 18.471503], [-66.173695, 18.462958], [-66.170074, 18.457343], [-66.161584, 18.453298], [-66.152008, 18.458724], [-66.144085, 18.468702], [-66.134145, 18.465888], [-66.13747, 18.452756], [-66.118081, 18.443027], [-66.114858, 18.433173], [-66.108469, 18.42064], [-66.09317, 18.419827], [-66.060211, 18.429389], [-66.060211, 18.436835], [-66.076772, 18.43887], [-66.09496, 18.447699], [-66.109364, 18.461412], [-66.121631, 18.47347], [-66.055898, 18.453803], [-66.039703, 18.450507], [-66.028185, 18.446871], [-66.0121, 18.443962], [-65.997717, 18.450185], [-65.988881, 18.46308], [-65.966217, 18.458441], [-65.920438, 18.445889], [-65.904826, 18.455925], [-65.892812, 18.453599], [-65.880523, 18.44481], [-65.848297, 18.437893], [-65.8308, 18.428697], [-65.812606, 18.410405], [-65.801626, 18.415443], [-65.794169, 18.425406], [-65.788347, 18.423249], [-65.787148, 18.418307], [-65.792318, 18.412764], [-65.796307, 18.405028], [-65.788777, 18.406737], [-65.778372, 18.410669], [-65.772027, 18.41457], [-65.755002, 18.391041], [-65.738107, 18.382365], [-65.724849, 18.391267], [-65.698015, 18.371111], [-65.6632, 18.366414], [-65.645741, 18.378404], [-65.637766, 18.385688], [-65.629384, 18.391059], [-65.621409, 18.389065], [-65.621002, 18.38227], [-65.630767, 18.332831], [-65.632965, 18.291002], [-65.628814, 18.279202], [-65.632924, 18.266913], [-65.625803, 18.259833]]], [[[-65.33434, 18.337104], [-65.334055, 18.340644], [-65.309438, 18.340766], [-65.280914, 18.335273], [-65.256663, 18.32392], [-65.244618, 18.306545], [-65.247548, 18.305854], [-65.25829, 18.306545], [-65.251454, 18.299709], [-65.262115, 18.299221], [-65.270416, 18.301418], [-65.276031, 18.306342], [-65.278798, 18.313951], [-65.285553, 18.313951], [-65.276519, 18.296942], [-65.27481, 18.289008], [-65.278798, 18.279202], [-65.292592, 18.299954], [-65.33434, 18.337104]]]]}, "properties": {"id": "zV2D", "status": "validé", "pieces": [{"kind": "country"}]}}]}