{"type": "FeatureCollection", "features": [{"type": "Feature", "geometry": {"type": "MultiPolygon", "coordinates": [[[[-7.7124, 37.54646], [-8.04199, 37.53775], [-8.30566, 37.53775], [-8.50342, 37.67695], [-8.55835, 37.89393], [-8.66821, 38.04111], [-8.80749, 38.09329], [-8.79699, 38.13325], [-8.7744, 38.18695], [-8.77795, 38.24069], [-8.78547, 38.30391], [-8.79507, 38.35923], [-8.82094, 38.39882], [-8.84679, 38.42007], [-8.87828, 38.44916], [-8.91466, 38.47285], [-8.94262, 38.48139], [-8.92732, 38.4938], [-8.90453, 38.4864], [-8.8675, 38.46088], [-8.82185, 38.44855], [-8.80016, 38.43911], [-8.79857, 38.42609], [-8.75699, 38.42731], [-8.65689, 38.40595], [-8.6068, 38.41869], [-8.63683, 38.42015], [-8.66275, 38.42451], [-8.73616, 38.45185], [-8.74503, 38.46027], [-8.7508, 38.47394], [-8.75251, 38.48798], [-8.75089, 38.50064], [-8.74576, 38.51008], [-8.73717, 38.51488], [-8.73717, 38.52237], [-8.75145, 38.52643], [-8.76122, 38.53807], [-8.76423, 38.55207], [-8.75764, 38.5633], [-8.77335, 38.56533], [-8.79296, 38.5336], [-8.81286, 38.52855], [-8.81286, 38.52237], [-8.79064, 38.51992], [-8.78026, 38.50544], [-8.78002, 38.48908], [-8.7884, 38.48139], [-8.81233, 38.48286], [-8.83226, 38.48705], [-8.8675, 38.50186], [-8.90583, 38.5124], [-8.95453, 38.5052], [-8.97583, 38.72975], [-8.98018, 38.75232], [-8.95686, 38.76813], [-8.95295, 38.77025], [-8.94713, 38.77424], [-8.94262, 38.77558], [-8.94262, 38.78172], [-8.95263, 38.79491], [-8.96426, 38.81485], [-8.97029, 38.83543], [-8.96312, 38.85065], [-8.98632, 38.84943], [-8.99682, 38.86555], [-9.00259, 38.88984], [-9.00812, 38.90439], [-9.00406, 38.92584], [-8.96911, 38.98395], [-8.94323, 39.0152], [-8.90844, 39.03628], [-8.88842, 39.04011], [-8.84553, 39.04291], [-8.82653, 39.04926], [-8.79035, 39.07062], [-8.77465, 39.08344], [-8.76513, 39.09772], [-8.79174, 39.08242], [-8.83642, 39.05671], [-8.92272, 39.04926], [-8.93586, 39.04072], [-8.95507, 39.01219], [-8.99653, 38.96562], [-8.95386, 39.19086], [-8.83301, 39.42878], [-8.63525, 39.51355], [-8.54736, 39.42878], [-8.42651, 39.1057], [-8.37158, 38.88379], [-8.18481, 38.69547], [-8.03101, 38.72118], [-7.85522, 39.23341], [-7.66846, 39.56437], [-7.56958, 39.9106], [-7.18506, 40.58117], [-6.93337, 40.99526], [-6.93061, 40.99207], [-6.89924, 40.96675], [-6.88518, 40.94892], [-6.86363, 40.9083], [-6.85526, 40.88722], [-6.84704, 40.8789], [-6.83206, 40.8759], [-6.82116, 40.87006], [-6.81619, 40.85683], [-6.82033, 40.84423], [-6.83666, 40.84025], [-6.83805, 40.81493], [-6.83681, 40.80831], [-6.83351, 40.79782], [-6.83454, 40.79224], [-6.83728, 40.78676], [-6.83914, 40.77689], [-6.83914, 40.75751], [-6.83697, 40.7433], [-6.82431, 40.71069], [-6.81625, 40.67716], [-6.81423, 40.65933], [-6.81428, 40.64718], [-6.82131, 40.63018], [-6.84446, 40.59778], [-6.85046, 40.58223], [-6.84839, 40.56476], [-6.83976, 40.55458], [-6.82855, 40.54554], [-6.81806, 40.53189], [-6.81252, 40.51463], [-6.81532, 40.50254], [-6.83867, 40.47722], [-6.85712, 40.44213], [-6.85128, 40.40952], [-6.82808, 40.38059], [-6.79444, 40.3564], [-6.81196, 40.33232], [-6.82079, 40.32534], [-6.86394, 40.30095], [-6.8702, 40.29553], [-6.87387, 40.28778], [-6.87451, 40.27919], [-6.8751, 40.27124], [-6.87805, 40.26524], [-6.89645, 40.25548], [-6.91583, 40.25444], [-6.93541, 40.25584], [-6.9421, 40.25498], [-6.95469, 40.25336], [-6.99779, 40.23171], [-7.01577, 40.2255], [-7.02476, 40.2162], [-7.03458, 40.19305], [-7.0431, 40.18137], [-7.03484, 40.16675], [-7.02765, 40.13264], [-7.01577, 40.11905], [-7.00368, 40.11631], [-6.97717, 40.11342], [-6.96642, 40.11032], [-6.95572, 40.10293], [-6.94213, 40.08634], [-6.91991, 40.06489], [-6.87971, 40.00919], [-6.89691, 39.98712], [-6.90161, 39.97648], [-6.89975, 39.96562], [-6.90368, 39.95668], [-6.90952, 39.93198], [-6.91257, 39.92811], [-6.92229, 39.92242], [-6.92523, 39.91793], [-6.92513, 39.91224], [-6.92156, 39.90216], [-6.92177, 39.89715], [-6.92347, 39.88832], [-6.92425, 39.87157], [-6.92766, 39.86191], [-6.95283, 39.83287], [-6.96234, 39.82853], [-6.98523, 39.82114], [-6.99303, 39.81607], [-7.00027, 39.80253], [-6.99887, 39.79178], [-6.99458, 39.78259], [-6.99303, 39.77421], [-6.9968, 39.76471], [-7.00874, 39.74832], [-7.01334, 39.73892], [-7.01365, 39.72962], [-7.0107, 39.7228], [-7.00962, 39.71546], [-7.02114, 39.69401], [-7.03577, 39.68926], [-7.18289, 39.6751], [-7.21405, 39.67618], [-7.23576, 39.68652], [-7.25286, 39.68233], [-7.29275, 39.68332], [-7.31141, 39.68032], [-7.32784, 39.67479], [-7.34143, 39.67184], [-7.55729, 39.6798], [-7.55587, 39.67721], [-7.54824, 39.66321], [-7.51584, 39.59376], [-7.49786, 39.58105], [-7.46809, 39.55025], [-7.45135, 39.53785], [-7.41755, 39.5242], [-7.40892, 39.51557], [-7.39941, 39.49366], [-7.38417, 39.484], [-7.36293, 39.47609], [-7.32092, 39.46741], [-7.31353, 39.45744], [-7.31363, 39.4361], [-7.31885, 39.41325], [-7.32671, 39.39884], [-7.33193, 39.38473], [-7.33141, 39.36261], [-7.32665, 39.34132], [-7.31926, 39.32954], [-7.30045, 39.31791], [-7.25084, 39.27063], [-7.26433, 39.25233], [-7.26578, 39.23135], [-7.25808, 39.2113], [-7.24413, 39.19564], [-7.21932, 39.18484], [-7.19157, 39.17916], [-7.16806, 39.17063], [-7.15581, 39.15151], [-7.15793, 39.14138], [-7.16889, 39.12185], [-7.16749, 39.11348], [-7.15721, 39.10544], [-7.14253, 39.09953], [-7.12729, 39.09748], [-7.11519, 39.1011], [-7.09127, 39.11245], [-7.06491, 39.11477], [-7.03882, 39.10914], [-7.01577, 39.09681], [-7.00149, 39.08605], [-7.04873, 38.91588], [-7.06605, 38.9046], [-7.05587, 38.89018], [-7.06724, 38.84922], [-7.07654, 38.84324], [-7.08868, 38.83337], [-7.10486, 38.82719], [-7.15101, 38.81929], [-7.16062, 38.8129], [-7.1662, 38.80342], [-7.17974, 38.79089], [-7.19643, 38.77999], [-7.21152, 38.77536], [-7.22588, 38.76613], [-7.27043, 38.73751], [-7.27219, 38.73374], [-7.28071, 38.72043], [-7.28407, 38.71325], [-7.29095, 38.67909], [-7.29296, 38.65627], [-7.2925, 38.64612], [-7.29095, 38.63816], [-7.28604, 38.63191], [-7.27942, 38.62891], [-7.27353, 38.62539], [-7.27043, 38.6177], [-7.27586, 38.60382], [-7.31771, 38.55625], [-7.3358, 38.50587], [-7.34562, 38.49414], [-7.33409, 38.48101], [-7.33518, 38.46944], [-7.34484, 38.45833], [-7.35921, 38.44636], [-7.34552, 38.44096], [-7.31715, 38.42458], [-7.21409, 38.3203], [-7.35997, 37.79488], [-7.42634, 37.75062], [-7.44401, 37.73015], [-7.45755, 37.70008], [-7.46633, 37.65197], [-7.47161, 37.6369], [-7.47848, 37.62887], [-7.50489, 37.60639], [-7.50989, 37.60375], [-7.7124, 37.54646]]], [[[-6.60278, 41.36882], [-6.42151, 41.67226], [-6.36594, 41.66361], [-6.3171, 41.65015], [-6.27225, 41.62823], [-6.23008, 41.5949], [-6.21613, 41.5801], [-6.20595, 41.57028], [-6.25364, 41.51752], [-6.27953, 41.497], [-6.28589, 41.48687], [-6.28517, 41.47897], [-6.28248, 41.4723], [-6.28294, 41.46563], [-6.32103, 41.41959], [-6.32113, 41.41101], [-6.35235, 41.40926], [-6.36625, 41.40517], [-6.37917, 41.39732], [-6.37617, 41.39685], [-6.37555, 41.39081], [-6.37674, 41.383], [-6.37917, 41.37747], [-6.3832, 41.37655], [-6.3955, 41.37841], [-6.39958, 41.37747], [-6.431, 41.33903], [-6.46314, 41.31412], [-6.49585, 41.29495], [-6.53639, 41.28158], [-6.60278, 41.36882]]]]}, "properties": {"id": "1SD6", "status": "validé", "pieces": [{"kind": "polygon", "ring": [[-7.40479, 37.63348], [-7.7124, 37.54646], [-8.04199, 37.53775], [-8.30566, 37.53775], [-8.50342, 37.67695], [-8.55835, 37.89393], [-8.66821, 38.04111], [-8.89893, 38.12755], [-8.95386, 38.49806], [-8.97583, 38.72975], [-9.00879, 38.90088], [-8.95386, 39.19086], [-8.83301, 39.42878], [-8.63525, 39.51355], [-8.54736, 39.42878], [-8.42651, 39.1057], [-8.37158, 38.88379], [-8.18481, 38.69547], [-8.03101, 38.72118], [-7.85522, 39.23341], [-7.66846, 39.56437], [-7.56958, 39.9106], [-7.18506, 40.58117], [-6.93237, 40.9969], [-6.47095, 41.03004], [-6.51489, 41.25334], [-6.60278, 41.36882], [-6.37207, 41.75502], [-6.08643, 41.59917], [-6.48193, 41.01347], [-6.47095, 40.9969]]}, {"kind": "clip"}]}}, {"type": "Feature", "geometry": null, "properties": {"id": "67d6", "status": "validé", "pieces": [{"kind": "country"}]}}, {"type": "Feature", "geometry": {"type": "Polygon", "coordinates": [[[-8.56384, 38.3334], [-8.59131, 38.23211], [-8.72864, 38.16307], [-8.78553, 38.16049], [-8.7744, 38.18695], [-8.77795, 38.24069], [-8.78547, 38.30391], [-8.79507, 38.35923], [-8.82094, 38.39882], [-8.84679, 38.42007], [-8.87828, 38.44916], [-8.89537, 38.46029], [-8.89702, 38.48122], [-8.8675, 38.46088], [-8.82185, 38.44855], [-8.80016, 38.43911], [-8.79857, 38.42609], [-8.75699, 38.42731], [-8.65689, 38.40595], [-8.63405, 38.41176], [-8.61603, 38.40873], [-8.56384, 38.3334]]]}, "properties": {"id": "7JpO", "status": "validé", "pieces": [{"kind": "polygon", "ring": [[-8.61603, 38.40873], [-8.56384, 38.3334], [-8.59131, 38.23211], [-8.72864, 38.16307], [-8.87146, 38.15659], [-8.89893, 38.50548], [-8.81104, 38.4582], [-8.73138, 38.42809]]}, {"kind": "clip"}]}}, {"type": "Feature", "geometry": null, "properties": {"id": "DGfn", "status": "validé", "pieces": [{"kind": "country"}]}}, {"type": "Feature", "geometry": null, "properties": {"id": "FxrH", "status": "validé", "pieces": [{"kind": "country"}]}}, {"type": "Feature", "geometry": {"type": "Polygon", "coordinates": [[[-8.29468, 41.7726], [-8.05298, 41.66604], [-7.89917, 41.49353], [-7.83325, 41.19673], [-7.85522, 40.76563], [-7.67944, 40.54902], [-7.66846, 40.21441], [-7.23999, 40.19763], [-6.9873, 40.23956], [-6.98555, 40.23785], [-6.99779, 40.23171], [-7.01577, 40.2255], [-7.02476, 40.2162], [-7.03458, 40.19305], [-7.0431, 40.18137], [-7.03484, 40.16675], [-7.02765, 40.13264], [-7.01577, 40.11905], [-7.00368, 40.11631], [-6.97717, 40.11342], [-6.96642, 40.11032], [-6.95572, 40.10293], [-6.94213, 40.08634], [-6.91991, 40.06489], [-6.87971, 40.00919], [-6.89691, 39.98712], [-6.90161, 39.97648], [-6.89975, 39.96562], [-6.90368, 39.95668], [-6.90952, 39.93198], [-6.91257, 39.92811], [-6.92229, 39.92242], [-6.92523, 39.91793], [-6.92513, 39.91224], [-6.92156, 39.90216], [-6.92177, 39.89715], [-6.92347, 39.88832], [-6.92425, 39.87157], [-6.92766, 39.86191], [-6.95283, 39.83287], [-6.96234, 39.82853], [-6.98523, 39.82114], [-6.99303, 39.81607], [-7.00027, 39.80253], [-6.99887, 39.79178], [-6.99458, 39.78259], [-6.99303, 39.77421], [-6.9968, 39.76471], [-7.00874, 39.74832], [-7.01334, 39.73892], [-7.01365, 39.72962], [-7.0107, 39.7228], [-7.00962, 39.71546], [-7.02114, 39.69401], [-7.03577, 39.68926], [-7.18289, 39.6751], [-7.21405, 39.67618], [-7.23576, 39.68652], [-7.25286, 39.68233], [-7.29275, 39.68332], [-7.31141, 39.68032], [-7.32784, 39.67479], [-7.34143, 39.67184], [-7.55729, 39.6798], [-7.55587, 39.67721], [-7.54824, 39.66321], [-7.51584, 39.59376], [-7.49786, 39.58105], [-7.48712, 39.56994], [-7.52563, 39.4809], [-7.64648, 39.32816], [-7.92114, 39.20913], [-8.1958, 39.20913], [-8.37158, 38.98754], [-8.76709, 38.95339], [-8.78251, 39.07702], [-8.77465, 39.08344], [-8.76513, 39.09772], [-8.78376, 39.08701], [-8.80005, 39.21764], [-9.33545, 39.37692], [-9.27924, 39.40582], [-9.2608, 39.41844], [-9.24032, 39.42], [-9.2279, 39.40843], [-9.2176, 39.40619], [-9.20592, 39.41547], [-9.21353, 39.42862], [-9.22989, 39.44074], [-9.21365, 39.46104], [-9.19108, 39.48154], [-9.18287, 39.49258], [-9.16441, 39.50202], [-9.13569, 39.51618], [-9.1213, 39.53511], [-9.11101, 39.55088], [-9.09043, 39.57928], [-9.08834, 39.59666], [-9.09034, 39.61564], [-9.07795, 39.64248], [-9.07169, 39.68044], [-9.04106, 39.7438], [-8.94287, 39.83598], [-8.81104, 40.05543], [-8.79626, 40.1191], [-8.78498, 40.11872], [-8.78498, 40.12617], [-8.79322, 40.13218], [-8.69293, 40.56417], [-8.6718, 40.66687], [-8.6621, 40.66987], [-8.65363, 40.67719], [-8.64159, 40.69416], [-8.65746, 40.7014], [-8.66314, 40.70896], [-8.65983, 40.72505], [-8.64493, 40.72891], [-8.62182, 40.73066], [-8.60387, 40.73578], [-8.58837, 40.74421], [-8.57266, 40.75556], [-8.58951, 40.75471], [-8.61473, 40.74494], [-8.63598, 40.7416], [-8.63988, 40.74006], [-8.64537, 40.73973], [-8.65608, 40.74332], [-8.62701, 40.88459], [-8.67323, 40.92926], [-8.6551, 40.9938], [-8.65526, 41.0305], [-8.6671, 41.09756], [-8.66613, 41.13276], [-8.64835, 41.14663], [-8.64835, 41.15278], [-8.68578, 41.15949], [-8.70519, 41.18692], [-8.71837, 41.2215], [-8.73717, 41.24966], [-8.73229, 41.26293], [-8.73461, 41.27408], [-8.74006, 41.28498], [-8.74462, 41.29743], [-8.74446, 41.32811], [-8.74914, 41.33779], [-8.75613, 41.34054], [-8.76032, 41.3509], [-8.76403, 41.36131], [-8.77815, 41.37934], [-8.7838, 41.39387], [-8.78377, 41.40611], [-8.78556, 41.43488], [-8.77485, 41.46834], [-8.78647, 41.49107], [-8.78826, 41.5118], [-8.79273, 41.52584], [-8.79542, 41.54255], [-8.80834, 41.57294], [-8.81286, 41.5954], [-8.81949, 41.61188], [-8.82045, 41.6301], [-8.8286, 41.64816], [-8.83051, 41.67159], [-8.82706, 41.68281], [-8.80468, 41.68928], [-8.74328, 41.69697], [-8.72594, 41.70311], [-8.71003, 41.71186], [-8.69616, 41.72199], [-8.80687, 41.69697], [-8.82999, 41.69465], [-8.84289, 41.69579], [-8.86111, 41.70437], [-8.88031, 41.73686], [-8.88032, 41.76553], [-8.87204, 41.81057], [-8.8789, 41.83902], [-8.87475, 41.84956], [-8.8675, 41.85912], [-8.79662, 41.90331], [-8.76277, 41.93195], [-8.7508, 41.96898], [-8.73959, 41.97511], [-8.71701, 41.98377], [-8.69127, 41.98961], [-8.67081, 41.99981], [-8.66321, 42.00989], [-8.65257, 42.03144], [-8.64389, 42.04149], [-8.62688, 42.05103], [-8.60942, 42.05366], [-8.57281, 42.05441], [-8.55443, 42.06007], [-8.52002, 42.07772], [-8.50121, 42.08309], [-8.34675, 42.10169], [-8.32995, 42.10844], [-8.31854, 42.11617], [-8.29468, 41.7726]]]}, "properties": {"id": "JOnQ", "status": "validé", "pieces": [{"kind": "polygon", "ring": [[-8.32764, 42.24715], [-8.29468, 41.7726], [-8.05298, 41.66604], [-7.89917, 41.49353], [-7.83325, 41.19673], [-7.85522, 40.76563], [-7.67944, 40.54902], [-7.66846, 40.21441], [-7.23999, 40.19763], [-6.9873, 40.23956], [-6.62476, 39.88656], [-7.10815, 39.54867], [-7.45972, 39.6333], [-7.52563, 39.4809], [-7.64648, 39.32816], [-7.92114, 39.20913], [-8.1958, 39.20913], [-8.37158, 38.98754], [-8.76709, 38.95339], [-8.80005, 39.21764], [-9.37134, 39.38759], [-9.04175, 39.74316], [-8.94287, 39.83598], [-8.81104, 40.05543], [-8.69293, 40.56417], [-8.62701, 40.88459], [-8.90991, 41.15803], [-9.03625, 42.11012]]}, {"kind": "clip"}]}}, {"type": "Feature", "geometry": {"type": "Polygon", "coordinates": [[[-7.60529, 40.24422], [-7.7536, 40.26517], [-7.78107, 40.36356], [-7.48993, 40.55574], [-7.36908, 40.61412], [-7.28668, 40.59536], [-7.36359, 40.4639], [-7.40753, 40.38239], [-7.52563, 40.24631], [-7.60529, 40.24422]]]}, "properties": {"id": "Lkpp", "status": "validé", "pieces": [{"kind": "polygon", "ring": [[-7.60529, 40.24422], [-7.7536, 40.26517], [-7.78107, 40.36356], [-7.48993, 40.55574], [-7.36908, 40.61412], [-7.28668, 40.59536], [-7.36359, 40.4639], [-7.40753, 40.38239], [-7.52563, 40.24631]]}]}}, {"type": "Feature", "geometry": {"type": "MultiPolygon", "coordinates": [[[[-8.66821, 37.14757], [-8.55011, 37.1957], [-8.40454, 37.22413], [-8.25897, 37.2285], [-8.12164, 37.19352], [-7.94861, 37.16727], [-7.76184, 37.18914], [-7.56409, 37.23724], [-7.43139, 37.24604], [-7.42939, 37.23675], [-7.41442, 37.19282], [-7.41149, 37.18793], [-7.40941, 37.18374], [-7.4064, 37.18049], [-7.40022, 37.17853], [-7.40022, 37.17235], [-7.40762, 37.16486], [-7.42431, 37.17504], [-7.44571, 37.17963], [-7.46866, 37.18033], [-7.49014, 37.17853], [-7.51179, 37.17178], [-7.55223, 37.14924], [-7.569, 37.14444], [-7.62735, 37.11396], [-7.63516, 37.10541], [-7.78661, 37.02269], [-7.81957, 36.99873], [-7.83406, 36.99893], [-7.8496, 37.00438], [-7.87072, 37.00788], [-7.93244, 37.00853], [-7.94953, 37.01411], [-7.95812, 37.00263], [-7.96882, 37.00373], [-7.9816, 37.01008], [-7.9912, 37.01411], [-7.98135, 37.00169], [-7.9781, 36.99535], [-7.9768, 36.98676], [-7.99926, 37.01325], [-8.03527, 37.0375], [-8.10656, 37.06928], [-8.14748, 37.07653], [-8.17915, 37.0881], [-8.2129, 37.08691], [-8.2932, 37.0777], [-8.32738, 37.08739], [-8.36538, 37.098], [-8.39522, 37.08714], [-8.43883, 37.08273], [-8.48226, 37.09575], [-8.48425, 37.09416], [-8.53746, 37.11783], [-8.58015, 37.12397], [-8.62678, 37.12116], [-8.64159, 37.11774], [-8.65465, 37.1103], [-8.68627, 37.08295], [-8.71828, 37.08295], [-8.66821, 37.14757]]], [[[-7.90396, 36.97484], [-7.88402, 36.98086], [-7.8601, 37.00043], [-7.85782, 36.99746], [-7.85607, 36.99421], [-7.85326, 36.98676], [-7.85912, 36.98338], [-7.8601, 36.98054], [-7.87849, 36.97085], [-7.90388, 36.96589], [-7.93139, 36.9665], [-7.95572, 36.97309], [-7.95572, 36.98054], [-7.90396, 36.97484]]]]}, "properties": {"id": "MPGC", "status": "validé", "pieces": [{"kind": "polygon", "ring": [[-8.72589, 37.07313], [-8.66821, 37.14757], [-8.55011, 37.1957], [-8.40454, 37.22413], [-8.25897, 37.2285], [-8.12164, 37.19352], [-7.94861, 37.16727], [-7.76184, 37.18914], [-7.56409, 37.23724], [-7.33337, 37.25254], [-7.3938, 36.91525], [-8.41553, 36.86036]]}, {"kind": "clip"}]}}, {"type": "Feature", "geometry": null, "properties": {"id": "OD5a", "status": "validé", "pieces": [{"kind": "country"}]}}, {"type": "Feature", "geometry": null, "properties": {"id": "OZnB", "status": "validé", "pieces": [{"kind": "country"}]}}, {"type": "Feature", "geometry": {"type": "MultiPolygon", "coordinates": [[[[-7.44873, 39.91972], [-7.59155, 39.63275], [-8.08594, 39.11492], [-8.38257, 38.49877], [-8.39905, 38.37294], [-8.58582, 38.36433], [-8.74512, 38.01476], [-8.86597, 37.95417], [-8.88505, 37.96352], [-8.88317, 37.9645], [-8.8754, 37.96735], [-8.8675, 37.97362], [-8.81568, 38.06211], [-8.79699, 38.13325], [-8.7744, 38.18695], [-8.77795, 38.24069], [-8.78547, 38.30391], [-8.79507, 38.35923], [-8.82094, 38.39882], [-8.84679, 38.42007], [-8.87828, 38.44916], [-8.91466, 38.47285], [-8.94262, 38.48139], [-8.92732, 38.4938], [-8.90453, 38.4864], [-8.8675, 38.46088], [-8.82185, 38.44855], [-8.80016, 38.43911], [-8.79857, 38.42609], [-8.75699, 38.42731], [-8.65689, 38.40595], [-8.6068, 38.41869], [-8.63683, 38.42015], [-8.66275, 38.42451], [-8.73616, 38.45185], [-8.74503, 38.46027], [-8.7508, 38.47394], [-8.75251, 38.48798], [-8.75089, 38.50064], [-8.74576, 38.51008], [-8.73717, 38.51488], [-8.73717, 38.52237], [-8.75145, 38.52643], [-8.76122, 38.53807], [-8.76423, 38.55207], [-8.75764, 38.5633], [-8.77335, 38.56533], [-8.79296, 38.5336], [-8.81286, 38.52855], [-8.81286, 38.52237], [-8.79064, 38.51992], [-8.78026, 38.50544], [-8.78002, 38.48908], [-8.7884, 38.48139], [-8.81233, 38.48286], [-8.83226, 38.48705], [-8.8675, 38.50186], [-8.90583, 38.5124], [-8.95489, 38.50514], [-8.99977, 38.46425], [-8.99186, 38.45948], [-9.0486, 38.44067], [-9.14566, 38.43138], [-9.16591, 38.42509], [-9.18214, 38.41562], [-9.20036, 38.41248], [-9.22619, 38.4184], [-9.23062, 38.41869], [-9.234, 38.42422], [-9.23375, 38.43146], [-9.23107, 38.43769], [-9.2272, 38.44038], [-9.21996, 38.44904], [-9.19003, 38.47253], [-9.18387, 38.50413], [-9.18379, 38.55154], [-9.20807, 38.59742], [-9.23846, 38.63541], [-9.25267, 38.66548], [-9.23439, 38.67336], [-9.18768, 38.67801], [-9.14504, 38.68107], [-9.12414, 38.67097], [-9.11392, 38.65888], [-9.10774, 38.65888], [-9.11392, 38.67939], [-9.09887, 38.68561], [-9.06729, 38.69233], [-9.0524, 38.69367], [-9.0524, 38.6999], [-9.03743, 38.71394], [-9.02117, 38.72653], [-8.99271, 38.74381], [-8.95686, 38.76813], [-8.95295, 38.77025], [-8.94713, 38.77424], [-8.94262, 38.77558], [-8.94262, 38.78172], [-8.95263, 38.79491], [-8.96426, 38.81485], [-8.97029, 38.83543], [-8.96312, 38.85065], [-8.98632, 38.84943], [-8.99682, 38.86555], [-9.00259, 38.88984], [-9.01154, 38.9134], [-8.96911, 38.98395], [-8.94323, 39.0152], [-8.90844, 39.03628], [-8.88842, 39.04011], [-8.84553, 39.04291], [-8.82653, 39.04926], [-8.79035, 39.07062], [-8.77465, 39.08344], [-8.76513, 39.09772], [-8.79174, 39.08242], [-8.83642, 39.05671], [-8.92272, 39.04926], [-8.93586, 39.04072], [-8.95507, 39.01219], [-9.00353, 38.95775], [-9.05891, 38.87141], [-9.08967, 38.84357], [-9.10025, 38.83023], [-9.10656, 38.81379], [-9.10422, 38.79482], [-9.10226, 38.76159], [-9.09825, 38.73786], [-9.1125, 38.71418], [-9.16329, 38.70167], [-9.22017, 38.69389], [-9.28521, 38.69876], [-9.30349, 38.68771], [-9.32178, 38.67032], [-9.36059, 38.68952], [-9.40478, 38.70409], [-9.42919, 38.70726], [-9.47167, 38.70246], [-9.49169, 38.70759], [-9.49128, 38.72773], [-9.48473, 38.7447], [-9.49747, 38.78824], [-9.49747, 38.80976], [-9.49193, 38.81924], [-9.47989, 38.83076], [-9.4555, 38.85047], [-9.42272, 38.9314], [-9.42536, 38.99164], [-9.43664, 39.02949], [-9.42665, 39.05172], [-9.42255, 39.07863], [-9.3837, 39.13403], [-9.37142, 39.16092], [-9.35086, 39.19731], [-9.34678, 39.23523], [-9.34059, 39.26683], [-9.35407, 39.31623], [-9.36583, 39.33601], [-9.40176, 39.36522], [-9.40929, 39.37519], [-9.39782, 39.378], [-9.35292, 39.36793], [-9.27924, 39.40582], [-9.2608, 39.41844], [-9.24032, 39.42], [-9.2279, 39.40843], [-9.2176, 39.40619], [-9.20592, 39.41547], [-9.21353, 39.42862], [-9.22989, 39.44074], [-9.21365, 39.46104], [-9.19108, 39.48154], [-9.18287, 39.49258], [-9.16441, 39.50202], [-9.13569, 39.51618], [-9.1213, 39.53511], [-9.11101, 39.55088], [-9.09043, 39.57928], [-9.08834, 39.59666], [-9.09034, 39.61564], [-9.07795, 39.64248], [-9.07169, 39.68044], [-8.99303, 39.84317], [-8.86815, 40.12482], [-8.85326, 40.13923], [-8.84162, 40.12596], [-8.82506, 40.12006], [-8.78498, 40.11872], [-8.78498, 40.12617], [-8.8011, 40.13793], [-8.81615, 40.14655], [-8.83361, 40.15168], [-8.87938, 40.15624], [-8.89647, 40.16474], [-8.90661, 40.17939], [-8.90844, 40.20067], [-8.89574, 40.22875], [-8.86539, 40.27546], [-8.79857, 40.47443], [-8.78486, 40.53682], [-8.76579, 40.58254], [-8.753, 40.64082], [-8.75036, 40.64395], [-8.74462, 40.64692], [-8.74397, 40.6258], [-8.74462, 40.61904], [-8.72468, 40.64452], [-8.71028, 40.65347], [-8.69616, 40.64692], [-8.69001, 40.64692], [-8.69001, 40.65314], [-8.69237, 40.65571], [-8.6964, 40.66132], [-8.6988, 40.66795], [-8.69616, 40.67365], [-8.68639, 40.67792], [-8.68078, 40.67499], [-8.67687, 40.66966], [-8.67199, 40.66681], [-8.6621, 40.66987], [-8.65363, 40.67719], [-8.64159, 40.69416], [-8.65746, 40.7014], [-8.66633, 40.7132], [-8.66365, 40.72407], [-8.64493, 40.72891], [-8.62182, 40.73066], [-8.60387, 40.73578], [-8.58837, 40.74421], [-8.57266, 40.75556], [-8.58951, 40.75471], [-8.61473, 40.74494], [-8.63598, 40.7416], [-8.63988, 40.74006], [-8.64537, 40.73973], [-8.66845, 40.74746], [-8.67569, 40.75556], [-8.6837, 40.78311], [-8.64558, 40.82368], [-8.65526, 40.84492], [-8.65697, 40.82856], [-8.6632, 40.81493], [-8.67052, 40.81118], [-8.67569, 40.82445], [-8.68981, 40.8041], [-8.70055, 40.77798], [-8.70739, 40.75031], [-8.70983, 40.72516], [-8.71426, 40.70905], [-8.72509, 40.68598], [-8.73843, 40.6645], [-8.7508, 40.65314], [-8.6551, 40.9938], [-8.65526, 41.0305], [-8.6671, 41.09756], [-8.66613, 41.13276], [-8.64835, 41.14663], [-8.64835, 41.15278], [-8.68578, 41.15949], [-8.70519, 41.18692], [-8.71837, 41.2215], [-8.73717, 41.24966], [-8.73229, 41.26293], [-8.73461, 41.27408], [-8.74006, 41.28498], [-8.74462, 41.29743], [-8.74446, 41.32811], [-8.74914, 41.33779], [-8.75613, 41.34054], [-8.76032, 41.3509], [-8.76403, 41.36131], [-8.77815, 41.37934], [-8.7838, 41.39387], [-8.78377, 41.40611], [-8.78556, 41.43488], [-8.77485, 41.46834], [-8.78647, 41.49107], [-8.78826, 41.5118], [-8.79273, 41.52584], [-8.79542, 41.54255], [-8.80834, 41.57294], [-8.81286, 41.5954], [-8.81949, 41.61188], [-8.82045, 41.6301], [-8.8286, 41.64816], [-8.83051, 41.67159], [-8.82706, 41.68281], [-8.80468, 41.68928], [-8.74328, 41.69697], [-8.72594, 41.70311], [-8.71003, 41.71186], [-8.69616, 41.72199], [-8.80687, 41.69697], [-8.82999, 41.69465], [-8.84289, 41.69579], [-8.86111, 41.70437], [-8.88031, 41.73686], [-8.88032, 41.76553], [-8.87204, 41.81057], [-8.8789, 41.83902], [-8.87475, 41.84956], [-8.8675, 41.85912], [-8.79662, 41.90331], [-8.76277, 41.93195], [-8.7508, 41.96898], [-8.73959, 41.97511], [-8.71701, 41.98377], [-8.69127, 41.98961], [-8.67081, 41.99981], [-8.66321, 42.00989], [-8.65257, 42.03144], [-8.64389, 42.04149], [-8.62688, 42.05103], [-8.60942, 42.05366], [-8.57281, 42.05441], [-8.55443, 42.06007], [-8.52002, 42.07772], [-8.50121, 42.08309], [-8.34675, 42.10169], [-8.32995, 42.10844], [-8.30427, 42.12583], [-8.29538, 42.13009], [-8.28784, 42.13144], [-8.27068, 42.132], [-8.25233, 42.13758], [-8.22236, 42.15363], [-8.2134, 42.14402], [-8.20433, 42.1288], [-8.20738, 42.08578], [-8.20402, 42.06955], [-8.1913, 42.06209], [-8.17616, 42.06526], [-8.15839, 42.07139], [-8.13761, 42.07291], [-8.11844, 42.06686], [-8.1032, 42.05581], [-8.09508, 42.04092], [-8.09736, 42.02348], [-8.10803, 42.0109], [-8.12392, 42.0009], [-8.15296, 41.98682], [-8.18213, 41.96542], [-8.22071, 41.92271], [-8.23022, 41.90468], [-8.23171, 41.88605], [-8.2204, 41.8682], [-8.18459, 41.85773], [-8.17704, 41.84985], [-8.17539, 41.8366], [-8.17926, 41.81261], [-8.17957, 41.8107], [-8.09348, 41.80673], [-8.05045, 41.81599], [-8.04857, 41.81639], [-8.01571, 41.84189], [-8.00589, 41.85396], [-7.99364, 41.86367], [-7.97943, 41.86861], [-7.96336, 41.86662], [-7.94476, 41.86695], [-7.93535, 41.87995], [-7.93049, 41.89667], [-7.92579, 41.90817], [-7.9061, 41.91385], [-7.90336, 41.88682], [-7.89659, 41.85794], [-7.86481, 41.85789], [-7.85789, 41.86378], [-7.85442, 41.87026], [-7.84972, 41.87577], [-7.83923, 41.87837], [-7.81215, 41.87714], [-7.75014, 41.88838], [-7.72203, 41.89925], [-7.70637, 41.89625], [-7.67867, 41.88135], [-7.66116, 41.87491], [-7.60736, 41.87318], [-7.62281, 41.84174], [-7.62219, 41.83233], [-7.60607, 41.82554], [-7.5884, 41.82422], [-7.5671, 41.82659], [-7.54669, 41.83205], [-7.53155, 41.84016], [-7.52633, 41.84737], [-7.52525, 41.85417], [-7.52328, 41.86016], [-7.51584, 41.86499], [-7.50814, 41.86494], [-7.493, 41.8569], [-7.48329, 41.85621], [-7.46938, 41.85254], [-7.45657, 41.83923], [-7.44696, 41.82184], [-7.44272, 41.80595], [-7.42954, 41.8145], [-7.40541, 41.8352], [-7.39192, 41.84205], [-7.37683, 41.84404], [-7.3405, 41.84321], [-7.32247, 41.84541], [-7.25146, 41.8637], [-7.21865, 41.87905], [-7.20932, 41.88916], [-7.19793, 41.9015], [-7.19565, 41.91736], [-7.20211, 41.94974], [-7.19994, 41.96372], [-7.19261, 41.96961], [-7.17731, 41.97837], [-7.15974, 41.98573], [-7.14537, 41.98749], [-7.11318, 41.97243], [-7.08274, 41.95279], [-7.05127, 41.94201], [-7.01577, 41.95367], [-6.99236, 41.96638], [-6.98346, 41.963], [-6.96952, 41.9577], [-6.94513, 41.94336], [-6.91712, 41.9391], [-6.85495, 41.94295], [-6.83123, 41.95395], [-6.82493, 41.98377], [-6.79439, 41.97971], [-6.7579, 41.93757], [-6.72798, 41.93085], [-6.65677, 41.93308], [-6.62282, 41.94096], [-6.60949, 41.96232], [-6.58515, 41.95465], [-6.57166, 41.94261], [-6.56763, 41.92607], [-6.5758, 41.8829], [-6.56789, 41.87587], [-6.55006, 41.87388], [-6.52422, 41.86742], [-6.53575, 41.84858], [-6.56014, 41.76688], [-6.56438, 41.7575], [-6.57151, 41.74921], [-6.5774, 41.73973], [-6.57435, 41.73105], [-6.56768, 41.72244], [-6.56308, 41.71304], [-6.5605, 41.69446], [-6.55528, 41.6749], [-6.54153, 41.6589], [-6.51342, 41.65092], [-6.50303, 41.65309], [-6.48805, 41.6588], [-6.47436, 41.66593], [-6.46774, 41.67206], [-6.46082, 41.67655], [-6.44707, 41.67624], [-6.36594, 41.66361], [-6.3171, 41.65015], [-6.27225, 41.62823], [-6.23008, 41.5949], [-6.21613, 41.5801], [-6.20595, 41.57028], [-6.25364, 41.51752], [-6.27953, 41.497], [-6.28589, 41.48687], [-6.28517, 41.47897], [-6.28248, 41.4723], [-6.28294, 41.46563], [-6.32103, 41.41959], [-6.32113, 41.41101], [-6.35235, 41.40926], [-6.36625, 41.40517], [-6.37917, 41.39732], [-6.37617, 41.39685], [-6.37555, 41.39081], [-6.37674, 41.383], [-6.37917, 41.37747], [-6.3832, 41.37655], [-6.3955, 41.37841], [-6.39958, 41.37747], [-6.431, 41.33903], [-6.46314, 41.31412], [-6.49585, 41.29495], [-6.55445, 41.27562], [-6.5635, 41.27071], [-6.62892, 41.26994], [-6.64664, 41.26761], [-6.65822, 41.25785], [-6.69377, 41.21738], [-6.70127, 41.20245], [-6.70695, 41.19433], [-6.74224, 41.17144], [-6.75522, 41.15883], [-6.75899, 41.15175], [-6.75651, 41.12705], [-6.76478, 41.10886], [-6.80436, 41.06442], [-6.818, 41.05414], [-6.84529, 41.05191], [-6.90684, 41.0561], [-6.92745, 41.0481], [-6.92787, 41.04794], [-6.93179, 41.02913], [-6.94249, 41.016], [-6.94042, 41.00339], [-6.93061, 40.99207], [-6.89924, 40.96675], [-6.88518, 40.94892], [-6.86363, 40.9083], [-6.85526, 40.88722], [-6.84704, 40.8789], [-6.83206, 40.8759], [-6.82116, 40.87006], [-6.81619, 40.85683], [-6.82033, 40.84423], [-6.83666, 40.84025], [-6.83805, 40.81493], [-6.83681, 40.80831], [-6.83351, 40.79782], [-6.83454, 40.79224], [-6.83728, 40.78676], [-6.83914, 40.77689], [-6.83914, 40.75751], [-6.83697, 40.7433], [-6.82431, 40.71069], [-6.81625, 40.67716], [-6.81423, 40.65933], [-6.81428, 40.64718], [-6.82131, 40.63018], [-6.84446, 40.59778], [-6.85046, 40.58223], [-6.84839, 40.56476], [-6.83976, 40.55458], [-6.82855, 40.54554], [-6.81806, 40.53189], [-6.81252, 40.51463], [-6.81532, 40.50254], [-6.83867, 40.47722], [-6.85712, 40.44213], [-6.85128, 40.40952], [-6.82808, 40.38059], [-6.79444, 40.3564], [-6.81196, 40.33232], [-6.82079, 40.32534], [-6.86394, 40.30095], [-6.8702, 40.29553], [-6.87387, 40.28778], [-6.87451, 40.27919], [-6.8751, 40.27124], [-6.87805, 40.26524], [-6.89645, 40.25548], [-6.91583, 40.25444], [-6.93541, 40.25584], [-6.9421, 40.25498], [-6.95469, 40.25336], [-6.99779, 40.23171], [-7.01577, 40.2255], [-7.02476, 40.2162], [-7.03458, 40.19305], [-7.0431, 40.18137], [-7.03484, 40.16675], [-7.02765, 40.13264], [-7.01577, 40.11905], [-7.00368, 40.11631], [-6.97717, 40.11342], [-6.96642, 40.11032], [-6.95572, 40.10293], [-6.94213, 40.08634], [-6.91991, 40.06489], [-6.87971, 40.00919], [-6.89691, 39.98712], [-6.90161, 39.97648], [-6.89975, 39.96562], [-6.90368, 39.95668], [-6.90952, 39.93198], [-6.91257, 39.92811], [-6.92229, 39.92242], [-6.92523, 39.91793], [-6.92513, 39.91224], [-6.92156, 39.90216], [-6.92177, 39.89715], [-6.92347, 39.88832], [-6.92416, 39.87346], [-7.44873, 39.91972]]], [[[-9.03527, 38.87055], [-9.03458, 38.8642], [-9.04141, 38.84919], [-9.05456, 38.83299], [-9.07315, 38.81818], [-9.07966, 38.82014], [-9.0714, 38.83759], [-9.06139, 38.85224], [-9.05012, 38.86172], [-9.04393, 38.86579], [-9.04113, 38.86762], [-9.03527, 38.87055]]]]}, "properties": {"id": "Pg4g", "status": "validé", "pieces": [{"kind": "polygon", "ring": [[-8.86597, 37.95417], [-8.74512, 38.01476], [-8.58582, 38.36433], [-8.39905, 38.37294], [-8.38257, 38.49877], [-8.08594, 39.11492], [-7.59155, 39.63275], [-7.44873, 39.91972], [-6.49292, 39.83544], [-5.84473, 41.9275], [-8.78906, 42.37528], [-9.75586, 40.48169], [-9.76685, 38.39556]]}, {"kind": "clip"}]}}, {"type": "Feature", "geometry": null, "properties": {"id": "QBnA", "status": "validé", "pieces": [{"kind": "country"}]}}, {"type": "Feature", "geometry": null, "properties": {"id": "S7ov", "status": "validé", "pieces": [{"kind": "country"}]}}, {"type": "Feature", "geometry": {"type": "Polygon", "coordinates": [[[-7.67395, 41.22649], [-7.72888, 41.13143], [-7.67944, 41.09627], [-7.52014, 41.10455], [-7.34711, 41.0673], [-7.18231, 41.05281], [-7.12738, 41.07972], [-7.11914, 41.15624], [-7.1521, 41.19344], [-7.29492, 41.19344], [-7.42126, 41.23268], [-7.44049, 41.31316], [-7.56683, 41.32965], [-7.58606, 41.25539], [-7.67395, 41.22649]]]}, "properties": {"id": "Sc7E", "status": "validé", "pieces": [{"kind": "polygon", "ring": [[-7.67395, 41.22649], [-7.72888, 41.13143], [-7.67944, 41.09627], [-7.52014, 41.10455], [-7.34711, 41.0673], [-7.18231, 41.05281], [-7.12738, 41.07972], [-7.11914, 41.15624], [-7.1521, 41.19344], [-7.29492, 41.19344], [-7.42126, 41.23268], [-7.44049, 41.31316], [-7.56683, 41.32965], [-7.58606, 41.25539]]}]}}, {"type": "Feature", "geometry": {"type": "Polygon", "coordinates": [[[-6.84448, 41.17201], [-7.13013, 41.05618], [-7.42676, 40.80728], [-8.08594, 40.67415], [-8.59131, 40.88205], [-8.65913, 40.97944], [-8.6551, 40.9938], [-8.65526, 41.0305], [-8.6671, 41.09756], [-8.66613, 41.13276], [-8.64835, 41.14663], [-8.64835, 41.15278], [-8.68578, 41.15949], [-8.70519, 41.18692], [-8.71837, 41.2215], [-8.73717, 41.24966], [-8.73229, 41.26293], [-8.73461, 41.27408], [-8.74006, 41.28498], [-8.74462, 41.29743], [-8.74446, 41.32811], [-8.74914, 41.33779], [-8.75613, 41.34054], [-8.76032, 41.3509], [-8.76403, 41.36131], [-8.77815, 41.37934], [-8.7838, 41.39387], [-8.78377, 41.40611], [-8.78556, 41.43488], [-8.77485, 41.46834], [-8.78647, 41.49107], [-8.78826, 41.5118], [-8.79273, 41.52584], [-8.79542, 41.54255], [-8.80834, 41.57294], [-8.81286, 41.5954], [-8.81949, 41.61188], [-8.82045, 41.6301], [-8.8286, 41.64816], [-8.83051, 41.67159], [-8.82706, 41.68281], [-8.80468, 41.68928], [-8.74328, 41.69697], [-8.72594, 41.70311], [-8.71003, 41.71186], [-8.69616, 41.72199], [-8.80687, 41.69697], [-8.82999, 41.69465], [-8.84289, 41.69579], [-8.86111, 41.70437], [-8.88031, 41.73686], [-8.88032, 41.76553], [-8.87204, 41.81057], [-8.8789, 41.83902], [-8.87475, 41.84956], [-8.8675, 41.85912], [-8.79662, 41.90331], [-8.76277, 41.93195], [-8.7508, 41.96898], [-8.73959, 41.97511], [-8.71701, 41.98377], [-8.69127, 41.98961], [-8.67081, 41.99981], [-8.66321, 42.00989], [-8.65257, 42.03144], [-8.64389, 42.04149], [-8.62688, 42.05103], [-8.60942, 42.05366], [-8.57281, 42.05441], [-8.55443, 42.06007], [-8.52002, 42.07772], [-8.50121, 42.08309], [-8.34675, 42.10169], [-8.32995, 42.10844], [-8.30427, 42.12583], [-8.29538, 42.13009], [-8.28784, 42.13144], [-8.27068, 42.132], [-8.25233, 42.13758], [-8.22236, 42.15363], [-8.2134, 42.14402], [-8.20433, 42.1288], [-8.20738, 42.08578], [-8.20402, 42.06955], [-8.1913, 42.06209], [-8.17616, 42.06526], [-8.15839, 42.07139], [-8.13761, 42.07291], [-8.11844, 42.06686], [-8.1032, 42.05581], [-8.09508, 42.04092], [-8.09736, 42.02348], [-8.10803, 42.0109], [-8.12392, 42.0009], [-8.15296, 41.98682], [-8.18213, 41.96542], [-8.22071, 41.92271], [-8.23022, 41.90468], [-8.23171, 41.88605], [-8.2204, 41.8682], [-8.18459, 41.85773], [-8.17704, 41.84985], [-8.17539, 41.8366], [-8.17926, 41.81261], [-8.17957, 41.8107], [-8.09348, 41.80673], [-8.05045, 41.81599], [-8.04857, 41.81639], [-8.01571, 41.84189], [-8.00589, 41.85396], [-7.99364, 41.86367], [-7.97943, 41.86861], [-7.96336, 41.86662], [-7.94476, 41.86695], [-7.93535, 41.87995], [-7.93049, 41.89667], [-7.92579, 41.90817], [-7.9061, 41.91385], [-7.90336, 41.88682], [-7.89659, 41.85794], [-7.86481, 41.85789], [-7.85789, 41.86378], [-7.85442, 41.87026], [-7.84972, 41.87577], [-7.83923, 41.87837], [-7.81215, 41.87714], [-7.75014, 41.88838], [-7.72203, 41.89925], [-7.70637, 41.89625], [-7.67867, 41.88135], [-7.66116, 41.87491], [-7.60736, 41.87318], [-7.62281, 41.84174], [-7.62219, 41.83233], [-7.60607, 41.82554], [-7.5884, 41.82422], [-7.5671, 41.82659], [-7.54669, 41.83205], [-7.53155, 41.84016], [-7.52633, 41.84737], [-7.52525, 41.85417], [-7.52328, 41.86016], [-7.51584, 41.86499], [-7.50814, 41.86494], [-7.493, 41.8569], [-7.48329, 41.85621], [-7.46938, 41.85254], [-7.45657, 41.83923], [-7.44696, 41.82184], [-7.44272, 41.80595], [-7.42954, 41.8145], [-7.40541, 41.8352], [-7.39192, 41.84205], [-7.37683, 41.84404], [-7.3405, 41.84321], [-7.32247, 41.84541], [-7.25146, 41.8637], [-7.21865, 41.87905], [-7.20932, 41.88916], [-7.19793, 41.9015], [-7.19565, 41.91736], [-7.20211, 41.94974], [-7.19994, 41.96372], [-7.19261, 41.96961], [-7.17731, 41.97837], [-7.15974, 41.98573], [-7.14537, 41.98749], [-7.11318, 41.97243], [-7.08274, 41.95279], [-7.05127, 41.94201], [-7.01577, 41.95367], [-6.99236, 41.96638], [-6.98346, 41.963], [-6.96952, 41.9577], [-6.94513, 41.94336], [-6.91712, 41.9391], [-6.85495, 41.94295], [-6.83123, 41.95395], [-6.82493, 41.98377], [-6.79439, 41.97971], [-6.7579, 41.93757], [-6.72798, 41.93085], [-6.65677, 41.93308], [-6.62282, 41.94096], [-6.60949, 41.96232], [-6.58515, 41.95465], [-6.57166, 41.94261], [-6.56763, 41.92607], [-6.5758, 41.8829], [-6.56789, 41.87587], [-6.55006, 41.87388], [-6.52422, 41.86742], [-6.53575, 41.84858], [-6.56014, 41.76688], [-6.56438, 41.7575], [-6.57151, 41.74921], [-6.5774, 41.73973], [-6.57435, 41.73105], [-6.56768, 41.72244], [-6.56308, 41.71304], [-6.5605, 41.69446], [-6.55528, 41.6749], [-6.54153, 41.6589], [-6.51342, 41.65092], [-6.50303, 41.65309], [-6.48805, 41.6588], [-6.47436, 41.66593], [-6.46774, 41.67206], [-6.46082, 41.67655], [-6.44707, 41.67624], [-6.36594, 41.66361], [-6.3171, 41.65015], [-6.27225, 41.62823], [-6.23008, 41.5949], [-6.21613, 41.5801], [-6.20595, 41.57028], [-6.25364, 41.51752], [-6.27953, 41.497], [-6.28589, 41.48687], [-6.28517, 41.47897], [-6.28248, 41.4723], [-6.28294, 41.46563], [-6.32103, 41.41959], [-6.32113, 41.41101], [-6.35235, 41.40926], [-6.36625, 41.40517], [-6.37917, 41.39732], [-6.37617, 41.39685], [-6.37555, 41.39081], [-6.37674, 41.383], [-6.37917, 41.37747], [-6.3832, 41.37655], [-6.3955, 41.37841], [-6.39958, 41.37747], [-6.431, 41.33903], [-6.46314, 41.31412], [-6.49585, 41.29495], [-6.55445, 41.27562], [-6.5635, 41.27071], [-6.62892, 41.26994], [-6.64664, 41.26761], [-6.65822, 41.25785], [-6.69377, 41.21738], [-6.70127, 41.20245], [-6.70695, 41.19433], [-6.74224, 41.17144], [-6.74712, 41.1667], [-6.84448, 41.17201]]]}, "properties": {"id": "TydI", "status": "validé", "pieces": [{"kind": "polygon", "ring": [[-8.82202, 41.21333], [-8.59131, 40.88205], [-8.08594, 40.67415], [-7.42676, 40.80728], [-7.13013, 41.05618], [-6.84448, 41.17201], [-6.08643, 41.13067], [-6.22925, 42.40833], [-10.67871, 42.31095]]}, {"kind": "clip"}]}}, {"type": "Feature", "geometry": null, "properties": {"id": "U3KE", "status": "validé", "pieces": [{"kind": "country"}]}}, {"type": "Feature", "geometry": null, "properties": {"id": "UKlQ", "status": "validé", "pieces": [{"kind": "country"}]}}, {"type": "Feature", "geometry": null, "properties": {"id": "Ug6C", "status": "validé", "pieces": [{"kind": "country"}]}}, {"type": "Feature", "geometry": null, "properties": {"id": "WT4U", "status": "validé", "pieces": [{"kind": "country"}]}}, {"type": "Feature", "geometry": null, "properties": {"id": "WrlL", "status": "validé", "pieces": [{"kind": "country"}]}}, {"type": "Feature", "geometry": {"type": "Polygon", "coordinates": [[[-8.8528, 37.04537], [-8.85916, 37.0408], [-8.87892, 37.04721], [-8.89696, 37.03278], [-8.9051, 37.02774], [-8.9156, 37.0246], [-8.93562, 37.01097], [-8.94603, 37.00788], [-8.96117, 37.0124], [-8.97208, 37.02119], [-8.9829, 37.0266], [-8.99787, 37.02147], [-8.99104, 37.04951], [-8.98559, 37.06338], [-8.98078, 37.06928], [-8.96436, 37.0901], [-8.8528, 37.04537]]]}, "properties": {"id": "X5pr", "status": "validé", "pieces": [{"kind": "polygon", "ring": [[-8.96896, 37.09195], [-8.83919, 37.03992], [-8.94287, 36.96592], [-9.07883, 37.02457]]}, {"kind": "clip"}]}}, {"type": "Feature", "geometry": null, "properties": {"id": "aXLK", "status": "validé", "pieces": [{"kind": "country"}]}}, {"type": "Feature", "geometry": null, "properties": {"id": "csJJ", "status": "validé", "pieces": [{"kind": "admin1", "code": "PRT-745"}]}}, {"type": "Feature", "geometry": null, "properties": {"id": "eha3", "status": "validé", "pieces": [{"kind": "country"}]}}, {"type": "Feature", "geometry": null, "properties": {"id": "fbSP", "status": "validé", "pieces": [{"kind": "country"}]}}, {"type": "Feature", "geometry": {"type": "Polygon", "coordinates": [[[-8.5199, 41.09093], [-8.5199, 41.1974], [-8.68607, 41.1974], [-8.68607, 41.09093], [-8.5199, 41.09093]]]}, "properties": {"id": "gIlH", "status": "validé", "pieces": [{"kind": "rect", "bounds": [-8.68607, 41.09093, -8.5199, 41.1974]}]}}, {"type": "Feature", "geometry": null, "properties": {"id": "kEDt", "status": "validé", "pieces": [{"kind": "country"}]}}, {"type": "Feature", "geometry": null, "properties": {"id": "lhWL", "status": "validé", "pieces": [{"kind": "country"}]}}, {"type": "Feature", "geometry": null, "properties": {"id": "mTk9", "status": "validé", "pieces": [{"kind": "country"}]}}, {"type": "Feature", "geometry": null, "properties": {"id": "oTO0", "status": "rejeté", "pieces": []}}, {"type": "Feature", "geometry": null, "properties": {"id": "pUNV", "status": "validé", "pieces": [{"kind": "country"}]}}, {"type": "Feature", "geometry": {"type": "MultiPolygon", "coordinates": [[[[-7.45972, 37.19765], [-8.25073, 37.19765], [-8.23975, 37.35495], [-7.84424, 37.41603], [-7.48169, 37.49449], [-7.4757, 37.4936], [-7.46887, 37.47557], [-7.46293, 37.45113], [-7.46003, 37.42914], [-7.46225, 37.41787], [-7.44499, 37.38676], [-7.43745, 37.30734], [-7.42758, 37.27452], [-7.43424, 37.25933], [-7.42939, 37.23675], [-7.42247, 37.21643], [-7.45972, 37.19765]]], [[[-7.76733, 37.61637], [-7.98706, 37.51191], [-8.17383, 37.66855], [-8.31665, 37.92021], [-8.5144, 38.11919], [-8.44849, 38.34348], [-8.1189, 38.60141], [-7.83325, 39.06336], [-8.00903, 39.29321], [-8.26172, 39.38663], [-8.50342, 39.08893], [-8.72314, 39.02071], [-8.83499, 39.04643], [-8.82653, 39.04926], [-8.79035, 39.07062], [-8.77465, 39.08344], [-8.76513, 39.09772], [-8.79174, 39.08242], [-8.83642, 39.05671], [-8.86786, 39.05399], [-9.01978, 39.08893], [-8.93188, 39.27621], [-8.40454, 39.49689], [-8.4375, 39.69152], [-8.50342, 39.87718], [-8.33862, 39.93615], [-8.21777, 39.75909], [-8.02002, 39.77597], [-7.86621, 39.95299], [-7.52563, 40.32239], [-7.21802, 40.31402], [-6.95753, 40.25193], [-6.99779, 40.23171], [-7.01577, 40.2255], [-7.02476, 40.2162], [-7.03458, 40.19305], [-7.0431, 40.18137], [-7.03484, 40.16675], [-7.02765, 40.13264], [-7.01577, 40.11905], [-7.00368, 40.11631], [-6.97717, 40.11342], [-6.96642, 40.11032], [-6.95572, 40.10293], [-6.94213, 40.08634], [-6.91991, 40.06489], [-6.87971, 40.00919], [-6.89691, 39.98712], [-6.90161, 39.97648], [-6.89975, 39.96562], [-6.90368, 39.95668], [-6.90952, 39.93198], [-6.91257, 39.92811], [-6.92229, 39.92242], [-6.92523, 39.91793], [-6.92513, 39.91224], [-6.92156, 39.90216], [-6.92177, 39.89715], [-6.92347, 39.88832], [-6.92425, 39.87157], [-6.92766, 39.86191], [-6.95283, 39.83287], [-6.96234, 39.82853], [-6.98523, 39.82114], [-6.99303, 39.81607], [-7.00027, 39.80253], [-6.99887, 39.79178], [-6.99458, 39.78259], [-6.99303, 39.77421], [-6.9968, 39.76471], [-7.00874, 39.74832], [-7.01334, 39.73892], [-7.01365, 39.72962], [-7.0107, 39.7228], [-7.00962, 39.71546], [-7.02114, 39.69401], [-7.03577, 39.68926], [-7.18289, 39.6751], [-7.21405, 39.67618], [-7.23576, 39.68652], [-7.25286, 39.68233], [-7.29275, 39.68332], [-7.31141, 39.68032], [-7.32784, 39.67479], [-7.34143, 39.67184], [-7.55729, 39.6798], [-7.55587, 39.67721], [-7.54824, 39.66321], [-7.51584, 39.59376], [-7.49786, 39.58105], [-7.46809, 39.55025], [-7.45135, 39.53785], [-7.41755, 39.5242], [-7.40892, 39.51557], [-7.39941, 39.49366], [-7.38417, 39.484], [-7.36293, 39.47609], [-7.32092, 39.46741], [-7.31353, 39.45744], [-7.31363, 39.4361], [-7.31885, 39.41325], [-7.32671, 39.39884], [-7.33193, 39.38473], [-7.33141, 39.36261], [-7.32665, 39.34132], [-7.31926, 39.32954], [-7.30045, 39.31791], [-7.25084, 39.27063], [-7.26433, 39.25233], [-7.26578, 39.23135], [-7.25808, 39.2113], [-7.24413, 39.19564], [-7.21932, 39.18484], [-7.19157, 39.17916], [-7.16806, 39.17063], [-7.15581, 39.15151], [-7.15793, 39.14138], [-7.16889, 39.12185], [-7.16749, 39.11348], [-7.15721, 39.10544], [-7.14253, 39.09953], [-7.12729, 39.09748], [-7.11519, 39.1011], [-7.09127, 39.11245], [-7.06491, 39.11477], [-7.03882, 39.10914], [-7.01577, 39.09681], [-6.9997, 39.0847], [-6.98569, 39.06676], [-6.97939, 39.04718], [-6.98631, 39.03007], [-6.97489, 39.02302], [-6.97329, 39.01395], [-6.97882, 39.00382], [-6.98864, 38.99377], [-7.02212, 38.94287], [-7.0445, 38.91863], [-7.06605, 38.9046], [-7.0522, 38.88499], [-7.05727, 38.86944], [-7.05608, 38.85515], [-7.06429, 38.85112], [-7.07654, 38.84324], [-7.08868, 38.83337], [-7.10486, 38.82719], [-7.15101, 38.81929], [-7.16062, 38.8129], [-7.1662, 38.80342], [-7.17974, 38.79089], [-7.19643, 38.77999], [-7.21152, 38.77536], [-7.22588, 38.76613], [-7.27043, 38.73751], [-7.27219, 38.73374], [-7.28071, 38.72043], [-7.28407, 38.71325], [-7.29095, 38.67909], [-7.29296, 38.65627], [-7.2925, 38.64612], [-7.29095, 38.63816], [-7.28604, 38.63191], [-7.27942, 38.62891], [-7.27353, 38.62539], [-7.27043, 38.6177], [-7.27586, 38.60382], [-7.31771, 38.55625], [-7.3358, 38.50587], [-7.34562, 38.49414], [-7.33409, 38.48101], [-7.33518, 38.46944], [-7.34484, 38.45833], [-7.35921, 38.44636], [-7.34552, 38.44096], [-7.31715, 38.42458], [-7.21136, 38.31753], [-7.20713, 38.31169], [-7.20067, 38.29839], [-7.19633, 38.29216], [-7.18945, 38.28653], [-7.1724, 38.27653], [-7.16718, 38.27208], [-7.12687, 38.1909], [-7.11707, 38.18363], [-7.10351, 38.17359], [-7.08832, 38.17338], [-7.06305, 38.17754], [-7.03871, 38.18622], [-7.02641, 38.19963], [-7.02104, 38.19824], [-7.01815, 38.19803], [-6.9921, 38.20428], [-6.9642, 38.20614], [-6.95058, 38.19839], [-6.9475, 38.19664], [-6.95763, 38.16816], [-6.96549, 38.15333], [-6.97898, 38.11995], [-6.99763, 38.08961], [-7.00636, 38.05933], [-7.01577, 38.04683], [-7.02398, 38.02256], [-7.04936, 38.02021], [-7.10594, 38.03866], [-7.12326, 38.04001], [-7.13199, 38.03238], [-7.14191, 38.01158], [-7.15225, 38.00065], [-7.15974, 37.9968], [-7.17286, 37.99383], [-7.18527, 37.98869], [-7.19762, 37.98993], [-7.21033, 37.99303], [-7.2233, 37.99383], [-7.23405, 37.98807], [-7.26583, 37.98295], [-7.2727, 37.97701], [-7.27213, 37.96895], [-7.26909, 37.95944], [-7.26862, 37.94924], [-7.27389, 37.93154], [-7.2958, 37.88487], [-7.30686, 37.85077], [-7.33441, 37.81193], [-7.42634, 37.75062], [-7.44401, 37.73015], [-7.45755, 37.70008], [-7.46557, 37.65618], [-7.76733, 37.61637]]], [[[-7.37183, 40.68978], [-7.48169, 40.86442], [-7.58057, 40.88103], [-7.62451, 40.93912], [-7.45972, 41.04688], [-7.48169, 41.18753], [-7.59155, 41.38557], [-7.42676, 41.58302], [-7.23999, 41.67331], [-7.09717, 41.67331], [-6.94336, 41.60766], [-6.70166, 41.72251], [-6.55884, 41.5748], [-6.45034, 41.32404], [-6.46314, 41.31412], [-6.49585, 41.29495], [-6.55445, 41.27562], [-6.5635, 41.27071], [-6.62892, 41.26994], [-6.64664, 41.26761], [-6.65822, 41.25785], [-6.69377, 41.21738], [-6.70127, 41.20245], [-6.70695, 41.19433], [-6.74224, 41.17144], [-6.75522, 41.15883], [-6.75899, 41.15175], [-6.75651, 41.12705], [-6.76478, 41.10886], [-6.80436, 41.06442], [-6.818, 41.05414], [-6.84529, 41.05191], [-6.90684, 41.0561], [-6.92745, 41.0481], [-6.92787, 41.04794], [-6.93179, 41.02913], [-6.94249, 41.016], [-6.94042, 41.00339], [-6.93061, 40.99207], [-6.89924, 40.96675], [-6.88518, 40.94892], [-6.86363, 40.9083], [-6.85526, 40.88722], [-6.84704, 40.8789], [-6.83206, 40.8759], [-6.82116, 40.87006], [-6.81619, 40.85683], [-6.82033, 40.84423], [-6.83666, 40.84025], [-6.83805, 40.81493], [-6.83681, 40.80831], [-6.83351, 40.79782], [-6.83454, 40.79224], [-6.83728, 40.78676], [-6.83914, 40.77689], [-6.83914, 40.75751], [-6.83697, 40.7433], [-6.82691, 40.71739], [-7.0752, 40.67313], [-7.37183, 40.68978]]]]}, "properties": {"id": "rEuU", "status": "validé", "pieces": [{"kind": "polygon", "ring": [[-6.427, 41.27012], [-6.55884, 41.5748], [-6.70166, 41.72251], [-6.94336, 41.60766], [-7.09717, 41.67331], [-7.23999, 41.67331], [-7.42676, 41.58302], [-7.59155, 41.38557], [-7.48169, 41.18753], [-7.45972, 41.04688], [-7.62451, 40.93912], [-7.58057, 40.88103], [-7.48169, 40.86442], [-7.37183, 40.68978], [-7.0752, 40.67313], [-6.70166, 40.73973]]}, {"kind": "polygon", "ring": [[-6.86646, 40.23023], [-7.21802, 40.31402], [-7.52563, 40.32239], [-7.86621, 39.95299], [-8.02002, 39.77597], [-8.21777, 39.75909], [-8.33862, 39.93615], [-8.50342, 39.87718], [-8.4375, 39.69152], [-8.40454, 39.49689], [-8.93188, 39.27621], [-9.01978, 39.08893], [-8.72314, 39.02071], [-8.50342, 39.08893], [-8.26172, 39.38663], [-8.00903, 39.29321], [-7.83325, 39.06336], [-8.1189, 38.60141], [-8.44849, 38.34348], [-8.5144, 38.11919], [-8.31665, 37.92021], [-8.17383, 37.66855], [-7.98706, 37.51191], [-7.76733, 37.61637], [-7.37183, 37.66855], [-6.36108, 38.15374]]}, {"kind": "clip"}, {"kind": "polygon", "ring": [[-7.48169, 37.49449], [-7.84424, 37.41603], [-8.23975, 37.35495], [-8.25073, 37.19765], [-7.45972, 37.19765], [-7.00928, 37.42475]]}]}}, {"type": "Feature", "geometry": null, "properties": {"id": "sUvJ", "status": "validé", "pieces": [{"kind": "admin1", "code": "PRT-736"}, {"kind": "admin1", "code": "PRT-735"}]}}, {"type": "Feature", "geometry": null, "properties": {"id": "tuqy", "status": "validé", "pieces": [{"kind": "country"}]}}, {"type": "Feature", "geometry": null, "properties": {"id": "x15t", "status": "validé", "pieces": [{"kind": "country"}]}}]}