{"type": "FeatureCollection", "features": [{"type": "Feature", "geometry": {"type": "Polygon", "coordinates": [[[51.51, 25.63668], [51.51, 25.66591], [51.46923, 25.66591], [51.46923, 25.63668], [51.51, 25.63668]]]}, "properties": {"id": "29Ya", "status": "validé", "pieces": [{"kind": "rect", "bounds": [51.46923, 25.63668, 51.51, 25.66591]}]}}, {"type": "Feature", "geometry": {"type": "Polygon", "coordinates": [[[51.42971, 25.30827], [51.42971, 25.31498], [51.42074, 25.31498], [51.42074, 25.30827], [51.42971, 25.30827]]]}, "properties": {"id": "A1pX", "status": "validé", "pieces": [{"kind": "rect", "bounds": [51.42074, 25.30827, 51.42971, 25.31498]}]}}, {"type": "Feature", "geometry": {"type": "Polygon", "coordinates": [[[50.80787, 24.74665], [50.82667, 24.74868], [50.85279, 24.77001], [50.85963, 24.7956], [50.85108, 24.89081], [50.84278, 24.91608], [50.79998, 24.98876], [50.79664, 25.00361], [50.80738, 25.03164], [50.80974, 25.05121], [50.8086, 25.06916], [50.80242, 25.07697], [50.77573, 25.09186], [50.7684, 25.1258], [50.76694, 25.16258], [50.75782, 25.18623], [50.76499, 25.20429], [50.76344, 25.22529], [50.75904, 25.2475], [50.75782, 25.26936], [50.7658, 25.32355], [50.76515, 25.34447], [50.75099, 25.41962], [50.76246, 25.46271], [50.76385, 25.48241], [50.75099, 25.4947], [50.77801, 25.52705], [50.79709, 25.5299], [50.80848, 25.51724], [50.81165, 25.49889], [50.82051, 25.49129], [50.82049, 25.47183], [50.84718, 25.46735], [50.83131, 25.5078], [50.82789, 25.52505], [50.82667, 25.54312], [50.82862, 25.55435], [50.83221, 25.56615], [50.83286, 25.57852], [50.82667, 25.59089], [50.81853, 25.59577], [50.79656, 25.5996], [50.785, 25.60456], [50.7964, 25.61726], [50.80958, 25.62059], [50.8235, 25.62214], [50.83693, 25.62881], [50.84018, 25.63451], [50.84653, 25.64985], [50.8506, 25.65298], [50.85719, 25.65082], [50.86354, 25.64143], [50.87094, 25.63931], [50.87615, 25.63178], [50.87428, 25.61494], [50.86769, 25.58784], [50.86769, 25.56704], [50.86866, 25.55956], [50.87672, 25.54059], [50.88152, 25.53514], [50.88868, 25.52949], [50.89869, 25.53221], [50.90073, 25.53486], [50.90008, 25.53974], [50.90414, 25.56314], [50.9048, 25.58706], [50.90919, 25.59772], [50.92058, 25.60834], [50.9275, 25.60517], [50.93572, 25.59833], [50.94955, 25.59772], [50.9559, 25.60468], [50.9699, 25.63386], [50.97755, 25.64615], [50.94988, 25.63646], [50.92433, 25.63231], [50.90317, 25.64012], [50.88868, 25.66665], [50.88754, 25.68089], [50.89487, 25.72809], [50.89731, 25.73257], [50.90699, 25.73994], [50.90919, 25.7451], [50.90797, 25.74925], [50.90284, 25.75528], [50.9017, 25.75947], [50.9017, 25.78954], [50.91554, 25.78644], [50.92026, 25.79438], [50.92359, 25.80516], [50.93287, 25.81061], [50.93971, 25.8072], [50.94557, 25.79849], [50.94923, 25.78701], [50.94955, 25.77529], [50.96372, 25.78388], [50.97299, 25.79751], [50.97592, 25.81379], [50.97071, 25.83051], [50.96388, 25.82368], [50.94939, 25.83796], [50.95118, 25.85928], [50.97731, 25.91645], [50.98146, 25.93586], [50.98422, 25.98135], [50.99252, 25.97574], [50.99562, 25.97285], [50.99855, 25.96703], [51.00473, 25.96703], [51.02735, 26.02692], [51.04737, 26.05305], [51.07594, 26.06391], [51.09107, 26.06696], [51.13315, 26.0821], [51.14186, 26.08779], [51.14723, 26.10309], [51.17058, 26.12458], [51.17612, 26.13959], [51.19435, 26.13353], [51.21485, 26.13935], [51.25123, 26.1601], [51.33074, 26.12116], [51.34685, 26.10488], [51.34848, 26.08564], [51.34636, 26.0607], [51.34718, 26.03901], [51.35768, 26.02973], [51.37664, 26.02289], [51.3825, 26.00617], [51.38347, 25.98558], [51.38844, 25.96703], [51.40398, 25.95409], [51.41651, 25.95209], [51.42433, 25.95087], [51.46754, 25.95405], [51.49195, 25.95189], [51.51197, 25.94611], [51.52947, 25.93732], [51.54607, 25.92609], [51.55942, 25.91376], [51.57032, 25.89838], [51.57749, 25.88085], [51.59474, 25.77188], [51.59449, 25.75825], [51.59156, 25.74665], [51.58351, 25.74177], [51.57765, 25.74506], [51.57203, 25.75951], [51.56332, 25.76289], [51.55543, 25.75869], [51.54835, 25.74885], [51.54461, 25.73737], [51.54607, 25.72809], [51.55502, 25.72065], [51.56365, 25.72162], [51.57032, 25.72748], [51.57399, 25.73493], [51.5901, 25.7119], [51.57683, 25.68867], [51.55681, 25.68163], [51.55291, 25.70759], [51.53932, 25.70393], [51.50514, 25.68716], [51.51971, 25.68171], [51.53492, 25.67325], [51.54713, 25.66315], [51.55291, 25.65298], [51.54949, 25.63117], [51.5359, 25.62238], [51.51881, 25.61872], [51.50514, 25.61201], [51.4983, 25.61591], [51.49138, 25.61823], [51.49366, 25.56582], [51.49155, 25.55064], [51.49138, 25.5493], [51.48585, 25.54051], [51.47755, 25.53107], [51.47193, 25.52139], [51.47429, 25.51211], [51.511, 25.45429], [51.51694, 25.44017], [51.51881, 25.42621], [51.51572, 25.38284], [51.51197, 25.33023], [51.51319, 25.30825], [51.51881, 25.29706], [51.53126, 25.29218], [51.59002, 25.28376], [51.59913, 25.27489], [51.6076, 25.25511], [51.61109, 25.23754], [51.61459, 25.21979], [51.61655, 25.13719], [51.60572, 25.03425], [51.61101, 25.02237], [51.60231, 25.01382], [51.58693, 24.95344], [51.57407, 24.93439], [51.5394, 24.89887], [51.52882, 24.87442], [51.52084, 24.87059], [51.51173, 24.86786], [51.50514, 24.86408], [51.50026, 24.85537], [51.47421, 24.76447], [51.47283, 24.75943], [51.46754, 24.74868], [51.45582, 24.74067], [51.45037, 24.72167], [51.44361, 24.67976], [51.43043, 24.6645], [51.38999, 24.64248], [51.38152, 24.63508], [51.37615, 24.61188], [51.36354, 24.59634], [51.34978, 24.58381], [51.34059, 24.56989], [51.32895, 24.58478], [51.33269, 24.59886], [51.34164, 24.61469], [51.34685, 24.63508], [51.33912, 24.64619], [51.32114, 24.64818], [51.28598, 24.64501], [51.28443, 24.6625], [51.27809, 24.66299], [51.26791, 24.6562], [51.25457, 24.6518], [51.23699, 24.65005], [51.22096, 24.64423], [51.21258, 24.63369], [51.21485, 24.62718], [51.21526, 24.62585], [51.14745, 24.57628], [51.09546, 24.56018], [51.03888, 24.55987], [50.97888, 24.56773], [50.9286, 24.58721], [50.88101, 24.6364], [50.80787, 24.74665]]]}, "properties": {"id": "Bcaj", "status": "validé", "pieces": [{"kind": "country"}]}}, {"type": "Feature", "geometry": {"type": "Polygon", "coordinates": [[[50.97382, 25.54519], [51.30341, 25.51546], [51.3501, 25.38655], [51.39404, 25.36422], [51.42151, 25.29474], [51.47644, 25.2128], [51.55609, 25.14323], [51.61584, 25.13051], [51.60572, 25.03425], [51.61101, 25.02237], [51.60231, 25.01382], [51.58693, 24.95344], [51.57407, 24.93439], [51.5394, 24.89887], [51.52882, 24.87442], [51.52084, 24.87059], [51.51173, 24.86786], [51.50514, 24.86408], [51.50026, 24.85537], [51.49501, 24.83705], [51.40778, 24.84712], [51.44073, 24.92433], [51.3913, 25.03632], [51.30341, 24.9318], [51.17706, 24.77236], [50.9848, 24.80476], [50.85512, 24.84584], [50.85108, 24.89081], [50.84278, 24.91608], [50.79998, 24.98876], [50.79664, 25.00361], [50.80738, 25.03164], [50.80974, 25.05121], [50.8086, 25.06916], [50.80242, 25.07697], [50.77573, 25.09186], [50.7684, 25.1258], [50.76694, 25.16258], [50.75782, 25.18623], [50.76499, 25.20429], [50.76344, 25.22529], [50.75904, 25.2475], [50.75782, 25.26936], [50.7658, 25.32355], [50.76515, 25.34447], [50.75099, 25.41962], [50.76246, 25.46271], [50.76385, 25.48241], [50.75099, 25.4947], [50.77801, 25.52705], [50.79709, 25.5299], [50.80848, 25.51724], [50.81165, 25.49889], [50.82051, 25.49129], [50.82049, 25.47183], [50.84718, 25.46735], [50.83131, 25.5078], [50.82789, 25.52505], [50.82708, 25.53706], [50.88364, 25.53347], [50.88868, 25.52949], [50.89869, 25.53221], [50.89982, 25.53368], [50.97382, 25.54519]]]}, "properties": {"id": "DTBf", "status": "validé", "pieces": [{"kind": "polygon", "ring": [[50.89417, 25.5328], [50.97382, 25.54519], [51.30341, 25.51546], [51.3501, 25.38655], [51.39404, 25.36422], [51.42151, 25.29474], [51.47644, 25.2128], [51.55609, 25.14323], [51.74286, 25.10346], [51.64673, 24.86207], [51.55884, 24.82968], [51.40778, 24.84712], [51.44073, 24.92433], [51.3913, 25.03632], [51.30341, 24.9318], [51.17706, 24.77236], [50.9848, 24.80476], [50.81177, 24.85958], [50.69641, 25.26743], [50.69916, 25.54519]]}, {"kind": "clip"}]}}, {"type": "Feature", "geometry": {"type": "Polygon", "coordinates": [[[50.80787, 24.74665], [50.82667, 24.74868], [50.85279, 24.77001], [50.85963, 24.7956], [50.85108, 24.89081], [50.84278, 24.91608], [50.79998, 24.98876], [50.79664, 25.00361], [50.80738, 25.03164], [50.80974, 25.05121], [50.8086, 25.06916], [50.80242, 25.07697], [50.77573, 25.09186], [50.7684, 25.1258], [50.76694, 25.16258], [50.75782, 25.18623], [50.76499, 25.20429], [50.76344, 25.22529], [50.75904, 25.2475], [50.75782, 25.26936], [50.7658, 25.32355], [50.76515, 25.34447], [50.75099, 25.41962], [50.76246, 25.46271], [50.76385, 25.48241], [50.75099, 25.4947], [50.77801, 25.52705], [50.79709, 25.5299], [50.80848, 25.51724], [50.81165, 25.49889], [50.82051, 25.49129], [50.82049, 25.47183], [50.84718, 25.46735], [50.83131, 25.5078], [50.82789, 25.52505], [50.82667, 25.54312], [50.82862, 25.55435], [50.83221, 25.56615], [50.83286, 25.57852], [50.82667, 25.59089], [50.81853, 25.59577], [50.79656, 25.5996], [50.785, 25.60456], [50.7964, 25.61726], [50.80958, 25.62059], [50.8235, 25.62214], [50.83693, 25.62881], [50.84018, 25.63451], [50.84653, 25.64985], [50.8506, 25.65298], [50.85719, 25.65082], [50.86354, 25.64143], [50.87094, 25.63931], [50.87615, 25.63178], [50.87428, 25.61494], [50.86769, 25.58784], [50.86769, 25.56704], [50.86866, 25.55956], [50.87672, 25.54059], [50.88152, 25.53514], [50.88868, 25.52949], [50.89869, 25.53221], [50.90073, 25.53486], [50.90008, 25.53974], [50.90414, 25.56314], [50.9048, 25.58706], [50.90919, 25.59772], [50.92058, 25.60834], [50.9275, 25.60517], [50.93572, 25.59833], [50.94955, 25.59772], [50.9559, 25.60468], [50.9699, 25.63386], [50.97755, 25.64615], [50.94988, 25.63646], [50.92433, 25.63231], [50.90317, 25.64012], [50.88868, 25.66665], [50.88754, 25.68089], [50.89487, 25.72809], [50.89731, 25.73257], [50.90699, 25.73994], [50.90919, 25.7451], [50.90797, 25.74925], [50.90284, 25.75528], [50.9017, 25.75947], [50.9017, 25.78954], [50.91554, 25.78644], [50.92026, 25.79438], [50.92359, 25.80516], [50.93287, 25.81061], [50.93971, 25.8072], [50.94557, 25.79849], [50.94923, 25.78701], [50.94955, 25.77529], [50.96372, 25.78388], [50.97299, 25.79751], [50.97592, 25.81379], [50.97071, 25.83051], [50.96388, 25.82368], [50.94939, 25.83796], [50.95118, 25.85928], [50.97731, 25.91645], [50.98146, 25.93586], [50.98422, 25.98135], [50.99252, 25.97574], [50.99562, 25.97285], [50.99855, 25.96703], [51.00473, 25.96703], [51.02735, 26.02692], [51.04737, 26.05305], [51.07594, 26.06391], [51.09107, 26.06696], [51.13315, 26.0821], [51.14186, 26.08779], [51.14723, 26.10309], [51.17058, 26.12458], [51.17612, 26.13959], [51.19435, 26.13353], [51.21485, 26.13935], [51.25123, 26.1601], [51.33074, 26.12116], [51.34685, 26.10488], [51.34848, 26.08564], [51.34636, 26.0607], [51.34718, 26.03901], [51.35768, 26.02973], [51.37664, 26.02289], [51.3825, 26.00617], [51.38347, 25.98558], [51.38844, 25.96703], [51.40398, 25.95409], [51.41651, 25.95209], [51.42433, 25.95087], [51.46754, 25.95405], [51.49195, 25.95189], [51.51197, 25.94611], [51.52947, 25.93732], [51.54607, 25.92609], [51.55942, 25.91376], [51.57032, 25.89838], [51.57749, 25.88085], [51.59474, 25.77188], [51.59449, 25.75825], [51.59156, 25.74665], [51.58351, 25.74177], [51.57765, 25.74506], [51.57203, 25.75951], [51.56332, 25.76289], [51.55543, 25.75869], [51.54835, 25.74885], [51.54461, 25.73737], [51.54607, 25.72809], [51.55502, 25.72065], [51.56365, 25.72162], [51.57032, 25.72748], [51.57399, 25.73493], [51.5901, 25.7119], [51.57683, 25.68867], [51.55681, 25.68163], [51.55291, 25.70759], [51.53932, 25.70393], [51.50514, 25.68716], [51.51971, 25.68171], [51.53492, 25.67325], [51.54713, 25.66315], [51.55291, 25.65298], [51.54949, 25.63117], [51.5359, 25.62238], [51.51881, 25.61872], [51.50514, 25.61201], [51.4983, 25.61591], [51.49138, 25.61823], [51.49366, 25.56582], [51.49155, 25.55064], [51.49138, 25.5493], [51.48585, 25.54051], [51.47755, 25.53107], [51.47193, 25.52139], [51.47429, 25.51211], [51.511, 25.45429], [51.51694, 25.44017], [51.51881, 25.42621], [51.51572, 25.38284], [51.51197, 25.33023], [51.51319, 25.30825], [51.51881, 25.29706], [51.53126, 25.29218], [51.59002, 25.28376], [51.59913, 25.27489], [51.6076, 25.25511], [51.61109, 25.23754], [51.61459, 25.21979], [51.61655, 25.13719], [51.60572, 25.03425], [51.61101, 25.02237], [51.60231, 25.01382], [51.58693, 24.95344], [51.57407, 24.93439], [51.5394, 24.89887], [51.52882, 24.87442], [51.52084, 24.87059], [51.51173, 24.86786], [51.50514, 24.86408], [51.50026, 24.85537], [51.47421, 24.76447], [51.47283, 24.75943], [51.46754, 24.74868], [51.45582, 24.74067], [51.45037, 24.72167], [51.44361, 24.67976], [51.43043, 24.6645], [51.38999, 24.64248], [51.38152, 24.63508], [51.37615, 24.61188], [51.36354, 24.59634], [51.34978, 24.58381], [51.34059, 24.56989], [51.32895, 24.58478], [51.33269, 24.59886], [51.34164, 24.61469], [51.34685, 24.63508], [51.33912, 24.64619], [51.32114, 24.64818], [51.28598, 24.64501], [51.28443, 24.6625], [51.27809, 24.66299], [51.26791, 24.6562], [51.25457, 24.6518], [51.23699, 24.65005], [51.22096, 24.64423], [51.21258, 24.63369], [51.21485, 24.62718], [51.21526, 24.62585], [51.14745, 24.57628], [51.09546, 24.56018], [51.03888, 24.55987], [50.97888, 24.56773], [50.9286, 24.58721], [50.88101, 24.6364], [50.80787, 24.74665]]]}, "properties": {"id": "F3sC", "status": "validé", "pieces": [{"kind": "country"}]}}, {"type": "Feature", "geometry": {"type": "Polygon", "coordinates": [[[51.35787, 25.32115], [51.35787, 25.33076], [51.34568, 25.33076], [51.34568, 25.32115], [51.35787, 25.32115]]]}, "properties": {"id": "IL8W", "status": "validé", "pieces": [{"kind": "rect", "bounds": [51.34568, 25.32115, 51.35787, 25.33076]}]}}, {"type": "Feature", "geometry": {"type": "Polygon", "coordinates": [[[51.45464, 25.3051], [51.45464, 25.33845], [51.41361, 25.33845], [51.41361, 25.3051], [51.45464, 25.3051]]]}, "properties": {"id": "IrTG", "status": "validé", "pieces": [{"kind": "rect", "bounds": [51.41361, 25.3051, 51.45464, 25.33845]}]}}, {"type": "Feature", "geometry": {"type": "Polygon", "coordinates": [[[50.80787, 24.74665], [50.82667, 24.74868], [50.85279, 24.77001], [50.85963, 24.7956], [50.85108, 24.89081], [50.84278, 24.91608], [50.79998, 24.98876], [50.79664, 25.00361], [50.80738, 25.03164], [50.80974, 25.05121], [50.8086, 25.06916], [50.80242, 25.07697], [50.77573, 25.09186], [50.7684, 25.1258], [50.76694, 25.16258], [50.75782, 25.18623], [50.76499, 25.20429], [50.76344, 25.22529], [50.75904, 25.2475], [50.75782, 25.26936], [50.7658, 25.32355], [50.76515, 25.34447], [50.75099, 25.41962], [50.76246, 25.46271], [50.76385, 25.48241], [50.75099, 25.4947], [50.77801, 25.52705], [50.79709, 25.5299], [50.80848, 25.51724], [50.81165, 25.49889], [50.82051, 25.49129], [50.82049, 25.47183], [50.84718, 25.46735], [50.83131, 25.5078], [50.82789, 25.52505], [50.82667, 25.54312], [50.82862, 25.55435], [50.83221, 25.56615], [50.83286, 25.57852], [50.82667, 25.59089], [50.81853, 25.59577], [50.79656, 25.5996], [50.785, 25.60456], [50.7964, 25.61726], [50.80958, 25.62059], [50.8235, 25.62214], [50.83693, 25.62881], [50.84018, 25.63451], [50.84653, 25.64985], [50.8506, 25.65298], [50.85719, 25.65082], [50.86354, 25.64143], [50.87094, 25.63931], [50.87615, 25.63178], [50.87428, 25.61494], [50.86769, 25.58784], [50.86769, 25.56704], [50.86866, 25.55956], [50.87672, 25.54059], [50.88152, 25.53514], [50.88868, 25.52949], [50.89869, 25.53221], [50.90073, 25.53486], [50.90008, 25.53974], [50.90414, 25.56314], [50.9048, 25.58706], [50.90919, 25.59772], [50.92058, 25.60834], [50.9275, 25.60517], [50.93572, 25.59833], [50.94955, 25.59772], [50.9559, 25.60468], [50.9699, 25.63386], [50.97755, 25.64615], [50.94988, 25.63646], [50.92433, 25.63231], [50.90317, 25.64012], [50.88868, 25.66665], [50.88754, 25.68089], [50.89487, 25.72809], [50.89731, 25.73257], [50.90699, 25.73994], [50.90919, 25.7451], [50.90797, 25.74925], [50.90284, 25.75528], [50.9017, 25.75947], [50.9017, 25.78954], [50.91554, 25.78644], [50.92026, 25.79438], [50.92359, 25.80516], [50.93287, 25.81061], [50.93971, 25.8072], [50.94557, 25.79849], [50.94923, 25.78701], [50.94955, 25.77529], [50.96372, 25.78388], [50.97299, 25.79751], [50.97592, 25.81379], [50.97071, 25.83051], [50.96388, 25.82368], [50.94939, 25.83796], [50.95118, 25.85928], [50.97731, 25.91645], [50.98146, 25.93586], [50.98422, 25.98135], [50.99252, 25.97574], [50.99562, 25.97285], [50.99855, 25.96703], [51.00473, 25.96703], [51.02735, 26.02692], [51.04737, 26.05305], [51.07594, 26.06391], [51.09107, 26.06696], [51.13315, 26.0821], [51.14186, 26.08779], [51.14723, 26.10309], [51.17058, 26.12458], [51.17612, 26.13959], [51.19435, 26.13353], [51.21485, 26.13935], [51.25123, 26.1601], [51.33074, 26.12116], [51.34685, 26.10488], [51.34848, 26.08564], [51.34636, 26.0607], [51.34718, 26.03901], [51.35768, 26.02973], [51.37664, 26.02289], [51.3825, 26.00617], [51.38347, 25.98558], [51.38844, 25.96703], [51.40398, 25.95409], [51.41651, 25.95209], [51.42433, 25.95087], [51.46754, 25.95405], [51.49195, 25.95189], [51.51197, 25.94611], [51.52947, 25.93732], [51.54607, 25.92609], [51.55942, 25.91376], [51.57032, 25.89838], [51.57749, 25.88085], [51.59474, 25.77188], [51.59449, 25.75825], [51.59156, 25.74665], [51.58351, 25.74177], [51.57765, 25.74506], [51.57203, 25.75951], [51.56332, 25.76289], [51.55543, 25.75869], [51.54835, 25.74885], [51.54461, 25.73737], [51.54607, 25.72809], [51.55502, 25.72065], [51.56365, 25.72162], [51.57032, 25.72748], [51.57399, 25.73493], [51.5901, 25.7119], [51.57683, 25.68867], [51.55681, 25.68163], [51.55291, 25.70759], [51.53932, 25.70393], [51.50514, 25.68716], [51.51971, 25.68171], [51.53492, 25.67325], [51.54713, 25.66315], [51.55291, 25.65298], [51.54949, 25.63117], [51.5359, 25.62238], [51.51881, 25.61872], [51.50514, 25.61201], [51.4983, 25.61591], [51.49138, 25.61823], [51.49366, 25.56582], [51.49155, 25.55064], [51.49138, 25.5493], [51.48585, 25.54051], [51.47755, 25.53107], [51.47193, 25.52139], [51.47429, 25.51211], [51.511, 25.45429], [51.51694, 25.44017], [51.51881, 25.42621], [51.51572, 25.38284], [51.51197, 25.33023], [51.51319, 25.30825], [51.51881, 25.29706], [51.53126, 25.29218], [51.59002, 25.28376], [51.59913, 25.27489], [51.6076, 25.25511], [51.61109, 25.23754], [51.61459, 25.21979], [51.61655, 25.13719], [51.60572, 25.03425], [51.61101, 25.02237], [51.60231, 25.01382], [51.58693, 24.95344], [51.57407, 24.93439], [51.5394, 24.89887], [51.52882, 24.87442], [51.52084, 24.87059], [51.51173, 24.86786], [51.50514, 24.86408], [51.50026, 24.85537], [51.47421, 24.76447], [51.47283, 24.75943], [51.46754, 24.74868], [51.45582, 24.74067], [51.45037, 24.72167], [51.44361, 24.67976], [51.43043, 24.6645], [51.38999, 24.64248], [51.38152, 24.63508], [51.37615, 24.61188], [51.36354, 24.59634], [51.34978, 24.58381], [51.34059, 24.56989], [51.32895, 24.58478], [51.33269, 24.59886], [51.34164, 24.61469], [51.34685, 24.63508], [51.33912, 24.64619], [51.32114, 24.64818], [51.28598, 24.64501], [51.28443, 24.6625], [51.27809, 24.66299], [51.26791, 24.6562], [51.25457, 24.6518], [51.23699, 24.65005], [51.22096, 24.64423], [51.21258, 24.63369], [51.21485, 24.62718], [51.21526, 24.62585], [51.14745, 24.57628], [51.09546, 24.56018], [51.03888, 24.55987], [50.97888, 24.56773], [50.9286, 24.58721], [50.88101, 24.6364], [50.80787, 24.74665]]]}, "properties": {"id": "IvYr", "status": "validé", "pieces": [{"kind": "country"}]}}, {"type": "Feature", "geometry": {"type": "Polygon", "coordinates": [[[51.35242, 25.32542], [51.35242, 25.33604], [51.33774, 25.33604], [51.33774, 25.32542], [51.35242, 25.32542]]]}, "properties": {"id": "KtSR", "status": "validé", "pieces": [{"kind": "rect", "bounds": [51.33774, 25.32542, 51.35242, 25.33604]}]}}, {"type": "Feature", "geometry": {"type": "MultiPolygon", "coordinates": [[[[51.49841, 25.01649], [51.40228, 25.09857], [51.36932, 25.18804], [51.36932, 25.27496], [51.30615, 25.27496], [51.24847, 25.36926], [51.27869, 25.46101], [51.42151, 25.44614], [51.51443, 25.44614], [51.51694, 25.44017], [51.51881, 25.42621], [51.51572, 25.38284], [51.51197, 25.33023], [51.51319, 25.30825], [51.51881, 25.29706], [51.53126, 25.29218], [51.59002, 25.28376], [51.59913, 25.27489], [51.6076, 25.25511], [51.61109, 25.23754], [51.61459, 25.21979], [51.61655, 25.13719], [51.60745, 25.05068], [51.49841, 25.01649]]], [[[51.52014, 25.619], [51.51881, 25.61872], [51.50514, 25.61201], [51.4983, 25.61591], [51.49138, 25.61823], [51.49216, 25.60048], [51.45721, 25.57994], [51.39954, 25.5948], [51.3913, 25.62946], [51.4325, 25.674], [51.51215, 25.68143], [51.52014, 25.619]]]]}, "properties": {"id": "QWts", "status": "validé", "pieces": [{"kind": "polygon", "ring": [[51.4325, 25.674], [51.3913, 25.62946], [51.39954, 25.5948], [51.45721, 25.57994], [51.52039, 25.61708], [51.51215, 25.68143]]}, {"kind": "polygon", "ring": [[51.52588, 25.44614], [51.42151, 25.44614], [51.27869, 25.46101], [51.24847, 25.36926], [51.30615, 25.27496], [51.36932, 25.27496], [51.36932, 25.18804], [51.40228, 25.09857], [51.49841, 25.01649], [51.64124, 25.06127], [51.70166, 25.16816]]}, {"kind": "clip"}]}}, {"type": "Feature", "geometry": null, "properties": {"id": "Rdpp", "status": "rejeté", "pieces": []}}, {"type": "Feature", "geometry": {"type": "MultiPolygon", "coordinates": [[[[51.11904, 25.28978], [51.15715, 25.29629], [51.19251, 25.30808], [51.19629, 25.30095], [51.16024, 25.29071], [51.11492, 25.28295], [51.08505, 25.29474], [51.08883, 25.30498], [51.11904, 25.28978]]], [[[50.98412, 25.24794], [50.99167, 25.29822], [51.0054, 25.35281], [51.02119, 25.42846], [51.03081, 25.42598], [51.02051, 25.3615], [50.99991, 25.2796], [50.99442, 25.17964], [50.98137, 25.18212], [50.97794, 25.22497], [50.98412, 25.24794]]], [[[51.36589, 25.86201], [51.3822, 25.87143], [51.4076, 25.87034], [51.40606, 25.86463], [51.38958, 25.86602], [51.37533, 25.85923], [51.3549, 25.85197], [51.35164, 25.85815], [51.36589, 25.86201]]], [[[51.39936, 25.96649], [51.41241, 25.95832], [51.41121, 25.95369], [51.3973, 25.95878], [51.39387, 25.96649], [51.39061, 25.98932], [51.39456, 25.98994], [51.39936, 25.96649]]]]}, "properties": {"id": "WcSv", "status": "validé", "pieces": [{"kind": "polygon", "ring": [[50.98137, 25.18212], [50.97794, 25.22497], [50.98412, 25.24794], [50.99167, 25.29822], [51.0054, 25.35281], [51.02119, 25.42846], [51.03081, 25.42598], [51.02051, 25.3615], [50.99991, 25.2796], [50.99442, 25.17964]]}, {"kind": "polygon", "ring": [[51.08505, 25.29474], [51.11492, 25.28295], [51.16024, 25.29071], [51.19629, 25.30095], [51.19251, 25.30808], [51.15715, 25.29629], [51.11904, 25.28978], [51.08883, 25.30498]]}, {"kind": "polygon", "ring": [[51.3549, 25.85197], [51.37533, 25.85923], [51.38958, 25.86602], [51.40606, 25.86463], [51.4076, 25.87034], [51.3822, 25.87143], [51.36589, 25.86201], [51.35164, 25.85815]]}, {"kind": "polygon", "ring": [[51.39061, 25.98932], [51.39387, 25.96649], [51.3973, 25.95878], [51.41121, 25.95369], [51.41241, 25.95832], [51.39936, 25.96649], [51.39456, 25.98994]]}]}}, {"type": "Feature", "geometry": {"type": "Polygon", "coordinates": [[[50.80787, 24.74665], [50.82667, 24.74868], [50.85279, 24.77001], [50.85963, 24.7956], [50.85108, 24.89081], [50.84278, 24.91608], [50.79998, 24.98876], [50.79664, 25.00361], [50.80738, 25.03164], [50.80974, 25.05121], [50.8086, 25.06916], [50.80242, 25.07697], [50.77573, 25.09186], [50.7684, 25.1258], [50.76694, 25.16258], [50.75782, 25.18623], [50.76499, 25.20429], [50.76344, 25.22529], [50.75904, 25.2475], [50.75782, 25.26936], [50.7658, 25.32355], [50.76515, 25.34447], [50.75099, 25.41962], [50.76246, 25.46271], [50.76385, 25.48241], [50.75099, 25.4947], [50.77801, 25.52705], [50.79709, 25.5299], [50.80848, 25.51724], [50.81165, 25.49889], [50.82051, 25.49129], [50.82049, 25.47183], [50.84718, 25.46735], [50.83131, 25.5078], [50.82789, 25.52505], [50.82667, 25.54312], [50.82862, 25.55435], [50.83221, 25.56615], [50.83286, 25.57852], [50.82667, 25.59089], [50.81853, 25.59577], [50.79656, 25.5996], [50.785, 25.60456], [50.7964, 25.61726], [50.80958, 25.62059], [50.8235, 25.62214], [50.83693, 25.62881], [50.84018, 25.63451], [50.84653, 25.64985], [50.8506, 25.65298], [50.85719, 25.65082], [50.86354, 25.64143], [50.87094, 25.63931], [50.87615, 25.63178], [50.87428, 25.61494], [50.86769, 25.58784], [50.86769, 25.56704], [50.86866, 25.55956], [50.87672, 25.54059], [50.88152, 25.53514], [50.88868, 25.52949], [50.89869, 25.53221], [50.90073, 25.53486], [50.90008, 25.53974], [50.90414, 25.56314], [50.9048, 25.58706], [50.90919, 25.59772], [50.92058, 25.60834], [50.9275, 25.60517], [50.93572, 25.59833], [50.94955, 25.59772], [50.9559, 25.60468], [50.9699, 25.63386], [50.97755, 25.64615], [50.94988, 25.63646], [50.92433, 25.63231], [50.90317, 25.64012], [50.88868, 25.66665], [50.88754, 25.68089], [50.89487, 25.72809], [50.89731, 25.73257], [50.90699, 25.73994], [50.90919, 25.7451], [50.90797, 25.74925], [50.90284, 25.75528], [50.9017, 25.75947], [50.9017, 25.78954], [50.91554, 25.78644], [50.92026, 25.79438], [50.92359, 25.80516], [50.93287, 25.81061], [50.93971, 25.8072], [50.94557, 25.79849], [50.94923, 25.78701], [50.94955, 25.77529], [50.96372, 25.78388], [50.97299, 25.79751], [50.97592, 25.81379], [50.97071, 25.83051], [50.96388, 25.82368], [50.94939, 25.83796], [50.95118, 25.85928], [50.97731, 25.91645], [50.98146, 25.93586], [50.98422, 25.98135], [50.99252, 25.97574], [50.99562, 25.97285], [50.99855, 25.96703], [51.00473, 25.96703], [51.02735, 26.02692], [51.04737, 26.05305], [51.07594, 26.06391], [51.09107, 26.06696], [51.13315, 26.0821], [51.14186, 26.08779], [51.14723, 26.10309], [51.17058, 26.12458], [51.17612, 26.13959], [51.19435, 26.13353], [51.21485, 26.13935], [51.25123, 26.1601], [51.33074, 26.12116], [51.34685, 26.10488], [51.34848, 26.08564], [51.34636, 26.0607], [51.34718, 26.03901], [51.35768, 26.02973], [51.37664, 26.02289], [51.3825, 26.00617], [51.38347, 25.98558], [51.38844, 25.96703], [51.40398, 25.95409], [51.41651, 25.95209], [51.42433, 25.95087], [51.46754, 25.95405], [51.49195, 25.95189], [51.51197, 25.94611], [51.52947, 25.93732], [51.54607, 25.92609], [51.55942, 25.91376], [51.57032, 25.89838], [51.57749, 25.88085], [51.59474, 25.77188], [51.59449, 25.75825], [51.59156, 25.74665], [51.58351, 25.74177], [51.57765, 25.74506], [51.57203, 25.75951], [51.56332, 25.76289], [51.55543, 25.75869], [51.54835, 25.74885], [51.54461, 25.73737], [51.54607, 25.72809], [51.55502, 25.72065], [51.56365, 25.72162], [51.57032, 25.72748], [51.57399, 25.73493], [51.5901, 25.7119], [51.57683, 25.68867], [51.55681, 25.68163], [51.55291, 25.70759], [51.53932, 25.70393], [51.50514, 25.68716], [51.51971, 25.68171], [51.53492, 25.67325], [51.54713, 25.66315], [51.55291, 25.65298], [51.54949, 25.63117], [51.5359, 25.62238], [51.51881, 25.61872], [51.50514, 25.61201], [51.4983, 25.61591], [51.49138, 25.61823], [51.49366, 25.56582], [51.49155, 25.55064], [51.49138, 25.5493], [51.48585, 25.54051], [51.47755, 25.53107], [51.47193, 25.52139], [51.47429, 25.51211], [51.511, 25.45429], [51.51694, 25.44017], [51.51881, 25.42621], [51.51572, 25.38284], [51.51197, 25.33023], [51.51319, 25.30825], [51.51881, 25.29706], [51.53126, 25.29218], [51.59002, 25.28376], [51.59913, 25.27489], [51.6076, 25.25511], [51.61109, 25.23754], [51.61459, 25.21979], [51.61655, 25.13719], [51.60572, 25.03425], [51.61101, 25.02237], [51.60231, 25.01382], [51.58693, 24.95344], [51.57407, 24.93439], [51.5394, 24.89887], [51.52882, 24.87442], [51.52084, 24.87059], [51.51173, 24.86786], [51.50514, 24.86408], [51.50026, 24.85537], [51.47421, 24.76447], [51.47283, 24.75943], [51.46754, 24.74868], [51.45582, 24.74067], [51.45037, 24.72167], [51.44361, 24.67976], [51.43043, 24.6645], [51.38999, 24.64248], [51.38152, 24.63508], [51.37615, 24.61188], [51.36354, 24.59634], [51.34978, 24.58381], [51.34059, 24.56989], [51.32895, 24.58478], [51.33269, 24.59886], [51.34164, 24.61469], [51.34685, 24.63508], [51.33912, 24.64619], [51.32114, 24.64818], [51.28598, 24.64501], [51.28443, 24.6625], [51.27809, 24.66299], [51.26791, 24.6562], [51.25457, 24.6518], [51.23699, 24.65005], [51.22096, 24.64423], [51.21258, 24.63369], [51.21485, 24.62718], [51.21526, 24.62585], [51.14745, 24.57628], [51.09546, 24.56018], [51.03888, 24.55987], [50.97888, 24.56773], [50.9286, 24.58721], [50.88101, 24.6364], [50.80787, 24.74665]]]}, "properties": {"id": "XQGn", "status": "validé", "pieces": [{"kind": "country"}]}}, {"type": "Feature", "geometry": {"type": "Polygon", "coordinates": [[[50.80787, 24.74665], [50.82667, 24.74868], [50.85279, 24.77001], [50.85963, 24.7956], [50.85108, 24.89081], [50.84278, 24.91608], [50.79998, 24.98876], [50.79664, 25.00361], [50.80738, 25.03164], [50.80974, 25.05121], [50.8086, 25.06916], [50.80242, 25.07697], [50.77573, 25.09186], [50.7684, 25.1258], [50.76694, 25.16258], [50.75782, 25.18623], [50.76499, 25.20429], [50.76344, 25.22529], [50.75904, 25.2475], [50.75782, 25.26936], [50.7658, 25.32355], [50.76515, 25.34447], [50.75099, 25.41962], [50.76246, 25.46271], [50.76385, 25.48241], [50.75099, 25.4947], [50.77801, 25.52705], [50.79709, 25.5299], [50.80848, 25.51724], [50.81165, 25.49889], [50.82051, 25.49129], [50.82049, 25.47183], [50.84718, 25.46735], [50.83131, 25.5078], [50.82789, 25.52505], [50.82667, 25.54312], [50.82862, 25.55435], [50.83221, 25.56615], [50.83286, 25.57852], [50.82667, 25.59089], [50.81853, 25.59577], [50.79656, 25.5996], [50.785, 25.60456], [50.7964, 25.61726], [50.80958, 25.62059], [50.8235, 25.62214], [50.83693, 25.62881], [50.84018, 25.63451], [50.84653, 25.64985], [50.8506, 25.65298], [50.85719, 25.65082], [50.86354, 25.64143], [50.87094, 25.63931], [50.87615, 25.63178], [50.87428, 25.61494], [50.86769, 25.58784], [50.86769, 25.56704], [50.86866, 25.55956], [50.87672, 25.54059], [50.88152, 25.53514], [50.88868, 25.52949], [50.89869, 25.53221], [50.90073, 25.53486], [50.90008, 25.53974], [50.90414, 25.56314], [50.9048, 25.58706], [50.90919, 25.59772], [50.92058, 25.60834], [50.9275, 25.60517], [50.93572, 25.59833], [50.94955, 25.59772], [50.9559, 25.60468], [50.9699, 25.63386], [50.97755, 25.64615], [50.94988, 25.63646], [50.92433, 25.63231], [50.90317, 25.64012], [50.88868, 25.66665], [50.88754, 25.68089], [50.89487, 25.72809], [50.89731, 25.73257], [50.90699, 25.73994], [50.90919, 25.7451], [50.90797, 25.74925], [50.90284, 25.75528], [50.9017, 25.75947], [50.9017, 25.78954], [50.91554, 25.78644], [50.92026, 25.79438], [50.92359, 25.80516], [50.93287, 25.81061], [50.93971, 25.8072], [50.94557, 25.79849], [50.94923, 25.78701], [50.94955, 25.77529], [50.96372, 25.78388], [50.97299, 25.79751], [50.97592, 25.81379], [50.97071, 25.83051], [50.96388, 25.82368], [50.94939, 25.83796], [50.95118, 25.85928], [50.97731, 25.91645], [50.98146, 25.93586], [50.98422, 25.98135], [50.99252, 25.97574], [50.99562, 25.97285], [50.99855, 25.96703], [51.00473, 25.96703], [51.02735, 26.02692], [51.04737, 26.05305], [51.07594, 26.06391], [51.09107, 26.06696], [51.13315, 26.0821], [51.14186, 26.08779], [51.14723, 26.10309], [51.17058, 26.12458], [51.17612, 26.13959], [51.19435, 26.13353], [51.21485, 26.13935], [51.25123, 26.1601], [51.33074, 26.12116], [51.34685, 26.10488], [51.34848, 26.08564], [51.34636, 26.0607], [51.34718, 26.03901], [51.35768, 26.02973], [51.37664, 26.02289], [51.3825, 26.00617], [51.38347, 25.98558], [51.38844, 25.96703], [51.40398, 25.95409], [51.41651, 25.95209], [51.42433, 25.95087], [51.46754, 25.95405], [51.49195, 25.95189], [51.51197, 25.94611], [51.52947, 25.93732], [51.54607, 25.92609], [51.55942, 25.91376], [51.57032, 25.89838], [51.57749, 25.88085], [51.59474, 25.77188], [51.59449, 25.75825], [51.59156, 25.74665], [51.58351, 25.74177], [51.57765, 25.74506], [51.57203, 25.75951], [51.56332, 25.76289], [51.55543, 25.75869], [51.54835, 25.74885], [51.54461, 25.73737], [51.54607, 25.72809], [51.55502, 25.72065], [51.56365, 25.72162], [51.57032, 25.72748], [51.57399, 25.73493], [51.5901, 25.7119], [51.57683, 25.68867], [51.55681, 25.68163], [51.55291, 25.70759], [51.53932, 25.70393], [51.50514, 25.68716], [51.51971, 25.68171], [51.53492, 25.67325], [51.54713, 25.66315], [51.55291, 25.65298], [51.54949, 25.63117], [51.5359, 25.62238], [51.51881, 25.61872], [51.50514, 25.61201], [51.4983, 25.61591], [51.49138, 25.61823], [51.49366, 25.56582], [51.49155, 25.55064], [51.49138, 25.5493], [51.48585, 25.54051], [51.47755, 25.53107], [51.47193, 25.52139], [51.47429, 25.51211], [51.511, 25.45429], [51.51694, 25.44017], [51.51881, 25.42621], [51.51572, 25.38284], [51.51197, 25.33023], [51.51319, 25.30825], [51.51881, 25.29706], [51.53126, 25.29218], [51.59002, 25.28376], [51.59913, 25.27489], [51.6076, 25.25511], [51.61109, 25.23754], [51.61459, 25.21979], [51.61655, 25.13719], [51.60572, 25.03425], [51.61101, 25.02237], [51.60231, 25.01382], [51.58693, 24.95344], [51.57407, 24.93439], [51.5394, 24.89887], [51.52882, 24.87442], [51.52084, 24.87059], [51.51173, 24.86786], [51.50514, 24.86408], [51.50026, 24.85537], [51.47421, 24.76447], [51.47283, 24.75943], [51.46754, 24.74868], [51.45582, 24.74067], [51.45037, 24.72167], [51.44361, 24.67976], [51.43043, 24.6645], [51.38999, 24.64248], [51.38152, 24.63508], [51.37615, 24.61188], [51.36354, 24.59634], [51.34978, 24.58381], [51.34059, 24.56989], [51.32895, 24.58478], [51.33269, 24.59886], [51.34164, 24.61469], [51.34685, 24.63508], [51.33912, 24.64619], [51.32114, 24.64818], [51.28598, 24.64501], [51.28443, 24.6625], [51.27809, 24.66299], [51.26791, 24.6562], [51.25457, 24.6518], [51.23699, 24.65005], [51.22096, 24.64423], [51.21258, 24.63369], [51.21485, 24.62718], [51.21526, 24.62585], [51.14745, 24.57628], [51.09546, 24.56018], [51.03888, 24.55987], [50.97888, 24.56773], [50.9286, 24.58721], [50.88101, 24.6364], [50.80787, 24.74665]]]}, "properties": {"id": "ZpMs", "status": "validé", "pieces": [{"kind": "country"}]}}, {"type": "Feature", "geometry": null, "properties": {"id": "azNo", "status": "rejeté", "pieces": []}}, {"type": "Feature", "geometry": null, "properties": {"id": "eMIV", "status": "rejeté", "pieces": []}}, {"type": "Feature", "geometry": {"type": "Polygon", "coordinates": [[[51.47661, 25.25249], [51.47661, 25.2708], [51.42889, 25.2708], [51.42889, 25.25249], [51.47661, 25.25249]]]}, "properties": {"id": "eekc", "status": "validé", "pieces": [{"kind": "rect", "bounds": [51.42889, 25.25249, 51.47661, 25.2708]}]}}, {"type": "Feature", "geometry": {"type": "Polygon", "coordinates": [[[51.54202, 25.36489], [51.54202, 25.46005], [51.4785, 25.46005], [51.4785, 25.36489], [51.54202, 25.36489]]]}, "properties": {"id": "hMwr", "status": "validé", "pieces": [{"kind": "rect", "bounds": [51.4785, 25.36489, 51.54202, 25.46005]}]}}, {"type": "Feature", "geometry": {"type": "Polygon", "coordinates": [[[51.50391, 25.41096], [51.50391, 25.43034], [51.48485, 25.43034], [51.48485, 25.41096], [51.50391, 25.41096]]]}, "properties": {"id": "jmFE", "status": "validé", "pieces": [{"kind": "rect", "bounds": [51.48485, 25.41096, 51.50391, 25.43034]}]}}, {"type": "Feature", "geometry": {"type": "Polygon", "coordinates": [[[51.45541, 25.25581], [51.45541, 25.27009], [51.43644, 25.27009], [51.43644, 25.25581], [51.45541, 25.25581]]]}, "properties": {"id": "kekJ", "status": "validé", "pieces": [{"kind": "rect", "bounds": [51.43644, 25.25581, 51.45541, 25.27009]}]}}, {"type": "Feature", "geometry": null, "properties": {"id": "sO5C", "status": "rejeté", "pieces": []}}, {"type": "Feature", "geometry": null, "properties": {"id": "sRjs", "status": "rejeté", "pieces": []}}, {"type": "Feature", "geometry": {"type": "Polygon", "coordinates": [[[50.80787, 24.74665], [50.82667, 24.74868], [50.85279, 24.77001], [50.85963, 24.7956], [50.85108, 24.89081], [50.84278, 24.91608], [50.79998, 24.98876], [50.79664, 25.00361], [50.80738, 25.03164], [50.80974, 25.05121], [50.8086, 25.06916], [50.80242, 25.07697], [50.77573, 25.09186], [50.7684, 25.1258], [50.76694, 25.16258], [50.75782, 25.18623], [50.76499, 25.20429], [50.76344, 25.22529], [50.75904, 25.2475], [50.75782, 25.26936], [50.7658, 25.32355], [50.76515, 25.34447], [50.75099, 25.41962], [50.76246, 25.46271], [50.76385, 25.48241], [50.75099, 25.4947], [50.77801, 25.52705], [50.79709, 25.5299], [50.80848, 25.51724], [50.81165, 25.49889], [50.82051, 25.49129], [50.82049, 25.47183], [50.84718, 25.46735], [50.83131, 25.5078], [50.82789, 25.52505], [50.82667, 25.54312], [50.82862, 25.55435], [50.83221, 25.56615], [50.83286, 25.57852], [50.82667, 25.59089], [50.81853, 25.59577], [50.79656, 25.5996], [50.785, 25.60456], [50.7964, 25.61726], [50.80958, 25.62059], [50.8235, 25.62214], [50.83693, 25.62881], [50.84018, 25.63451], [50.84653, 25.64985], [50.8506, 25.65298], [50.85719, 25.65082], [50.86354, 25.64143], [50.87094, 25.63931], [50.87615, 25.63178], [50.87428, 25.61494], [50.86769, 25.58784], [50.86769, 25.56704], [50.86866, 25.55956], [50.87672, 25.54059], [50.88152, 25.53514], [50.88868, 25.52949], [50.89869, 25.53221], [50.90073, 25.53486], [50.90008, 25.53974], [50.90414, 25.56314], [50.9048, 25.58706], [50.90919, 25.59772], [50.92058, 25.60834], [50.9275, 25.60517], [50.93572, 25.59833], [50.94955, 25.59772], [50.9559, 25.60468], [50.9699, 25.63386], [50.97755, 25.64615], [50.94988, 25.63646], [50.92433, 25.63231], [50.90317, 25.64012], [50.88868, 25.66665], [50.88754, 25.68089], [50.89487, 25.72809], [50.89731, 25.73257], [50.90699, 25.73994], [50.90919, 25.7451], [50.90797, 25.74925], [50.90284, 25.75528], [50.9017, 25.75947], [50.9017, 25.78954], [50.91554, 25.78644], [50.92026, 25.79438], [50.92359, 25.80516], [50.93287, 25.81061], [50.93971, 25.8072], [50.94557, 25.79849], [50.94923, 25.78701], [50.94955, 25.77529], [50.96372, 25.78388], [50.97299, 25.79751], [50.97592, 25.81379], [50.97071, 25.83051], [50.96388, 25.82368], [50.94939, 25.83796], [50.95118, 25.85928], [50.97731, 25.91645], [50.98146, 25.93586], [50.98422, 25.98135], [50.99252, 25.97574], [50.99562, 25.97285], [50.99855, 25.96703], [51.00473, 25.96703], [51.02735, 26.02692], [51.04737, 26.05305], [51.07594, 26.06391], [51.09107, 26.06696], [51.13315, 26.0821], [51.14186, 26.08779], [51.14723, 26.10309], [51.17058, 26.12458], [51.17612, 26.13959], [51.19435, 26.13353], [51.21485, 26.13935], [51.25123, 26.1601], [51.33074, 26.12116], [51.34685, 26.10488], [51.34848, 26.08564], [51.34636, 26.0607], [51.34718, 26.03901], [51.35768, 26.02973], [51.37664, 26.02289], [51.3825, 26.00617], [51.38347, 25.98558], [51.38844, 25.96703], [51.40398, 25.95409], [51.41651, 25.95209], [51.42433, 25.95087], [51.46754, 25.95405], [51.49195, 25.95189], [51.51197, 25.94611], [51.52947, 25.93732], [51.54607, 25.92609], [51.55942, 25.91376], [51.57032, 25.89838], [51.57749, 25.88085], [51.59474, 25.77188], [51.59449, 25.75825], [51.59156, 25.74665], [51.58351, 25.74177], [51.57765, 25.74506], [51.57203, 25.75951], [51.56332, 25.76289], [51.55543, 25.75869], [51.54835, 25.74885], [51.54461, 25.73737], [51.54607, 25.72809], [51.55502, 25.72065], [51.56365, 25.72162], [51.57032, 25.72748], [51.57399, 25.73493], [51.5901, 25.7119], [51.57683, 25.68867], [51.55681, 25.68163], [51.55291, 25.70759], [51.53932, 25.70393], [51.50514, 25.68716], [51.51971, 25.68171], [51.53492, 25.67325], [51.54713, 25.66315], [51.55291, 25.65298], [51.54949, 25.63117], [51.5359, 25.62238], [51.51881, 25.61872], [51.50514, 25.61201], [51.4983, 25.61591], [51.49138, 25.61823], [51.49366, 25.56582], [51.49155, 25.55064], [51.49138, 25.5493], [51.48585, 25.54051], [51.47755, 25.53107], [51.47193, 25.52139], [51.47429, 25.51211], [51.511, 25.45429], [51.51694, 25.44017], [51.51881, 25.42621], [51.51572, 25.38284], [51.51197, 25.33023], [51.51319, 25.30825], [51.51881, 25.29706], [51.53126, 25.29218], [51.59002, 25.28376], [51.59913, 25.27489], [51.6076, 25.25511], [51.61109, 25.23754], [51.61459, 25.21979], [51.61655, 25.13719], [51.60572, 25.03425], [51.61101, 25.02237], [51.60231, 25.01382], [51.58693, 24.95344], [51.57407, 24.93439], [51.5394, 24.89887], [51.52882, 24.87442], [51.52084, 24.87059], [51.51173, 24.86786], [51.50514, 24.86408], [51.50026, 24.85537], [51.47421, 24.76447], [51.47283, 24.75943], [51.46754, 24.74868], [51.45582, 24.74067], [51.45037, 24.72167], [51.44361, 24.67976], [51.43043, 24.6645], [51.38999, 24.64248], [51.38152, 24.63508], [51.37615, 24.61188], [51.36354, 24.59634], [51.34978, 24.58381], [51.34059, 24.56989], [51.32895, 24.58478], [51.33269, 24.59886], [51.34164, 24.61469], [51.34685, 24.63508], [51.33912, 24.64619], [51.32114, 24.64818], [51.28598, 24.64501], [51.28443, 24.6625], [51.27809, 24.66299], [51.26791, 24.6562], [51.25457, 24.6518], [51.23699, 24.65005], [51.22096, 24.64423], [51.21258, 24.63369], [51.21485, 24.62718], [51.21526, 24.62585], [51.14745, 24.57628], [51.09546, 24.56018], [51.03888, 24.55987], [50.97888, 24.56773], [50.9286, 24.58721], [50.88101, 24.6364], [50.80787, 24.74665]]]}, "properties": {"id": "swZh", "status": "validé", "pieces": [{"kind": "country"}]}}, {"type": "Feature", "geometry": null, "properties": {"id": "tm4B", "status": "rejeté", "pieces": []}}, {"type": "Feature", "geometry": {"type": "Polygon", "coordinates": [[[50.80787, 24.74665], [50.82667, 24.74868], [50.85279, 24.77001], [50.85963, 24.7956], [50.85108, 24.89081], [50.84278, 24.91608], [50.79998, 24.98876], [50.79664, 25.00361], [50.80738, 25.03164], [50.80974, 25.05121], [50.8086, 25.06916], [50.80242, 25.07697], [50.77573, 25.09186], [50.7684, 25.1258], [50.76694, 25.16258], [50.75782, 25.18623], [50.76499, 25.20429], [50.76344, 25.22529], [50.75904, 25.2475], [50.75782, 25.26936], [50.7658, 25.32355], [50.76515, 25.34447], [50.75099, 25.41962], [50.76246, 25.46271], [50.76385, 25.48241], [50.75099, 25.4947], [50.77801, 25.52705], [50.79709, 25.5299], [50.80848, 25.51724], [50.81165, 25.49889], [50.82051, 25.49129], [50.82049, 25.47183], [50.84718, 25.46735], [50.83131, 25.5078], [50.82789, 25.52505], [50.82667, 25.54312], [50.82862, 25.55435], [50.83221, 25.56615], [50.83286, 25.57852], [50.82667, 25.59089], [50.81853, 25.59577], [50.79656, 25.5996], [50.785, 25.60456], [50.7964, 25.61726], [50.80958, 25.62059], [50.8235, 25.62214], [50.83693, 25.62881], [50.84018, 25.63451], [50.84653, 25.64985], [50.8506, 25.65298], [50.85719, 25.65082], [50.86354, 25.64143], [50.87094, 25.63931], [50.87615, 25.63178], [50.87428, 25.61494], [50.86769, 25.58784], [50.86769, 25.56704], [50.86866, 25.55956], [50.87672, 25.54059], [50.88152, 25.53514], [50.88868, 25.52949], [50.89869, 25.53221], [50.90073, 25.53486], [50.90008, 25.53974], [50.90414, 25.56314], [50.9048, 25.58706], [50.90919, 25.59772], [50.92058, 25.60834], [50.9275, 25.60517], [50.93572, 25.59833], [50.94955, 25.59772], [50.9559, 25.60468], [50.9699, 25.63386], [50.97755, 25.64615], [50.94988, 25.63646], [50.92433, 25.63231], [50.90317, 25.64012], [50.88868, 25.66665], [50.88754, 25.68089], [50.89487, 25.72809], [50.89731, 25.73257], [50.90699, 25.73994], [50.90919, 25.7451], [50.90797, 25.74925], [50.90284, 25.75528], [50.9017, 25.75947], [50.9017, 25.78954], [50.91554, 25.78644], [50.92026, 25.79438], [50.92359, 25.80516], [50.93287, 25.81061], [50.93971, 25.8072], [50.94557, 25.79849], [50.94923, 25.78701], [50.94955, 25.77529], [50.96372, 25.78388], [50.97299, 25.79751], [50.97592, 25.81379], [50.97071, 25.83051], [50.96388, 25.82368], [50.94939, 25.83796], [50.95118, 25.85928], [50.97731, 25.91645], [50.98146, 25.93586], [50.98422, 25.98135], [50.99252, 25.97574], [50.99562, 25.97285], [50.99855, 25.96703], [51.00473, 25.96703], [51.02735, 26.02692], [51.04737, 26.05305], [51.07594, 26.06391], [51.09107, 26.06696], [51.13315, 26.0821], [51.14186, 26.08779], [51.14723, 26.10309], [51.17058, 26.12458], [51.17612, 26.13959], [51.19435, 26.13353], [51.21485, 26.13935], [51.25123, 26.1601], [51.33074, 26.12116], [51.34685, 26.10488], [51.34848, 26.08564], [51.34636, 26.0607], [51.34718, 26.03901], [51.35768, 26.02973], [51.37664, 26.02289], [51.3825, 26.00617], [51.38347, 25.98558], [51.38844, 25.96703], [51.40398, 25.95409], [51.41651, 25.95209], [51.42433, 25.95087], [51.46754, 25.95405], [51.49195, 25.95189], [51.51197, 25.94611], [51.52947, 25.93732], [51.54607, 25.92609], [51.55942, 25.91376], [51.57032, 25.89838], [51.57749, 25.88085], [51.59474, 25.77188], [51.59449, 25.75825], [51.59156, 25.74665], [51.58351, 25.74177], [51.57765, 25.74506], [51.57203, 25.75951], [51.56332, 25.76289], [51.55543, 25.75869], [51.54835, 25.74885], [51.54461, 25.73737], [51.54607, 25.72809], [51.55502, 25.72065], [51.56365, 25.72162], [51.57032, 25.72748], [51.57399, 25.73493], [51.5901, 25.7119], [51.57683, 25.68867], [51.55681, 25.68163], [51.55291, 25.70759], [51.53932, 25.70393], [51.50514, 25.68716], [51.51971, 25.68171], [51.53492, 25.67325], [51.54713, 25.66315], [51.55291, 25.65298], [51.54949, 25.63117], [51.5359, 25.62238], [51.51881, 25.61872], [51.50514, 25.61201], [51.4983, 25.61591], [51.49138, 25.61823], [51.49366, 25.56582], [51.49155, 25.55064], [51.49138, 25.5493], [51.48585, 25.54051], [51.47755, 25.53107], [51.47193, 25.52139], [51.47429, 25.51211], [51.511, 25.45429], [51.51694, 25.44017], [51.51881, 25.42621], [51.51572, 25.38284], [51.51197, 25.33023], [51.51319, 25.30825], [51.51881, 25.29706], [51.53126, 25.29218], [51.59002, 25.28376], [51.59913, 25.27489], [51.6076, 25.25511], [51.61109, 25.23754], [51.61459, 25.21979], [51.61655, 25.13719], [51.60572, 25.03425], [51.61101, 25.02237], [51.60231, 25.01382], [51.58693, 24.95344], [51.57407, 24.93439], [51.5394, 24.89887], [51.52882, 24.87442], [51.52084, 24.87059], [51.51173, 24.86786], [51.50514, 24.86408], [51.50026, 24.85537], [51.47421, 24.76447], [51.47283, 24.75943], [51.46754, 24.74868], [51.45582, 24.74067], [51.45037, 24.72167], [51.44361, 24.67976], [51.43043, 24.6645], [51.38999, 24.64248], [51.38152, 24.63508], [51.37615, 24.61188], [51.36354, 24.59634], [51.34978, 24.58381], [51.34059, 24.56989], [51.32895, 24.58478], [51.33269, 24.59886], [51.34164, 24.61469], [51.34685, 24.63508], [51.33912, 24.64619], [51.32114, 24.64818], [51.28598, 24.64501], [51.28443, 24.6625], [51.27809, 24.66299], [51.26791, 24.6562], [51.25457, 24.6518], [51.23699, 24.65005], [51.22096, 24.64423], [51.21258, 24.63369], [51.21485, 24.62718], [51.21526, 24.62585], [51.14745, 24.57628], [51.09546, 24.56018], [51.03888, 24.55987], [50.97888, 24.56773], [50.9286, 24.58721], [50.88101, 24.6364], [50.80787, 24.74665]]]}, "properties": {"id": "unhN", "status": "validé", "pieces": [{"kind": "country"}]}}, {"type": "Feature", "geometry": {"type": "MultiPolygon", "coordinates": [[[[51.53412, 25.24616], [51.55177, 25.28924], [51.59002, 25.28376], [51.59913, 25.27489], [51.60385, 25.26387], [51.57257, 25.24368], [51.53412, 25.24616]]], [[[51.48743, 25.28043], [51.16333, 25.28043], [51.01501, 25.42929], [50.90552, 25.58882], [50.90919, 25.59772], [50.92058, 25.60834], [50.9275, 25.60517], [50.93572, 25.59833], [50.94955, 25.59772], [50.9559, 25.60468], [50.9699, 25.63386], [50.97755, 25.64615], [50.94988, 25.63646], [50.92433, 25.63231], [50.90317, 25.64012], [50.88868, 25.66665], [50.88754, 25.68089], [50.89487, 25.72809], [50.89731, 25.73257], [50.90699, 25.73994], [50.90919, 25.7451], [50.90797, 25.74925], [50.90284, 25.75528], [50.9017, 25.75947], [50.9017, 25.78954], [50.91554, 25.78644], [50.92026, 25.79438], [50.92359, 25.80516], [50.93287, 25.81061], [50.93971, 25.8072], [50.94557, 25.79849], [50.94923, 25.78701], [50.94955, 25.77529], [50.96372, 25.78388], [50.97299, 25.79751], [50.97592, 25.81379], [50.97071, 25.83051], [50.96388, 25.82368], [50.94939, 25.83796], [50.95118, 25.85928], [50.97731, 25.91645], [50.98146, 25.93586], [50.98422, 25.98135], [50.99252, 25.97574], [50.99562, 25.97285], [50.99855, 25.96703], [51.00473, 25.96703], [51.02735, 26.02692], [51.04737, 26.05305], [51.07594, 26.06391], [51.09107, 26.06696], [51.13315, 26.0821], [51.14186, 26.08779], [51.14723, 26.10309], [51.17058, 26.12458], [51.17612, 26.13959], [51.19435, 26.13353], [51.21485, 26.13935], [51.25123, 26.1601], [51.33074, 26.12116], [51.34685, 26.10488], [51.34848, 26.08564], [51.34636, 26.0607], [51.34718, 26.03901], [51.35768, 26.02973], [51.37664, 26.02289], [51.3825, 26.00617], [51.38347, 25.98558], [51.38844, 25.96703], [51.40398, 25.95409], [51.41651, 25.95209], [51.42433, 25.95087], [51.46754, 25.95405], [51.49195, 25.95189], [51.51197, 25.94611], [51.52947, 25.93732], [51.54607, 25.92609], [51.55942, 25.91376], [51.57032, 25.89838], [51.57749, 25.88085], [51.59474, 25.77188], [51.59449, 25.75825], [51.59156, 25.74665], [51.58351, 25.74177], [51.57765, 25.74506], [51.57203, 25.75951], [51.56332, 25.76289], [51.55543, 25.75869], [51.54835, 25.74885], [51.54461, 25.73737], [51.54607, 25.72809], [51.55502, 25.72065], [51.56365, 25.72162], [51.57032, 25.72748], [51.57399, 25.73493], [51.5901, 25.7119], [51.57683, 25.68867], [51.55681, 25.68163], [51.55291, 25.70759], [51.53932, 25.70393], [51.50514, 25.68716], [51.51971, 25.68171], [51.53492, 25.67325], [51.54713, 25.66315], [51.55291, 25.65298], [51.54949, 25.63117], [51.5359, 25.62238], [51.51881, 25.61872], [51.50514, 25.61201], [51.4983, 25.61591], [51.49138, 25.61823], [51.49366, 25.56582], [51.49155, 25.55064], [51.49138, 25.5493], [51.48585, 25.54051], [51.47755, 25.53107], [51.47193, 25.52139], [51.47429, 25.51211], [51.511, 25.45429], [51.51694, 25.44017], [51.51881, 25.42621], [51.51572, 25.38284], [51.51197, 25.33023], [51.51319, 25.30825], [51.515, 25.30466], [51.48743, 25.28043]]], [[[50.87219, 25.63738], [50.87219, 25.63751], [50.87615, 25.63178], [50.87613, 25.63164], [50.87219, 25.63738]]]]}, "properties": {"id": "wBgz", "status": "validé", "pieces": [{"kind": "polygon", "ring": [[50.87219, 25.63738], [51.01501, 25.42929], [51.16333, 25.28043], [51.48743, 25.28043], [51.69067, 25.45904], [51.70166, 26.22008], [51.2677, 26.29887], [50.86121, 26.15603]]}, {"kind": "clip"}, {"kind": "polygon", "ring": [[51.62064, 25.27471], [51.57257, 25.24368], [51.53412, 25.24616], [51.56158, 25.31319], [51.6124, 25.3318]]}]}}, {"type": "Feature", "geometry": null, "properties": {"id": "wSQQ", "status": "rejeté", "pieces": []}}, {"type": "Feature", "geometry": {"type": "Polygon", "coordinates": [[[51.45138, 25.29909], [51.45138, 25.33228], [51.41121, 25.33228], [51.41121, 25.29909], [51.45138, 25.29909]]]}, "properties": {"id": "xFsU", "status": "validé", "pieces": [{"kind": "rect", "bounds": [51.41121, 25.29909, 51.45138, 25.33228]}]}}]}