{"type": "FeatureCollection", "features": [{"type": "Feature", "geometry": null, "properties": {"id": "6jty", "status": "validé", "pieces": [{"kind": "country"}]}}, {"type": "Feature", "geometry": null, "properties": {"id": "8vGG", "status": "rejeté", "pieces": []}}, {"type": "Feature", "geometry": null, "properties": {"id": "C8Jw", "status": "validé", "pieces": [{"kind": "country"}]}}, {"type": "Feature", "geometry": null, "properties": {"id": "LpbY", "status": "rejeté", "pieces": []}}, {"type": "Feature", "geometry": {"type": "Polygon", "coordinates": [[[21.75293, 43.85136], [21.90674, 43.74038], [21.99463, 43.56558], [22.02759, 43.39026], [22.19238, 43.22244], [22.23633, 43.05416], [22.1814, 42.86127], [21.96167, 42.79684], [21.62109, 42.87737], [21.5332, 43.07021], [21.64307, 43.21444], [21.54419, 43.40622], [21.31348, 43.51782], [21.23657, 43.94632], [21.32446, 44.10424], [21.75293, 43.85136]]]}, "properties": {"id": "QMqw", "status": "validé", "pieces": [{"kind": "polygon", "ring": [[21.75293, 43.85136], [21.90674, 43.74038], [21.99463, 43.56558], [22.02759, 43.39026], [22.19238, 43.22244], [22.23633, 43.05416], [22.1814, 42.86127], [21.96167, 42.79684], [21.62109, 42.87737], [21.5332, 43.07021], [21.64307, 43.21444], [21.54419, 43.40622], [21.31348, 43.51782], [21.23657, 43.94632], [21.32446, 44.10424]]}]}}, {"type": "Feature", "geometry": {"type": "Polygon", "coordinates": [[[20.86853, 43.32588], [21.12122, 43.3738], [21.25854, 43.35783], [21.75293, 43.23794], [21.85181, 43.08575], [21.89575, 42.89698], [22.12646, 42.84869], [22.19238, 42.88491], [22.16492, 43.01352], [22.15942, 43.14988], [22.11548, 43.32988], [21.90125, 43.4456], [21.67053, 43.72005], [21.71448, 43.94582], [21.87927, 44.08797], [22.00012, 44.10375], [22.48901, 44.04063], [22.50413, 44.02032], [22.50367, 44.0199], [22.48145, 44.01943], [22.46589, 44.01762], [22.43432, 44.01396], [22.41179, 44.00693], [22.39959, 43.99334], [22.39732, 43.98093], [22.3968, 43.95194], [22.39453, 43.93634], [22.39194, 43.93187], [22.38202, 43.91856], [22.37903, 43.9135], [22.37706, 43.88352], [22.36755, 43.85275], [22.35474, 43.8297], [22.34947, 43.80792], [22.36259, 43.78084], [22.38854, 43.75829], [22.38957, 43.75051], [22.38585, 43.73382], [22.38605, 43.7255], [22.3905, 43.71245], [22.39691, 43.6994], [22.40487, 43.68718], [22.41396, 43.67666], [22.42647, 43.66821], [22.45592, 43.65641], [22.46626, 43.64912], [22.47287, 43.63594], [22.4738, 43.613], [22.48145, 43.60065], [22.48176, 43.59998], [22.48197, 43.59946], [22.48176, 43.59894], [22.48145, 43.59853], [22.47814, 43.59491], [22.47711, 43.59129], [22.47814, 43.58757], [22.48145, 43.58414], [22.48269, 43.58173], [22.4831, 43.57928], [22.48269, 43.5767], [22.48145, 43.57411], [22.47866, 43.56918], [22.47762, 43.56416], [22.47845, 43.55923], [22.49065, 43.54088], [22.50935, 43.49334], [22.51886, 43.47425], [22.53261, 43.46484], [22.56579, 43.45334], [22.57271, 43.44815], [22.58677, 43.43443], [22.59627, 43.42916], [22.60692, 43.4274], [22.62852, 43.42826], [22.63782, 43.42637], [22.64537, 43.4203], [22.65653, 43.40319], [22.65893, 43.40129], [22.66469, 43.39673], [22.6742, 43.39415], [22.69322, 43.39487], [22.70293, 43.39404], [22.71937, 43.38867], [22.72434, 43.38606], [22.73301, 43.38151], [22.80453, 43.32898], [22.81714, 43.3155], [22.82076, 43.30754], [22.82386, 43.2893], [22.82696, 43.28139], [22.83316, 43.27465], [22.85734, 43.25695], [22.8838, 43.23059], [22.89775, 43.22033], [22.91553, 43.21225], [22.96473, 43.20442], [22.98137, 43.19899], [22.9829, 43.18732], [22.98457, 43.17463], [22.97403, 43.14119], [22.95563, 43.10827], [22.93527, 43.08556], [22.92711, 43.08114], [22.91016, 43.07528], [22.90168, 43.06975], [22.89672, 43.06272], [22.88949, 43.04438], [22.88422, 43.03665], [22.84225, 43.00751], [22.82903, 42.99366], [22.82903, 42.9935], [22.82892, 42.99345], [22.82882, 42.99345], [22.8158, 42.9897], [22.7881, 42.9849], [22.77642, 42.97973], [22.76939, 42.97128], [22.76319, 42.95864], [22.74552, 42.91007], [22.73958, 42.89886], [22.7388, 42.89738], [22.72702, 42.88689], [22.69663, 42.87741], [22.66624, 42.87193], [22.5909, 42.88689], [22.56361, 42.88428], [22.54997, 42.87736], [22.54479, 42.87171], [22.54449, 42.87139], [22.53757, 42.86834], [22.51979, 42.87036], [22.50605, 42.87012], [22.49705, 42.86441], [22.48145, 42.84674], [22.47091, 42.84013], [22.44548, 42.83018], [22.4368, 42.82429], [22.43045, 42.81708], [22.4274, 42.81361], [22.42584, 42.80984], [22.42936, 42.80612], [22.45313, 42.76359], [22.46657, 42.74853], [22.48145, 42.73982], [22.48259, 42.73682], [22.4829, 42.73378], [22.48259, 42.73067], [22.48145, 42.72768], [22.46812, 42.71832], [22.44207, 42.68169], [22.4492, 42.66797], [22.44455, 42.64329], [22.44132, 42.63289], [22.42884, 42.59278], [22.42533, 42.57285], [22.42967, 42.57141], [22.48145, 42.53562], [22.51215, 42.51919], [22.52486, 42.50767], [22.53251, 42.49356], [22.53251, 42.4934], [22.53654, 42.47839], [22.53312, 42.45759], [22.51948, 42.42093], [22.50884, 42.40493], [22.49757, 42.3992], [22.48507, 42.39715], [22.46977, 42.3917], [22.45437, 42.37677], [22.43845, 42.34005], [22.42398, 42.32589], [22.4058, 42.32155], [22.36414, 42.32098], [22.34502, 42.31344], [22.32528, 42.31432], [22.30761, 42.31933], [22.29159, 42.3284], [22.27691, 42.34124], [22.27402, 42.34848], [22.2733, 42.36548], [22.26885, 42.37033], [22.25976, 42.3691], [22.2334, 42.34889], [22.09553, 42.30582], [22.06091, 42.30109], [22.04541, 42.30242], [22.02763, 42.30396], [21.99497, 42.31261], [21.94153, 42.3331], [21.92903, 42.33512], [21.91828, 42.33134], [21.88438, 42.30951], [21.87735, 42.30822], [21.83735, 42.30856], [21.8172, 42.30515], [21.71952, 42.26096], [21.70651, 42.25507], [21.69204, 42.24202], [21.67689, 42.23495], [21.65969, 42.23556], [21.62465, 42.24277], [21.57504, 42.24202], [21.56407, 42.24629], [21.55386, 42.27398], [21.51489, 42.31783], [21.51603, 42.34194], [21.53732, 42.35863], [21.59664, 42.37209], [21.61742, 42.38664], [21.62186, 42.40217], [21.6169, 42.43392], [21.61897, 42.44924], [21.62786, 42.46038], [21.66785, 42.49009], [21.71767, 42.55115], [21.7277, 42.57415], [21.72677, 42.57794], [21.71974, 42.58668], [21.71829, 42.59102], [21.72015, 42.59389], [21.72697, 42.59639], [21.72883, 42.59831], [21.73007, 42.60102], [21.73555, 42.62128], [21.73473, 42.62425], [21.74454, 42.62965], [21.75653, 42.63363], [21.76707, 42.63872], [21.77276, 42.6475], [21.76439, 42.66962], [21.74425, 42.67943], [21.73865, 42.68215], [21.70889, 42.68719], [21.68739, 42.68683], [21.64408, 42.67231], [21.62941, 42.6722], [21.61266, 42.68039], [21.58052, 42.71021], [21.56523, 42.72018], [21.54249, 42.72582], [21.44182, 42.7361], [21.4178, 42.73557], [21.40555, 42.7353], [21.3887, 42.73905], [21.37867, 42.74414], [21.37919, 42.747], [21.38395, 42.74998], [21.38715, 42.75496], [21.39056, 42.77041], [21.4041, 42.80398], [21.40834, 42.82075], [21.40842, 42.84174], [21.40844, 42.847], [21.39893, 42.85457], [21.37878, 42.85529], [21.34674, 42.86085], [21.3364, 42.86547], [21.31697, 42.87762], [21.30633, 42.88245], [21.29496, 42.88439], [21.2716, 42.88428], [21.26054, 42.88656], [21.23243, 42.9109], [21.22675, 42.94252], [21.2253, 42.97355], [21.20979, 42.99588], [21.19305, 42.99789], [21.17941, 42.99058], [21.16535, 42.9851], [21.14789, 42.99262], [21.13931, 43.00583], [21.12401, 43.05828], [21.10851, 43.08156], [21.09259, 43.09068], [21.02583, 43.09337], [21.00516, 43.09913], [20.99343, 43.10415], [20.91249, 43.1388], [20.83855, 43.17047], [20.83204, 43.17861], [20.83607, 43.17943], [20.83907, 43.19246], [20.84062, 43.20698], [20.84, 43.21209], [20.85147, 43.21982], [20.8616, 43.21752], [20.8647, 43.21734], [20.85509, 43.23145], [20.84847, 43.23814], [20.83845, 43.24586], [20.81943, 43.25741], [20.80972, 43.25961], [20.80682, 43.26026], [20.86853, 43.32588]]]}, "properties": {"id": "RnNO", "status": "validé", "pieces": [{"kind": "polygon", "ring": [[20.79712, 43.24994], [20.86853, 43.32588], [21.12122, 43.3738], [21.25854, 43.35783], [21.75293, 43.23794], [21.85181, 43.08575], [21.89575, 42.89698], [22.12646, 42.84869], [22.19238, 42.88491], [22.16492, 43.01352], [22.15942, 43.14988], [22.11548, 43.32988], [21.90125, 43.4456], [21.67053, 43.72005], [21.71448, 43.94582], [21.87927, 44.08797], [22.00012, 44.10375], [22.48901, 44.04063], [23.20313, 43.08174], [22.94495, 42.03423], [21.17065, 42.13204], [20.76965, 43.13786]]}, {"kind": "clip"}]}}, {"type": "Feature", "geometry": null, "properties": {"id": "SDu4", "status": "validé", "pieces": [{"kind": "country"}]}}, {"type": "Feature", "geometry": null, "properties": {"id": "V8kh", "status": "validé", "pieces": [{"kind": "country"}]}}, {"type": "Feature", "geometry": null, "properties": {"id": "VSVy", "status": "validé", "pieces": [{"kind": "country"}]}}, {"type": "Feature", "geometry": null, "properties": {"id": "VetX", "status": "rejeté", "pieces": []}}, {"type": "Feature", "geometry": {"type": "Polygon", "coordinates": [[[20.27527, 43.6009], [20.16541, 43.50141], [20.16541, 43.3818], [20.2478, 43.27396], [20.42908, 43.26196], [20.45654, 43.3299], [20.56091, 43.32591], [20.61035, 43.40973], [20.57739, 43.47352], [20.66528, 43.49743], [20.66528, 43.55714], [20.53345, 43.61283], [20.45105, 43.62078], [20.35217, 43.69625], [20.27527, 43.6009]]]}, "properties": {"id": "WCh2", "status": "validé", "pieces": [{"kind": "polygon", "ring": [[20.27527, 43.6009], [20.16541, 43.50141], [20.16541, 43.3818], [20.2478, 43.27396], [20.42908, 43.26196], [20.45654, 43.3299], [20.56091, 43.32591], [20.61035, 43.40973], [20.57739, 43.47352], [20.66528, 43.49743], [20.66528, 43.55714], [20.53345, 43.61283], [20.45105, 43.62078], [20.35217, 43.69625]]}]}}, {"type": "Feature", "geometry": null, "properties": {"id": "WqwF", "status": "validé", "pieces": [{"kind": "country"}]}}, {"type": "Feature", "geometry": {"type": "Polygon", "coordinates": [[[20.30273, 45.81416], [20.26978, 45.70689], [20.11597, 45.62631], [19.93469, 45.62247], [19.62708, 45.59174], [19.50623, 45.67621], [19.42383, 45.91427], [19.35791, 45.99825], [19.35352, 46.02961], [19.36216, 46.02965], [19.3789, 46.03368], [19.38913, 46.04153], [19.39657, 46.05156], [19.40474, 46.06024], [19.41724, 46.06432], [19.4283, 46.06551], [19.43688, 46.06799], [19.45373, 46.07755], [19.46086, 46.08447], [19.46592, 46.09197], [19.47295, 46.09869], [19.4993, 46.10861], [19.49672, 46.11688], [19.48928, 46.12602], [19.48752, 46.13424], [19.50199, 46.14561], [19.52525, 46.15641], [19.54995, 46.16416], [19.56845, 46.16643], [19.58974, 46.16597], [19.64782, 46.17388], [19.66932, 46.1731], [19.69009, 46.1684], [19.71189, 46.15871], [19.77298, 46.13155], [19.79045, 46.12907], [19.87365, 46.15299], [19.88895, 46.15739], [19.92915, 46.16354], [19.99312, 46.15941], [20.00926, 46.15307], [20.02808, 46.09283], [20.09949, 45.99755], [20.28076, 45.98229], [20.33579, 45.99901], [20.33863, 45.9928], [20.35393, 45.97668], [20.37098, 45.96779], [20.41026, 45.95559], [20.42054, 45.95074], [20.30273, 45.81416]]]}, "properties": {"id": "ajNO", "status": "validé", "pieces": [{"kind": "polygon", "ring": [[19.35791, 45.99825], [19.42383, 45.91427], [19.50623, 45.67621], [19.62708, 45.59174], [19.93469, 45.62247], [20.11597, 45.62631], [20.26978, 45.70689], [20.30273, 45.81416], [20.45105, 45.98611], [20.36865, 46.009], [20.28076, 45.98229], [20.09949, 45.99755], [20.02808, 46.09283], [19.98413, 46.23355], [19.32495, 46.23355]]}, {"kind": "clip"}]}}, {"type": "Feature", "geometry": null, "properties": {"id": "eWgo", "status": "validé", "pieces": [{"kind": "country"}]}}, {"type": "Feature", "geometry": {"type": "Polygon", "coordinates": [[[19.80835, 44.84157], [20.19287, 44.82599], [20.44556, 44.79483], [20.92896, 44.79483], [21.34858, 44.84823], [21.34643, 44.84564], [21.34281, 44.83194], [21.3598, 44.82666], [21.36059, 44.82641], [21.37857, 44.81665], [21.39593, 44.79024], [21.41216, 44.78481], [21.49722, 44.77804], [21.55841, 44.78166], [21.56874, 44.77956], [21.31348, 44.55274], [20.87402, 44.4117], [20.46753, 44.27819], [19.74243, 44.27033], [19.1089, 44.36407], [19.10719, 44.38272], [19.11576, 44.4036], [19.12961, 44.41615], [19.14139, 44.43083], [19.14336, 44.45822], [19.12734, 44.50256], [19.12992, 44.51832], [19.16527, 44.52669], [19.17312, 44.53144], [19.17964, 44.53826], [19.18532, 44.54622], [19.18728, 44.5533], [19.18625, 44.56932], [19.18832, 44.57604], [19.19328, 44.58059], [19.20413, 44.58514], [19.20868, 44.58839], [19.2557, 44.64565], [19.27007, 44.67562], [19.27761, 44.68487], [19.28826, 44.69304], [19.30841, 44.70513], [19.31802, 44.71546], [19.32836, 44.73396], [19.35765, 44.83396], [19.80835, 44.84157]]]}, "properties": {"id": "enVL", "status": "validé", "pieces": [{"kind": "polygon", "ring": [[19.34692, 44.83378], [19.80835, 44.84157], [20.19287, 44.82599], [20.44556, 44.79483], [20.92896, 44.79483], [21.35742, 44.84935], [21.66504, 44.8727], [21.57715, 44.78703], [21.31348, 44.55274], [20.87402, 44.4117], [20.46753, 44.27819], [19.74243, 44.27033], [19.10522, 44.36462], [18.87451, 44.64657]]}, {"kind": "clip"}]}}, {"type": "Feature", "geometry": {"type": "Polygon", "coordinates": [[[19.47052, 45.29064], [19.88251, 45.32539], [20.10498, 45.24233], [20.10498, 45.17657], [19.97314, 45.1514], [19.6875, 45.16302], [19.40662, 45.19156], [19.40784, 45.20313], [19.3973, 45.22329], [19.37807, 45.22959], [19.28975, 45.23631], [19.25991, 45.24297], [19.21676, 45.25807], [19.21783, 45.26166], [19.47052, 45.29064]]]}, "properties": {"id": "kehq", "status": "validé", "pieces": [{"kind": "polygon", "ring": [[19.21783, 45.26166], [19.47052, 45.29064], [19.88251, 45.32539], [20.10498, 45.24233], [20.10498, 45.17657], [19.97314, 45.1514], [19.6875, 45.16302], [19.40186, 45.19205], [19.20685, 45.22493]]}, {"kind": "clip"}]}}, {"type": "Feature", "geometry": null, "properties": {"id": "mTBk", "status": "rejeté", "pieces": []}}, {"type": "Feature", "geometry": null, "properties": {"id": "qGEx", "status": "validé", "pieces": [{"kind": "country"}]}}, {"type": "Feature", "geometry": {"type": "Polygon", "coordinates": [[[19.17426, 44.92542], [19.08455, 44.87897], [19.06843, 44.87483], [19.04776, 44.87271], [19.01582, 44.86563], [18.99432, 44.89483], [18.99143, 44.91493], [19.01841, 44.92568], [19.03194, 44.92263], [19.0521, 44.90698], [19.06667, 44.90568], [19.07866, 44.91085], [19.08786, 44.91933], [19.10357, 44.93824], [19.11308, 44.94243], [19.12455, 44.94594], [19.13168, 44.95318], [19.12765, 44.96842], [19.11855, 44.97555], [19.09809, 44.97002], [19.08724, 44.9771], [19.08517, 44.98728], [19.08848, 44.99948], [19.09323, 45.01152], [19.0954, 45.02092], [19.09427, 45.03141], [19.086, 45.06092], [19.08228, 45.08495], [19.07918, 45.09461], [19.07153, 45.10707], [19.06409, 45.11358], [19.05417, 45.12061], [19.04621, 45.12836], [19.04486, 45.13725], [19.06006, 45.14686], [19.11607, 45.14288], [19.13767, 45.14603], [19.14171, 45.16215], [19.12879, 45.18107], [19.12186, 45.19579], [19.14388, 45.19952], [19.15576, 45.19497], [19.17457, 45.1758], [19.18532, 45.16804], [19.20454, 45.16288], [19.22594, 45.16195], [19.26779, 45.16582], [19.27276, 45.16835], [19.27575, 45.17285], [19.27947, 45.17724], [19.28671, 45.17952], [19.29136, 45.17771], [19.29942, 45.16898], [19.30428, 45.16655], [19.39068, 45.16934], [19.39393, 45.17162], [19.40536, 45.17967], [19.40784, 45.20313], [19.3973, 45.22329], [19.37807, 45.22959], [19.28975, 45.23631], [19.25991, 45.24297], [19.19718, 45.26492], [19.15848, 45.27617], [19.10415, 45.29873], [19.09881, 45.31987], [19.09623, 45.32912], [19.08296, 45.33922], [19.0672, 45.34343], [19.05294, 45.3454], [19.03024, 45.34514], [19.01416, 45.35342], [19.00752, 45.35953], [18.99643, 45.36209], [18.99569, 45.36226], [18.97749, 45.37121], [18.97553, 45.39113], [18.99735, 45.39977], [19.02262, 45.40239], [19.03132, 45.4162], [19.01643, 45.43356], [19.00228, 45.44369], [18.99714, 45.45552], [18.99639, 45.47382], [19.00962, 45.49867], [19.01793, 45.49781], [19.07721, 45.49164], [19.10626, 45.51164], [19.09509, 45.52606], [19.08228, 45.53117], [19.06781, 45.5334], [19.05096, 45.53893], [19.04094, 45.54503], [19.03649, 45.54947], [19.03339, 45.55464], [19.02719, 45.5626], [19.01809, 45.5674], [19.00921, 45.56549], [19.00063, 45.5612], [18.98316, 45.55474], [18.97314, 45.54626], [18.96022, 45.53913], [18.94172, 45.53893], [18.932, 45.54554], [18.91205, 45.56823], [18.90358, 45.57308], [18.90699, 45.58166], [18.90823, 45.60042], [18.91237, 45.61923], [18.92446, 45.62771], [18.93541, 45.63339], [18.9629, 45.66011], [18.96849, 45.66874], [18.9627, 45.68305], [18.94813, 45.69204], [18.93107, 45.69892], [18.91733, 45.70656], [18.90895, 45.71943], [18.90482, 45.74977], [18.90017, 45.76491], [18.87113, 45.78997], [18.86399, 45.79855], [18.8487, 45.80956], [18.84498, 45.81571], [18.84673, 45.81999], [18.85035, 45.82423], [18.85242, 45.83007], [18.85531, 45.85736], [18.88715, 45.85948], [18.89975, 45.86139], [18.90699, 45.86795], [18.90399, 45.8757], [18.89345, 45.88387], [18.87288, 45.89524], [18.88198, 45.90263], [18.88983, 45.9079], [18.90699, 45.9157], [18.90131, 45.9312], [18.9627, 45.92795], [18.98182, 45.92185], [18.9875, 45.92381], [18.98874, 45.92702], [18.98647, 45.93125], [18.97882, 45.93978], [18.97768, 45.9435], [18.97872, 45.94717], [18.98182, 45.95079], [19.00559, 45.96257], [19.03091, 45.96004], [19.04858, 45.96345], [19.04972, 45.99311], [19.06543, 46.01203], [19.08848, 46.01885], [19.11101, 46.01295], [19.12579, 45.99327], [19.12579, 45.99311], [19.14801, 45.98407], [19.23565, 45.97771], [19.26345, 45.98143], [19.27482, 45.99161], [19.27947, 46.00381], [19.28692, 46.01616], [19.29831, 46.02212], [19.30697, 46.02665], [19.32516, 46.02949], [19.36216, 46.02965], [19.3789, 46.03368], [19.38913, 46.04153], [19.39657, 46.05156], [19.40474, 46.06024], [19.41724, 46.06432], [19.4283, 46.06551], [19.43688, 46.06799], [19.45373, 46.07755], [19.46086, 46.08447], [19.46592, 46.09197], [19.47295, 46.09869], [19.4993, 46.10861], [19.49672, 46.11688], [19.48928, 46.12602], [19.48752, 46.13424], [19.50199, 46.14561], [19.52525, 46.15641], [19.54995, 46.16416], [19.56845, 46.16643], [19.58974, 46.16597], [19.64782, 46.17388], [19.66932, 46.1731], [19.69009, 46.1684], [19.71189, 46.15871], [19.77298, 46.13155], [19.79045, 46.12907], [19.87365, 46.15299], [19.88895, 46.15739], [19.92915, 46.16354], [19.99312, 46.15941], [20.03498, 46.14297], [20.0634, 46.1453], [20.08862, 46.15413], [20.09844, 46.15496], [20.11477, 46.15222], [20.12015, 46.14923], [20.13038, 46.13936], [20.13803, 46.13646], [20.14536, 46.13708], [20.17048, 46.1455], [20.18846, 46.14039], [20.24283, 46.10809], [20.30567, 46.05357], [20.31765, 46.03859], [20.33863, 45.9928], [20.35393, 45.97668], [20.37098, 45.96779], [20.41026, 45.95559], [20.42907, 45.94671], [20.48167, 45.9127], [20.49986, 45.90666], [20.538, 45.90371], [20.55671, 45.89844], [20.57211, 45.88769], [20.60528, 45.84614], [20.61231, 45.84149], [20.62968, 45.83328], [20.6367, 45.82702], [20.64011, 45.8187], [20.64229, 45.79834], [20.64349, 45.79514], [20.6459, 45.78873], [20.65562, 45.77731], [20.67856, 45.75664], [20.68807, 45.7431], [20.70006, 45.7354], [20.71339, 45.73333], [20.72683, 45.73618], [20.73944, 45.74341], [20.74533, 45.75499], [20.75411, 45.76356], [20.76517, 45.76677], [20.77747, 45.76232], [20.78574, 45.75256], [20.78553, 45.74341], [20.7816, 45.73395], [20.77912, 45.72367], [20.77995, 45.67168], [20.77726, 45.65752], [20.77323, 45.64889], [20.76217, 45.6306], [20.75442, 45.60559], [20.75804, 45.58926], [20.78739, 45.55365], [20.80021, 45.5305], [20.79762, 45.5165], [20.78316, 45.50606], [20.76073, 45.49335], [20.76713, 45.47934], [20.7816, 45.47257], [20.79948, 45.46854], [20.81602, 45.46286], [20.83039, 45.45252], [20.86305, 45.41873], [20.92764, 45.37749], [20.96619, 45.34157], [20.98149, 45.33279], [21.01667, 45.32148], [21.06396, 45.30628], [21.0743, 45.30054], [21.08278, 45.29367], [21.09156, 45.28809], [21.10334, 45.28607], [21.11306, 45.28933], [21.12918, 45.30189], [21.13941, 45.3037], [21.15564, 45.29517], [21.18974, 45.25956], [21.20607, 45.24592], [21.23925, 45.22939], [21.25713, 45.22411], [21.2993, 45.22318], [21.40555, 45.19967], [21.43376, 45.18882], [21.45939, 45.17404], [21.48439, 45.1527], [21.49329, 45.1451], [21.49784, 45.13187], [21.49412, 45.11931], [21.48151, 45.11156], [21.469, 45.11105], [21.45857, 45.10733], [21.44999, 45.10102], [21.44244, 45.09291], [21.44379, 45.09146], [21.44441, 45.08526], [21.44441, 45.07787], [21.44379, 45.07291], [21.441, 45.06872], [21.43252, 45.06149], [21.42952, 45.0573], [21.4256, 45.04325], [21.42508, 45.03622], [21.42188, 45.03141], [21.40927, 45.02397], [21.39883, 45.02139], [21.3733, 45.0201], [21.36338, 45.01653], [21.35614, 45.00857], [21.35139, 44.99824], [21.35346, 44.98981], [21.36699, 44.98728], [21.38395, 44.98666], [21.38705, 44.98154], [21.38456, 44.97493], [21.38518, 44.9695], [21.40844, 44.95834], [21.4565, 44.95235], [21.48151, 44.94356], [21.51634, 44.9339], [21.53102, 44.92465], [21.53908, 44.90847], [21.53629, 44.8893], [21.52213, 44.88078], [21.48151, 44.87261], [21.4534, 44.86956], [21.39531, 44.87163], [21.36855, 44.86486], [21.35552, 44.85659], [21.34643, 44.84564], [21.34281, 44.83194], [21.3598, 44.82666], [21.31905, 44.82505], [21.26949, 44.81368], [21.22247, 44.79668], [21.18883, 44.77823], [21.17947, 44.76808], [21.17229, 44.75687], [21.16381, 44.74782], [21.15095, 44.7441], [21.12573, 44.74558], [21.11229, 44.7448], [21.10284, 44.74069], [21.07788, 44.72651], [21.03684, 44.72201], [20.98956, 44.71679], [20.88321, 44.67266], [20.82647, 44.66093], [20.79478, 44.66468], [20.76363, 44.66837], [20.74198, 44.67917], [20.72033, 44.6962], [20.68483, 44.73353], [20.67201, 44.74397], [20.64452, 44.75581], [20.6333, 44.76522], [20.62793, 44.77705], [20.62819, 44.78857], [20.63863, 44.83735], [20.6364, 44.84945], [20.62369, 44.85459], [20.59496, 44.858], [20.59521, 44.8604], [20.35767, 44.78744], [20.09462, 44.70963], [20.09411, 44.70816], [20.04548, 44.69026], [20.02719, 44.67891], [20.00662, 44.6617], [19.97338, 44.64119], [19.94043, 44.63178], [19.92074, 44.64791], [19.93081, 44.65928], [19.98962, 44.6786], [20.01011, 44.68887], [19.98265, 44.69591], [19.91397, 44.69545], [19.88968, 44.70687], [19.87278, 44.71974], [19.84627, 44.73348], [19.79661, 44.75157], [19.7453, 44.75224], [19.72897, 44.75777], [19.72033, 44.7645], [19.71543, 44.77196], [19.71134, 44.78005], [19.70504, 44.78878], [19.70065, 44.80759], [19.71, 44.83022], [19.75325, 44.8921], [19.75868, 44.90494], [19.75686, 44.91541], [19.74896, 44.91843], [19.72209, 44.92102], [19.70023, 44.9297], [19.68308, 44.93187], [19.67347, 44.93448], [19.64468, 44.91272], [19.64137, 44.91321], [19.63337, 44.91394], [19.61238, 44.91435], [19.60427, 44.91425], [19.60034, 44.91399], [19.59657, 44.91347], [19.58954, 44.91146], [19.57208, 44.90515], [19.56236, 44.90195], [19.55828, 44.90089], [19.55523, 44.90055], [19.55208, 44.9005], [19.54898, 44.90076], [19.54143, 44.9019], [19.53167, 44.90288], [19.5265, 44.90399], [19.52035, 44.90621], [19.51761, 44.90779], [19.50841, 44.91399], [19.50603, 44.91533], [19.50355, 44.91637], [19.50056, 44.91693], [19.49916, 44.91693], [19.49632, 44.91634], [19.49342, 44.91528], [19.48919, 44.91337], [19.48655, 44.91174], [19.48257, 44.90867], [19.47792, 44.90417], [19.47394, 44.90138], [19.47126, 44.90019], [19.46908, 44.89967], [19.46692, 44.89957], [19.46495, 44.89983], [19.46087, 44.90107], [19.4588, 44.90195], [19.45627, 44.9036], [19.45441, 44.90563], [19.45146, 44.9119], [19.44748, 44.91817], [19.44443, 44.92449], [19.44294, 44.92634], [19.43896, 44.92975], [19.43358, 44.93321], [19.42211, 44.93915], [19.41932, 44.94029], [19.41446, 44.94156], [19.41126, 44.94189], [19.40821, 44.94189], [19.40609, 44.94163], [19.39565, 44.93179], [19.39751, 44.9235], [19.38635, 44.91541], [19.37157, 44.91386], [19.34057, 44.92153], [19.32486, 44.92226], [19.34124, 44.90967], [19.359, 44.90113], [19.35698, 44.89588], [19.35317, 44.89902], [19.35296, 44.89809], [19.35027, 44.897], [19.34014, 44.89623], [19.33022, 44.89871], [19.31017, 44.91235], [19.30128, 44.91235], [19.29301, 44.9094], [19.28382, 44.90837], [19.23948, 44.91514], [19.22955, 44.91374], [19.21188, 44.90837], [19.20186, 44.90837], [19.1969, 44.91318], [19.19317, 44.92155], [19.18687, 44.92754], [19.17426, 44.92542]], [[20.08719, 44.78898], [20.08517, 44.78764], [20.08259, 44.78454], [20.08176, 44.78314], [20.08093, 44.78038], [20.08068, 44.77746], [20.08093, 44.77457], [20.08176, 44.77177], [20.08269, 44.77018], [20.08404, 44.76873], [20.0877, 44.76645], [20.09153, 44.76475], [20.09562, 44.76346], [20.0964, 44.78961], [20.0938, 44.78981], [20.09096, 44.78981], [20.08894, 44.78955], [20.08719, 44.78898]]]}, "properties": {"id": "un4M", "status": "validé", "pieces": [{"kind": "admin1", "code": "SRB-281"}, {"kind": "admin1", "code": "SRB-1060"}, {"kind": "admin1", "code": "SRB-1061"}, {"kind": "admin1", "code": "SRB-275"}, {"kind": "admin1", "code": "SRB-1059"}, {"kind": "admin1", "code": "SRB-274"}, {"kind": "admin1", "code": "SRB-273"}, {"kind": "polygon", "ring": [[20.09399, 44.70944], [20.35767, 44.78744], [20.68726, 44.88867], [20.43457, 45.26092], [20.10498, 45.0751]]}, {"kind": "clip"}]}}, {"type": "Feature", "geometry": null, "properties": {"id": "w6kX", "status": "rejeté", "pieces": []}}, {"type": "Feature", "geometry": {"type": "Polygon", "coordinates": [[[21.34918, 45.04937], [21.34918, 45.14191], [21.18988, 45.14191], [21.18988, 45.04937], [21.34918, 45.04937]]]}, "properties": {"id": "yQCt", "status": "validé", "pieces": [{"kind": "rect", "bounds": [21.18988, 45.04937, 21.34918, 45.14191]}]}}]}