{"type": "FeatureCollection", "features": [{"type": "Feature", "geometry": null, "properties": {"id": "1ukT", "status": "validé", "pieces": [{"kind": "country"}]}}, {"type": "Feature", "geometry": {"type": "Polygon", "coordinates": [[[29.24423, -1.70103], [29.28131, -1.7735], [29.46533, -1.64452], [29.63837, -1.55121], [29.91028, -1.46613], [29.88281, -1.36184], [29.83612, -1.32067], [29.81415, -1.30969], [29.78943, -1.36733], [29.7345, -1.33714], [29.66858, -1.3838], [29.56696, -1.39477], [29.45435, -1.49907], [29.36096, -1.49907], [29.27856, -1.61982], [29.24423, -1.70103]]]}, "properties": {"id": "2JiY", "status": "validé", "pieces": [{"kind": "polygon", "ring": [[29.24423, -1.70103], [29.28131, -1.7735], [29.46533, -1.64452], [29.63837, -1.55121], [29.91028, -1.46613], [29.88281, -1.36184], [29.83612, -1.32067], [29.81415, -1.30969], [29.78943, -1.36733], [29.7345, -1.33714], [29.66858, -1.3838], [29.56696, -1.39477], [29.45435, -1.49907], [29.36096, -1.49907], [29.27856, -1.61982]]}]}}, {"type": "Feature", "geometry": {"type": "Polygon", "coordinates": [[[30.70404, -1.95851], [30.68825, -1.97017], [30.6443, -1.98046], [30.62439, -1.97017], [30.62851, -1.92489], [30.6498, -1.88236], [30.6752, -1.85149], [30.7061, -1.85424], [30.71159, -1.8117], [30.70473, -1.77329], [30.72258, -1.7431], [30.75554, -1.75271], [30.76035, -1.7726], [30.76172, -1.81445], [30.70404, -1.95851]]]}, "properties": {"id": "2MuC", "status": "validé", "pieces": [{"kind": "polygon", "ring": [[30.70404, -1.95851], [30.68825, -1.97017], [30.6443, -1.98046], [30.62439, -1.97017], [30.62851, -1.92489], [30.6498, -1.88236], [30.6752, -1.85149], [30.7061, -1.85424], [30.71159, -1.8117], [30.70473, -1.77329], [30.72258, -1.7431], [30.75554, -1.75271], [30.76035, -1.7726], [30.76172, -1.81445]]}]}}, {"type": "Feature", "geometry": {"type": "Polygon", "coordinates": [[[29.77364, -2.65323], [29.77364, -2.57918], [29.72265, -2.57918], [29.72265, -2.65323], [29.77364, -2.65323]]]}, "properties": {"id": "5bSi", "status": "validé", "pieces": [{"kind": "rect", "bounds": [29.72265, -2.65323, 29.77364, -2.57918]}]}}, {"type": "Feature", "geometry": null, "properties": {"id": "6v8t", "status": "validé", "pieces": [{"kind": "country"}]}}, {"type": "Feature", "geometry": null, "properties": {"id": "840u", "status": "rejeté", "pieces": []}}, {"type": "Feature", "geometry": {"type": "MultiPolygon", "coordinates": [[[[29.5285, -2.81886], [29.3692, -2.82434], [29.2868, -2.62415], [29.05609, -2.60495], [29.05609, -2.75031], [28.90778, -2.67078], [28.85834, -2.54187], [28.87207, -2.4541], [28.88306, -2.40199], [28.9682, -2.37455], [29.0918, -2.28677], [29.23462, -2.14686], [29.31152, -2.18527], [29.45984, -2.18252], [29.61914, -2.17978], [29.69604, -2.25111], [29.69879, -2.53364], [29.75098, -2.60495], [29.66858, -2.77773], [29.5285, -2.81886]]], [[[29.20715, -1.75174], [29.24835, -1.68314], [29.36371, -1.51573], [29.44061, -1.49652], [29.63287, -1.59532], [29.69879, -1.74351], [29.47632, -1.77644], [29.62189, -2.07278], [29.37744, -2.03163], [29.25659, -1.97401], [29.20715, -1.75174]]], [[[30.24811, -1.69016], [30.27695, -1.81639], [30.23849, -1.84109], [30.13687, -1.78621], [30.10803, -1.70388], [30.10117, -1.65174], [30.08881, -1.61195], [30.02975, -1.61881], [30.02289, -1.57078], [30.02151, -1.5255], [30.03937, -1.52824], [30.01465, -1.41983], [30.07645, -1.3869], [30.17807, -1.5255], [30.24811, -1.69016]]]]}, "properties": {"id": "G0Ol", "status": "validé", "pieces": [{"kind": "polygon", "ring": [[30.07645, -1.3869], [30.17807, -1.5255], [30.24811, -1.69016], [30.27695, -1.81639], [30.23849, -1.84109], [30.13687, -1.78621], [30.10803, -1.70388], [30.10117, -1.65174], [30.08881, -1.61195], [30.02975, -1.61881], [30.02289, -1.57078], [30.02151, -1.5255], [30.03937, -1.52824], [30.01465, -1.41983]]}, {"kind": "polygon", "ring": [[29.66858, -2.77773], [29.75098, -2.60495], [29.69879, -2.53364], [29.69604, -2.25111], [29.61914, -2.17978], [29.45984, -2.18252], [29.31152, -2.18527], [29.23462, -2.14686], [29.0918, -2.28677], [28.9682, -2.37455], [28.88306, -2.40199], [28.87207, -2.4541], [28.85834, -2.54187], [28.90778, -2.67078], [29.05609, -2.75031], [29.05609, -2.60495], [29.2868, -2.62415], [29.3692, -2.82434], [29.5285, -2.81886]]}, {"kind": "polygon", "ring": [[29.37744, -2.03163], [29.62189, -2.07278], [29.47632, -1.77644], [29.69879, -1.74351], [29.63287, -1.59532], [29.44061, -1.49652], [29.36371, -1.51573], [29.24835, -1.68314], [29.20715, -1.75174], [29.25659, -1.97401]]}]}}, {"type": "Feature", "geometry": null, "properties": {"id": "GGAi", "status": "validé", "pieces": [{"kind": "country"}]}}, {"type": "Feature", "geometry": {"type": "Polygon", "coordinates": [[[30.28931, -1.22723], [30.24261, -1.29036], [30.22614, -1.35623], [30.22064, -1.44131], [30.30304, -1.54012], [30.42114, -1.55658], [30.47333, -1.53188], [30.45135, -1.43308], [30.48431, -1.37544], [30.49805, -1.29859], [30.47058, -1.21076], [30.42114, -1.14763], [30.35797, -1.18331], [30.28931, -1.22723]]]}, "properties": {"id": "Hb5P", "status": "validé", "pieces": [{"kind": "polygon", "ring": [[30.28931, -1.22723], [30.24261, -1.29036], [30.22614, -1.35623], [30.22064, -1.44131], [30.30304, -1.54012], [30.42114, -1.55658], [30.47333, -1.53188], [30.45135, -1.43308], [30.48431, -1.37544], [30.49805, -1.29859], [30.47058, -1.21076], [30.42114, -1.14763], [30.35797, -1.18331]]}]}}, {"type": "Feature", "geometry": null, "properties": {"id": "Hh5T", "status": "validé", "pieces": [{"kind": "country"}]}}, {"type": "Feature", "geometry": null, "properties": {"id": "J31h", "status": "validé", "pieces": [{"kind": "country"}]}}, {"type": "Feature", "geometry": null, "properties": {"id": "MTTM", "status": "validé", "pieces": [{"kind": "country"}]}}, {"type": "Feature", "geometry": null, "properties": {"id": "QYX7", "status": "validé", "pieces": [{"kind": "country"}]}}, {"type": "Feature", "geometry": null, "properties": {"id": "SBDN", "status": "validé", "pieces": [{"kind": "country"}]}}, {"type": "Feature", "geometry": null, "properties": {"id": "UOlK", "status": "validé", "pieces": [{"kind": "country"}]}}, {"type": "Feature", "geometry": {"type": "Polygon", "coordinates": [[[30.20485, -2.01543], [30.20485, -1.90293], [30.01465, -1.90293], [30.01465, -2.01543], [30.20485, -2.01543]]]}, "properties": {"id": "XCdi", "status": "validé", "pieces": [{"kind": "rect", "bounds": [30.01465, -2.01543, 30.20485, -1.90293]}]}}, {"type": "Feature", "geometry": {"type": "Polygon", "coordinates": [[[29.33624, -1.89883], [29.38362, -1.99075], [29.38225, -2.03396], [29.40491, -2.0518], [29.42482, -2.05043], [29.40353, -2.02025], [29.41246, -1.98869], [29.38774, -1.93039], [29.3644, -1.89197], [29.35684, -1.88717], [29.33624, -1.89883]]]}, "properties": {"id": "Zc2V", "status": "validé", "pieces": [{"kind": "polygon", "ring": [[29.33624, -1.89883], [29.38362, -1.99075], [29.38225, -2.03396], [29.40491, -2.0518], [29.42482, -2.05043], [29.40353, -2.02025], [29.41246, -1.98869], [29.38774, -1.93039], [29.3644, -1.89197], [29.35684, -1.88717]]}]}}, {"type": "Feature", "geometry": null, "properties": {"id": "cXjQ", "status": "validé", "pieces": [{"kind": "country"}]}}, {"type": "Feature", "geometry": null, "properties": {"id": "fT6w", "status": "rejeté", "pieces": []}}, {"type": "Feature", "geometry": null, "properties": {"id": "g5Yq", "status": "validé", "pieces": [{"kind": "country"}]}}, {"type": "Feature", "geometry": null, "properties": {"id": "hmIS", "status": "validé", "pieces": [{"kind": "country"}]}}, {"type": "Feature", "geometry": null, "properties": {"id": "i3Ur", "status": "validé", "pieces": [{"kind": "country"}]}}, {"type": "Feature", "geometry": {"type": "Polygon", "coordinates": [[[29.72763, -2.05916], [29.68643, -1.99879], [29.62051, -1.92059], [29.60541, -1.83416], [29.51614, -1.74909], [29.48868, -1.64755], [29.49829, -1.61325], [29.52164, -1.60913], [29.52988, -1.66265], [29.5752, -1.67774], [29.56009, -1.74909], [29.62875, -1.79025], [29.63699, -1.86434], [29.63837, -1.89316], [29.67957, -1.92745], [29.70428, -1.96587], [29.73175, -2.00565], [29.75784, -2.05916], [29.72763, -2.05916]]]}, "properties": {"id": "jFGS", "status": "validé", "pieces": [{"kind": "polygon", "ring": [[29.72763, -2.05916], [29.68643, -1.99879], [29.62051, -1.92059], [29.60541, -1.83416], [29.51614, -1.74909], [29.48868, -1.64755], [29.49829, -1.61325], [29.52164, -1.60913], [29.52988, -1.66265], [29.5752, -1.67774], [29.56009, -1.74909], [29.62875, -1.79025], [29.63699, -1.86434], [29.63837, -1.89316], [29.67957, -1.92745], [29.70428, -1.96587], [29.73175, -2.00565], [29.75784, -2.05916]]}]}}, {"type": "Feature", "geometry": null, "properties": {"id": "kgGt", "status": "validé", "pieces": [{"kind": "country"}]}}, {"type": "Feature", "geometry": null, "properties": {"id": "mjV9", "status": "validé", "pieces": [{"kind": "country"}]}}, {"type": "Feature", "geometry": {"type": "Polygon", "coordinates": [[[29.5649, -2.07652], [29.6212, -2.08544], [29.63356, -2.07515], [29.60953, -2.04086], [29.55116, -2.05457], [29.5649, -2.07652]]]}, "properties": {"id": "pMGj", "status": "validé", "pieces": [{"kind": "polygon", "ring": [[29.5649, -2.07652], [29.6212, -2.08544], [29.63356, -2.07515], [29.60953, -2.04086], [29.55116, -2.05457]]}]}}, {"type": "Feature", "geometry": null, "properties": {"id": "qGPQ", "status": "rejeté", "pieces": []}}, {"type": "Feature", "geometry": null, "properties": {"id": "qx8o", "status": "validé", "pieces": [{"kind": "country"}]}}, {"type": "Feature", "geometry": {"type": "Polygon", "coordinates": [[[29.3644, -2.60337], [29.3644, -2.46897], [29.18243, -2.46897], [29.18243, -2.60337], [29.3644, -2.60337]]]}, "properties": {"id": "rAil", "status": "validé", "pieces": [{"kind": "rect", "bounds": [29.18243, -2.60337, 29.3644, -2.46897]}]}}, {"type": "Feature", "geometry": {"type": "Polygon", "coordinates": [[[29.62498, -2.08722], [29.65588, -2.09236], [29.69055, -2.09477], [29.69742, -2.07213], [29.72591, -2.08448], [29.73312, -2.06939], [29.75716, -2.07865], [29.76368, -2.07384], [29.72866, -2.06184], [29.71973, -2.06801], [29.72179, -2.07625], [29.69536, -2.06013], [29.68369, -2.0759], [29.68128, -2.08208], [29.65176, -2.08036], [29.63425, -2.07693], [29.62498, -2.08722]]]}, "properties": {"id": "rl93", "status": "validé", "pieces": [{"kind": "polygon", "ring": [[29.62498, -2.08722], [29.65588, -2.09236], [29.69055, -2.09477], [29.69742, -2.07213], [29.72591, -2.08448], [29.73312, -2.06939], [29.75716, -2.07865], [29.76368, -2.07384], [29.72866, -2.06184], [29.71973, -2.06801], [29.72179, -2.07625], [29.69536, -2.06013], [29.68369, -2.0759], [29.68128, -2.08208], [29.65176, -2.08036], [29.63425, -2.07693]]}]}}, {"type": "Feature", "geometry": {"type": "Polygon", "coordinates": [[[30.2433, -1.85282], [30.17807, -1.82606], [30.16434, -1.80137], [30.13275, -1.79245], [30.1355, -1.76638], [30.15335, -1.77804], [30.18219, -1.79451], [30.21515, -1.82606], [30.25085, -1.83087], [30.2433, -1.85282]]]}, "properties": {"id": "vMyW", "status": "validé", "pieces": [{"kind": "polygon", "ring": [[30.2433, -1.85282], [30.17807, -1.82606], [30.16434, -1.80137], [30.13275, -1.79245], [30.1355, -1.76638], [30.15335, -1.77804], [30.18219, -1.79451], [30.21515, -1.82606], [30.25085, -1.83087]]}]}}, {"type": "Feature", "geometry": null, "properties": {"id": "w8kf", "status": "validé", "pieces": [{"kind": "country"}]}}]}