{"type": "FeatureCollection", "features": [{"type": "Feature", "geometry": null, "properties": {"id": "9Mue", "status": "validé", "pieces": [{"kind": "country"}]}}, {"type": "Feature", "geometry": {"type": "Polygon", "coordinates": [[[103.82166, 1.23968], [103.8002, 1.26301], [103.82286, 1.26113], [103.82612, 1.25564], [103.84912, 1.25358], [103.84998, 1.24346], [103.83385, 1.23093], [103.82166, 1.23968]]]}, "properties": {"id": "KPH6", "status": "validé", "pieces": [{"kind": "polygon", "ring": [[103.82166, 1.23968], [103.8002, 1.26301], [103.82286, 1.26113], [103.82612, 1.25564], [103.84912, 1.25358], [103.84998, 1.24346], [103.83385, 1.23093]]}]}}, {"type": "Feature", "geometry": {"type": "Polygon", "coordinates": [[[103.86084, 1.22029], [103.85728, 1.22505], [103.85895, 1.22643], [103.86376, 1.22355], [103.86367, 1.21973], [103.86084, 1.22029]]]}, "properties": {"id": "LCE7", "status": "validé", "pieces": [{"kind": "polygon", "ring": [[103.86084, 1.22029], [103.85728, 1.22505], [103.85895, 1.22643], [103.86376, 1.22355], [103.86367, 1.21973]]}]}}, {"type": "Feature", "geometry": null, "properties": {"id": "NOTm", "status": "validé", "pieces": [{"kind": "country"}]}}, {"type": "Feature", "geometry": null, "properties": {"id": "RNhX", "status": "validé", "pieces": [{"kind": "country"}]}}, {"type": "Feature", "geometry": {"type": "Polygon", "coordinates": [[[103.95624, 1.39482], [103.9183, 1.4221], [103.93015, 1.4293], [103.95332, 1.42415], [103.98302, 1.4221], [103.99366, 1.41901], [103.99504, 1.40203], [103.95624, 1.39482]]]}, "properties": {"id": "SP7M", "status": "validé", "pieces": [{"kind": "polygon", "ring": [[103.95624, 1.39482], [103.9183, 1.4221], [103.93015, 1.4293], [103.95332, 1.42415], [103.98302, 1.4221], [103.99366, 1.41901], [103.99504, 1.40203]]}]}}, {"type": "Feature", "geometry": {"type": "Polygon", "coordinates": [[[103.8511, 1.21108], [103.84037, 1.22224], [103.84475, 1.23699], [103.86191, 1.2369], [103.86483, 1.21863], [103.8511, 1.21108]]]}, "properties": {"id": "TWrN", "status": "validé", "pieces": [{"kind": "polygon", "ring": [[103.8511, 1.21108], [103.84037, 1.22224], [103.84475, 1.23699], [103.86191, 1.2369], [103.86483, 1.21863]]}]}}, {"type": "Feature", "geometry": null, "properties": {"id": "U9vA", "status": "validé", "pieces": [{"kind": "country"}]}}, {"type": "Feature", "geometry": null, "properties": {"id": "dONA", "status": "validé", "pieces": [{"kind": "country"}]}}, {"type": "Feature", "geometry": null, "properties": {"id": "gJnM", "status": "validé", "pieces": [{"kind": "country"}]}}, {"type": "Feature", "geometry": null, "properties": {"id": "hHxa", "status": "validé", "pieces": [{"kind": "country"}]}}, {"type": "Feature", "geometry": null, "properties": {"id": "hevr", "status": "validé", "pieces": [{"kind": "country"}]}}, {"type": "Feature", "geometry": null, "properties": {"id": "mfCc", "status": "validé", "pieces": [{"kind": "country"}]}}, {"type": "Feature", "geometry": {"type": "Polygon", "coordinates": [[[103.63678, 1.35362], [103.66905, 1.32823], [103.6488, 1.30216], [103.65395, 1.28226], [103.65154, 1.19854], [103.58906, 1.2181], [103.61687, 1.3049], [103.62236, 1.32514], [103.63678, 1.35362]]]}, "properties": {"id": "nZF6", "status": "validé", "pieces": [{"kind": "polygon", "ring": [[103.63678, 1.35362], [103.66905, 1.32823], [103.6488, 1.30216], [103.65395, 1.28226], [103.65154, 1.19854], [103.58906, 1.2181], [103.61687, 1.3049], [103.62236, 1.32514]]}]}}, {"type": "Feature", "geometry": null, "properties": {"id": "oACN", "status": "validé", "pieces": [{"kind": "country"}]}}, {"type": "Feature", "geometry": null, "properties": {"id": "sB3c", "status": "validé", "pieces": [{"kind": "country"}]}}, {"type": "Feature", "geometry": null, "properties": {"id": "su01", "status": "validé", "pieces": [{"kind": "country"}]}}]}