{"type": "FeatureCollection", "features": [{"type": "Feature", "geometry": {"type": "Polygon", "coordinates": [[[15.57999, 45.88253], [15.45502, 45.86055], [15.3273, 45.80794], [15.26138, 45.78976], [15.20782, 45.7505], [15.16113, 45.76774], [15.13916, 45.80507], [15.29022, 45.85959], [15.51132, 45.95129], [15.67556, 45.96922], [15.67711, 45.9418], [15.67556, 45.92516], [15.67039, 45.91265], [15.66336, 45.90082], [15.65944, 45.88883], [15.65997, 45.88722], [15.57999, 45.88253]]]}, "properties": {"id": "66mW", "status": "validé", "pieces": [{"kind": "polygon", "ring": [[15.70358, 45.97228], [15.51132, 45.95129], [15.29022, 45.85959], [15.13916, 45.80507], [15.16113, 45.76774], [15.20782, 45.7505], [15.26138, 45.78976], [15.3273, 45.80794], [15.45502, 45.86055], [15.57999, 45.88253], [15.69397, 45.88922], [15.77087, 45.93793]]}, {"kind": "clip"}]}}, {"type": "Feature", "geometry": null, "properties": {"id": "9Pxm", "status": "validé", "pieces": [{"kind": "country"}]}}, {"type": "Feature", "geometry": null, "properties": {"id": "9zaA", "status": "validé", "pieces": [{"kind": "country"}]}}, {"type": "Feature", "geometry": null, "properties": {"id": "AOGZ", "status": "validé", "pieces": [{"kind": "country"}]}}, {"type": "Feature", "geometry": null, "properties": {"id": "CUtN", "status": "validé", "pieces": [{"kind": "country"}]}}, {"type": "Feature", "geometry": null, "properties": {"id": "Dzth", "status": "validé", "pieces": [{"kind": "country"}]}}, {"type": "Feature", "geometry": {"type": "Polygon", "coordinates": [[[15.30121, 46.22028], [15.30121, 46.24924], [15.23975, 46.24924], [15.23975, 46.22028], [15.30121, 46.22028]]]}, "properties": {"id": "HIaX", "status": "validé", "pieces": [{"kind": "rect", "bounds": [15.23975, 46.22028, 15.30121, 46.24924]}]}}, {"type": "Feature", "geometry": null, "properties": {"id": "Jptp", "status": "validé", "pieces": [{"kind": "country"}]}}, {"type": "Feature", "geometry": null, "properties": {"id": "KjFQ", "status": "validé", "pieces": [{"kind": "country"}]}}, {"type": "Feature", "geometry": {"type": "Polygon", "coordinates": [[[15.94666, 46.37042], [15.63354, 46.37042], [15.57861, 46.42344], [15.57861, 46.6199], [15.59462, 46.6748], [15.60373, 46.67302], [15.61665, 46.67555], [15.62175, 46.67818], [15.62698, 46.68087], [15.63298, 46.68963], [15.63288, 46.70247], [15.63598, 46.71756], [15.6521, 46.71082], [15.72868, 46.70299], [15.75514, 46.70402], [15.78461, 46.7122], [15.82294, 46.72283], [15.85074, 46.72449], [15.87855, 46.72071], [15.94634, 46.69715], [15.98696, 46.69219], [15.99792, 46.68692], [16.01659, 46.67076], [16.01672, 46.67069], [16.01456, 46.69371], [16.00329, 46.70919], [15.982, 46.71854], [15.97053, 46.74301], [15.9697, 46.76053], [15.97099, 46.77505], [15.97125, 46.77808], [15.97818, 46.80913], [15.97735, 46.81621], [15.97291, 46.81844], [15.97198, 46.82063], [15.98169, 46.82769], [15.98758, 46.83001], [16.02844, 46.83695], [16.03202, 46.83756], [16.05294, 46.84606], [16.09404, 46.86277], [16.13025, 46.85671], [16.13538, 46.85585], [16.17949, 46.85847], [16.27201, 46.86396], [16.28224, 46.85993], [16.29739, 46.84703], [16.30188, 46.84321], [16.31066, 46.84001], [16.32534, 46.83944], [16.32978, 46.8344], [16.32751, 46.82546], [16.32183, 46.81327], [16.3149, 46.802], [16.3111, 46.79752], [16.30219, 46.78702], [16.29949, 46.77951], [16.29816, 46.7758], [16.30043, 46.77208], [16.31418, 46.74332], [16.32555, 46.73327], [16.33412, 46.72175], [16.34343, 46.71418], [16.35728, 46.71583], [16.35759, 46.69901], [16.36538, 46.69671], [16.36622, 46.69647], [16.37143, 46.69493], [16.39004, 46.69415], [16.40502, 46.68726], [16.4105, 46.66837], [16.40261, 46.66311], [16.39665, 46.65914], [16.37764, 46.65286], [16.36844, 46.64299], [16.37225, 46.63634], [16.37639, 46.62909], [16.39458, 46.61902], [16.43024, 46.60439], [16.46714, 46.5647], [16.50083, 46.54481], [16.5153, 46.50171], [16.49112, 46.51515], [16.4813, 46.51902], [16.47076, 46.52026], [16.44905, 46.51835], [16.44037, 46.51902], [16.432, 46.52321], [16.41515, 46.53556], [16.40626, 46.53949], [16.3949, 46.54011], [16.38218, 46.53938], [16.36947, 46.54057], [16.35789, 46.54698], [16.35169, 46.53949], [16.35125, 46.53992], [16.34415, 46.54698], [16.34028, 46.54383], [16.32999, 46.53545], [16.31066, 46.53099], [16.29537, 46.52445], [16.26395, 46.51592], [16.26093, 46.51358], [16.23491, 46.49334], [16.23419, 46.48489], [16.23366, 46.47874], [16.23749, 46.46507], [16.24938, 46.43753], [16.2501, 46.42944], [16.24824, 46.41334], [16.25092, 46.405], [16.25702, 46.39991], [16.27408, 46.39211], [16.27873, 46.38735], [16.27994, 46.37866], [16.28028, 46.37621], [16.27563, 46.37317], [16.25278, 46.37342], [16.23516, 46.37042], [16.2323, 46.37042], [16.19023, 46.37042], [16.17754, 46.37559], [16.15357, 46.39143], [16.14385, 46.39471], [16.13155, 46.39306], [16.12318, 46.38688], [16.11553, 46.37929], [16.10602, 46.37373], [16.09435, 46.37226], [16.08865, 46.37309], [16.05796, 46.37753], [16.05776, 46.37042], [15.94666, 46.37042]]]}, "properties": {"id": "LRnZ", "status": "validé", "pieces": [{"kind": "polygon", "ring": [[15.60059, 46.69528], [15.57861, 46.6199], [15.57861, 46.42344], [15.63354, 46.37042], [15.94666, 46.37042], [16.2323, 46.37042], [16.56738, 46.37042], [16.62781, 46.7254], [16.24329, 47.02942], [15.5896, 46.89451]]}, {"kind": "clip"}]}}, {"type": "Feature", "geometry": null, "properties": {"id": "LTMm", "status": "validé", "pieces": [{"kind": "country"}]}}, {"type": "Feature", "geometry": null, "properties": {"id": "Pi36", "status": "validé", "pieces": [{"kind": "country"}]}}, {"type": "Feature", "geometry": null, "properties": {"id": "c5sf", "status": "validé", "pieces": [{"kind": "country"}]}}, {"type": "Feature", "geometry": null, "properties": {"id": "d0cG", "status": "validé", "pieces": [{"kind": "country"}]}}, {"type": "Feature", "geometry": {"type": "Polygon", "coordinates": [[[15.0753, 46.1333], [15.0753, 46.16944], [15.0293, 46.16944], [15.0293, 46.1333], [15.0753, 46.1333]]]}, "properties": {"id": "dqcC", "status": "validé", "pieces": [{"kind": "rect", "bounds": [15.0293, 46.1333, 15.0753, 46.16944]}]}}, {"type": "Feature", "geometry": null, "properties": {"id": "hUzj", "status": "validé", "pieces": [{"kind": "country"}]}}, {"type": "Feature", "geometry": null, "properties": {"id": "mOHj", "status": "validé", "pieces": [{"kind": "country"}]}}, {"type": "Feature", "geometry": null, "properties": {"id": "oVxl", "status": "validé", "pieces": [{"kind": "country"}]}}, {"type": "Feature", "geometry": {"type": "Polygon", "coordinates": [[[14.00208, 45.5152], [14.00477, 45.50934], [13.98748, 45.51191], [13.97189, 45.51423], [13.96497, 45.51097], [13.96145, 45.50389], [13.96145, 45.49314], [13.98264, 45.47531], [13.96982, 45.46296], [13.923, 45.44896], [13.90843, 45.43888], [13.89965, 45.42922], [13.889, 45.42364], [13.83557, 45.42911], [13.81986, 45.43263], [13.80653, 45.44214], [13.75929, 45.46317], [13.65997, 45.45998], [13.64292, 45.45943], [13.64282, 45.45945], [13.62411, 45.46274], [13.58953, 45.48884], [13.59164, 45.49311], [13.58912, 45.50161], [13.59596, 45.51191], [13.59596, 45.51813], [13.58619, 45.51948], [13.57862, 45.52338], [13.57277, 45.52998], [13.56861, 45.53925], [13.58961, 45.53579], [13.67514, 45.54474], [13.75294, 45.55288], [13.75294, 45.55907], [13.74236, 45.56977], [13.72739, 45.5812], [13.71176, 45.59321], [13.76105, 45.59624], [13.80053, 45.58125], [13.84776, 45.58466], [13.86793, 45.60217], [13.8842, 45.6163], [14.00208, 45.5152]]]}, "properties": {"id": "t0v8", "status": "validé", "pieces": [{"kind": "polygon", "ring": [[13.87436, 45.62475], [14.00208, 45.5152], [14.05838, 45.3929], [13.47336, 45.417], [13.38409, 45.61899], [13.65738, 45.6804]]}, {"kind": "clip"}]}}, {"type": "Feature", "geometry": null, "properties": {"id": "t32B", "status": "validé", "pieces": [{"kind": "country"}]}}, {"type": "Feature", "geometry": {"type": "Polygon", "coordinates": [[[14.8233, 46.42487], [14.77112, 46.28086], [14.43604, 46.19541], [14.34265, 46.20111], [14.05426, 46.2239], [13.92517, 46.16879], [13.65875, 46.16689], [13.64319, 46.16623], [13.64107, 46.17141], [13.63739, 46.18039], [13.62737, 46.18173], [13.61393, 46.18354], [13.58447, 46.18132], [13.55905, 46.18411], [13.52897, 46.20483], [13.51016, 46.21398], [13.48226, 46.2179], [13.4683, 46.22343], [13.43833, 46.22488], [13.42283, 46.2286], [13.4374, 46.21093], [13.41012, 46.20798], [13.40164, 46.21666], [13.39813, 46.23051], [13.3849, 46.24312], [13.3848, 46.24323], [13.38469, 46.24333], [13.37859, 46.26839], [13.37301, 46.28028], [13.36526, 46.2903], [13.39131, 46.30157], [13.39564, 46.30673], [13.40981, 46.32361], [13.42324, 46.34485], [13.43409, 46.35386], [13.44732, 46.35485], [13.45973, 46.35903], [13.4837, 46.37115], [13.53001, 46.38833], [13.5544, 46.40595], [13.57569, 46.42668], [13.60018, 46.44264], [13.63408, 46.44572], [13.65878, 46.44512], [13.67749, 46.45208], [13.68585, 46.46405], [13.68845, 46.46776], [13.68989, 46.49334], [13.69547, 46.49864], [13.69919, 46.50484], [13.70106, 46.51189], [13.70095, 46.51975], [13.71609, 46.51887], [13.78214, 46.50778], [13.79578, 46.50789], [13.86068, 46.51525], [13.89086, 46.51179], [13.98233, 46.48192], [13.99876, 46.48052], [14.01492, 46.48253], [14.03246, 46.48471], [14.05003, 46.4844], [14.06635, 46.48104], [14.08103, 46.47595], [14.13725, 46.44244], [14.14793, 46.44042], [14.14987, 46.44006], [14.24232, 46.43824], [14.36215, 46.43588], [14.39584, 46.44099], [14.40649, 46.43934], [14.41124, 46.43464], [14.41445, 46.429], [14.42003, 46.42435], [14.43714, 46.41888], [14.45093, 46.41448], [14.46767, 46.41267], [14.50219, 46.41836], [14.51584, 46.40536], [14.5271, 46.38823], [14.54033, 46.37864], [14.5577, 46.38394], [14.56211, 46.39174], [14.567, 46.40037], [14.57537, 46.41973], [14.59015, 46.43443], [14.59986, 46.43717], [14.62157, 46.43851], [14.6317, 46.44058], [14.64203, 46.44523], [14.66208, 46.4597], [14.66663, 46.46052], [14.67255, 46.45979], [14.67996, 46.45887], [14.68709, 46.47122], [14.69877, 46.48096], [14.70373, 46.48776], [14.70973, 46.49251], [14.72637, 46.49771], [14.73526, 46.49334], [14.76089, 46.49628], [14.76102, 46.49633], [14.8233, 46.42487]]]}, "properties": {"id": "ta6V", "status": "validé", "pieces": [{"kind": "polygon", "ring": [[13.65875, 46.16689], [13.92517, 46.16879], [14.05426, 46.2239], [14.34265, 46.20111], [14.43604, 46.19541], [14.77112, 46.28086], [14.8233, 46.42487], [14.72443, 46.5383], [13.76312, 46.55907], [13.29071, 46.47973], [13.27698, 46.21821], [13.38959, 46.15548]]}, {"kind": "clip"}]}}, {"type": "Feature", "geometry": null, "properties": {"id": "w1wH", "status": "validé", "pieces": [{"kind": "country"}]}}, {"type": "Feature", "geometry": {"type": "Polygon", "coordinates": [[[14.02954, 45.5152], [14.02831, 45.50265], [14.01396, 45.50797], [13.98748, 45.51191], [13.97189, 45.51423], [13.96497, 45.51097], [13.96145, 45.50389], [13.96145, 45.49314], [13.98264, 45.47531], [13.96982, 45.46296], [13.923, 45.44896], [13.90843, 45.43888], [13.89965, 45.42922], [13.889, 45.42364], [13.83557, 45.42911], [13.81986, 45.43263], [13.80653, 45.44214], [13.75929, 45.46317], [13.65997, 45.45998], [13.64292, 45.45943], [13.64282, 45.45945], [13.62411, 45.46274], [13.58953, 45.48884], [13.59164, 45.49311], [13.58912, 45.50161], [13.59596, 45.51191], [13.59596, 45.51813], [13.58619, 45.51948], [13.57862, 45.52338], [13.57277, 45.52998], [13.56861, 45.53925], [13.58961, 45.53579], [13.67514, 45.54474], [13.75294, 45.55288], [13.75294, 45.55907], [13.74236, 45.56977], [13.72739, 45.5812], [13.71176, 45.59321], [13.76105, 45.59624], [13.80053, 45.58125], [13.84776, 45.58466], [13.86793, 45.60217], [13.88704, 45.61877], [13.89469, 45.63184], [13.89364, 45.63376], [13.89314, 45.63468], [13.88414, 45.63515], [13.88315, 45.63555], [13.90594, 45.63435], [14.02954, 45.5152]]]}, "properties": {"id": "wTix", "status": "validé", "pieces": [{"kind": "polygon", "ring": [[13.90594, 45.63435], [14.02954, 45.5152], [14.01993, 45.417], [13.44864, 45.3958], [13.3786, 45.56712], [13.5585, 45.65259]]}, {"kind": "clip"}]}}, {"type": "Feature", "geometry": {"type": "Polygon", "coordinates": [[[14.57645, 46.0149], [14.57645, 46.08207], [14.45217, 46.08207], [14.45217, 46.0149], [14.57645, 46.0149]]]}, "properties": {"id": "y26n", "status": "validé", "pieces": [{"kind": "rect", "bounds": [14.45217, 46.0149, 14.57645, 46.08207]}]}}]}