{"type": "FeatureCollection", "features": [{"type": "Feature", "geometry": null, "properties": {"id": "0qNY", "status": "validé", "pieces": [{"kind": "country"}]}}, {"type": "Feature", "geometry": null, "properties": {"id": "1BOY", "status": "validé", "pieces": [{"kind": "country"}]}}, {"type": "Feature", "geometry": null, "properties": {"id": "1ELG", "status": "rejeté", "pieces": []}}, {"type": "Feature", "geometry": null, "properties": {"id": "3quH", "status": "validé", "pieces": [{"kind": "country"}]}}, {"type": "Feature", "geometry": {"type": "MultiPolygon", "coordinates": [[[[17.77588, 48.29851], [17.85278, 48.29851], [18.06152, 48.24734], [18.2373, 48.18148], [18.39111, 48.25466], [18.54492, 48.20345], [18.87451, 48.14486], [19.02832, 48.18881], [19.33594, 48.2254], [19.34494, 48.08703], [19.29322, 48.08776], [19.23348, 48.06208], [19.22253, 48.06058], [19.0985, 48.07074], [19.03866, 48.06487], [19.01902, 48.0655], [18.99649, 48.06621], [18.98182, 48.06162], [18.9336, 48.05435], [18.83847, 48.04001], [18.821, 48.03045], [18.79423, 47.99314], [18.78472, 47.98761], [18.76529, 47.98539], [18.7562, 47.98183], [18.74318, 47.97105], [18.74452, 47.96736], [18.75144, 47.96335], [18.75475, 47.9518], [18.74473, 47.91051], [18.74225, 47.88945], [18.74876, 47.87072], [18.77801, 47.85145], [18.81645, 47.83256], [18.81492, 47.83219], [18.79031, 47.82633], [18.76767, 47.8223], [18.75031, 47.81362], [18.71723, 47.78812], [18.69284, 47.77796], [18.6637, 47.7759], [18.63383, 47.77982], [18.59745, 47.79065], [18.55259, 47.79285], [18.34785, 47.77678], [18.27302, 47.75626], [18.23592, 47.75388], [18.11262, 47.76249], [17.88353, 47.75252], [17.82571, 47.75001], [17.742, 47.76538], [17.71925, 47.77367], [17.67668, 47.78918], [17.66624, 47.79703], [17.65838, 47.80732], [17.63988, 47.8192], [17.61911, 47.82923], [17.60423, 47.83424], [17.59296, 47.8331], [17.58294, 47.82979], [17.5726, 47.82954], [17.56041, 47.83799], [17.52661, 47.87212], [17.51731, 47.87625], [17.49219, 47.87982], [17.48186, 47.88271], [17.47204, 47.88881], [17.36941, 47.98121], [17.33789, 47.99873], [17.27267, 48.00534], [17.26232, 48.00728], [17.23551, 48.01231], [17.36938, 48.13753], [17.77588, 48.29851]]], [[[20.51147, 48.65523], [20.77515, 48.66248], [20.98389, 48.61895], [20.95983, 48.51815], [20.94583, 48.51898], [20.89137, 48.54109], [20.85995, 48.54332], [20.84548, 48.54582], [20.81581, 48.56381], [20.80031, 48.56923], [20.78409, 48.56905], [20.57252, 48.53657], [20.51051, 48.53378], [20.48167, 48.52608], [20.48054, 48.51854], [20.48023, 48.51022], [20.48219, 48.49288], [20.48281, 48.48937], [20.48291, 48.48583], [20.4825, 48.48226], [20.48167, 48.47875], [20.46824, 48.46539], [20.46597, 48.46379], [20.43558, 48.44239], [20.42059, 48.42924], [20.40902, 48.41371], [20.37016, 48.33434], [20.34928, 48.30548], [20.32427, 48.27995], [20.29523, 48.26042], [20.27238, 48.25246], [20.26029, 48.25589], [20.24903, 48.26419], [20.22908, 48.2709], [20.21782, 48.2676], [20.18764, 48.24899], [20.17089, 48.24403], [20.15332, 48.24527], [20.14309, 48.2478], [20.13451, 48.24667], [20.12201, 48.23675], [20.11808, 48.22972], [20.1126, 48.21173], [20.10526, 48.2028], [20.09699, 48.19843], [20.07808, 48.19355], [20.0383, 48.17723], [20.03498, 48.17587], [19.99695, 48.16791], [19.9739, 48.15838], [19.92863, 48.13009], [19.90507, 48.1243], [19.8843, 48.12962], [19.84626, 48.15267], [19.82166, 48.15791], [19.78559, 48.14869], [19.77608, 48.14952], [19.76668, 48.159], [19.76916, 48.16745], [19.77484, 48.17608], [19.77433, 48.1859], [19.75655, 48.20032], [19.73309, 48.2029], [19.68699, 48.1969], [19.67697, 48.20039], [19.65526, 48.21835], [19.65511, 48.21844], [19.91821, 48.39339], [20.23682, 48.5463], [20.51147, 48.65523]]], [[[22.20337, 48.66248], [22.233, 48.64008], [22.22524, 48.62822], [22.21904, 48.62094], [22.15372, 48.58587], [22.13873, 48.56959], [22.13666, 48.54934], [22.14834, 48.50882], [22.14483, 48.49311], [22.13377, 48.47684], [22.13284, 48.4048], [22.11393, 48.38865], [22.09646, 48.37942], [22.07786, 48.37581], [22.01801, 48.37973], [21.99993, 48.37896], [21.98153, 48.37472], [21.92934, 48.37291], [21.91476, 48.36909], [21.88428, 48.35746], [21.84118, 48.35317], [21.7894, 48.33553], [21.75901, 48.33377], [21.7277, 48.3409], [21.70124, 48.35395], [21.67757, 48.37235], [21.62155, 48.42965], [21.61339, 48.44035], [21.60941, 48.45295], [21.7749, 48.59716], [21.9397, 48.67699], [22.20337, 48.66248]]]]}, "properties": {"id": "4BtX", "status": "validé", "pieces": [{"kind": "polygon", "ring": [[21.56616, 48.41526], [21.7749, 48.59716], [21.9397, 48.67699], [22.20337, 48.66248], [22.43408, 48.4881], [22.19238, 48.17416], [21.36841, 48.21077]]}, {"kind": "clip"}, {"kind": "polygon", "ring": [[19.63257, 48.20345], [19.91821, 48.39339], [20.23682, 48.5463], [20.51147, 48.65523], [20.77515, 48.66248], [20.98389, 48.61895], [20.95093, 48.48082], [20.77515, 47.97605], [19.81934, 47.96134]]}, {"kind": "polygon", "ring": [[17.20459, 47.9834], [17.36938, 48.13753], [17.77588, 48.29851], [17.85278, 48.29851], [18.06152, 48.24734], [18.2373, 48.18148], [18.39111, 48.25466], [18.54492, 48.20345], [18.87451, 48.14486], [19.02832, 48.18881], [19.33594, 48.2254], [19.35791, 47.88775], [18.20435, 47.41429], [17.05078, 47.74026]]}]}}, {"type": "Feature", "geometry": {"type": "MultiPolygon", "coordinates": [[[[22.34619, 48.91922], [22.42014, 48.91922], [22.41489, 48.91169], [22.41365, 48.90678], [22.41375, 48.89386], [22.41179, 48.88777], [22.40238, 48.87883], [22.37841, 48.86544], [22.3708, 48.85825], [22.3689, 48.85645], [22.36228, 48.84425], [22.36156, 48.83645], [22.36251, 48.8325], [22.21436, 48.89035], [22.34619, 48.91922]]], [[[22.3407, 48.99134], [22.16492, 49.03455], [22.08252, 49.06334], [21.8573, 49.18193], [21.50574, 49.27516], [21.35742, 49.33245], [21.15417, 49.26083], [20.95093, 49.22857], [20.73669, 49.31813], [20.63789, 49.39852], [20.67391, 49.40231], [20.68952, 49.4005], [20.7783, 49.3312], [20.79411, 49.32366], [20.81654, 49.32138], [20.83359, 49.32205], [20.8493, 49.3205], [20.86801, 49.31141], [20.88434, 49.3003], [20.90056, 49.2926], [20.91896, 49.29033], [20.94242, 49.29586], [20.96402, 49.3081], [20.99668, 49.33937], [21.01725, 49.35244], [21.03296, 49.35461], [21.05404, 49.35477], [21.07254, 49.35719], [21.08071, 49.36634], [21.06851, 49.38143], [21.04546, 49.39058], [21.03327, 49.39967], [21.05353, 49.41445], [21.06882, 49.41921], [21.10944, 49.42458], [21.12494, 49.42365], [21.14303, 49.41554], [21.15729, 49.40515], [21.17259, 49.39828], [21.19409, 49.4006], [21.21124, 49.41109], [21.24245, 49.44127], [21.26054, 49.44944], [21.27439, 49.44727], [21.33041, 49.42779], [21.42787, 49.4098], [21.44441, 49.40991], [21.48151, 49.41523], [21.49619, 49.41239], [21.51442, 49.41721], [21.52957, 49.42122], [21.60119, 49.42649], [21.6199, 49.42334], [21.63003, 49.4189], [21.64863, 49.40706], [21.65876, 49.40246], [21.66631, 49.40179], [21.68181, 49.40407], [21.69173, 49.40215], [21.70858, 49.39089], [21.74217, 49.35709], [21.75757, 49.34893], [21.768, 49.35347], [21.78216, 49.36448], [21.79942, 49.37482], [21.81958, 49.37725], [21.83787, 49.37042], [21.87456, 49.34836], [21.92841, 49.33079], [21.96448, 49.30857], [21.99321, 49.27818], [22.00582, 49.24289], [22.01243, 49.21105], [22.04075, 49.19746], [22.11155, 49.18863], [22.1441, 49.17488], [22.15568, 49.17152], [22.16571, 49.17111], [22.18968, 49.17302], [22.19795, 49.17199], [22.20891, 49.16398], [22.20901, 49.15695], [22.20622, 49.15049], [22.20849, 49.14419], [22.21594, 49.14], [22.26286, 49.13059], [22.31815, 49.13199], [22.33944, 49.12646], [22.38907, 49.09369], [22.3407, 48.99134]]]]}, "properties": {"id": "5dso", "status": "validé", "pieces": [{"kind": "polygon", "ring": [[20.60486, 49.42539], [20.73669, 49.31813], [20.95093, 49.22857], [21.15417, 49.26083], [21.35742, 49.33245], [21.50574, 49.27516], [21.8573, 49.18193], [22.08252, 49.06334], [22.16492, 49.03455], [22.3407, 48.99134], [22.41211, 49.14243], [22.38464, 49.34676], [21.42883, 49.58585], [20.76965, 49.41825]]}, {"kind": "clip"}, {"kind": "polygon", "ring": [[22.39014, 48.82171], [22.21436, 48.89035], [22.34619, 48.91922], [22.45056, 48.91922]]}]}}, {"type": "Feature", "geometry": null, "properties": {"id": "5j6v", "status": "validé", "pieces": [{"kind": "country"}]}}, {"type": "Feature", "geometry": null, "properties": {"id": "5mIL", "status": "validé", "pieces": [{"kind": "country"}]}}, {"type": "Feature", "geometry": {"type": "MultiPolygon", "coordinates": [[[[19.09458, 48.59095], [19.17389, 48.59095], [19.17389, 48.55689], [19.09458, 48.55689], [19.09458, 48.59095]]], [[[21.25854, 49.08951], [21.51123, 49.12545], [21.73096, 49.2833], [21.87378, 49.26898], [21.9397, 49.13264], [22.11548, 48.90939], [22.31323, 48.70688], [22.3205, 48.69728], [22.3103, 48.68168], [22.29428, 48.66763], [22.28218, 48.6624], [22.25552, 48.65677], [22.24322, 48.65119], [22.23568, 48.64416], [22.22524, 48.62822], [22.21904, 48.62094], [22.18994, 48.60532], [21.99463, 48.60532], [21.61011, 48.59806], [21.43942, 48.55822], [21.43914, 48.55833], [21.42456, 48.56128], [21.37268, 48.55035], [21.33857, 48.54985], [21.32183, 48.54758], [21.3023, 48.53991], [21.29393, 48.53058], [21.2923, 48.52754], [21.23211, 48.51517], [21.21992, 48.51872], [21.18675, 48.51371], [21.11677, 48.49147], [21.10702, 48.48947], [21.10498, 48.48978], [21.18164, 48.73586], [21.25854, 49.08951]]]]}, "properties": {"id": "8If0", "status": "validé", "pieces": [{"kind": "rect", "bounds": [19.09458, 48.55689, 19.17389, 48.59095]}, {"kind": "polygon", "ring": [[21.10474, 48.489], [21.18164, 48.73586], [21.25854, 49.08951], [21.51123, 49.12545], [21.73096, 49.2833], [21.87378, 49.26898], [21.9397, 49.13264], [22.11548, 48.90939], [22.31323, 48.70688], [22.39014, 48.60532], [21.99463, 48.60532], [21.61011, 48.59806], [21.42334, 48.55446]]}, {"kind": "clip"}]}}, {"type": "Feature", "geometry": null, "properties": {"id": "9icq", "status": "validé", "pieces": [{"kind": "country"}]}}, {"type": "Feature", "geometry": null, "properties": {"id": "EpW7", "status": "validé", "pieces": [{"kind": "country"}]}}, {"type": "Feature", "geometry": null, "properties": {"id": "F7is", "status": "validé", "pieces": [{"kind": "country"}]}}, {"type": "Feature", "geometry": null, "properties": {"id": "FIiW", "status": "rejeté", "pieces": []}}, {"type": "Feature", "geometry": null, "properties": {"id": "G4Pu", "status": "validé", "pieces": [{"kind": "country"}]}}, {"type": "Feature", "geometry": {"type": "MultiPolygon", "coordinates": [[[[17.05215, 48.20194], [17.23068, 48.20194], [17.23068, 48.06818], [17.06151, 48.06818], [17.06483, 48.07903], [17.07, 48.08916], [17.08023, 48.09761], [17.06721, 48.10694], [17.06245, 48.11272], [17.05215, 48.12528], [17.05215, 48.20194]]], [[[21.19812, 48.76079], [21.33957, 48.76079], [21.33957, 48.65844], [21.19812, 48.65844], [21.19812, 48.76079]]]]}, "properties": {"id": "IJXC", "status": "validé", "pieces": [{"kind": "rect", "bounds": [17.05215, 48.06818, 17.23068, 48.20194]}, {"kind": "clip"}, {"kind": "rect", "bounds": [21.19812, 48.65844, 21.33957, 48.76079]}]}}, {"type": "Feature", "geometry": null, "properties": {"id": "Isqn", "status": "validé", "pieces": [{"kind": "country"}]}}, {"type": "Feature", "geometry": null, "properties": {"id": "KXno", "status": "validé", "pieces": [{"kind": "country"}]}}, {"type": "Feature", "geometry": null, "properties": {"id": "L3Hc", "status": "validé", "pieces": [{"kind": "country"}]}}, {"type": "Feature", "geometry": {"type": "Polygon", "coordinates": [[[17.07275, 48.11872], [17.07275, 48.15376], [17.16236, 48.15376], [17.16236, 48.11872], [17.07275, 48.11872]]]}, "properties": {"id": "L3Lc", "status": "validé", "pieces": [{"kind": "rect", "bounds": [17.07275, 48.11872, 17.16236, 48.15376]}, {"kind": "clip"}]}}, {"type": "Feature", "geometry": null, "properties": {"id": "Lcdz", "status": "validé", "pieces": [{"kind": "country"}]}}, {"type": "Feature", "geometry": null, "properties": {"id": "MEKX", "status": "validé", "pieces": [{"kind": "country"}]}}, {"type": "Feature", "geometry": null, "properties": {"id": "MoJ0", "status": "validé", "pieces": [{"kind": "country"}]}}, {"type": "Feature", "geometry": {"type": "Polygon", "coordinates": [[[17.24922, 48.83177], [17.24922, 48.85662], [17.20493, 48.85662], [17.20493, 48.83177], [17.24922, 48.83177]]]}, "properties": {"id": "NtUD", "status": "validé", "pieces": [{"kind": "rect", "bounds": [17.20493, 48.83177, 17.24922, 48.85662]}]}}, {"type": "Feature", "geometry": null, "properties": {"id": "PPvf", "status": "rejeté", "pieces": []}}, {"type": "Feature", "geometry": null, "properties": {"id": "Tqgf", "status": "validé", "pieces": [{"kind": "country"}]}}, {"type": "Feature", "geometry": null, "properties": {"id": "VV2G", "status": "validé", "pieces": [{"kind": "country"}]}}, {"type": "Feature", "geometry": {"type": "MultiPolygon", "coordinates": [[[[18.74542, 48.87216], [18.80997, 48.95696], [18.89923, 49.09648], [18.94043, 49.10636], [19.01596, 49.14948], [19.09149, 49.15936], [19.07089, 49.09558], [19.01459, 49.06681], [18.99673, 49.01101], [18.9473, 48.96327], [18.90198, 48.88028], [18.87039, 48.79264], [18.74542, 48.87216]]], [[[19.28787, 49.0749], [19.30161, 49.10546], [19.34692, 49.12164], [19.45404, 49.15756], [19.58038, 49.17192], [19.73007, 49.13601], [19.87289, 49.12882], [19.98001, 49.10906], [20.05142, 49.08928], [20.18463, 49.08299], [20.14481, 49.04881], [20.08026, 49.02902], [20.01572, 49.05781], [19.92783, 49.05151], [19.78912, 49.02362], [19.70123, 49.02992], [19.6051, 49.04342], [19.54605, 49.02092], [19.45953, 49.02722], [19.33044, 49.05061], [19.28787, 49.0749]]]]}, "properties": {"id": "bpnt", "status": "validé", "pieces": [{"kind": "polygon", "ring": [[19.33044, 49.05061], [19.45953, 49.02722], [19.54605, 49.02092], [19.6051, 49.04342], [19.70123, 49.02992], [19.78912, 49.02362], [19.92783, 49.05151], [20.01572, 49.05781], [20.08026, 49.02902], [20.14481, 49.04881], [20.18463, 49.08299], [20.05142, 49.08928], [19.98001, 49.10906], [19.87289, 49.12882], [19.73007, 49.13601], [19.58038, 49.17192], [19.45404, 49.15756], [19.34692, 49.12164], [19.30161, 49.10546], [19.28787, 49.0749]]}, {"kind": "polygon", "ring": [[18.87039, 48.79264], [18.90198, 48.88028], [18.9473, 48.96327], [18.99673, 49.01101], [19.01459, 49.06681], [19.07089, 49.09558], [19.09149, 49.15936], [19.01596, 49.14948], [18.94043, 49.10636], [18.89923, 49.09648], [18.80997, 48.95696], [18.74542, 48.87216]]}]}}, {"type": "Feature", "geometry": null, "properties": {"id": "cWSf", "status": "validé", "pieces": [{"kind": "country"}]}}, {"type": "Feature", "geometry": null, "properties": {"id": "dRNN", "status": "rejeté", "pieces": []}}, {"type": "Feature", "geometry": null, "properties": {"id": "dcqy", "status": "validé", "pieces": [{"kind": "country"}]}}, {"type": "Feature", "geometry": null, "properties": {"id": "dpYP", "status": "validé", "pieces": [{"kind": "country"}]}}, {"type": "Feature", "geometry": null, "properties": {"id": "elyV", "status": "validé", "pieces": [{"kind": "country"}]}}, {"type": "Feature", "geometry": null, "properties": {"id": "fBwX", "status": "validé", "pieces": [{"kind": "country"}]}}, {"type": "Feature", "geometry": {"type": "MultiPolygon", "coordinates": [[[[21.1322, 48.65312], [21.28052, 48.65312], [21.40686, 48.6368], [21.43433, 48.56054], [21.43332, 48.5595], [21.42456, 48.56128], [21.37268, 48.55035], [21.33857, 48.54985], [21.32183, 48.54758], [21.3023, 48.53991], [21.29393, 48.53058], [21.28824, 48.51993], [21.27656, 48.50872], [21.26178, 48.50319], [21.25041, 48.5065], [21.23801, 48.51345], [21.21992, 48.51872], [21.18675, 48.51371], [21.10934, 48.48911], [21.08402, 48.49301], [21.06386, 48.50624], [21.03596, 48.51464], [21.0065, 48.51815], [20.98149, 48.51686], [20.94583, 48.51898], [20.89137, 48.54109], [20.85995, 48.54332], [20.84548, 48.54582], [20.82496, 48.55826], [20.82458, 48.57144], [20.96191, 48.62409], [21.1322, 48.65312]]], [[[21.71997, 48.82911], [21.80237, 48.81826], [21.90674, 48.81465], [22.10999, 48.81103], [22.1759, 48.77486], [22.30774, 48.69156], [22.30774, 48.67944], [22.29428, 48.66763], [22.28218, 48.6624], [22.25552, 48.65677], [22.24322, 48.65119], [22.23568, 48.64416], [22.22524, 48.62822], [22.21904, 48.62094], [22.15372, 48.58587], [22.13873, 48.56959], [22.13666, 48.54934], [22.14834, 48.50882], [22.14483, 48.49311], [22.13377, 48.47684], [22.13284, 48.4048], [22.11393, 48.38865], [22.09646, 48.37942], [22.07786, 48.37581], [22.01801, 48.37973], [21.99993, 48.37896], [21.98153, 48.37472], [21.92934, 48.37291], [21.91476, 48.36909], [21.88428, 48.35746], [21.84118, 48.35317], [21.7894, 48.33553], [21.75901, 48.33377], [21.7277, 48.3409], [21.70124, 48.35395], [21.67757, 48.37235], [21.62155, 48.42965], [21.61339, 48.44035], [21.60037, 48.48164], [21.5955, 48.48801], [21.62109, 48.68431], [21.71997, 48.82911]]]]}, "properties": {"id": "gKhC", "status": "validé", "pieces": [{"kind": "polygon", "ring": [[20.82458, 48.57144], [20.96191, 48.62409], [21.1322, 48.65312], [21.28052, 48.65312], [21.40686, 48.6368], [21.43433, 48.56054], [21.27502, 48.39674], [20.82733, 48.47507]]}, {"kind": "clip"}, {"kind": "polygon", "ring": [[21.59363, 48.47361], [21.62109, 48.68431], [21.71997, 48.82911], [21.80237, 48.81826], [21.90674, 48.81465], [22.10999, 48.81103], [22.1759, 48.77486], [22.30774, 48.69156], [22.30774, 48.51], [22.1814, 48.30223], [21.6156, 48.25107]]}]}}, {"type": "Feature", "geometry": null, "properties": {"id": "j8QN", "status": "validé", "pieces": [{"kind": "country"}]}}, {"type": "Feature", "geometry": null, "properties": {"id": "lXWV", "status": "validé", "pieces": [{"kind": "country"}]}}, {"type": "Feature", "geometry": null, "properties": {"id": "lyTP", "status": "validé", "pieces": [{"kind": "country"}]}}, {"type": "Feature", "geometry": null, "properties": {"id": "mWBL", "status": "validé", "pieces": [{"kind": "country"}]}}, {"type": "Feature", "geometry": null, "properties": {"id": "man-99fd", "status": "validé", "pieces": [{"kind": "admin1", "code": "SVK-1058"}]}}, {"type": "Feature", "geometry": {"type": "Polygon", "coordinates": [[[17.1936, 48.66607], [17.26501, 48.55352], [17.29797, 48.42251], [17.23755, 48.2473], [17.06726, 48.14848], [16.97479, 48.17978], [16.97471, 48.19856], [16.96995, 48.21664], [16.95434, 48.25256], [16.95393, 48.25734], [16.95528, 48.26879], [16.95434, 48.27313], [16.95062, 48.27659], [16.94442, 48.27801], [16.93336, 48.28473], [16.92427, 48.28752], [16.91662, 48.2908], [16.91331, 48.29669], [16.91207, 48.30124], [16.90887, 48.30698], [16.90546, 48.31199], [16.90277, 48.31411], [16.89843, 48.31617], [16.90029, 48.32124], [16.90422, 48.32702], [16.90649, 48.33147], [16.90195, 48.3394], [16.89171, 48.34702], [16.88117, 48.35281], [16.87549, 48.35503], [16.85533, 48.35645], [16.84758, 48.35958], [16.84448, 48.3656], [16.8451, 48.37658], [16.84686, 48.38113], [16.84934, 48.3841], [16.85192, 48.39041], [16.86081, 48.44379], [16.86494, 48.45808], [16.87507, 48.47154], [16.90122, 48.4966], [16.90649, 48.50991], [16.91393, 48.51934], [16.93047, 48.5282], [16.9469, 48.53973], [16.94906, 48.54484], [16.95434, 48.5574], [16.94504, 48.60417], [16.94752, 48.62316], [16.96334, 48.63595], [16.97481, 48.64987], [17.02535, 48.74633], [17.04254, 48.76569], [17.1936, 48.66607]]]}, "properties": {"id": "mwCI", "status": "validé", "pieces": [{"kind": "polygon", "ring": [[17.02332, 48.77836], [17.1936, 48.66607], [17.26501, 48.55352], [17.29797, 48.42251], [17.23755, 48.2473], [17.06726, 48.14848], [16.73218, 48.26192], [16.66626, 48.49534]]}, {"kind": "clip"}]}}, {"type": "Feature", "geometry": null, "properties": {"id": "n27y", "status": "validé", "pieces": [{"kind": "country"}]}}, {"type": "Feature", "geometry": null, "properties": {"id": "n4tG", "status": "validé", "pieces": [{"kind": "country"}]}}, {"type": "Feature", "geometry": null, "properties": {"id": "nCyZ", "status": "validé", "pieces": [{"kind": "country"}]}}, {"type": "Feature", "geometry": null, "properties": {"id": "nJkZ", "status": "validé", "pieces": [{"kind": "country"}]}}, {"type": "Feature", "geometry": null, "properties": {"id": "o2Ei", "status": "validé", "pieces": [{"kind": "country"}]}}, {"type": "Feature", "geometry": null, "properties": {"id": "otzr", "status": "validé", "pieces": [{"kind": "country"}]}}, {"type": "Feature", "geometry": null, "properties": {"id": "p0qp", "status": "validé", "pieces": [{"kind": "country"}]}}, {"type": "Feature", "geometry": null, "properties": {"id": "p6ai", "status": "validé", "pieces": [{"kind": "country"}]}}, {"type": "Feature", "geometry": null, "properties": {"id": "qom3", "status": "validé", "pieces": [{"kind": "country"}]}}, {"type": "Feature", "geometry": null, "properties": {"id": "rf14", "status": "validé", "pieces": [{"kind": "country"}]}}, {"type": "Feature", "geometry": {"type": "Polygon", "coordinates": [[[18.5281, 48.94578], [18.5281, 48.9629], [18.50098, 48.9629], [18.50098, 48.94578], [18.5281, 48.94578]]]}, "properties": {"id": "rhBj", "status": "validé", "pieces": [{"kind": "rect", "bounds": [18.50098, 48.94578, 18.5281, 48.9629]}]}}, {"type": "Feature", "geometry": {"type": "Polygon", "coordinates": [[[17.28699, 48.27651], [17.60559, 48.45526], [17.90222, 48.43705], [18.03406, 48.34954], [18.4021, 48.34954], [18.5614, 48.28016], [18.75366, 48.29478], [18.80859, 48.10079], [18.87963, 48.04622], [18.83847, 48.04001], [18.821, 48.03045], [18.79423, 47.99314], [18.78472, 47.98761], [18.76529, 47.98539], [18.7562, 47.98183], [18.74318, 47.97105], [18.74452, 47.96736], [18.75144, 47.96335], [18.75475, 47.9518], [18.74473, 47.91051], [18.74225, 47.88945], [18.74876, 47.87072], [18.77801, 47.85145], [18.81645, 47.83256], [18.81492, 47.83219], [18.79031, 47.82633], [18.76767, 47.8223], [18.75031, 47.81362], [18.71723, 47.78812], [18.69284, 47.77796], [18.6637, 47.7759], [18.63383, 47.77982], [18.59745, 47.79065], [18.55259, 47.79285], [18.34785, 47.77678], [18.27302, 47.75626], [18.23592, 47.75388], [18.11262, 47.76249], [17.88353, 47.75252], [17.82571, 47.75001], [17.742, 47.76538], [17.71925, 47.77367], [17.67668, 47.78918], [17.66624, 47.79703], [17.65838, 47.80732], [17.63988, 47.8192], [17.61911, 47.82923], [17.60423, 47.83424], [17.59296, 47.8331], [17.58294, 47.82979], [17.5726, 47.82954], [17.56041, 47.83799], [17.52661, 47.87212], [17.51731, 47.87625], [17.49219, 47.87982], [17.48186, 47.88271], [17.47204, 47.88881], [17.36941, 47.98121], [17.33789, 47.99873], [17.27267, 48.00534], [17.26232, 48.00728], [17.22089, 48.01505], [17.18482, 48.02027], [17.14834, 48.00544], [17.12498, 48.01953], [17.09263, 48.02725], [17.06969, 48.03567], [17.07506, 48.05208], [17.06307, 48.05877], [17.05914, 48.06043], [17.06483, 48.07903], [17.07, 48.08916], [17.08023, 48.09761], [17.07243, 48.1032], [17.11121, 48.10813], [17.28699, 48.27651]]]}, "properties": {"id": "sfKN", "status": "validé", "pieces": [{"kind": "polygon", "ring": [[17.11121, 48.10813], [17.28699, 48.27651], [17.60559, 48.45526], [17.90222, 48.43705], [18.03406, 48.34954], [18.4021, 48.34954], [18.5614, 48.28016], [18.75366, 48.29478], [18.80859, 48.10079], [18.91846, 48.01639], [18.89099, 47.66257], [17.52869, 47.61818], [16.88049, 48.07879]]}, {"kind": "clip"}]}}, {"type": "Feature", "geometry": null, "properties": {"id": "u6tR", "status": "validé", "pieces": [{"kind": "country"}]}}, {"type": "Feature", "geometry": null, "properties": {"id": "uRTI", "status": "validé", "pieces": [{"kind": "admin1", "code": "SVK-1054"}, {"kind": "admin1", "code": "SVK-1056"}]}}, {"type": "Feature", "geometry": {"type": "Polygon", "coordinates": [[[18.79349, 49.17648], [18.79349, 49.24822], [18.70422, 49.24822], [18.70422, 49.17648], [18.79349, 49.17648]]]}, "properties": {"id": "uyAe", "status": "validé", "pieces": [{"kind": "rect", "bounds": [18.70422, 49.17648, 18.79349, 49.24822]}]}}, {"type": "Feature", "geometry": null, "properties": {"id": "zSqS", "status": "validé", "pieces": [{"kind": "country"}]}}]}