{"type": "FeatureCollection", "features": [{"type": "Feature", "geometry": {"type": "Polygon", "coordinates": [[[12.48884, 43.98241], [12.48463, 43.97442], [12.47489, 43.9683], [12.47004, 43.96478], [12.47025, 43.96046], [12.47283, 43.95879], [12.47437, 43.95858], [12.47274, 43.95768], [12.46665, 43.95728], [12.46489, 43.95376], [12.4648, 43.95237], [12.46459, 43.95002], [12.45781, 43.9478], [12.4512, 43.94604], [12.44614, 43.94511], [12.44438, 43.94375], [12.44219, 43.94042], [12.44609, 43.93946], [12.44867, 43.93995], [12.44691, 43.94162], [12.4485, 43.94332], [12.44923, 43.94449], [12.45764, 43.94561], [12.46137, 43.94798], [12.4648, 43.94743], [12.47017, 43.95252], [12.46974, 43.95419], [12.46656, 43.95407], [12.46772, 43.9553], [12.47433, 43.95629], [12.47609, 43.95731], [12.47759, 43.95932], [12.47395, 43.96102], [12.4718, 43.96429], [12.48073, 43.97068], [12.48386, 43.97009], [12.48433, 43.97238], [12.48854, 43.97636], [12.49206, 43.98281], [12.49094, 43.98315], [12.48884, 43.98241]]]}, "properties": {"id": "7HE9", "status": "validé", "pieces": [{"kind": "polygon", "ring": [[12.48884, 43.98241], [12.48463, 43.97442], [12.47489, 43.9683], [12.47004, 43.96478], [12.47025, 43.96046], [12.47283, 43.95879], [12.47437, 43.95858], [12.47274, 43.95768], [12.46665, 43.95728], [12.46489, 43.95376], [12.4648, 43.95237], [12.46459, 43.95002], [12.45781, 43.9478], [12.4512, 43.94604], [12.44614, 43.94511], [12.44438, 43.94375], [12.44219, 43.94042], [12.44609, 43.93946], [12.44867, 43.93995], [12.44691, 43.94162], [12.4485, 43.94332], [12.44923, 43.94449], [12.45764, 43.94561], [12.46137, 43.94798], [12.4648, 43.94743], [12.47017, 43.95252], [12.46974, 43.95419], [12.46656, 43.95407], [12.46772, 43.9553], [12.47433, 43.95629], [12.47609, 43.95731], [12.47759, 43.95932], [12.47395, 43.96102], [12.4718, 43.96429], [12.48073, 43.97068], [12.48386, 43.97009], [12.48433, 43.97238], [12.48854, 43.97636], [12.49206, 43.98281], [12.49094, 43.98315]]}]}}, {"type": "Feature", "geometry": {"type": "Polygon", "coordinates": [[[12.40391, 43.9558], [12.40597, 43.93974], [12.41352, 43.93752], [12.41524, 43.93084], [12.40837, 43.92269], [12.41283, 43.90983], [12.40871, 43.90068], [12.4197, 43.89821], [12.44511, 43.90612], [12.44957, 43.89623], [12.46536, 43.89401], [12.48802, 43.89697], [12.49352, 43.90835], [12.49283, 43.91848], [12.5021, 43.92417], [12.50793, 43.93579], [12.51652, 43.94023], [12.51274, 43.95531], [12.50553, 43.95802], [12.50725, 43.97186], [12.51205, 43.97358], [12.51068, 43.98396], [12.51617, 43.98544], [12.51446, 43.99235], [12.50656, 43.99235], [12.50038, 43.98643], [12.49592, 43.98544], [12.46571, 43.97605], [12.43721, 43.95679], [12.42107, 43.95753], [12.41352, 43.95259], [12.40391, 43.9558]]]}, "properties": {"id": "8OjL", "status": "validé", "pieces": [{"kind": "polygon", "ring": [[12.40391, 43.9558], [12.40597, 43.93974], [12.41352, 43.93752], [12.41524, 43.93084], [12.40837, 43.92269], [12.41283, 43.90983], [12.40871, 43.90068], [12.4197, 43.89821], [12.44511, 43.90612], [12.44957, 43.89623], [12.46536, 43.89401], [12.48802, 43.89697], [12.49352, 43.90835], [12.49283, 43.91848], [12.5021, 43.92417], [12.50793, 43.93579], [12.51652, 43.94023], [12.51274, 43.95531], [12.50553, 43.95802], [12.50725, 43.97186], [12.51205, 43.97358], [12.51068, 43.98396], [12.51617, 43.98544], [12.51446, 43.99235], [12.50656, 43.99235], [12.50038, 43.98643], [12.49592, 43.98544], [12.46571, 43.97605], [12.43721, 43.95679], [12.42107, 43.95753], [12.41352, 43.95259]]}]}}, {"type": "Feature", "geometry": {"type": "Polygon", "coordinates": [[[12.40356, 43.95431], [12.40288, 43.9506], [12.40425, 43.94344], [12.4118, 43.93874], [12.41421, 43.93058], [12.40974, 43.92144], [12.40734, 43.9029], [12.41524, 43.89968], [12.43034, 43.9024], [12.43996, 43.90611], [12.45232, 43.89573], [12.48768, 43.89622], [12.49454, 43.90858], [12.49386, 43.91971], [12.50381, 43.92342], [12.51755, 43.94022], [12.50759, 43.95925], [12.50587, 43.9716], [12.51102, 43.97259], [12.51137, 43.98049], [12.51549, 43.98345], [12.51308, 43.99234], [12.50519, 43.9916], [12.50004, 43.98617], [12.49111, 43.98271], [12.4736, 43.97901], [12.43824, 43.95752], [12.41901, 43.95851], [12.41421, 43.95258], [12.40356, 43.95431]]]}, "properties": {"id": "9e8C", "status": "validé", "pieces": [{"kind": "polygon", "ring": [[12.40356, 43.95431], [12.40288, 43.9506], [12.40425, 43.94344], [12.4118, 43.93874], [12.41421, 43.93058], [12.40974, 43.92144], [12.40734, 43.9029], [12.41524, 43.89968], [12.43034, 43.9024], [12.43996, 43.90611], [12.45232, 43.89573], [12.48768, 43.89622], [12.49454, 43.90858], [12.49386, 43.91971], [12.50381, 43.92342], [12.51755, 43.94022], [12.50759, 43.95925], [12.50587, 43.9716], [12.51102, 43.97259], [12.51137, 43.98049], [12.51549, 43.98345], [12.51308, 43.99234], [12.50519, 43.9916], [12.50004, 43.98617], [12.49111, 43.98271], [12.4736, 43.97901], [12.43824, 43.95752], [12.41901, 43.95851], [12.41421, 43.95258]]}]}}, {"type": "Feature", "geometry": {"type": "Polygon", "coordinates": [[[12.40425, 43.95505], [12.40494, 43.94369], [12.40974, 43.93825], [12.41455, 43.9296], [12.40768, 43.92194], [12.40974, 43.90513], [12.41592, 43.90142], [12.43824, 43.90661], [12.45369, 43.89499], [12.48802, 43.89524], [12.49352, 43.91897], [12.5021, 43.92416], [12.51583, 43.94023], [12.5069, 43.95826], [12.50587, 43.97111], [12.51102, 43.97185], [12.51171, 43.98395], [12.51549, 43.98469], [12.51377, 43.99062], [12.50622, 43.99235], [12.49901, 43.98765], [12.49317, 43.9837], [12.47395, 43.98025], [12.43584, 43.95579], [12.4197, 43.95777], [12.41489, 43.95283], [12.40425, 43.95505]]]}, "properties": {"id": "B9B0", "status": "validé", "pieces": [{"kind": "polygon", "ring": [[12.40425, 43.95505], [12.40494, 43.94369], [12.40974, 43.93825], [12.41455, 43.9296], [12.40768, 43.92194], [12.40974, 43.90513], [12.41592, 43.90142], [12.43824, 43.90661], [12.45369, 43.89499], [12.48802, 43.89524], [12.49352, 43.91897], [12.5021, 43.92416], [12.51583, 43.94023], [12.5069, 43.95826], [12.50587, 43.97111], [12.51102, 43.97185], [12.51171, 43.98395], [12.51549, 43.98469], [12.51377, 43.99062], [12.50622, 43.99235], [12.49901, 43.98765], [12.49317, 43.9837], [12.47395, 43.98025], [12.43584, 43.95579], [12.4197, 43.95777], [12.41489, 43.95283]]}]}}, {"type": "Feature", "geometry": {"type": "Polygon", "coordinates": [[[12.46056, 43.893], [12.49043, 43.89647], [12.49352, 43.91847], [12.50244, 43.92317], [12.51549, 43.9422], [12.50828, 43.959], [12.50553, 43.97085], [12.51102, 43.97258], [12.51549, 43.99061], [12.5069, 43.9916], [12.49935, 43.98765], [12.49077, 43.98246], [12.46021, 43.97258], [12.43893, 43.95727], [12.41764, 43.95801], [12.41318, 43.95307], [12.40391, 43.95529], [12.40494, 43.94269], [12.41077, 43.93874], [12.41558, 43.92811], [12.40768, 43.9207], [12.41077, 43.91056], [12.40837, 43.90265], [12.41077, 43.90042], [12.43069, 43.90289], [12.44167, 43.90438], [12.4506, 43.89548], [12.46056, 43.893]]]}, "properties": {"id": "Fpf0", "status": "validé", "pieces": [{"kind": "polygon", "ring": [[12.46056, 43.893], [12.49043, 43.89647], [12.49352, 43.91847], [12.50244, 43.92317], [12.51549, 43.9422], [12.50828, 43.959], [12.50553, 43.97085], [12.51102, 43.97258], [12.51549, 43.99061], [12.5069, 43.9916], [12.49935, 43.98765], [12.49077, 43.98246], [12.46021, 43.97258], [12.43893, 43.95727], [12.41764, 43.95801], [12.41318, 43.95307], [12.40391, 43.95529], [12.40494, 43.94269], [12.41077, 43.93874], [12.41558, 43.92811], [12.40768, 43.9207], [12.41077, 43.91056], [12.40837, 43.90265], [12.41077, 43.90042], [12.43069, 43.90289], [12.44167, 43.90438], [12.4506, 43.89548]]}]}}, {"type": "Feature", "geometry": {"type": "Polygon", "coordinates": [[[12.4379, 43.95677], [12.45541, 43.97036], [12.48459, 43.98246], [12.50622, 43.9911], [12.51411, 43.9911], [12.51686, 43.98468], [12.51102, 43.98296], [12.51308, 43.97184], [12.50828, 43.97036], [12.50828, 43.95628], [12.51755, 43.94047], [12.50072, 43.92366], [12.48768, 43.89597], [12.45644, 43.89251], [12.44133, 43.90463], [12.41146, 43.89869], [12.40768, 43.90314], [12.41249, 43.90957], [12.40665, 43.92416], [12.41524, 43.92836], [12.40219, 43.95579], [12.4379, 43.95677]]]}, "properties": {"id": "HAjS", "status": "validé", "pieces": [{"kind": "polygon", "ring": [[12.4379, 43.95677], [12.45541, 43.97036], [12.48459, 43.98246], [12.50622, 43.9911], [12.51411, 43.9911], [12.51686, 43.98468], [12.51102, 43.98296], [12.51308, 43.97184], [12.50828, 43.97036], [12.50828, 43.95628], [12.51755, 43.94047], [12.50072, 43.92366], [12.48768, 43.89597], [12.45644, 43.89251], [12.44133, 43.90463], [12.41146, 43.89869], [12.40768, 43.90314], [12.41249, 43.90957], [12.40665, 43.92416], [12.41524, 43.92836], [12.40219, 43.95579]]}]}}, {"type": "Feature", "geometry": {"type": "Polygon", "coordinates": [[[12.40356, 43.95466], [12.40236, 43.95281], [12.4058, 43.94132], [12.41524, 43.92788], [12.40734, 43.92219], [12.41146, 43.91033], [12.40906, 43.90291], [12.41112, 43.90069], [12.44167, 43.90439], [12.45541, 43.89401], [12.48562, 43.89549], [12.49317, 43.90786], [12.4942, 43.91948], [12.50313, 43.92393], [12.51617, 43.93974], [12.50725, 43.95827], [12.5069, 43.97211], [12.51205, 43.97309], [12.51617, 43.98618], [12.51343, 43.99112], [12.50553, 43.99211], [12.50004, 43.98692], [12.49043, 43.98322], [12.46845, 43.97705], [12.43687, 43.9563], [12.42004, 43.95877], [12.41318, 43.95333], [12.40356, 43.95466]]]}, "properties": {"id": "RCBb", "status": "validé", "pieces": [{"kind": "polygon", "ring": [[12.40356, 43.95466], [12.40236, 43.95281], [12.4058, 43.94132], [12.41524, 43.92788], [12.40734, 43.92219], [12.41146, 43.91033], [12.40906, 43.90291], [12.41112, 43.90069], [12.44167, 43.90439], [12.45541, 43.89401], [12.48562, 43.89549], [12.49317, 43.90786], [12.4942, 43.91948], [12.50313, 43.92393], [12.51617, 43.93974], [12.50725, 43.95827], [12.5069, 43.97211], [12.51205, 43.97309], [12.51617, 43.98618], [12.51343, 43.99112], [12.50553, 43.99211], [12.50004, 43.98692], [12.49043, 43.98322], [12.46845, 43.97705], [12.43687, 43.9563], [12.42004, 43.95877], [12.41318, 43.95333]]}]}}, {"type": "Feature", "geometry": {"type": "Polygon", "coordinates": [[[12.40425, 43.95296], [12.41489, 43.95185], [12.41936, 43.95703], [12.43446, 43.95506], [12.45163, 43.96815], [12.48013, 43.9805], [12.49043, 43.98247], [12.49592, 43.98618], [12.50038, 43.98642], [12.5069, 43.99235], [12.51308, 43.99186], [12.51446, 43.98396], [12.50999, 43.98173], [12.51377, 43.97284], [12.50622, 43.97087], [12.50862, 43.96173], [12.50656, 43.95876], [12.51652, 43.94097], [12.50141, 43.92318], [12.4942, 43.91922], [12.4942, 43.90711], [12.48631, 43.89697], [12.45335, 43.89425], [12.44305, 43.90464], [12.41489, 43.90019], [12.40734, 43.90118], [12.41249, 43.91032], [12.40803, 43.92343], [12.41455, 43.92985], [12.41249, 43.93653], [12.40391, 43.94295], [12.40425, 43.95296]]]}, "properties": {"id": "XqN5", "status": "validé", "pieces": [{"kind": "polygon", "ring": [[12.40425, 43.95308], [12.40391, 43.94295], [12.41249, 43.93653], [12.41455, 43.92985], [12.40803, 43.92343], [12.41249, 43.91032], [12.40734, 43.90118], [12.41489, 43.90019], [12.44305, 43.90464], [12.45335, 43.89425], [12.48631, 43.89697], [12.4942, 43.90711], [12.4942, 43.91922], [12.50141, 43.92318], [12.51652, 43.94097], [12.50656, 43.95876], [12.50862, 43.96173], [12.50622, 43.97087], [12.51377, 43.97284], [12.50999, 43.98173], [12.51446, 43.98396], [12.51308, 43.99186], [12.5069, 43.99235], [12.50038, 43.98642], [12.49592, 43.98618], [12.49043, 43.98247], [12.48013, 43.9805], [12.45163, 43.96815], [12.43446, 43.95506], [12.41936, 43.95703], [12.41489, 43.95185], [12.39841, 43.95357]]}]}}, {"type": "Feature", "geometry": {"type": "Polygon", "coordinates": [[[12.46742, 43.93232], [12.46742, 43.94888], [12.43996, 43.94888], [12.43996, 43.93232], [12.46742, 43.93232]]]}, "properties": {"id": "nInM", "status": "validé", "pieces": [{"kind": "rect", "bounds": [12.43996, 43.93232, 12.46742, 43.94888]}]}}, {"type": "Feature", "geometry": {"type": "Polygon", "coordinates": [[[12.40391, 43.95504], [12.40459, 43.94788], [12.40597, 43.94219], [12.41249, 43.93799], [12.41489, 43.93182], [12.40631, 43.92465], [12.41249, 43.90907], [12.4094, 43.90141], [12.41421, 43.90017], [12.44202, 43.90536], [12.45094, 43.89597], [12.46433, 43.89498], [12.48699, 43.89646], [12.4918, 43.90586], [12.4942, 43.91921], [12.50244, 43.92341], [12.51652, 43.94096], [12.50759, 43.95751], [12.50828, 43.96171], [12.50622, 43.97085], [12.51205, 43.97233], [12.51102, 43.98048], [12.51411, 43.9916], [12.50656, 43.99184], [12.49969, 43.98715], [12.49043, 43.98271], [12.47498, 43.97925], [12.453, 43.96863], [12.43652, 43.95653], [12.41455, 43.95381], [12.40391, 43.95504]]]}, "properties": {"id": "nbvK", "status": "validé", "pieces": [{"kind": "polygon", "ring": [[12.40391, 43.95504], [12.40459, 43.94788], [12.40597, 43.94219], [12.41249, 43.93799], [12.41489, 43.93182], [12.40631, 43.92465], [12.41249, 43.90907], [12.4094, 43.90141], [12.41421, 43.90017], [12.44202, 43.90536], [12.45094, 43.89597], [12.46433, 43.89498], [12.48699, 43.89646], [12.4918, 43.90586], [12.4942, 43.91921], [12.50244, 43.92341], [12.51652, 43.94096], [12.50759, 43.95751], [12.50828, 43.96171], [12.50622, 43.97085], [12.51205, 43.97233], [12.51102, 43.98048], [12.51411, 43.9916], [12.50656, 43.99184], [12.49969, 43.98715], [12.49043, 43.98271], [12.47498, 43.97925], [12.453, 43.96863], [12.43652, 43.95653], [12.41455, 43.95381]]}]}}]}