{"type": "FeatureCollection", "features": [{"type": "Feature", "geometry": {"type": "MultiPolygon", "coordinates": [[[[121.58106, 22.03221], [121.58888, 22.02351], [121.58766, 22.01386], [121.56691, 22.00776], [121.53891, 22.01822], [121.51319, 22.03506], [121.4983, 22.04804], [121.50278, 22.05756], [121.50262, 22.06656], [121.49879, 22.07477], [121.49204, 22.08218], [121.56658, 22.08218], [121.56658, 22.07599], [121.56463, 22.07217], [121.56137, 22.06367], [121.56007, 22.05353], [121.56349, 22.04462], [121.58106, 22.03221]]], [[[121.45541, 22.67381], [121.45753, 22.67593], [121.49578, 22.67853], [121.50001, 22.67626], [121.50278, 22.6695], [121.49977, 22.65567], [121.49635, 22.65005], [121.49496, 22.64419], [121.49635, 22.63849], [121.4961, 22.63467], [121.49317, 22.6354], [121.48658, 22.6354], [121.48316, 22.63613], [121.48146, 22.63809], [121.47145, 22.64179], [121.4607, 22.659], [121.45541, 22.67381]]]]}, "properties": {"id": "0kzS", "status": "validé", "pieces": [{"kind": "polygon", "ring": [[121.43188, 22.11684], [121.49506, 21.93869], [121.71204, 21.91067], [121.62415, 22.75632], [121.28357, 22.69301]]}, {"kind": "clip"}]}}, {"type": "Feature", "geometry": null, "properties": {"id": "3RIG", "status": "validé", "pieces": [{"kind": "country"}]}}, {"type": "Feature", "geometry": null, "properties": {"id": "3U8M", "status": "validé", "pieces": [{"kind": "admin1", "code": "TWN-3415"}]}}, {"type": "Feature", "geometry": null, "properties": {"id": "5awu", "status": "validé", "pieces": [{"kind": "country"}]}}, {"type": "Feature", "geometry": null, "properties": {"id": "8WC6", "status": "validé", "pieces": [{"kind": "admin1", "code": "TWN-1172"}, {"kind": "admin1", "code": "TWN-1177"}, {"kind": "admin1", "code": "TWN-1163"}]}}, {"type": "Feature", "geometry": null, "properties": {"id": "8yzs", "status": "validé", "pieces": [{"kind": "country"}]}}, {"type": "Feature", "geometry": null, "properties": {"id": "ADWN", "status": "validé", "pieces": [{"kind": "country"}]}}, {"type": "Feature", "geometry": null, "properties": {"id": "AJuH", "status": "validé", "pieces": [{"kind": "country"}]}}, {"type": "Feature", "geometry": {"type": "Polygon", "coordinates": [[[121.60149, 24.9976], [121.60149, 25.07969], [121.49506, 25.07969], [121.49506, 24.9976], [121.60149, 24.9976]]]}, "properties": {"id": "AVoo", "status": "validé", "pieces": [{"kind": "rect", "bounds": [121.49506, 24.9976, 121.60149, 25.07969]}]}}, {"type": "Feature", "geometry": null, "properties": {"id": "AitK", "status": "validé", "pieces": [{"kind": "admin1", "code": "TWN-1173"}, {"kind": "admin1", "code": "TWN-1172"}, {"kind": "admin1", "code": "TWN-1170"}, {"kind": "admin1", "code": "TWN-1160"}, {"kind": "admin1", "code": "TWN-1156"}, {"kind": "admin1", "code": "TWN-1158"}, {"kind": "admin1", "code": "TWN-1177"}, {"kind": "admin1", "code": "TWN-1174"}, {"kind": "admin1", "code": "TWN-1167"}]}}, {"type": "Feature", "geometry": null, "properties": {"id": "BZpM", "status": "validé", "pieces": [{"kind": "admin1", "code": "TWN-3415"}]}}, {"type": "Feature", "geometry": null, "properties": {"id": "C92E", "status": "validé", "pieces": [{"kind": "admin1", "code": "TWN-3414"}]}}, {"type": "Feature", "geometry": null, "properties": {"id": "DIGz", "status": "validé", "pieces": [{"kind": "country"}]}}, {"type": "Feature", "geometry": {"type": "Polygon", "coordinates": [[[121.30966, 24.18003], [121.31241, 24.16313], [121.58638, 24.1506], [121.63513, 24.13181], [121.63651, 24.17565], [121.46828, 24.23575], [121.37833, 24.21697], [121.32545, 24.1913], [121.30966, 24.18003]]]}, "properties": {"id": "FdnX", "status": "validé", "pieces": [{"kind": "polygon", "ring": [[121.30966, 24.18003], [121.31241, 24.16313], [121.58638, 24.1506], [121.63513, 24.13181], [121.63651, 24.17565], [121.46828, 24.23575], [121.37833, 24.21697], [121.32545, 24.1913]]}]}}, {"type": "Feature", "geometry": null, "properties": {"id": "G2A6", "status": "validé", "pieces": [{"kind": "admin1", "code": "TWN-1158"}]}}, {"type": "Feature", "geometry": {"type": "Polygon", "coordinates": [[[121.47514, 23.62513], [121.47514, 23.70119], [121.39618, 23.70119], [121.39618, 23.62513], [121.47514, 23.62513]]]}, "properties": {"id": "Gypc", "status": "validé", "pieces": [{"kind": "rect", "bounds": [121.39618, 23.62513, 121.47514, 23.70119]}]}}, {"type": "Feature", "geometry": null, "properties": {"id": "HihI", "status": "validé", "pieces": [{"kind": "admin1", "code": "TWN-1167"}]}}, {"type": "Feature", "geometry": null, "properties": {"id": "LDPc", "status": "validé", "pieces": [{"kind": "admin1", "code": "TWN-3414"}]}}, {"type": "Feature", "geometry": null, "properties": {"id": "LVli", "status": "rejeté", "pieces": []}}, {"type": "Feature", "geometry": null, "properties": {"id": "Ldeq", "status": "validé", "pieces": [{"kind": "country"}]}}, {"type": "Feature", "geometry": {"type": "MultiPolygon", "coordinates": [[[[121.34348, 24.23547], [121.3487, 24.21372], [121.34963, 24.20118], [121.32994, 24.19279], [121.30462, 24.18506], [121.29056, 24.17514], [121.29154, 24.14054], [121.3024, 24.12995], [121.32214, 24.11822], [121.32777, 24.10238], [121.32679, 24.08915], [121.2963, 24.0529], [121.27707, 24.01585], [121.26798, 23.98939], [121.27594, 23.97781], [121.28265, 23.96223], [121.28033, 23.9359], [121.27444, 23.90133], [121.26271, 23.87087], [121.24813, 23.84139], [121.23847, 23.81687], [121.23764, 23.8039], [121.21599, 23.77126], [121.22416, 23.75731], [121.23614, 23.74328], [121.24069, 23.72426], [121.24426, 23.6993], [121.23956, 23.67024], [121.22746, 23.62613], [121.22126, 23.60851], [121.20431, 23.59747], [121.17517, 23.58781], [121.16018, 23.5699], [121.15501, 23.54014], [121.13486, 23.5236], [121.10675, 23.52278], [121.07864, 23.51699], [121.0589, 23.50363], [121.05326, 23.48944], [121.04748, 23.48019], [121.05393, 23.45857], [121.04225, 23.44865], [121.01931, 23.43668], [121.01683, 23.44369], [121.00091, 23.46394], [120.9788, 23.4718], [120.96216, 23.47539], [120.95875, 23.47614], [120.86139, 23.47676], [120.83245, 23.48151], [120.82832, 23.49495], [120.82687, 23.51521], [120.81674, 23.53794], [120.81199, 23.55469], [120.82335, 23.57267], [120.8248, 23.59107], [120.80516, 23.60078], [120.78945, 23.60492], [120.76382, 23.61401], [120.74067, 23.61631], [120.73075, 23.62869], [120.69933, 23.62559], [120.67349, 23.61835], [120.65138, 23.62724], [120.63629, 23.64357], [120.6398, 23.66362], [120.64703, 23.6816], [120.64311, 23.70827], [120.64703, 23.73328], [120.65468, 23.74961], [120.64745, 23.77493], [120.65634, 23.78046], [120.66595, 23.78832], [120.68057, 23.79369], [120.68414, 23.80596], [120.66295, 23.81576], [120.64817, 23.82072], [120.63427, 23.83229], [120.62657, 23.8542], [120.62988, 23.90079], [120.63427, 23.92379], [120.63468, 23.9435], [120.64088, 23.96236], [120.64858, 23.97807], [120.64641, 23.99213], [120.65107, 24.00233], [120.66734, 24.00758], [120.66724, 24.02009], [120.68331, 24.01957], [120.75168, 24.01076], [120.76765, 24.01308], [120.78656, 24.02962], [120.81534, 24.07964], [120.8294, 24.10899], [120.85374, 24.11961], [120.89224, 24.1145], [120.91513, 24.11548], [120.93704, 24.14207], [120.94846, 24.14868], [120.98262, 24.12553], [120.99585, 24.12868], [121.00582, 24.14757], [121.0236, 24.16121], [121.04882, 24.1608], [121.06784, 24.16741], [121.09786, 24.19387], [121.11714, 24.20379], [121.13393, 24.20669], [121.16752, 24.22281], [121.19103, 24.22364], [121.21475, 24.2271], [121.25702, 24.24237], [121.2748, 24.24348], [121.29268, 24.23976], [121.34348, 24.23547]]], [[[120.65602, 24.49787], [120.65935, 24.5207], [120.66773, 24.54002], [120.6902, 24.57612], [120.6963, 24.59772], [120.70216, 24.607], [120.72787, 24.61392], [120.73512, 24.62124], [120.73943, 24.63036], [120.74464, 24.63882], [120.76059, 24.65396], [120.77809, 24.66572], [120.79933, 24.6708], [120.82667, 24.66608], [120.82301, 24.68504], [120.83334, 24.69782], [120.8475, 24.71084], [120.8545, 24.73066], [120.85768, 24.73701], [120.87135, 24.74323], [120.87271, 24.74776], [120.8989, 24.73849], [120.91503, 24.72952], [120.92536, 24.71645], [120.942, 24.71038], [120.95952, 24.71423], [120.96025, 24.71503], [120.9697, 24.72552], [120.97828, 24.7451], [120.99141, 24.75999], [121.01358, 24.76826], [121.03326, 24.77128], [121.0422, 24.77596], [121.04592, 24.78867], [121.0389, 24.80133], [121.02417, 24.81456], [121.0036, 24.82448], [120.94624, 24.84102], [120.91464, 24.85342], [120.91489, 24.85371], [120.92058, 24.8614], [120.92286, 24.87466], [120.92604, 24.88471], [120.93393, 24.8946], [120.94402, 24.90205], [120.95362, 24.90501], [120.95281, 24.90925], [120.95533, 24.91938], [120.96388, 24.94042], [120.97169, 24.95177], [120.98381, 24.94794], [121.03564, 24.95127], [121.05321, 24.94052], [121.0684, 24.9106], [121.08742, 24.90386], [121.10385, 24.89957], [121.11941, 24.89282], [121.14545, 24.88512], [121.1591, 24.87078], [121.15481, 24.85053], [121.16793, 24.83771], [121.19284, 24.83053], [121.2087, 24.82006], [121.22064, 24.80931], [121.23516, 24.80683], [121.24979, 24.80794], [121.26271, 24.79583], [121.27263, 24.78012], [121.28916, 24.77267], [121.30219, 24.76358], [121.30353, 24.74622], [121.30953, 24.72113], [121.3024, 24.69438], [121.28482, 24.67193], [121.287, 24.65689], [121.30643, 24.64328], [121.32999, 24.63043], [121.35107, 24.62715], [121.36637, 24.61721], [121.39407, 24.60289], [121.41226, 24.59545], [121.40342, 24.573], [121.39831, 24.55659], [121.40048, 24.54142], [121.38621, 24.52129], [121.33299, 24.47225], [121.31645, 24.436], [121.3057, 24.43864], [121.2655, 24.4352], [121.26255, 24.43332], [121.24839, 24.4243], [121.24152, 24.40487], [121.22302, 24.39784], [121.20276, 24.39825], [121.18664, 24.38792], [121.16928, 24.37262], [121.14695, 24.36146], [121.10287, 24.32947], [121.07667, 24.3197], [121.04308, 24.3033], [121.02241, 24.31074], [121.0035, 24.32991], [120.9805, 24.33831], [120.94304, 24.34089], [120.92206, 24.32947], [120.91875, 24.304], [120.8989, 24.2942], [120.8526, 24.29201], [120.80852, 24.31516], [120.78372, 24.31929], [120.75561, 24.33169], [120.6983, 24.37027], [120.67442, 24.38929], [120.65639, 24.40665], [120.62133, 24.45598], [120.64894, 24.48387], [120.65602, 24.49787]]], [[[121.75873, 24.88656], [121.70105, 24.88905], [121.6626, 24.9015], [121.69556, 24.95876], [121.75598, 24.97121], [121.79443, 24.9264], [121.75873, 24.88656]]]]}, "properties": {"id": "Ls6z", "status": "validé", "pieces": [{"kind": "admin1", "code": "TWN-1173"}, {"kind": "admin1", "code": "TWN-1162"}, {"kind": "admin1", "code": "TWN-1165"}, {"kind": "polygon", "ring": [[121.75598, 24.97121], [121.69556, 24.95876], [121.6626, 24.9015], [121.70105, 24.88905], [121.75873, 24.88656], [121.79443, 24.9264]]}]}}, {"type": "Feature", "geometry": {"type": "Polygon", "coordinates": [[[120.62439, 24.42713], [120.73425, 24.34462], [120.64636, 24.02655], [120.54749, 24.11178], [120.51453, 24.18443], [120.46664, 24.19772], [120.47543, 24.2071], [120.47779, 24.20966], [120.48064, 24.2211], [120.49317, 24.23066], [120.50164, 24.25287], [120.51197, 24.29556], [120.54737, 24.35155], [120.55812, 24.38589], [120.57081, 24.40493], [120.59751, 24.43191], [120.62439, 24.42713]]]}, "properties": {"id": "MRFx", "status": "validé", "pieces": [{"kind": "polygon", "ring": [[120.62439, 24.42713], [120.51178, 24.44713], [120.45135, 24.20196], [120.51453, 24.18443], [120.54749, 24.11178], [120.64636, 24.02655], [120.73425, 24.34462]]}, {"kind": "clip"}]}}, {"type": "Feature", "geometry": null, "properties": {"id": "PZaA", "status": "validé", "pieces": [{"kind": "country"}]}}, {"type": "Feature", "geometry": {"type": "Polygon", "coordinates": [[[120.8194, 23.36885], [120.78163, 23.34428], [120.78094, 23.31151], [120.83519, 23.28629], [120.91347, 23.27746], [120.95879, 23.26548], [121.02608, 23.29764], [121.0508, 23.32348], [120.98557, 23.36129], [120.8194, 23.36885]]]}, "properties": {"id": "QXJU", "status": "validé", "pieces": [{"kind": "polygon", "ring": [[120.8194, 23.36885], [120.78163, 23.34428], [120.78094, 23.31151], [120.83519, 23.28629], [120.91347, 23.27746], [120.95879, 23.26548], [121.02608, 23.29764], [121.0508, 23.32348], [120.98557, 23.36129]]}]}}, {"type": "Feature", "geometry": null, "properties": {"id": "R3Gf", "status": "validé", "pieces": [{"kind": "admin1", "code": "TWN-3414"}]}}, {"type": "Feature", "geometry": {"type": "Polygon", "coordinates": [[[119.95148, 26.28603], [119.85123, 26.16042], [119.94461, 26.09634], [120.08194, 26.1863], [120.03387, 26.3008], [119.95148, 26.28603]]]}, "properties": {"id": "SMPt", "status": "validé", "pieces": [{"kind": "polygon", "ring": [[119.95148, 26.28603], [119.85123, 26.16042], [119.94461, 26.09634], [120.08194, 26.1863], [120.03387, 26.3008]]}]}}, {"type": "Feature", "geometry": null, "properties": {"id": "U317", "status": "rejeté", "pieces": []}}, {"type": "Feature", "geometry": null, "properties": {"id": "WWc3", "status": "rejeté", "pieces": []}}, {"type": "Feature", "geometry": {"type": "Polygon", "coordinates": [[[121.5081, 24.54496], [121.50089, 24.50343], [121.53488, 24.46876], [121.60252, 24.47813], [121.59771, 24.55619], [121.5081, 24.54496]]]}, "properties": {"id": "X2t0", "status": "validé", "pieces": [{"kind": "polygon", "ring": [[121.5081, 24.54496], [121.50089, 24.50343], [121.53488, 24.46876], [121.60252, 24.47813], [121.59771, 24.55619]]}]}}, {"type": "Feature", "geometry": null, "properties": {"id": "X7Nc", "status": "validé", "pieces": [{"kind": "admin1", "code": "TWN-1176"}]}}, {"type": "Feature", "geometry": null, "properties": {"id": "YhkW", "status": "validé", "pieces": [{"kind": "admin1", "code": "TWN-1163"}]}}, {"type": "Feature", "geometry": {"type": "MultiPolygon", "coordinates": [[[[120.17395, 23.62504], [120.36621, 23.60492], [120.33325, 23.27747], [120.42664, 22.91381], [120.83313, 22.8531], [121.3028, 23.11802], [121.39343, 23.40052], [121.44836, 23.44865], [121.48041, 23.44001], [121.4795, 23.43521], [121.46217, 23.343], [121.45362, 23.32599], [121.42677, 23.29312], [121.41676, 23.27607], [121.40887, 23.25458], [121.40333, 23.21475], [121.40382, 23.17927], [121.40008, 23.14549], [121.3816, 23.11066], [121.37371, 23.10322], [121.35548, 23.09101], [121.34742, 23.08332], [121.34343, 23.07539], [121.33709, 23.05508], [121.31886, 23.02554], [121.30763, 22.9798], [121.29957, 22.95917], [121.26051, 22.90729], [121.25563, 22.89777], [121.20281, 22.85651], [121.19028, 22.84317], [121.18849, 22.83393], [121.19093, 22.81196], [121.19028, 22.80215], [121.18556, 22.79096], [121.17742, 22.77863], [121.15935, 22.75747], [121.14145, 22.74177], [121.08025, 22.70409], [121.03907, 22.66242], [121.02906, 22.65754], [121.02101, 22.64789], [121.00115, 22.60077], [120.99122, 22.58308], [120.96062, 22.5478], [120.94825, 22.5268], [120.94109, 22.48363], [120.92286, 22.42475], [120.88657, 22.36595], [120.88136, 22.34593], [120.87501, 22.28925], [120.87599, 22.2377], [120.87924, 22.05581], [120.8733, 22.02998], [120.86362, 22.00894], [120.85084, 22.00023], [120.8357, 21.98725], [120.83619, 21.95771], [120.84156, 21.92548], [120.84034, 21.90461], [120.82309, 21.92862], [120.79737, 21.94676], [120.76743, 21.9593], [120.73731, 21.96613], [120.7361, 21.94282], [120.72731, 21.93447], [120.71437, 21.93749], [120.70037, 21.94843], [120.69956, 21.95669], [120.70436, 21.98139], [120.68336, 22.01386], [120.68165, 22.02253], [120.68189, 22.02961], [120.68336, 22.04121], [120.68336, 22.07905], [120.68556, 22.09015], [120.69483, 22.10261], [120.69695, 22.11323], [120.62127, 22.29507], [120.615, 22.305], [120.59392, 22.32917], [120.57732, 22.36384], [120.56967, 22.37385], [120.53875, 22.39643], [120.52638, 22.40302], [120.52223, 22.40428], [120.51808, 22.40697], [120.51441, 22.42007], [120.51197, 22.42475], [120.49529, 22.43476], [120.45721, 22.45161], [120.43995, 22.46259], [120.42172, 22.47736], [120.41326, 22.48233], [120.40211, 22.4868], [120.39601, 22.48648], [120.38901, 22.48408], [120.38087, 22.48387], [120.33123, 22.51972], [120.28517, 22.58006], [120.33367, 22.52595], [120.32797, 22.5517], [120.31992, 22.56582], [120.31349, 22.57705], [120.29331, 22.59829], [120.25896, 22.62759], [120.24578, 22.64252], [120.23959, 22.65908], [120.24781, 22.67524], [120.25213, 22.68964], [120.24635, 22.70991], [120.23618, 22.72988], [120.21754, 22.75674], [120.19996, 22.79247], [120.19606, 22.80834], [120.19646, 22.81859], [120.20216, 22.83124], [120.20346, 22.83967], [120.20135, 22.84414], [120.19646, 22.84748], [120.19142, 22.85204], [120.18922, 22.86018], [120.17848, 22.87735], [120.17555, 22.8841], [120.16749, 22.93187], [120.16383, 22.95384], [120.15691, 22.96654], [120.1421, 22.98029], [120.16017, 22.99213], [120.17026, 23.01337], [120.16619, 23.03172], [120.1421, 23.0349], [120.13746, 23.02839], [120.13347, 23.01655], [120.12672, 23.00715], [120.11411, 23.00764], [120.10914, 23.01545], [120.11101, 23.03998], [120.10792, 23.04857], [120.09246, 23.05476], [120.08375, 23.04755], [120.07667, 23.03742], [120.06625, 23.0349], [120.05519, 23.04369], [120.05242, 23.05581], [120.05494, 23.06778], [120.05942, 23.07587], [120.07057, 23.0812], [120.08473, 23.08295], [120.09645, 23.08641], [120.10043, 23.09699], [120.09498, 23.10248], [120.05942, 23.11066], [120.05942, 23.1175], [120.0892, 23.11774], [120.08627, 23.12694], [120.07008, 23.1398], [120.05942, 23.15103], [120.06202, 23.16502], [120.07154, 23.16999], [120.08188, 23.17316], [120.08692, 23.18203], [120.08383, 23.19575], [120.07862, 23.20698], [120.08216, 23.21729], [120.08744, 23.23029], [120.0961, 23.23949], [120.09425, 23.2475], [120.09604, 23.25536], [120.1089, 23.28669], [120.11492, 23.29271], [120.12468, 23.29499], [120.11049, 23.3037], [120.11653, 23.3179], [120.13118, 23.31881], [120.14356, 23.32388], [120.14894, 23.32225], [120.14576, 23.33332], [120.13734, 23.32773], [120.13028, 23.32934], [120.12094, 23.32974], [120.12078, 23.34125], [120.13015, 23.36096], [120.14416, 23.36185], [120.16458, 23.36171], [120.15064, 23.39814], [120.13478, 23.42626], [120.1421, 23.43895], [120.1421, 23.44579], [120.13054, 23.45099], [120.13209, 23.45698], [120.13868, 23.46426], [120.1421, 23.47309], [120.15754, 23.49148], [120.12503, 23.48961], [120.12426, 23.52002], [120.14169, 23.53795], [120.14087, 23.59526], [120.14141, 23.60374], [120.17395, 23.62504]]], [[[121.58106, 22.03221], [121.58888, 22.02351], [121.58766, 22.01386], [121.56691, 22.00776], [121.53891, 22.01822], [121.51319, 22.03506], [121.4983, 22.04804], [121.50278, 22.05756], [121.50262, 22.06656], [121.49879, 22.07477], [121.49204, 22.08218], [121.56658, 22.08218], [121.56658, 22.07599], [121.56463, 22.07217], [121.56137, 22.06367], [121.56007, 22.05353], [121.56349, 22.04462], [121.58106, 22.03221]]], [[[121.45541, 22.67381], [121.45753, 22.67593], [121.49578, 22.67853], [121.50001, 22.67626], [121.50278, 22.6695], [121.49977, 22.65567], [121.49635, 22.65005], [121.49496, 22.64419], [121.49635, 22.63849], [121.4961, 22.63467], [121.49317, 22.6354], [121.48658, 22.6354], [121.48316, 22.63613], [121.48146, 22.63809], [121.47145, 22.64179], [121.4607, 22.659], [121.45541, 22.67381]]], [[[120.07493, 23.50082], [120.11525, 23.54791], [120.12477, 23.55045], [120.0903, 23.4994], [120.07345, 23.48381], [120.06227, 23.47128], [120.04791, 23.45809], [120.0366, 23.45081], [120.01954, 23.43838], [120.00766, 23.43259], [120.02186, 23.45164], [120.07493, 23.50082]]]]}, "properties": {"id": "Z5mI", "status": "validé", "pieces": [{"kind": "polygon", "ring": [[120.32776, 21.88815], [121.80542, 21.87287], [121.54175, 23.42346], [121.44836, 23.44865], [121.39343, 23.40052], [121.3028, 23.11802], [120.83313, 22.8531], [120.42664, 22.91381], [120.33325, 23.27747], [120.36621, 23.60492], [120.17395, 23.62504], [119.90479, 23.44885], [119.9707, 22.52889]]}, {"kind": "clip"}]}}, {"type": "Feature", "geometry": null, "properties": {"id": "ZugP", "status": "validé", "pieces": [{"kind": "admin1", "code": "TWN-1171"}]}}, {"type": "Feature", "geometry": null, "properties": {"id": "ajya", "status": "validé", "pieces": [{"kind": "country"}]}}, {"type": "Feature", "geometry": {"type": "Polygon", "coordinates": [[[121.26984, 24.78185], [121.13525, 24.6322], [121.03363, 24.50236], [120.90729, 24.29484], [120.77545, 24.31485], [120.61615, 24.43989], [120.61525, 24.44984], [120.62135, 24.456], [120.64894, 24.48387], [120.65602, 24.49787], [120.65935, 24.5207], [120.66773, 24.54002], [120.6902, 24.57612], [120.6963, 24.59772], [120.70216, 24.607], [120.72787, 24.61392], [120.73512, 24.62124], [120.73943, 24.63036], [120.74464, 24.63882], [120.76059, 24.65396], [120.77809, 24.66572], [120.79933, 24.6708], [120.82667, 24.66608], [120.82301, 24.68504], [120.83334, 24.69782], [120.8475, 24.71084], [120.8545, 24.73066], [120.85768, 24.73701], [120.87135, 24.74323], [120.87696, 24.76191], [120.89812, 24.80117], [120.90642, 24.81147], [120.90919, 24.81688], [120.90903, 24.82274], [120.9065, 24.82909], [120.90235, 24.83682], [120.90805, 24.84707], [120.91464, 24.85342], [120.91489, 24.85371], [120.92058, 24.8614], [120.92286, 24.87466], [120.92604, 24.88471], [120.93393, 24.8946], [120.94402, 24.90205], [120.95362, 24.90501], [120.95281, 24.90925], [120.95533, 24.91938], [120.96388, 24.94042], [120.97169, 24.95177], [120.98448, 24.97024], [121.26984, 24.78185]]]}, "properties": {"id": "cjeB", "status": "validé", "pieces": [{"kind": "polygon", "ring": [[120.61615, 24.43989], [120.77545, 24.31485], [120.90729, 24.29484], [121.03363, 24.50236], [121.13525, 24.6322], [121.26984, 24.78185], [120.95673, 24.98856], [120.60242, 24.59226]]}, {"kind": "clip"}]}}, {"type": "Feature", "geometry": null, "properties": {"id": "dA3T", "status": "validé", "pieces": [{"kind": "country"}]}}, {"type": "Feature", "geometry": null, "properties": {"id": "e0bH", "status": "validé", "pieces": [{"kind": "admin1", "code": "TWN-1168"}, {"kind": "admin1", "code": "TWN-1167"}, {"kind": "admin1", "code": "TWN-1166"}, {"kind": "admin1", "code": "TWN-1164"}]}}, {"type": "Feature", "geometry": null, "properties": {"id": "ePib", "status": "validé", "pieces": [{"kind": "admin1", "code": "TWN-3415"}]}}, {"type": "Feature", "geometry": null, "properties": {"id": "hIN3", "status": "rejeté", "pieces": []}}, {"type": "Feature", "geometry": {"type": "MultiPolygon", "coordinates": [[[[120.08752, 23.51552], [120.11525, 23.54791], [120.12477, 23.55045], [120.0903, 23.4994], [120.08324, 23.49287], [120.08752, 23.51552]]], [[[120.05243, 23.05585], [120.05494, 23.06778], [120.05942, 23.07587], [120.07057, 23.0812], [120.08473, 23.08295], [120.09645, 23.08641], [120.10043, 23.09699], [120.09498, 23.10248], [120.05942, 23.11066], [120.05942, 23.1175], [120.0892, 23.11774], [120.08627, 23.12694], [120.07008, 23.1398], [120.05942, 23.15103], [120.06202, 23.16502], [120.07154, 23.16999], [120.08188, 23.17316], [120.08692, 23.18203], [120.08383, 23.19575], [120.07862, 23.20698], [120.08216, 23.21729], [120.08744, 23.23029], [120.0961, 23.23949], [120.09425, 23.2475], [120.09604, 23.25536], [120.1089, 23.28669], [120.11492, 23.29271], [120.12468, 23.29499], [120.11049, 23.3037], [120.11653, 23.3179], [120.13118, 23.31881], [120.14356, 23.32388], [120.14894, 23.32225], [120.14576, 23.33332], [120.13734, 23.32773], [120.13028, 23.32934], [120.12094, 23.32974], [120.12078, 23.34125], [120.13015, 23.36096], [120.14416, 23.36185], [120.16458, 23.36171], [120.15064, 23.39814], [120.13478, 23.42626], [120.1421, 23.43895], [120.1421, 23.44579], [120.13054, 23.45099], [120.13209, 23.45698], [120.13868, 23.46426], [120.1421, 23.47309], [120.15754, 23.49148], [120.12503, 23.48961], [120.12426, 23.52002], [120.14169, 23.53795], [120.14087, 23.59526], [120.14361, 23.63804], [120.15423, 23.67221], [120.17081, 23.6989], [120.17555, 23.73383], [120.18442, 23.76439], [120.18922, 23.77481], [120.21266, 23.80317], [120.21556, 23.8102], [120.19867, 23.73068], [120.2179, 23.51184], [120.22064, 23.3481], [120.16571, 23.22201], [120.15472, 23.09832], [120.2124, 23.06043], [120.20966, 22.99979], [120.22614, 22.89867], [120.25909, 22.7595], [120.22298, 22.7489], [120.21754, 22.75674], [120.19996, 22.79247], [120.19606, 22.80834], [120.19646, 22.81859], [120.20216, 22.83124], [120.20346, 22.83967], [120.20135, 22.84414], [120.19646, 22.84748], [120.19142, 22.85204], [120.18922, 22.86018], [120.17848, 22.87735], [120.17555, 22.8841], [120.16749, 22.93187], [120.16383, 22.95384], [120.15691, 22.96654], [120.1421, 22.98029], [120.16017, 22.99213], [120.17026, 23.01337], [120.16619, 23.03172], [120.1421, 23.0349], [120.13746, 23.02839], [120.13347, 23.01655], [120.12672, 23.00715], [120.11411, 23.00764], [120.10914, 23.01545], [120.11101, 23.03998], [120.10792, 23.04857], [120.09246, 23.05476], [120.08375, 23.04755], [120.07667, 23.03742], [120.06625, 23.0349], [120.0598, 23.04002], [120.05243, 23.05585]]]]}, "properties": {"id": "hLAJ", "status": "validé", "pieces": [{"kind": "polygon", "ring": [[120.22339, 23.84709], [120.1506, 23.79058], [120.09293, 23.54416], [120.05035, 23.3187], [120.00092, 23.16649], [120.19867, 22.74177], [120.25909, 22.7595], [120.22614, 22.89867], [120.20966, 22.99979], [120.2124, 23.06043], [120.15472, 23.09832], [120.16571, 23.22201], [120.22064, 23.3481], [120.2179, 23.51184], [120.19867, 23.73068]]}, {"kind": "clip"}]}}, {"type": "Feature", "geometry": null, "properties": {"id": "ibx1", "status": "validé", "pieces": [{"kind": "admin1", "code": "TWN-1169"}]}}, {"type": "Feature", "geometry": null, "properties": {"id": "l3o2", "status": "validé", "pieces": [{"kind": "country"}]}}, {"type": "Feature", "geometry": null, "properties": {"id": "m9ZV", "status": "validé", "pieces": [{"kind": "country"}]}}, {"type": "Feature", "geometry": null, "properties": {"id": "mvZD", "status": "validé", "pieces": [{"kind": "country"}]}}, {"type": "Feature", "geometry": {"type": "Polygon", "coordinates": [[[121.54999, 24.64478], [121.82264, 24.85269], [121.81463, 24.83173], [121.80885, 24.80516], [121.80681, 24.77875], [121.80779, 24.75312], [121.82032, 24.69965], [121.81959, 24.68598], [121.81422, 24.67231], [121.81495, 24.64436], [121.82797, 24.62279], [121.85271, 24.60887], [121.88185, 24.60399], [121.88185, 24.59781], [121.86948, 24.59894], [121.85776, 24.59785], [121.84791, 24.59492], [121.8418, 24.59095], [121.54999, 24.64478]]]}, "properties": {"id": "mxtA", "status": "validé", "pieces": [{"kind": "polygon", "ring": [[121.82465, 24.85422], [121.54999, 24.64478], [121.91528, 24.57739]]}, {"kind": "clip"}]}}, {"type": "Feature", "geometry": {"type": "Polygon", "coordinates": [[[120.24571, 22.67111], [120.24781, 22.67524], [120.25213, 22.68964], [120.24635, 22.70991], [120.23618, 22.72988], [120.21754, 22.75674], [120.19996, 22.79247], [120.19606, 22.80834], [120.19646, 22.81859], [120.20216, 22.83124], [120.20346, 22.83967], [120.20135, 22.84414], [120.19646, 22.84748], [120.19472, 22.84905], [120.41565, 22.83309], [120.29701, 22.5944], [120.29331, 22.59829], [120.28598, 22.60454], [120.24571, 22.67111]]]}, "properties": {"id": "p8lC", "status": "validé", "pieces": [{"kind": "polygon", "ring": [[120.2948, 22.58996], [120.1355, 22.85333], [120.41565, 22.83309]]}, {"kind": "clip"}]}}, {"type": "Feature", "geometry": null, "properties": {"id": "pMsV", "status": "validé", "pieces": [{"kind": "country"}]}}, {"type": "Feature", "geometry": null, "properties": {"id": "psr4", "status": "rejeté", "pieces": []}}, {"type": "Feature", "geometry": null, "properties": {"id": "rqqJ", "status": "validé", "pieces": [{"kind": "country"}]}}, {"type": "Feature", "geometry": {"type": "MultiPolygon", "coordinates": [[[[120.16872, 23.02032], [120.16619, 23.03172], [120.1421, 23.0349], [120.13746, 23.02839], [120.13491, 23.02081], [120.10958, 23.02118], [120.11101, 23.03998], [120.10792, 23.04857], [120.09246, 23.05476], [120.08375, 23.04755], [120.07667, 23.03742], [120.06625, 23.0349], [120.05519, 23.04369], [120.05242, 23.05581], [120.05494, 23.06778], [120.05942, 23.07587], [120.07057, 23.0812], [120.08473, 23.08295], [120.09645, 23.08641], [120.10043, 23.09699], [120.09498, 23.10248], [120.05942, 23.11066], [120.05942, 23.1175], [120.0892, 23.11774], [120.08627, 23.12694], [120.07008, 23.1398], [120.05942, 23.15103], [120.06202, 23.16502], [120.07154, 23.16999], [120.08188, 23.17316], [120.08692, 23.18203], [120.08383, 23.19575], [120.07862, 23.20698], [120.08216, 23.21729], [120.08744, 23.23029], [120.0961, 23.23949], [120.09425, 23.2475], [120.09604, 23.25536], [120.1089, 23.28669], [120.11492, 23.29271], [120.12468, 23.29499], [120.11049, 23.3037], [120.11653, 23.3179], [120.13118, 23.31881], [120.14356, 23.32388], [120.14894, 23.32225], [120.14576, 23.33332], [120.13734, 23.32773], [120.13028, 23.32934], [120.12094, 23.32974], [120.12078, 23.34125], [120.13015, 23.36096], [120.14416, 23.36185], [120.16458, 23.36171], [120.15064, 23.39814], [120.13478, 23.42626], [120.1421, 23.43895], [120.1421, 23.44579], [120.13054, 23.45099], [120.13209, 23.45698], [120.13868, 23.46426], [120.1421, 23.47309], [120.15754, 23.49148], [120.12503, 23.48961], [120.12426, 23.52002], [120.14169, 23.53795], [120.14087, 23.59526], [120.14194, 23.61204], [120.14361, 23.63804], [120.15423, 23.67221], [120.17081, 23.6989], [120.17555, 23.73383], [120.18442, 23.76439], [120.18922, 23.77481], [120.21266, 23.80317], [120.21656, 23.81265], [120.21949, 23.81794], [120.24073, 23.83283], [120.24393, 23.83845], [120.24675, 23.84341], [120.25294, 23.86807], [120.2575, 23.8784], [120.28443, 23.902], [120.29225, 23.91193], [120.3025, 23.93887], [120.31813, 23.96581], [120.3401, 24.0218], [120.35035, 24.03807], [120.36183, 24.04853], [120.37127, 24.05435], [120.37957, 24.05801], [120.38551, 24.06306], [120.38787, 24.07331], [120.39235, 24.08291], [120.41188, 24.09691], [120.41635, 24.10749], [120.41863, 24.14252], [120.42205, 24.15217], [120.4323, 24.16108], [120.47542, 24.20709], [120.49759, 24.20049], [120.51278, 24.18837], [120.52291, 24.16633], [120.52684, 24.14], [120.54389, 24.12111], [120.58911, 24.10899], [120.60549, 24.09659], [120.61773, 24.07923], [120.62533, 24.06543], [120.62548, 24.05166], [120.63019, 24.03998], [120.64641, 24.03734], [120.66719, 24.02494], [120.66724, 24.02009], [120.66734, 24.00758], [120.65107, 24.00233], [120.64641, 23.99213], [120.64858, 23.97807], [120.64088, 23.96236], [120.63468, 23.9435], [120.63427, 23.92379], [120.62988, 23.90079], [120.62657, 23.8542], [120.63427, 23.83229], [120.64817, 23.82072], [120.66295, 23.81576], [120.68414, 23.80596], [120.68057, 23.79369], [120.66595, 23.78832], [120.65634, 23.78046], [120.64745, 23.77493], [120.65468, 23.74961], [120.64703, 23.73328], [120.64311, 23.70827], [120.64703, 23.6816], [120.6398, 23.66362], [120.63629, 23.64357], [120.65138, 23.62724], [120.67349, 23.61835], [120.69933, 23.62559], [120.73075, 23.62869], [120.74067, 23.61631], [120.73881, 23.61649], [120.73736, 23.59913], [120.73736, 23.58714], [120.72248, 23.58259], [120.67783, 23.57432], [120.65385, 23.57205], [120.64476, 23.5859], [120.62678, 23.59747], [120.59515, 23.58921], [120.5811, 23.58735], [120.53314, 23.60347], [120.51412, 23.62393], [120.49407, 23.64006], [120.47402, 23.63911], [120.53101, 23.59001], [120.17944, 23.02016], [120.16872, 23.02032]]], [[[120.07364, 23.49962], [120.07493, 23.50082], [120.11525, 23.54791], [120.12477, 23.55045], [120.0903, 23.4994], [120.07345, 23.48381], [120.06227, 23.47128], [120.05668, 23.46615], [120.07364, 23.49962]]]]}, "properties": {"id": "s6am", "status": "validé", "pieces": [{"kind": "admin1", "code": "TWN-1169"}, {"kind": "admin1", "code": "TWN-1176"}, {"kind": "polygon", "ring": [[120.53101, 23.59001], [120.17944, 23.02016], [119.83337, 23.02521], [120.12451, 23.60007], [120.34424, 23.75093]]}, {"kind": "clip"}]}}, {"type": "Feature", "geometry": null, "properties": {"id": "syWO", "status": "validé", "pieces": [{"kind": "admin1", "code": "TWN-3414"}]}}, {"type": "Feature", "geometry": null, "properties": {"id": "t3mm", "status": "validé", "pieces": [{"kind": "admin1", "code": "TWN-1158"}, {"kind": "admin1", "code": "TWN-1156"}, {"kind": "admin1", "code": "TWN-1177"}]}}, {"type": "Feature", "geometry": {"type": "Polygon", "coordinates": [[[121.02539, 22.79256], [121.12427, 23.06552], [121.27808, 23.44388], [121.53625, 24.00688], [121.60851, 24.07978], [121.60743, 24.07685], [121.60816, 24.06049], [121.615, 24.0423], [121.62078, 24.03461], [121.62574, 24.03095], [121.62892, 24.02619], [121.62916, 24.01496], [121.62501, 24.00239], [121.6111, 23.98249], [121.60816, 23.97036], [121.6067, 23.94806], [121.59449, 23.89151], [121.59134, 23.88375], [121.55823, 23.83826], [121.44836, 23.56173], [121.35086, 23.30983], [121.23962, 23.07767], [121.1586, 22.8919], [121.1874, 22.79532], [121.18556, 22.79096], [121.17742, 22.77863], [121.15935, 22.75747], [121.14145, 22.74177], [121.08025, 22.70409], [121.05365, 22.67717], [121.03638, 22.68114], [121.02539, 22.79256]]]}, "properties": {"id": "tuU2", "status": "validé", "pieces": [{"kind": "polygon", "ring": [[121.03638, 22.68114], [121.02539, 22.79256], [121.12427, 23.06552], [121.27808, 23.44388], [121.53625, 24.00688], [121.64063, 24.11218], [121.69556, 24.02695], [121.55823, 23.83826], [121.44836, 23.56173], [121.35086, 23.30983], [121.23962, 23.07767], [121.1586, 22.8919], [121.19293, 22.77677], [121.19293, 22.7236], [121.08307, 22.67041]]}, {"kind": "clip"}]}}, {"type": "Feature", "geometry": null, "properties": {"id": "ufvr", "status": "rejeté", "pieces": []}}, {"type": "Feature", "geometry": null, "properties": {"id": "vpmY", "status": "validé", "pieces": [{"kind": "country"}]}}, {"type": "Feature", "geometry": null, "properties": {"id": "wl3v", "status": "validé", "pieces": [{"kind": "admin1", "code": "TWN-1167"}, {"kind": "admin1", "code": "TWN-1166"}, {"kind": "admin1", "code": "TWN-1164"}]}}]}