{"type": "FeatureCollection", "features": [{"type": "Feature", "geometry": {"type": "Polygon", "coordinates": [[[23.88428, 48.19676], [23.99107, 47.96182], [23.97727, 47.96229], [23.87661, 47.93444], [23.85522, 47.93423], [23.84839, 47.94966], [23.79651, 47.98198], [23.78008, 47.98751], [23.71052, 47.98508], [23.68727, 47.98725], [23.64613, 47.99661], [23.58174, 48.00157], [23.56324, 48.00575], [23.52562, 48.00118], [23.51446, 47.99898], [23.50371, 47.99289], [23.49937, 47.98622], [23.49431, 47.98054], [23.48852, 47.97586], [23.48548, 47.97423], [23.48159, 47.97216], [23.46082, 47.97134], [23.39602, 47.99307], [23.39447, 47.99345], [23.39302, 47.99358], [23.39157, 47.99345], [23.39013, 47.99307], [23.38217, 47.99113], [23.37473, 47.99056], [23.36729, 47.99121], [23.36005, 47.99314], [23.33752, 48.01087], [23.28977, 48.03821], [23.24864, 48.07123], [23.23138, 48.07973], [23.16172, 48.0959], [23.13908, 48.09813], [23.11862, 48.09154], [23.09898, 48.07123], [23.07655, 48.02451], [23.06312, 48.00746], [23.02033, 47.98472], [23.00442, 47.98307], [22.98819, 47.98637], [22.97248, 47.99289], [22.95708, 48.00012], [22.9393, 48.00565], [22.92411, 48.00482], [22.91574, 47.99299], [22.92421, 47.97273], [22.91584, 47.95919], [22.89786, 47.95098], [22.8776, 47.94674], [22.84081, 47.96679], [22.83244, 47.97893], [22.84949, 47.99314], [22.85135, 48.0088], [22.85796, 48.01803], [22.86158, 48.02839], [22.85476, 48.0473], [22.84432, 48.06105], [22.83099, 48.07244], [22.80143, 48.09097], [22.76557, 48.10453], [22.76205, 48.10926], [22.74572, 48.11629], [22.72857, 48.11314], [22.71162, 48.10582], [22.69322, 48.10177], [22.62118, 48.10177], [22.60806, 48.09683], [22.60547, 48.09704], [22.6001, 48.10112], [22.58304, 48.12482], [22.56889, 48.15652], [22.55576, 48.17716], [22.48145, 48.24259], [22.47742, 48.24393], [22.47328, 48.2445], [22.46905, 48.24414], [22.44972, 48.23768], [22.43422, 48.23675], [22.4184, 48.23897], [22.39877, 48.24434], [22.39453, 48.24476], [22.3905, 48.24434], [22.38647, 48.24305], [22.37861, 48.23886], [22.37086, 48.23739], [22.36363, 48.23871], [22.35712, 48.2431], [22.30813, 48.29369], [22.29738, 48.314], [22.29645, 48.3278], [22.29872, 48.33932], [22.29872, 48.34914], [22.29128, 48.35757], [22.28436, 48.35839], [22.25676, 48.35728], [22.25697, 48.37322], [22.27185, 48.40346], [22.23609, 48.41529], [22.20198, 48.41816], [22.16922, 48.40953], [22.1593, 48.40232], [22.15826, 48.40222], [22.15651, 48.40206], [22.13284, 48.4048], [22.13377, 48.47684], [22.14483, 48.49311], [22.14834, 48.50882], [22.13666, 48.54934], [22.13873, 48.56959], [22.15372, 48.58587], [22.21904, 48.62094], [22.22524, 48.62822], [22.23568, 48.64416], [22.24322, 48.65119], [22.25552, 48.65677], [22.28218, 48.6624], [22.29428, 48.66763], [22.3103, 48.68168], [22.32249, 48.70034], [22.32819, 48.71924], [23.88428, 48.19676]]]}, "properties": {"id": "0TmA", "status": "validé", "pieces": [{"kind": "polygon", "ring": [[22.23633, 48.75008], [23.88428, 48.19676], [24.11499, 47.68918], [21.50024, 47.91784], [21.76392, 48.68487]]}, {"kind": "clip"}]}}, {"type": "Feature", "geometry": null, "properties": {"id": "3Khl", "status": "validé", "pieces": [{"kind": "country"}]}}, {"type": "Feature", "geometry": null, "properties": {"id": "6azP", "status": "rejeté", "pieces": []}}, {"type": "Feature", "geometry": {"type": "Polygon", "coordinates": [[[23.21411, 48.13063], [22.19985, 48.61063], [22.21904, 48.62094], [22.22524, 48.62822], [22.23568, 48.64416], [22.24322, 48.65119], [22.25552, 48.65677], [22.28218, 48.6624], [22.29428, 48.66763], [22.3103, 48.68168], [22.32249, 48.70034], [22.3289, 48.72158], [22.32766, 48.74302], [22.33076, 48.75641], [22.33841, 48.76297], [22.34781, 48.76788], [22.35649, 48.77614], [22.36342, 48.78762], [22.36569, 48.79439], [22.36352, 48.82829], [22.36156, 48.83645], [22.36228, 48.84425], [22.3689, 48.85645], [22.3708, 48.85825], [22.37841, 48.86544], [22.40238, 48.87883], [22.41179, 48.88777], [22.41375, 48.89386], [22.41365, 48.90678], [22.41489, 48.91169], [22.42729, 48.92947], [22.449, 48.97143], [22.46657, 48.98053], [22.50501, 48.98425], [22.52052, 48.99293], [22.5201, 49.00983], [22.52475, 49.03287], [22.53199, 49.05571], [22.53964, 49.0722], [22.56072, 49.08553], [22.58077, 49.08145], [22.61829, 49.05422], [22.64289, 49.04316], [22.66438, 49.04145], [22.68578, 49.0428], [22.72195, 49.04104], [22.74448, 49.04554], [22.75533, 49.04471], [22.76546, 49.0384], [22.78396, 49.02135], [22.79502, 49.01902], [22.8129, 49.01288], [22.83502, 48.99975], [22.85528, 48.99401], [22.86696, 49.00998], [22.86501, 49.01324], [22.86375, 49.01536], [22.84753, 49.0337], [22.84318, 49.04311], [22.84442, 49.0567], [22.85352, 49.07628], [22.85342, 49.08476], [22.84132, 49.09489], [22.79647, 49.11137], [22.77807, 49.12031], [22.74882, 49.14558], [22.71637, 49.16057], [22.72019, 49.16119], [22.72143, 49.1616], [22.70573, 49.16884], [22.6925, 49.15793], [22.68784, 49.15592], [22.68175, 49.16124], [22.68712, 49.17338], [22.70293, 49.19503], [22.71709, 49.23043], [22.73394, 49.26087], [22.73776, 49.27539], [22.72423, 49.36706], [22.71978, 49.38298], [22.7142, 49.39063], [22.6926, 49.40551], [22.67958, 49.41895], [22.67679, 49.42448], [22.67307, 49.43585], [22.66686, 49.47838], [22.66015, 49.493], [22.64092, 49.52876], [22.66583, 49.56736], [22.72964, 49.62313], [24.03809, 49.1609], [26.0376, 48.04994], [25.95525, 47.96562], [25.91809, 47.96816], [25.90124, 47.96596], [25.87096, 47.95702], [25.81835, 47.95258], [25.75252, 47.9346], [25.26174, 47.89858], [25.21896, 47.87847], [25.14179, 47.79247], [24.83724, 47.76402], [24.82074, 47.78409], [24.80823, 47.79574], [24.79366, 47.80447], [24.71284, 47.82592], [24.67914, 47.84013], [24.66147, 47.85388], [24.65692, 47.8662], [24.65599, 47.8793], [24.64927, 47.89522], [24.63367, 47.90829], [24.60845, 47.92193], [24.56981, 47.93729], [24.56163, 47.94054], [24.5421, 47.94382], [24.48556, 47.9432], [24.42851, 47.95253], [24.40919, 47.95206], [24.38624, 47.94369], [24.34718, 47.92088], [24.29788, 47.91979], [24.23101, 47.89703], [24.2093, 47.89759], [24.15018, 47.91292], [24.14874, 47.91212], [24.13117, 47.91454], [24.09479, 47.93793], [24.07494, 47.94418], [24.02523, 47.95325], [24.0088, 47.96121], [23.97727, 47.96229], [23.89101, 47.93842], [23.84584, 47.95125], [23.79651, 47.98198], [23.78008, 47.98751], [23.72491, 47.98559], [23.21411, 48.13063]]]}, "properties": {"id": "7Sho", "status": "validé", "pieces": [{"kind": "polygon", "ring": [[22.1814, 48.61937], [23.21411, 48.13063], [24.5874, 47.74068], [25.85083, 47.85871], [26.0376, 48.04994], [24.03809, 49.1609], [22.40112, 49.73919]]}, {"kind": "clip"}]}}, {"type": "Feature", "geometry": {"type": "MultiPolygon", "coordinates": [[[[31.74855, 46.49994], [31.72641, 46.50088], [31.7107, 46.49543], [31.69597, 46.48412], [31.69028, 46.47858], [31.68653, 46.47089], [31.68507, 46.46137], [31.68653, 46.42988], [31.66359, 46.47211], [31.65577, 46.47834], [31.64145, 46.48208], [31.52443, 46.56419], [31.50831, 46.58759], [31.51137, 46.58591], [31.54029, 46.57005], [31.56666, 46.55036], [31.58155, 46.54523], [31.75636, 46.55427], [31.79021, 46.54727], [31.84791, 46.52302], [31.85174, 46.52196], [31.81659, 46.48316], [31.81649, 46.48311], [31.81629, 46.48301], [31.77166, 46.49584], [31.74855, 46.49994]]], [[[30.75073, 46.52247], [30.59692, 46.88396], [30.56396, 47.18336], [30.22339, 47.42909], [30.14648, 47.6293], [29.91577, 47.73281], [29.86084, 48.01273], [29.95972, 48.20338], [30.26733, 48.13747], [30.29394, 48.12319], [30.29307, 48.13572], [30.32231, 48.13461], [30.33048, 48.13629], [30.33492, 48.14207], [30.34159, 48.15985], [30.34753, 48.16357], [30.50179, 48.16357], [30.51026, 48.16218], [30.5193, 48.16207], [30.52726, 48.16104], [30.57114, 48.1504], [30.60995, 48.14497], [30.61987, 48.14505], [30.62622, 48.14647], [30.62886, 48.14905], [30.63072, 48.15179], [30.6346, 48.16001], [30.63682, 48.16275], [30.64519, 48.16662], [30.65837, 48.17119], [30.70477, 48.18158], [30.71609, 48.18254], [30.74524, 48.17892], [30.77567, 48.1791], [30.789, 48.17778], [30.79753, 48.17572], [30.79908, 48.17262], [30.80001, 48.1691], [30.80218, 48.16517], [30.80652, 48.16181], [30.81696, 48.15908], [30.82316, 48.15949], [30.82719, 48.16187], [30.83386, 48.17458], [30.83649, 48.17773], [30.84099, 48.18114], [30.85029, 48.18528], [30.85711, 48.18626], [30.86316, 48.18569], [30.86781, 48.18398], [30.87158, 48.18181], [30.87453, 48.17918], [30.87639, 48.17616], [30.87732, 48.17256], [30.87778, 48.16884], [30.88011, 48.16476], [30.88507, 48.16104], [30.89825, 48.15773], [30.90615, 48.15711], [30.91267, 48.15763], [30.91685, 48.15923], [30.92042, 48.16145], [30.92341, 48.16445], [30.92915, 48.16833], [30.93752, 48.17246], [30.96884, 48.17926], [30.97612, 48.18166], [30.97923, 48.18435], [30.9816, 48.18768], [30.98362, 48.19137], [30.98625, 48.2], [30.99385, 48.20553], [31.00703, 48.21119], [31.04181, 48.21912], [31.06258, 48.22098], [31.13488, 48.2167], [31.15089, 48.21308], [31.16857, 48.21168], [31.17741, 48.21013], [31.18345, 48.20796], [31.18547, 48.20507], [31.18655, 48.20166], [31.18903, 48.17507], [31.18981, 48.17148], [31.19368, 48.16817], [31.2004, 48.16543], [31.22319, 48.16094], [31.22815, 48.1589], [31.22939, 48.15722], [31.23001, 48.15443], [31.22924, 48.13861], [31.22955, 48.13489], [31.2311, 48.13164], [31.23327, 48.12903], [31.23559, 48.12688], [31.23761, 48.12554], [31.24086, 48.12389], [31.25032, 48.12094], [31.34391, 48.11179], [31.35135, 48.11254], [31.36856, 48.12037], [31.38427, 48.12494], [31.38892, 48.12378], [31.39186, 48.1213], [31.39341, 48.11799], [31.3962, 48.11463], [31.40039, 48.11153], [31.40829, 48.10828], [31.4145, 48.10771], [31.4193, 48.10877], [31.42302, 48.11091], [31.43129, 48.11339], [31.44416, 48.11595], [31.4994, 48.11903], [31.50374, 48.1181], [31.50731, 48.11626], [31.50994, 48.11365], [31.51149, 48.11045], [31.51258, 48.10303], [31.50979, 48.08213], [31.50839, 48.07794], [31.50653, 48.07428], [31.50157, 48.06893], [31.50002, 48.06676], [31.49971, 48.06389], [31.5008, 48.06022], [31.50607, 48.0564], [31.5118, 48.05505], [31.51754, 48.0549], [31.52219, 48.05606], [31.52545, 48.05846], [31.527, 48.06208], [31.52777, 48.06606], [31.52839, 48.0782], [31.53025, 48.08265], [31.53366, 48.08678], [31.54209, 48.09076], [31.54736, 48.09027], [31.55139, 48.08794], [31.55511, 48.08407], [31.55991, 48.08285], [31.56503, 48.0827], [31.58053, 48.08477], [31.58487, 48.08621], [31.58813, 48.08825], [31.58921, 48.09148], [31.58844, 48.10241], [31.58921, 48.10621], [31.59128, 48.10957], [31.59448, 48.11195], [31.59981, 48.11417], [31.61655, 48.11874], [31.62275, 48.11828], [31.62725, 48.11665], [31.64027, 48.10626], [31.64616, 48.10399], [31.65598, 48.10135], [31.66745, 48.10272], [31.67582, 48.10164], [31.6828, 48.09962], [31.69195, 48.09515], [31.69861, 48.09376], [31.70487, 48.09334], [31.74409, 48.09825], [31.75246, 48.09748], [31.75804, 48.09541], [31.76026, 48.09246], [31.76677, 48.07593], [31.77065, 48.06991], [31.7722, 48.06663], [31.77298, 48.06319], [31.77329, 48.05929], [31.77251, 48.05505], [31.77127, 48.05089], [31.76926, 48.04704], [31.76646, 48.04415], [31.76285, 48.0419], [31.75091, 48.0364], [31.71122, 48.02425], [31.70807, 48.02244], [31.70807, 48.01976], [31.70952, 48.01686], [31.7227, 48.00043], [31.72347, 47.99981], [31.75541, 47.96348], [31.76817, 47.95258], [31.7798, 47.94488], [31.78507, 47.94421], [31.81018, 47.94782], [31.81669, 47.94697], [31.82124, 47.94519], [31.82651, 47.94002], [31.83054, 47.93405], [31.83147, 47.93051], [31.83194, 47.92674], [31.83302, 47.92333], [31.83473, 47.92023], [31.8369, 47.91739], [31.83969, 47.9147], [31.86124, 47.89728], [31.86341, 47.89439], [31.86527, 47.89129], [31.8662, 47.88788], [31.86651, 47.88416], [31.86604, 47.88038], [31.86418, 47.87687], [31.86186, 47.87354], [31.8445, 47.85638], [31.84201, 47.85315], [31.84, 47.84974], [31.83907, 47.84597], [31.83985, 47.84253], [31.84155, 47.83941], [31.84946, 47.83116], [31.85163, 47.82835], [31.85271, 47.82483], [31.85287, 47.82106], [31.8524, 47.81688], [31.85147, 47.81253], [31.85132, 47.8077], [31.8524, 47.80308], [31.8569, 47.79773], [31.86232, 47.79584], [31.86806, 47.79512], [31.95529, 47.79584], [31.9601, 47.79662], [31.96382, 47.79838], [31.96552, 47.80176], [31.96676, 47.80556], [31.96831, 47.80943], [31.97498, 47.81189], [31.98588, 47.81295], [32.02185, 47.80985], [32.02991, 47.80763], [32.04066, 47.80054], [32.06391, 47.79217], [32.06826, 47.78985], [32.07167, 47.78747], [32.07446, 47.78484], [32.08314, 47.77321], [32.08686, 47.76716], [32.09166, 47.7629], [32.09988, 47.75843], [32.11931, 47.75122], [32.13001, 47.74874], [32.13869, 47.74753], [32.14939, 47.74866], [32.15843, 47.75122], [32.16231, 47.75311], [32.16913, 47.75771], [32.18044, 47.7691], [32.19331, 47.78664], [32.21507, 47.81072], [32.21817, 47.81346], [32.22158, 47.81584], [32.22561, 47.8177], [32.23445, 47.82044], [32.27062, 47.82401], [32.28752, 47.82246], [32.29868, 47.81987], [32.3254, 47.80855], [32.34291, 47.79618], [32.34803, 47.79548], [32.35253, 47.79618], [32.36446, 47.79972], [32.37454, 47.80179], [32.3809, 47.80127], [32.38668, 47.80008], [32.39134, 47.79827], [32.45681, 47.78217], [32.46704, 47.78109], [32.64005, 47.79956], [32.64455, 47.80065], [32.64719, 47.80323], [32.64827, 47.80646], [32.64951, 47.8222], [32.64936, 47.82605], [32.65029, 47.83385], [32.65199, 47.83734], [32.65556, 47.83935], [32.67623, 47.84189], [32.68026, 47.84328], [32.68227, 47.84587], [32.68196, 47.84891], [32.67902, 47.85129], [32.67545, 47.85359], [32.67235, 47.85605], [32.67065, 47.8592], [32.67065, 47.86307], [32.67204, 47.87147], [32.67173, 47.87532], [32.67049, 47.87868], [32.66352, 47.88718], [32.6616, 47.89026], [32.66067, 47.89356], [32.66088, 47.897], [32.66274, 47.90026], [32.66553, 47.90292], [32.66941, 47.90483], [32.67933, 47.90653], [32.7063, 47.9086], [32.7108, 47.90974], [32.71442, 47.91186], [32.71576, 47.91522], [32.71628, 47.91912], [32.71607, 47.92671], [32.71473, 47.92974], [32.71095, 47.93129], [32.6939, 47.93335], [32.6891, 47.93483], [32.68568, 47.93707], [32.68336, 47.93994], [32.68196, 47.94322], [32.68134, 47.94679], [32.68165, 47.95077], [32.68274, 47.95485], [32.6846, 47.95878], [32.68693, 47.96224], [32.68972, 47.96529], [32.69266, 47.96795], [32.69607, 47.9703], [32.70398, 47.97418], [32.71669, 47.97883], [32.75798, 47.984], [32.77757, 47.98932], [32.78315, 47.9888], [32.78702, 47.98712], [32.78981, 47.98444], [32.79694, 47.97593], [32.80098, 47.97281], [32.80671, 47.96966], [32.81787, 47.96607], [32.82459, 47.96565], [32.82935, 47.96668], [32.83219, 47.96953], [32.83436, 47.97304], [32.83823, 47.98084], [32.84056, 47.98413], [32.84443, 47.98622], [32.8756, 47.99066], [32.87932, 47.99195], [32.88278, 47.99397], [32.88474, 47.99658], [32.88557, 47.99888], [32.88567, 47.99997], [32.88557, 48.00064], [32.88195, 48.01058], [32.88061, 48.01785], [32.88102, 48.02172], [32.88195, 48.02554], [32.88402, 48.02896], [32.8882, 48.03216], [32.8941, 48.035], [32.90681, 48.03753], [32.91797, 48.0372], [32.94283, 48.03402], [32.94934, 48.03459], [32.97027, 48.04425], [32.97569, 48.04451], [32.97926, 48.04275], [32.98112, 48.03981], [32.98267, 48.0365], [32.98337, 48.03334], [33.04688, 48.13014], [33.56323, 48.07147], [33.89282, 48.18142], [33.9917, 47.86559], [34.0686, 47.59228], [33.78296, 47.2803], [33.23364, 46.62061], [32.95898, 46.72611], [32.89519, 46.84614], [32.83606, 46.83177], [32.83234, 46.82973], [32.82831, 46.82794], [32.82206, 46.82696], [32.77291, 46.82846], [32.71953, 46.82355], [32.70863, 46.82376], [32.70568, 46.82427], [32.70196, 46.82577], [32.69855, 46.82784], [32.69545, 46.83037], [32.69266, 46.83306], [32.68584, 46.84159], [32.68305, 46.84419], [32.67948, 46.84649], [32.67514, 46.84846], [32.65246, 46.85347], [32.64765, 46.85518], [32.64393, 46.85727], [32.64068, 46.85962], [32.63215, 46.86081], [32.59287, 46.85983], [32.58264, 46.86158], [32.5752, 46.86363], [32.57133, 46.86587], [32.5628, 46.86647], [32.55799, 46.86802], [32.55458, 46.87034], [32.55195, 46.8728], [32.5474, 46.87425], [32.54259, 46.87422], [32.53841, 46.87275], [32.5367, 46.8683], [32.5367, 46.85347], [32.53624, 46.84869], [32.535, 46.84422], [32.53314, 46.8406], [32.53066, 46.83784], [32.52786, 46.83585], [32.52259, 46.83314], [32.51484, 46.83172], [32.47975, 46.82986], [32.46968, 46.83135], [32.46317, 46.83368], [32.46146, 46.83675], [32.45728, 46.84262], [32.45402, 46.845], [32.44952, 46.84649], [32.44425, 46.84712], [32.42281, 46.84577], [32.38932, 46.83952], [32.38183, 46.83657], [32.37408, 46.83066], [32.3702, 46.82588], [32.35873, 46.80143], [32.3564, 46.79815], [32.35113, 46.79575], [32.34322, 46.79459], [32.31744, 46.79621], [32.25925, 46.81058], [32.24824, 46.81089], [32.23491, 46.80929], [32.22871, 46.80758], [32.22266, 46.80497], [32.2146, 46.79931], [32.21057, 46.79482], [32.20778, 46.79037], [32.19796, 46.77162], [32.1882, 46.75862], [32.18541, 46.7558], [32.17874, 46.75097], [32.17161, 46.74671], [32.15466, 46.74167], [32.12303, 46.73534], [32.11218, 46.73524], [32.09947, 46.73823], [32.08298, 46.74524], [32.07771, 46.74632], [32.07198, 46.74679], [32.06515, 46.74585], [32.0574, 46.74392], [32.03983, 46.73555], [32.03208, 46.72971], [32.01673, 46.72619], [31.96645, 46.72702], [31.96501, 46.72242], [31.96491, 46.7221], [31.96144, 46.72761], [31.95021, 46.74177], [31.94028, 46.75886], [31.93621, 46.80036], [31.95476, 46.83145], [31.9817, 46.86034], [32.00245, 46.89545], [32.0075, 46.91523], [32.00668, 46.93049], [31.99594, 46.94038], [31.94606, 46.94668], [31.93588, 46.95482], [31.93922, 46.96796], [31.96892, 46.99868], [31.9769, 47.00935], [31.97096, 47.01634], [31.9437, 47.01895], [31.90016, 47.01362], [31.88111, 47.01504], [31.86525, 47.02635], [31.89324, 47.06843], [31.89682, 47.09272], [31.88234, 47.1186], [31.86818, 47.12735], [31.85572, 47.12962], [31.84555, 47.13402], [31.8379, 47.14924], [31.83473, 47.1682], [31.83448, 47.17894], [31.83058, 47.18675], [31.81674, 47.19709], [31.75766, 47.21621], [31.74855, 47.22846], [31.75327, 47.24852], [31.75213, 47.25585], [31.74171, 47.2591], [31.7378, 47.25536], [31.72381, 47.23749], [31.72055, 47.23188], [31.72682, 47.22053], [31.74244, 47.20917], [31.76173, 47.20051], [31.80616, 47.19269], [31.81625, 47.18085], [31.8156, 47.12263], [31.82, 47.11709], [31.84474, 47.11298], [31.85157, 47.10834], [31.85662, 47.10366], [31.86183, 47.10151], [31.87428, 47.09382], [31.86647, 47.07705], [31.85231, 47.06053], [31.84474, 47.0537], [31.83741, 47.00845], [31.86899, 46.99885], [31.91407, 47.00308], [31.94711, 46.99909], [31.91774, 46.97626], [31.90431, 46.96052], [31.89943, 46.94383], [31.90772, 46.92646], [31.92563, 46.92292], [31.9476, 46.92817], [31.96827, 46.937], [31.97283, 46.91535], [31.96339, 46.88569], [31.94508, 46.85952], [31.92319, 46.84829], [31.89861, 46.84292], [31.87745, 46.82827], [31.86476, 46.80659], [31.86525, 46.77998], [31.90284, 46.74518], [31.90675, 46.73823], [31.89943, 46.694], [31.90235, 46.67699], [31.90748, 46.66918], [31.90854, 46.66275], [31.89943, 46.6496], [31.8921, 46.64362], [31.87013, 46.63312], [31.85841, 46.62914], [31.81471, 46.62303], [31.7715, 46.62751], [31.67408, 46.65322], [31.61854, 46.64985], [31.61443, 46.6496], [31.59718, 46.64321], [31.58872, 46.62958], [31.57887, 46.61734], [31.56066, 46.61532], [31.55681, 46.61489], [31.54851, 46.61807], [31.53452, 46.62718], [31.5254, 46.62914], [31.50416, 46.628], [31.49301, 46.62873], [31.48504, 46.63227], [31.48097, 46.64643], [31.4909, 46.6634], [31.54615, 46.72761], [31.56023, 46.74909], [31.55983, 46.75886], [31.57211, 46.7663], [31.61818, 46.81346], [31.60613, 46.8264], [31.59783, 46.82046], [31.59132, 46.80598], [31.584, 46.79365], [31.57667, 46.78937], [31.55738, 46.78364], [31.54933, 46.77998], [31.54347, 46.77485], [31.52418, 46.75406], [31.52296, 46.75031], [31.51954, 46.74746], [31.50831, 46.74518], [31.49562, 46.75072], [31.48162, 46.75886], [31.46681, 46.7836], [31.45606, 46.79605], [31.44068, 46.80048], [31.45191, 46.77546], [31.45379, 46.76911], [31.45582, 46.75458], [31.46193, 46.74868], [31.47071, 46.74535], [31.50213, 46.72773], [31.50587, 46.7204], [31.4983, 46.70767], [31.47967, 46.6872], [31.4782, 46.68378], [31.46266, 46.67524], [31.42856, 46.63764], [31.41619, 46.62914], [31.39666, 46.62604], [31.35222, 46.60932], [31.33766, 46.60126], [31.3239, 46.60615], [31.29575, 46.60887], [31.28297, 46.61489], [31.27556, 46.60741], [31.25668, 46.6164], [31.18686, 46.62914], [31.15952, 46.62897], [31.10816, 46.61774], [31.05454, 46.61274], [31.01303, 46.60334], [30.99138, 46.60126], [30.98243, 46.5974], [30.95924, 46.5834], [30.95045, 46.58413], [30.93914, 46.58771], [30.92604, 46.5843], [30.86695, 46.55581], [30.8545, 46.55341], [30.81251, 46.56005], [30.80258, 46.56025], [30.7907, 46.55292], [30.76092, 46.52436], [30.75733, 46.5193], [30.75073, 46.52247]], [[32.81648, 46.88884], [32.81198, 46.88698], [32.80702, 46.88226], [32.80656, 46.87869], [32.8078, 46.8753], [32.81105, 46.8729], [32.81477, 46.87099], [32.8188, 46.86965], [32.82645, 46.86804], [32.84986, 46.8666], [32.88318, 46.86873], [32.87109, 46.89147], [32.86205, 46.89408], [32.81648, 46.88884]]]]}, "properties": {"id": "7ytl", "status": "validé", "pieces": [{"kind": "admin1", "code": "UKR-284"}, {"kind": "polygon", "ring": [[30.26733, 48.13747], [29.95972, 48.20338], [29.86084, 48.01273], [29.91577, 47.73281], [30.14648, 47.6293], [30.22339, 47.42909], [30.56396, 47.18336], [30.59692, 46.88396], [30.75073, 46.52247], [31.11328, 46.3484], [32.2998, 47.05632], [32.87109, 46.89147], [32.95898, 46.72611], [33.23364, 46.62061], [33.78296, 47.2803], [34.0686, 47.59228], [33.9917, 47.86559], [33.89282, 48.18142], [33.56323, 48.07147], [33.04688, 48.13014], [32.84912, 47.82874], [31.31104, 47.57747]]}, {"kind": "clip"}]}}, {"type": "Feature", "geometry": null, "properties": {"id": "9V71", "status": "validé", "pieces": [{"kind": "country"}]}}, {"type": "Feature", "geometry": null, "properties": {"id": "9fKw", "status": "validé", "pieces": [{"kind": "country"}]}}, {"type": "Feature", "geometry": null, "properties": {"id": "AXOh", "status": "validé", "pieces": [{"kind": "country"}]}}, {"type": "Feature", "geometry": {"type": "MultiPolygon", "coordinates": [[[[29.94521, 46.66858], [29.95262, 46.72469], [29.95112, 46.74312], [29.94668, 46.75074], [29.93567, 46.76516], [29.9318, 46.77244], [29.93045, 46.78164], [29.93066, 46.80309], [29.92818, 46.80975], [29.91743, 46.81397], [29.90771, 46.81094], [29.89852, 46.80665], [29.88963, 46.80717], [29.88487, 46.81267], [29.87692, 46.83079], [29.87221, 46.83771], [29.84363, 46.85414], [29.81521, 46.85662], [29.78576, 46.85466], [29.75413, 46.85802], [29.73911, 46.86555], [29.727, 46.87712], [29.71248, 46.89344], [29.70334, 46.89973], [29.57911, 47.01846], [29.58339, 47.02279], [29.59543, 47.03214], [29.60303, 47.04576], [29.6021, 47.06101], [29.59486, 47.0746], [29.58339, 47.08521], [29.57016, 47.09144], [29.55135, 47.0902], [29.53973, 47.07888], [29.53099, 47.06602], [29.52996, 47.06544], [29.47857, 47.11455], [29.47859, 47.11465], [29.48087, 47.11749], [29.50867, 47.1194], [29.53037, 47.12369], [29.54484, 47.13557], [29.55063, 47.16017], [29.5404, 47.21255], [29.54402, 47.23425], [29.56872, 47.24314], [29.58019, 47.26045], [29.57926, 47.2836], [29.57006, 47.30678], [29.55657, 47.32404], [29.53988, 47.33422], [29.52097, 47.33892], [29.50107, 47.33982], [29.48087, 47.33827], [29.47064, 47.32275], [29.46609, 47.30745], [29.45916, 47.2935], [29.4417, 47.28213], [29.42557, 47.27867], [29.40955, 47.27975], [29.39446, 47.28471], [29.38082, 47.29298], [29.37088, 47.30443], [29.36759, 47.30823], [29.36449, 47.32244], [29.36408, 47.33688], [29.35891, 47.35272], [29.34584, 47.36584], [29.33038, 47.37049], [29.31468, 47.37272], [29.30083, 47.37819], [29.29271, 47.38887], [29.28822, 47.40078], [29.2814, 47.41147], [29.2507, 47.42538], [29.23261, 47.44633], [29.21835, 47.4516], [29.20187, 47.44659], [29.19241, 47.43581], [29.18207, 47.42987], [29.16388, 47.43938], [29.15562, 47.45], [29.14001, 47.48015], [29.13719, 47.48401], [29.13066, 47.49294], [29.1306, 47.49305], [29.1305, 47.4931], [29.1304, 47.4932], [29.11743, 47.53333], [29.1305, 47.55963], [29.15618, 47.58278], [29.18207, 47.61322], [29.19241, 47.65092], [29.19148, 47.68626], [29.19696, 47.7175], [29.22667, 47.74324], [29.23861, 47.756], [29.23473, 47.7668], [29.22197, 47.77481], [29.18745, 47.78321], [29.17784, 47.78972], [29.17773, 47.8007], [29.18672, 47.81822], [29.19892, 47.82948], [29.21742, 47.84289], [29.23277, 47.85708], [29.23602, 47.87072], [29.226, 47.87558], [29.18662, 47.88364], [29.17256, 47.89101], [29.16461, 47.9056], [29.15582, 47.93987], [29.14797, 47.95537], [29.13629, 47.96818], [29.12399, 47.97599], [29.11004, 47.97966], [29.09273, 47.98017], [29.06105, 47.96976], [29.01723, 47.93108], [28.98085, 47.92638], [28.95036, 47.9348], [28.93609, 47.94216], [28.9148, 47.95315], [28.88256, 47.97676], [28.86729, 47.99447], [28.91602, 48.18361], [29.83887, 49.92501], [30.19688, 51.47043], [30.20537, 51.4665], [30.24278, 51.43441], [30.25689, 51.42505], [30.30738, 51.4096], [30.32019, 51.40208], [30.32619, 51.39526], [30.32903, 51.38862], [30.33012, 51.38072], [30.33001, 51.37035], [30.32826, 51.36247], [30.31988, 51.3416], [30.31709, 51.34059], [30.32454, 51.32997], [30.35513, 51.30527], [30.36846, 51.29767], [30.38376, 51.29392], [30.41352, 51.29405], [30.4281, 51.29175], [30.44277, 51.28305], [30.46504, 51.26194], [30.4807, 51.25886], [30.49466, 51.25992], [30.50809, 51.25767], [30.5208, 51.2524], [30.53202, 51.24462], [30.53961, 51.23517], [30.55067, 51.2368], [30.55466, 51.24251], [30.55532, 51.24346], [30.55662, 51.26731], [30.55935, 51.26933], [30.57723, 51.28901], [30.57992, 51.30367], [30.61046, 51.31754], [30.63831, 51.33586], [30.63242, 51.3641], [30.64555, 51.36746], [30.64452, 51.37268], [30.63749, 51.3786], [30.63242, 51.38397], [30.62261, 51.41211], [30.61816, 51.41872], [30.60602, 51.42456], [30.59558, 51.42495], [30.58788, 51.42735], [30.584, 51.43921], [30.58602, 51.45185], [30.59356, 51.4589], [30.60483, 51.46123], [30.61816, 51.45965], [30.61816, 51.46714], [30.60762, 51.46983], [30.59728, 51.47427], [30.58891, 51.48182], [30.584, 51.49383], [30.58974, 51.50197], [30.5854, 51.50939], [30.57506, 51.51606], [30.56287, 51.52177], [30.57145, 51.52642], [30.57641, 51.53112], [30.584, 51.54226], [30.56742, 51.54727], [30.53414, 51.55326], [30.52256, 51.56272], [30.52256, 51.56892], [30.52773, 51.5713], [30.53109, 51.57331], [30.53527, 51.57502], [30.54313, 51.57639], [30.54313, 51.58259], [30.53455, 51.58584], [30.51512, 51.59626], [30.51512, 51.60367], [30.54385, 51.62013], [30.55662, 51.62362], [30.55284, 51.63334], [30.54995, 51.63719], [30.55532, 51.63977], [30.56349, 51.64731], [30.57031, 51.6515], [30.56432, 51.6653], [30.57599, 51.68641], [30.57031, 51.69992], [30.58282, 51.7023], [30.61382, 51.70292], [30.62498, 51.7061], [30.63056, 51.7156], [30.63201, 51.72798], [30.63506, 51.73969], [30.64617, 51.74708], [30.64617, 51.75454], [30.63811, 51.75511], [30.61816, 51.76134], [30.63046, 51.77002], [30.65279, 51.77914], [30.67056, 51.79053], [30.66963, 51.80606], [30.66229, 51.8156], [30.66198, 51.81942], [30.66632, 51.82239], [30.67273, 51.8296], [30.69454, 51.84728], [30.69733, 51.85074], [30.70281, 51.85376], [30.70756, 51.86038], [30.71397, 51.86696], [30.73454, 51.87373], [30.73722, 51.88224], [30.73784, 51.89159], [30.74167, 51.89792], [30.74973, 51.89962], [30.7795, 51.89792], [30.78818, 51.90061], [30.79706, 51.90673], [30.8106, 51.91838], [30.8106, 51.92518], [30.80523, 51.92934], [30.80254, 51.93554], [30.80306, 51.93913], [30.83138, 51.9459], [30.84564, 51.95135], [30.85804, 51.95763], [30.8691, 51.96502], [30.87933, 51.97365], [30.87964, 51.97688], [30.87902, 51.98202], [30.88088, 51.98817], [30.88874, 51.99435], [30.8969, 51.99833], [30.9028, 51.99998], [30.90838, 51.99835], [30.9152, 51.99259], [30.94124, 51.9938], [30.95013, 52.00677], [30.94052, 52.02008], [30.91127, 52.02256], [30.91463, 52.02757], [30.91685, 52.03236], [30.91974, 52.03726], [30.92471, 52.04228], [30.91881, 52.05918], [30.93442, 52.06972], [30.95933, 52.07468], [31.09632, 52.07961], [31.13482, 52.07667], [31.15921, 52.06811], [31.2049, 52.04393], [31.22898, 52.03822], [31.25244, 52.0445], [31.26887, 52.06124], [31.28427, 52.08124], [31.30442, 52.09749], [31.38308, 52.11749], [31.47485, 52.11778], [31.64993, 52.09685], [31.76434, 52.10057], [31.82584, 52.10406], [31.85871, 52.09987], [31.88206, 52.08641], [31.88749, 52.07003], [31.88775, 52.05155], [31.89204, 52.03618], [31.91038, 52.02907], [31.92723, 52.03109], [31.98056, 52.04762], [32.01694, 52.0498], [32.07714, 52.03995], [32.09559, 52.04073], [32.23331, 52.08085], [32.2777, 52.10266], [32.30674, 52.14119], [32.31883, 52.20141], [32.32824, 52.21916], [32.33785, 52.22547], [32.35015, 52.22989], [32.36131, 52.23591], [32.367, 52.2472], [32.36328, 52.25573], [32.34446, 52.27653], [32.3395, 52.28725], [32.35356, 52.32159], [32.39428, 52.32681], [32.48058, 52.30714], [32.52843, 52.31621], [32.72542, 52.25208], [32.7556, 52.25239], [32.81482, 52.26201], [32.84418, 52.26234], [32.86102, 52.2572], [32.89079, 52.24232], [32.90898, 52.2411], [32.92686, 52.24692], [33.03011, 52.3036], [33.04825, 52.30908], [33.05729, 52.30864], [33.07041, 52.30417], [33.07961, 52.30559], [33.08736, 52.31076], [33.09904, 52.32477], [33.10886, 52.32833], [33.12798, 52.33272], [33.14085, 52.34037], [33.16664, 52.36006], [33.18286, 52.3673], [33.19651, 52.36895], [33.29433, 52.3573], [33.35898, 52.35755], [33.37618, 52.35525], [33.40058, 52.34434], [33.40368, 52.34296], [33.41933, 52.33833], [33.43732, 52.33916], [33.45179, 52.34526], [33.46533, 52.35275], [33.48052, 52.35776], [33.49943, 52.34099], [33.49303, 52.30314], [33.51008, 52.28753], [33.53168, 52.28883], [33.6002, 52.33079], [33.68795, 52.35582], [33.73358, 52.36099], [33.77895, 52.36006], [33.80407, 52.35461], [33.81523, 52.34508], [33.82339, 52.33146], [33.8391, 52.31391], [33.85874, 52.30216], [33.9007, 52.28585], [33.91951, 52.26976], [33.94442, 52.23578], [33.95775, 52.22469], [34.02193, 52.1979], [34.03888, 52.18648], [34.05573, 52.17033], [34.06534, 52.15863], [34.07103, 52.14896], [34.07361, 52.13956], [34.07392, 52.12832], [34.05666, 52.10581], [34.05666, 52.10039], [34.06007, 52.08318], [34.06255, 52.05021], [34.06824, 52.03101], [34.08033, 52.01362], [34.1011, 51.99251], [34.10441, 51.9753], [34.09666, 51.96058], [34.09624, 51.95182], [34.14616, 51.95161], [34.16642, 51.94226], [34.20342, 51.91231], [34.20941, 51.9088], [34.22264, 51.90316], [34.22843, 51.89926], [34.23102, 51.89453], [34.23463, 51.88074], [34.23422, 51.87828], [34.246, 51.87546], [34.26492, 51.8812], [34.2767, 51.88123], [34.29458, 51.87389], [34.32775, 51.8505], [34.34729, 51.8417], [34.3711, 51.82681], [34.38573, 51.81766], [34.41271, 51.77769], [34.41416, 51.73646], [34.37633, 51.7086], [34.3569, 51.70555], [34.29819, 51.70615], [34.12797, 51.68075], [34.08911, 51.66662], [34.0795, 51.6431], [34.09066, 51.63321], [34.12601, 51.627], [34.14007, 51.62119], [34.14451, 51.61378], [34.14885, 51.59321], [34.15299, 51.58398], [34.16032, 51.57613], [34.20239, 51.54616], [34.21541, 51.532], [34.22368, 51.51476], [34.22595, 51.49288], [34.22378, 51.48236], [34.215, 51.46466], [34.2121, 51.45503], [34.21324, 51.44482], [34.21706, 51.43606], [34.21965, 51.42728], [34.21706, 51.41707], [34.2088, 51.41146], [34.18699, 51.40831], [34.18192, 51.40234], [34.18585, 51.39415], [34.19598, 51.38562], [34.21572, 51.37376], [34.2305, 51.36767], [34.24735, 51.36343], [34.2644, 51.36121], [34.28032, 51.36126], [34.30016, 51.36839], [34.30874, 51.33462], [34.28362, 51.30124], [34.24394, 51.27408], [34.18595, 51.24891], [34.25789, 51.22956], [34.28176, 51.22644], [34.29954, 51.23163], [34.33695, 51.25114], [34.37178, 51.25685], [34.40899, 51.25313], [34.48041, 51.23698], [34.51348, 51.22956], [34.57818, 51.23669], [34.60836, 51.23401], [34.62241, 51.22476], [34.62851, 51.21106], [34.63316, 51.19561], [34.64277, 51.18062], [34.65745, 51.17166], [34.67492, 51.16768], [34.74809, 51.16473], [34.81754, 51.17473], [34.89961, 51.19646], [34.94611, 51.21429], [34.96182, 51.21532], [34.98032, 51.20954], [34.99945, 51.20209], [35.01877, 51.20455], [35.03872, 51.21016], [35.05939, 51.21233], [35.07872, 51.20763], [35.09132, 51.19768], [35.09918, 51.18318], [35.12378, 51.09133], [35.14362, 51.05849], [35.17256, 51.04063], [35.20646, 51.03893], [35.27426, 51.0488], [35.30868, 51.04733], [35.32842, 51.04317], [35.3464, 51.0366], [35.35508, 51.0256], [35.34671, 51.00826], [35.33255, 50.99994], [35.27808, 50.99265], [35.28222, 50.98154], [35.28222, 50.96111], [35.28222, 50.95426], [35.2848, 50.94433], [35.29359, 50.93762], [35.31715, 50.9342], [35.32914, 50.92909], [35.34175, 50.91586], [35.34299, 50.90413], [35.34041, 50.89183], [35.34144, 50.87648], [35.34857, 50.86377], [35.36903, 50.84604], [35.37772, 50.83375], [35.37968, 50.81959], [35.37741, 50.80755], [35.37906, 50.79721], [35.39312, 50.78837], [35.41823, 50.77892], [35.42939, 50.77215], [35.43849, 50.76238], [35.44707, 50.73432], [35.44376, 50.70946], [35.44541, 50.6875], [35.46887, 50.66854], [35.39156, 50.64637], [35.37617, 50.63459], [35.37772, 50.62182], [35.42526, 50.50048], [35.44645, 50.47604], [35.48014, 50.4669], [35.50195, 50.46431], [35.52272, 50.45951], [35.54081, 50.45005], [35.55466, 50.43325], [35.5623, 50.40964], [35.56385, 50.39181], [35.57016, 50.37646], [35.59217, 50.36049], [35.6114, 50.35171], [35.63155, 50.34499], [35.65212, 50.34111], [35.6732, 50.34018], [35.69221, 50.34417], [35.69687, 50.34515], [35.71031, 50.35563], [35.72126, 50.36871], [35.73769, 50.38158], [35.74617, 50.38395], [35.76539, 50.38452], [35.77438, 50.3869], [35.78555, 50.3945], [35.80539, 50.41217], [35.81934, 50.41904], [35.83743, 50.42323], [35.93189, 50.43015], [36.10584, 50.42111], [36.13323, 50.4116], [36.14077, 50.39295], [36.1693, 50.3837], [36.26903, 50.28138], [36.29198, 50.27404], [36.31585, 50.27486], [36.33952, 50.28148], [36.36143, 50.29166], [36.38096, 50.30406], [36.38799, 50.30644], [36.39639, 50.30658], [36.25488, 49.25584], [36.14502, 47.97818], [35.90332, 47.20797], [35.28809, 47.04359], [34.82666, 47.02862], [34.34326, 47.52039], [33.70605, 47.62411], [33.0249, 46.90872], [32.31172, 46.11482], [32.3025, 46.11668], [32.28053, 46.12759], [32.26775, 46.12661], [32.26246, 46.12824], [32.26051, 46.13215], [32.25733, 46.14496], [32.25563, 46.14936], [32.25172, 46.15689], [32.24741, 46.17072], [32.24195, 46.17666], [32.26092, 46.18863], [32.26678, 46.19481], [32.2693, 46.20458], [32.23927, 46.19526], [32.21314, 46.19306], [32.18735, 46.19672], [32.14259, 46.20799], [32.12867, 46.2097], [32.11541, 46.21455], [32.07789, 46.2495], [32.05014, 46.26606], [32.01808, 46.25751], [31.96843, 46.2757], [31.88575, 46.32001], [31.88404, 46.30866], [31.88795, 46.29515], [31.8899, 46.28384], [31.88234, 46.27912], [31.81918, 46.28059], [31.80112, 46.28506], [31.7859, 46.29239], [31.77247, 46.30268], [31.76734, 46.31818], [31.77996, 46.33177], [31.79981, 46.34223], [31.81674, 46.34797], [31.83741, 46.34956], [31.89259, 46.34113], [31.96827, 46.35106], [31.97731, 46.35529], [32.02963, 46.38898], [32.04168, 46.39086], [32.05519, 46.39057], [32.06186, 46.39379], [32.05356, 46.40599], [32.00782, 46.44896], [31.99171, 46.45356], [31.9546, 46.45099], [31.91065, 46.45588], [31.77166, 46.49584], [31.74855, 46.49994], [31.72641, 46.50088], [31.7107, 46.49543], [31.69597, 46.48412], [31.69028, 46.47858], [31.68653, 46.47089], [31.68507, 46.46137], [31.68653, 46.42988], [31.66359, 46.47211], [31.65577, 46.47834], [31.64145, 46.48208], [31.52443, 46.56419], [31.50831, 46.58759], [31.54029, 46.57005], [31.56666, 46.55036], [31.58155, 46.54523], [31.75636, 46.55427], [31.79021, 46.54727], [31.84791, 46.52302], [31.85174, 46.52196], [31.86183, 46.51927], [31.94711, 46.51927], [32.03346, 46.50629], [32.09116, 46.51284], [32.11166, 46.51244], [32.22153, 46.49543], [32.27613, 46.47089], [32.31756, 46.46434], [32.36101, 46.46686], [32.39967, 46.47834], [32.42701, 46.49885], [32.40838, 46.51728], [32.43572, 46.54316], [32.50571, 46.58413], [32.52475, 46.59272], [32.57097, 46.59642], [32.58839, 46.60431], [32.60377, 46.61571], [32.61939, 46.62352], [32.6338, 46.63312], [32.64552, 46.6496], [32.62184, 46.64179], [32.59457, 46.62832], [32.56739, 46.61848], [32.54371, 46.62173], [32.40903, 46.56891], [32.33579, 46.56216], [32.2693, 46.58759], [32.25375, 46.60472], [32.24822, 46.60741], [32.23683, 46.60444], [32.22006, 46.59072], [32.21095, 46.58759], [32.19972, 46.58649], [32.18019, 46.58177], [32.16993, 46.58076], [32.14633, 46.56025], [32.13209, 46.5703], [32.11793, 46.60688], [32.10108, 46.61489], [32.03956, 46.62348], [32.0228, 46.62914], [32.00896, 46.6398], [31.99293, 46.65742], [31.97983, 46.67707], [31.97446, 46.694], [31.97071, 46.71288], [31.96144, 46.72761], [31.95021, 46.74177], [31.94028, 46.75886], [31.93621, 46.80036], [31.95476, 46.83145], [31.9817, 46.86034], [32.00245, 46.89545], [32.0075, 46.91523], [32.00668, 46.93049], [31.99594, 46.94038], [31.94606, 46.94668], [31.93588, 46.95482], [31.93922, 46.96796], [31.96892, 46.99868], [31.9769, 47.00935], [31.97096, 47.01634], [31.9437, 47.01895], [31.90016, 47.01362], [31.88111, 47.01504], [31.86525, 47.02635], [31.89324, 47.06843], [31.89682, 47.09272], [31.88234, 47.1186], [31.86818, 47.12735], [31.85572, 47.12962], [31.84555, 47.13402], [31.8379, 47.14924], [31.83473, 47.1682], [31.83448, 47.17894], [31.83058, 47.18675], [31.81674, 47.19709], [31.75766, 47.21621], [31.74855, 47.22846], [31.75327, 47.24852], [31.75213, 47.25585], [31.74171, 47.2591], [31.7378, 47.25536], [31.72381, 47.23749], [31.72055, 47.23188], [31.72682, 47.22053], [31.74244, 47.20917], [31.76173, 47.20051], [31.80616, 47.19269], [31.81625, 47.18085], [31.8156, 47.12263], [31.82, 47.11709], [31.84474, 47.11298], [31.85157, 47.10834], [31.85662, 47.10366], [31.86183, 47.10151], [31.87428, 47.09382], [31.86647, 47.07705], [31.85231, 47.06053], [31.84474, 47.0537], [31.83741, 47.00845], [31.86899, 46.99885], [31.91407, 47.00308], [31.94711, 46.99909], [31.91774, 46.97626], [31.90431, 46.96052], [31.89943, 46.94383], [31.90772, 46.92646], [31.92563, 46.92292], [31.9476, 46.92817], [31.96827, 46.937], [31.97283, 46.91535], [31.96339, 46.88569], [31.94508, 46.85952], [31.92319, 46.84829], [31.89861, 46.84292], [31.87745, 46.82827], [31.86476, 46.80659], [31.86525, 46.77998], [31.90284, 46.74518], [31.90675, 46.73823], [31.89943, 46.694], [31.90235, 46.67699], [31.90748, 46.66918], [31.90854, 46.66275], [31.89943, 46.6496], [31.8921, 46.64362], [31.87013, 46.63312], [31.85841, 46.62914], [31.81471, 46.62303], [31.7715, 46.62751], [31.67408, 46.65322], [31.61443, 46.6496], [31.59718, 46.64321], [31.58872, 46.62958], [31.57887, 46.61734], [31.55681, 46.61489], [31.54851, 46.61807], [31.53452, 46.62718], [31.5254, 46.62914], [31.50416, 46.628], [31.49301, 46.62873], [31.48504, 46.63227], [31.48097, 46.64643], [31.4909, 46.6634], [31.54615, 46.72761], [31.56023, 46.74909], [31.55983, 46.75886], [31.57211, 46.7663], [31.61818, 46.81346], [31.60613, 46.8264], [31.59783, 46.82046], [31.59132, 46.80598], [31.584, 46.79365], [31.57667, 46.78937], [31.55738, 46.78364], [31.54933, 46.77998], [31.54347, 46.77485], [31.52418, 46.75406], [31.52296, 46.75031], [31.51954, 46.74746], [31.50831, 46.74518], [31.49562, 46.75072], [31.48162, 46.75886], [31.46681, 46.7836], [31.45606, 46.79605], [31.44068, 46.80048], [31.45191, 46.77546], [31.45379, 46.76911], [31.45582, 46.75458], [31.46193, 46.74868], [31.47071, 46.74535], [31.50213, 46.72773], [31.50587, 46.7204], [31.4983, 46.70767], [31.47967, 46.6872], [31.4782, 46.68378], [31.46266, 46.67524], [31.42856, 46.63764], [31.41619, 46.62914], [31.39666, 46.62604], [31.35222, 46.60932], [31.33766, 46.60126], [31.3239, 46.60615], [31.29575, 46.60887], [31.28297, 46.61489], [31.27556, 46.60741], [31.25668, 46.6164], [31.18686, 46.62914], [31.15952, 46.62897], [31.10816, 46.61774], [31.05454, 46.61274], [31.01303, 46.60334], [30.99138, 46.60126], [30.98243, 46.5974], [30.95924, 46.5834], [30.95045, 46.58413], [30.93914, 46.58771], [30.92604, 46.5843], [30.86695, 46.55581], [30.8545, 46.55341], [30.81251, 46.56005], [30.80258, 46.56025], [30.7907, 46.55292], [30.76092, 46.52436], [30.75489, 46.51586], [30.75831, 46.50259], [30.77524, 46.47769], [30.78207, 46.45722], [30.7859, 46.45726], [30.79347, 46.45234], [30.79819, 46.44644], [30.79298, 46.44355], [30.79038, 46.44147], [30.78679, 46.43651], [30.78354, 46.43085], [30.77475, 46.40062], [30.77247, 46.39643], [30.73129, 46.35859], [30.71453, 46.34797], [30.66065, 46.3509], [30.65187, 46.34455], [30.6565, 46.33902], [30.67937, 46.32832], [30.68653, 46.32001], [30.68678, 46.30903], [30.68238, 46.29955], [30.65349, 46.25959], [30.58351, 46.19033], [30.56186, 46.16169], [30.5477, 46.14777], [30.53199, 46.14191], [30.52329, 46.13377], [30.51728, 46.12186], [29.94521, 46.66858]]], [[[32.07081, 46.18244], [32.15309, 46.15599], [32.16627, 46.14936], [32.14389, 46.15266], [32.10182, 46.16669], [31.73715, 46.22077], [31.58033, 46.26276], [31.549, 46.28242], [31.52198, 46.31322], [31.51401, 46.32941], [31.50506, 46.35493], [31.5044, 46.37336], [31.52198, 46.36848], [31.53842, 46.32583], [31.55437, 46.29633], [31.57797, 46.27558], [31.61818, 46.25922], [31.94028, 46.20458], [32.07081, 46.18244]]]]}, "properties": {"id": "AkYz", "status": "validé", "pieces": [{"kind": "polygon", "ring": [[30.73975, 45.90925], [28.80615, 47.75717], [28.91602, 48.18361], [29.83887, 49.92501], [30.2124, 51.53744], [30.23438, 52.16153], [35.06836, 52.73712], [35.81543, 51.49643], [36.45264, 50.72426], [36.25488, 49.25584], [36.14502, 47.97818], [35.90332, 47.20797], [35.28809, 47.04359], [34.82666, 47.02862], [34.34326, 47.52039], [33.70605, 47.62411], [33.0249, 46.90872], [32.27783, 46.0771]]}, {"kind": "clip"}]}}, {"type": "Feature", "geometry": null, "properties": {"id": "CdRn", "status": "validé", "pieces": [{"kind": "country"}]}}, {"type": "Feature", "geometry": null, "properties": {"id": "G7CF", "status": "validé", "pieces": [{"kind": "country"}]}}, {"type": "Feature", "geometry": null, "properties": {"id": "Hkd1", "status": "validé", "pieces": [{"kind": "country"}]}}, {"type": "Feature", "geometry": {"type": "MultiPolygon", "coordinates": [[[[24.99252, 49.77979], [25.05844, 49.74698], [25.12711, 49.69107], [25.21637, 49.6502], [25.34409, 49.64043], [25.44434, 49.60574], [25.54184, 49.56659], [25.54047, 49.5559], [25.33035, 49.62086], [25.2713, 49.62264], [25.14359, 49.64843], [25.0914, 49.67952], [25.03647, 49.73279], [25.0145, 49.75497], [24.97879, 49.76561], [24.89502, 49.786], [24.89777, 49.80017], [24.99252, 49.77979]]], [[[25.25345, 50.02823], [25.24933, 49.99736], [25.28229, 49.98588], [25.31937, 49.97441], [25.32211, 49.95057], [25.33447, 49.90285], [25.37155, 49.84357], [25.41824, 49.79929], [25.4924, 49.75763], [25.52948, 49.74521], [25.55145, 49.69817], [25.56107, 49.64576], [25.58716, 49.61197], [25.59128, 49.5924], [25.57617, 49.59329], [25.56381, 49.61197], [25.53497, 49.64043], [25.53497, 49.69196], [25.52124, 49.72214], [25.48691, 49.73013], [25.44708, 49.76561], [25.38666, 49.78334], [25.34752, 49.82793], [25.32692, 49.87661], [25.30769, 49.90182], [25.30014, 49.93673], [25.29533, 49.96632], [25.26718, 49.9672], [25.24384, 49.98221], [25.22804, 50.00295], [25.22324, 50.03696], [25.17105, 50.05812], [25.18753, 50.07054], [25.25345, 50.02823]]], [[[25.41618, 50.0435], [25.40588, 50.06421], [25.36743, 50.08756], [25.35851, 50.09725], [25.28641, 50.09681], [25.25276, 50.11486], [25.23491, 50.12674], [25.23207, 50.1331], [25.1944, 50.07748], [25.15732, 50.09421], [25.1944, 50.13295], [25.26718, 50.17428], [25.43472, 50.22613], [25.54047, 50.28493], [25.65308, 50.33403], [25.68741, 50.37519], [25.71899, 50.37869], [25.70938, 50.36031], [25.65033, 50.29283], [25.55832, 50.26651], [25.49652, 50.21471], [25.38254, 50.1523], [25.23972, 50.14438], [25.23399, 50.13593], [25.26031, 50.13554], [25.27267, 50.11574], [25.37567, 50.10869], [25.39421, 50.08756], [25.43541, 50.05981], [25.4464, 50.03557], [25.50407, 50.0122], [25.49377, 50.00029], [25.44296, 50.01705], [25.41618, 50.0435]]], [[[25.78903, 50.43468], [25.75195, 50.42419], [25.74097, 50.43643], [25.76294, 50.44867], [25.75058, 50.46091], [25.62424, 50.51593], [25.64072, 50.53251], [25.78903, 50.47052], [25.78903, 50.43468]]]]}, "properties": {"id": "IG9J", "status": "validé", "pieces": [{"kind": "polygon", "ring": [[25.62424, 50.51593], [25.75058, 50.46091], [25.76294, 50.44867], [25.74097, 50.43643], [25.75195, 50.42419], [25.78903, 50.43468], [25.78903, 50.47052], [25.64072, 50.53251]]}, {"kind": "polygon", "ring": [[25.68741, 50.37519], [25.65308, 50.33403], [25.54047, 50.28493], [25.43472, 50.22613], [25.26718, 50.17428], [25.1944, 50.13295], [25.15732, 50.09421], [25.1944, 50.07748], [25.23972, 50.14438], [25.38254, 50.1523], [25.49652, 50.21471], [25.55832, 50.26651], [25.65033, 50.29283], [25.70938, 50.36031], [25.71899, 50.37869]]}, {"kind": "polygon", "ring": [[25.49377, 50.00029], [25.44296, 50.01705], [25.41618, 50.0435], [25.40588, 50.06421], [25.36743, 50.08756], [25.35851, 50.09725], [25.28641, 50.09681], [25.25276, 50.11486], [25.23491, 50.12674], [25.23079, 50.13598], [25.26031, 50.13554], [25.27267, 50.11574], [25.37567, 50.10869], [25.39421, 50.08756], [25.43541, 50.05981], [25.4464, 50.03557], [25.50407, 50.0122]]}, {"kind": "polygon", "ring": [[25.17105, 50.05812], [25.22324, 50.03696], [25.22804, 50.00295], [25.24384, 49.98221], [25.26718, 49.9672], [25.29533, 49.96632], [25.30014, 49.93673], [25.30769, 49.90182], [25.32692, 49.87661], [25.34752, 49.82793], [25.38666, 49.78334], [25.44708, 49.76561], [25.48691, 49.73013], [25.52124, 49.72214], [25.53497, 49.69196], [25.53497, 49.64043], [25.56381, 49.61197], [25.57617, 49.59329], [25.59128, 49.5924], [25.58716, 49.61197], [25.56107, 49.64576], [25.55145, 49.69817], [25.52948, 49.74521], [25.4924, 49.75763], [25.41824, 49.79929], [25.37155, 49.84357], [25.33447, 49.90285], [25.32211, 49.95057], [25.31937, 49.97441], [25.28229, 49.98588], [25.24933, 49.99736], [25.25345, 50.02823], [25.18753, 50.07054]]}, {"kind": "polygon", "ring": [[24.89502, 49.786], [24.97879, 49.76561], [25.0145, 49.75497], [25.03647, 49.73279], [25.0914, 49.67952], [25.14359, 49.64843], [25.2713, 49.62264], [25.33035, 49.62086], [25.54047, 49.5559], [25.54184, 49.56659], [25.44434, 49.60574], [25.34409, 49.64043], [25.21637, 49.6502], [25.12711, 49.69107], [25.05844, 49.74698], [24.99252, 49.77979], [24.89777, 49.80017]]}]}}, {"type": "Feature", "geometry": {"type": "MultiPolygon", "coordinates": [[[[30.05782, 46.3714], [30.08114, 46.3742], [30.10719, 46.3919], [30.13158, 46.42283], [30.11824, 46.42869], [30.10202, 46.43073], [30.08693, 46.42887], [30.07701, 46.42283], [30.06001, 46.4368], [30.01406, 46.46202], [30.02171, 46.47065], [30.00941, 46.48807], [30.00285, 46.49422], [29.99494, 46.49853], [29.98926, 46.49869], [29.97706, 46.49318], [29.97055, 46.49174], [29.96704, 46.49386], [29.96208, 46.50344], [29.96022, 46.50595], [29.91609, 46.51881], [29.90193, 46.53083], [29.89883, 46.55313], [29.91609, 46.55437], [29.9381, 46.55734], [29.94967, 46.57886], [29.9474, 46.58835], [29.93495, 46.60884], [29.93128, 46.61917], [29.9319, 46.63237], [29.93541, 46.64186], [29.94027, 46.6508], [29.9444, 46.66248], [29.95262, 46.72469], [29.95112, 46.74312], [29.94668, 46.75074], [29.93567, 46.76516], [29.9318, 46.77244], [29.93045, 46.78164], [29.93066, 46.80309], [29.92818, 46.80975], [29.91743, 46.81397], [29.90771, 46.81094], [29.89852, 46.80665], [29.88963, 46.80717], [29.88487, 46.81267], [29.87692, 46.83079], [29.87221, 46.83771], [29.84363, 46.85414], [29.81521, 46.85662], [29.78576, 46.85466], [29.75413, 46.85802], [29.73584, 46.86719], [29.71248, 46.89344], [29.69615, 46.90468], [29.68086, 46.90856], [29.64809, 46.91042], [29.63187, 46.9144], [29.62329, 46.91954], [29.60758, 46.93202], [29.59848, 46.93538], [29.57316, 46.93373], [29.56748, 46.93466], [29.55869, 46.94574], [29.55983, 46.95884], [29.56063, 46.96126], [29.565, 46.9745], [29.57249, 47.01176], [29.58339, 47.02279], [29.59543, 47.03214], [29.60303, 47.04576], [29.6021, 47.06101], [29.59486, 47.0746], [29.58339, 47.08521], [29.57016, 47.09144], [29.55135, 47.0902], [29.53973, 47.07888], [29.53099, 47.06602], [29.52014, 47.05992], [29.51146, 47.06602], [29.48087, 47.10524], [29.4787, 47.10847], [29.47787, 47.11154], [29.47859, 47.11465], [29.48087, 47.11749], [29.50867, 47.1194], [29.53037, 47.12369], [29.54484, 47.13557], [29.55063, 47.16017], [29.5404, 47.21255], [29.54402, 47.23425], [29.56872, 47.24314], [29.58019, 47.26045], [29.57926, 47.2836], [29.57006, 47.30678], [29.55657, 47.32404], [29.53988, 47.33422], [29.52097, 47.33892], [29.50107, 47.33982], [29.48087, 47.33827], [29.47064, 47.32275], [29.46609, 47.30745], [29.45916, 47.2935], [29.4417, 47.28213], [29.42557, 47.27867], [29.40955, 47.27975], [29.39446, 47.28471], [29.38082, 47.29298], [29.37088, 47.30443], [29.36759, 47.30823], [29.36449, 47.32244], [29.36408, 47.33688], [29.35891, 47.35272], [29.34584, 47.36584], [29.33038, 47.37049], [29.31468, 47.37272], [29.30083, 47.37819], [29.29271, 47.38887], [29.28822, 47.40078], [29.2814, 47.41147], [29.2507, 47.42538], [29.23261, 47.44633], [29.21835, 47.4516], [29.20187, 47.44659], [29.19241, 47.43581], [29.18207, 47.42987], [29.16388, 47.43938], [29.15562, 47.45], [29.14001, 47.48015], [29.13719, 47.48401], [29.13066, 47.49294], [29.1306, 47.49305], [29.1305, 47.4931], [29.1304, 47.4932], [29.11743, 47.53333], [29.1305, 47.55963], [29.15618, 47.58278], [29.18207, 47.61322], [29.19241, 47.65092], [29.19148, 47.68626], [29.19696, 47.7175], [29.22667, 47.74324], [29.23861, 47.756], [29.23473, 47.7668], [29.22197, 47.77481], [29.18745, 47.78321], [29.17784, 47.78972], [29.17773, 47.8007], [29.18672, 47.81822], [29.19892, 47.82948], [29.21742, 47.84289], [29.23277, 47.85708], [29.23602, 47.87072], [29.226, 47.87558], [29.18662, 47.88364], [29.17256, 47.89101], [29.16461, 47.9056], [29.15582, 47.93987], [29.14797, 47.95537], [29.13629, 47.96818], [29.12399, 47.97599], [29.11004, 47.97966], [29.09273, 47.98017], [29.06105, 47.96976], [29.01723, 47.93108], [28.98085, 47.92638], [28.95036, 47.9348], [28.93609, 47.94216], [28.9148, 47.95315], [28.88256, 47.97676], [28.86209, 48.0005], [28.85569, 48.00792], [28.83925, 48.01828], [28.83253, 48.02482], [28.83078, 48.03087], [28.82757, 48.05702], [28.81155, 48.08291], [28.80918, 48.08978], [28.80835, 48.09657], [28.80592, 48.10381], [28.79925, 48.11179], [28.77125, 48.12445], [28.73507, 48.12869], [28.66562, 48.12934], [28.57363, 48.15497], [28.5416, 48.15595], [28.51932, 48.14913], [28.50108, 48.11283], [28.49979, 48.10891], [28.49416, 48.09185], [28.49374, 48.07482], [28.49002, 48.06549], [28.47958, 48.06492], [28.45938, 48.07446], [28.44744, 48.08275], [28.41902, 48.12223], [28.43566, 48.13469], [28.4369, 48.14985], [28.42729, 48.16337], [28.41158, 48.1707], [28.38863, 48.16859], [28.37556, 48.15665], [28.36497, 48.14151], [28.34957, 48.12973], [28.32859, 48.12701], [28.31742, 48.13536], [28.31556, 48.14928], [28.32218, 48.16321], [28.33789, 48.17548], [28.35225, 48.18187], [28.36336, 48.19101], [28.37003, 48.21163], [28.36817, 48.23062], [28.35773, 48.23861], [28.34058, 48.24011], [28.29448, 48.23649], [28.27753, 48.22912], [28.26172, 48.21995], [28.24032, 48.21163], [28.21696, 48.20814], [28.19991, 48.21173], [28.18937, 48.22305], [28.18575, 48.24238], [28.17852, 48.25886], [28.16208, 48.25718], [28.14271, 48.24619], [28.09471, 48.29592], [28.09284, 48.30207], [28.07641, 48.31493], [28.07634, 48.31495], [27.99316, 48.40114], [30.47607, 49.88178], [32.56348, 50.03721], [35.38513, 50.60289], [35.42526, 50.50048], [35.44645, 50.47604], [35.48014, 50.4669], [35.50195, 50.46431], [35.52272, 50.45951], [35.54081, 50.45005], [35.55466, 50.43325], [35.5623, 50.40964], [35.56385, 50.39181], [35.57016, 50.37646], [35.59217, 50.36049], [35.6114, 50.35171], [35.63155, 50.34499], [35.65212, 50.34111], [35.6732, 50.34018], [35.69221, 50.34417], [35.69687, 50.34515], [35.71031, 50.35563], [35.72126, 50.36871], [35.73769, 50.38158], [35.74617, 50.38395], [35.76539, 50.38452], [35.77438, 50.3869], [35.78555, 50.3945], [35.80539, 50.41217], [35.81934, 50.41904], [35.83743, 50.42323], [35.93189, 50.43015], [36.10584, 50.42111], [36.13323, 50.4116], [36.14077, 50.39295], [36.1693, 50.3837], [36.26903, 50.28138], [36.29198, 50.27404], [36.31585, 50.27486], [36.33952, 50.28148], [36.36143, 50.29166], [36.38096, 50.30406], [36.38799, 50.30644], [36.40019, 50.30665], [36.41, 50.30458], [36.43057, 50.29688], [36.45269, 50.29357], [36.48018, 50.28086], [36.51212, 50.27642], [36.52111, 50.27409], [36.53641, 50.26753], [36.53889, 50.26505], [36.5361, 50.26091], [36.53393, 50.23869], [36.53165, 50.22882], [36.53465, 50.21993], [36.54953, 50.21218], [36.57103, 50.20691], [36.59439, 50.20443], [36.61692, 50.20639], [36.63583, 50.21404], [36.64441, 50.22226], [36.66043, 50.24386], [36.66983, 50.25301], [36.68265, 50.26065], [36.84863, 50.3237], [36.91406, 50.3391], [36.9801, 50.34215], [37.05172, 50.33533], [37.19704, 50.36241], [37.2267, 50.37708], [37.2852, 50.41527], [37.31475, 50.42297], [37.3377, 50.425], [37.0459, 49.62636], [36.84814, 48.67829], [36.5625, 48.12419], [35.96924, 47.31149], [35.06836, 47.56404], [33.9917, 47.05773], [33.55225, 46.86285], [32.59737, 46.61097], [32.60377, 46.61571], [32.61939, 46.62352], [32.6338, 46.63312], [32.64552, 46.6496], [32.62184, 46.64179], [32.59457, 46.62832], [32.56739, 46.61848], [32.54371, 46.62173], [32.40903, 46.56891], [32.33579, 46.56216], [32.2693, 46.58759], [32.25375, 46.60472], [32.24822, 46.60741], [32.23683, 46.60444], [32.22006, 46.59072], [32.21095, 46.58759], [32.19972, 46.58649], [32.18019, 46.58177], [32.16993, 46.58076], [32.14633, 46.56025], [32.13209, 46.5703], [32.11793, 46.60688], [32.10108, 46.61489], [32.03956, 46.62348], [32.0228, 46.62914], [32.00896, 46.6398], [31.99293, 46.65742], [31.97983, 46.67707], [31.97446, 46.694], [31.97071, 46.71288], [31.96144, 46.72761], [31.95021, 46.74177], [31.94028, 46.75886], [31.93621, 46.80036], [31.95476, 46.83145], [31.9817, 46.86034], [32.00245, 46.89545], [32.0075, 46.91523], [32.00668, 46.93049], [31.99594, 46.94038], [31.94606, 46.94668], [31.93588, 46.95482], [31.93922, 46.96796], [31.96892, 46.99868], [31.9769, 47.00935], [31.97096, 47.01634], [31.9437, 47.01895], [31.90016, 47.01362], [31.88111, 47.01504], [31.86525, 47.02635], [31.89324, 47.06843], [31.89682, 47.09272], [31.88234, 47.1186], [31.86818, 47.12735], [31.85572, 47.12962], [31.84555, 47.13402], [31.8379, 47.14924], [31.83473, 47.1682], [31.83448, 47.17894], [31.83058, 47.18675], [31.81674, 47.19709], [31.75766, 47.21621], [31.74855, 47.22846], [31.75327, 47.24852], [31.75213, 47.25585], [31.74171, 47.2591], [31.7378, 47.25536], [31.72381, 47.23749], [31.72055, 47.23188], [31.72682, 47.22053], [31.74244, 47.20917], [31.76173, 47.20051], [31.80616, 47.19269], [31.81625, 47.18085], [31.8156, 47.12263], [31.82, 47.11709], [31.84474, 47.11298], [31.85157, 47.10834], [31.85662, 47.10366], [31.86183, 47.10151], [31.87428, 47.09382], [31.86647, 47.07705], [31.85231, 47.06053], [31.84474, 47.0537], [31.83741, 47.00845], [31.86899, 46.99885], [31.91407, 47.00308], [31.94711, 46.99909], [31.91774, 46.97626], [31.90431, 46.96052], [31.89943, 46.94383], [31.90772, 46.92646], [31.92563, 46.92292], [31.9476, 46.92817], [31.96827, 46.937], [31.97283, 46.91535], [31.96339, 46.88569], [31.94508, 46.85952], [31.92319, 46.84829], [31.89861, 46.84292], [31.87745, 46.82827], [31.86476, 46.80659], [31.86525, 46.77998], [31.90284, 46.74518], [31.90675, 46.73823], [31.89943, 46.694], [31.90235, 46.67699], [31.90748, 46.66918], [31.90854, 46.66275], [31.89943, 46.6496], [31.8921, 46.64362], [31.87013, 46.63312], [31.85841, 46.62914], [31.81471, 46.62303], [31.7715, 46.62751], [31.67408, 46.65322], [31.61443, 46.6496], [31.59718, 46.64321], [31.58872, 46.62958], [31.57887, 46.61734], [31.55681, 46.61489], [31.54851, 46.61807], [31.53452, 46.62718], [31.5254, 46.62914], [31.50416, 46.628], [31.49301, 46.62873], [31.48504, 46.63227], [31.48097, 46.64643], [31.4909, 46.6634], [31.54615, 46.72761], [31.56023, 46.74909], [31.55983, 46.75886], [31.57211, 46.7663], [31.61818, 46.81346], [31.60613, 46.8264], [31.59783, 46.82046], [31.59132, 46.80598], [31.584, 46.79365], [31.57667, 46.78937], [31.55738, 46.78364], [31.54933, 46.77998], [31.54347, 46.77485], [31.52418, 46.75406], [31.52296, 46.75031], [31.51954, 46.74746], [31.50831, 46.74518], [31.49562, 46.75072], [31.48162, 46.75886], [31.46681, 46.7836], [31.45606, 46.79605], [31.44068, 46.80048], [31.45191, 46.77546], [31.45379, 46.76911], [31.45582, 46.75458], [31.46193, 46.74868], [31.47071, 46.74535], [31.50213, 46.72773], [31.50587, 46.7204], [31.4983, 46.70767], [31.47967, 46.6872], [31.4782, 46.68378], [31.46266, 46.67524], [31.42856, 46.63764], [31.41619, 46.62914], [31.39666, 46.62604], [31.35222, 46.60932], [31.33766, 46.60126], [31.3239, 46.60615], [31.29575, 46.60887], [31.28297, 46.61489], [31.27556, 46.60741], [31.25668, 46.6164], [31.18686, 46.62914], [31.15952, 46.62897], [31.10816, 46.61774], [31.05454, 46.61274], [31.01303, 46.60334], [30.99138, 46.60126], [30.98243, 46.5974], [30.95924, 46.5834], [30.95045, 46.58413], [30.93914, 46.58771], [30.92604, 46.5843], [30.86695, 46.55581], [30.8545, 46.55341], [30.81251, 46.56005], [30.80258, 46.56025], [30.7907, 46.55292], [30.76092, 46.52436], [30.75489, 46.51586], [30.75831, 46.50259], [30.77524, 46.47769], [30.78207, 46.45722], [30.7859, 46.45726], [30.79347, 46.45234], [30.79819, 46.44644], [30.79298, 46.44355], [30.79038, 46.44147], [30.78679, 46.43651], [30.78354, 46.43085], [30.77475, 46.40062], [30.77247, 46.39643], [30.73129, 46.35859], [30.71453, 46.34797], [30.66065, 46.3509], [30.65187, 46.34455], [30.6565, 46.33902], [30.67937, 46.32832], [30.68653, 46.32001], [30.68678, 46.30903], [30.68238, 46.29955], [30.65349, 46.25959], [30.58351, 46.19033], [30.56186, 46.16169], [30.5477, 46.14777], [30.53199, 46.14191], [30.52329, 46.13377], [30.50343, 46.09439], [30.50037, 46.0898], [30.05782, 46.3714]]], [[[32.51989, 46.59053], [32.52475, 46.59272], [32.5297, 46.59312], [32.51989, 46.59053]]], [[[32.12402, 46.4861], [32.00662, 46.44931], [31.99171, 46.45356], [31.9546, 46.45099], [31.91065, 46.45588], [31.77166, 46.49584], [31.74855, 46.49994], [31.72641, 46.50088], [31.7107, 46.49543], [31.69597, 46.48412], [31.69028, 46.47858], [31.68653, 46.47089], [31.68507, 46.46137], [31.68653, 46.42988], [31.66359, 46.47211], [31.65577, 46.47834], [31.64145, 46.48208], [31.52443, 46.56419], [31.50831, 46.58759], [31.54029, 46.57005], [31.56666, 46.55036], [31.58155, 46.54523], [31.75636, 46.55427], [31.79021, 46.54727], [31.84791, 46.52302], [31.85174, 46.52196], [31.86183, 46.51927], [31.94711, 46.51927], [32.03346, 46.50629], [32.09116, 46.51284], [32.11166, 46.51244], [32.18237, 46.50149], [32.12402, 46.4861]]], [[[31.53285, 46.30082], [31.52198, 46.31322], [31.51401, 46.32941], [31.50506, 46.35493], [31.5044, 46.37336], [31.52198, 46.36848], [31.53842, 46.32583], [31.54918, 46.30594], [31.53285, 46.30082]]]]}, "properties": {"id": "INTC", "status": "validé", "pieces": [{"kind": "polygon", "ring": [[30.6189, 46.01438], [29.78394, 46.54567], [27.99316, 48.40114], [30.47607, 49.88178], [32.56348, 50.03721], [35.63965, 50.65392], [37.37549, 50.52842], [37.0459, 49.62636], [36.84814, 48.67829], [36.5625, 48.12419], [35.96924, 47.31149], [35.06836, 47.56404], [33.9917, 47.05773], [33.55225, 46.86285], [32.12402, 46.4861]]}, {"kind": "clip"}]}}, {"type": "Feature", "geometry": null, "properties": {"id": "J6ak", "status": "validé", "pieces": [{"kind": "country"}]}}, {"type": "Feature", "geometry": null, "properties": {"id": "JmjH", "status": "validé", "pieces": [{"kind": "country"}]}}, {"type": "Feature", "geometry": null, "properties": {"id": "KBwh", "status": "rejeté", "pieces": []}}, {"type": "Feature", "geometry": null, "properties": {"id": "MArz", "status": "validé", "pieces": [{"kind": "country"}]}}, {"type": "Feature", "geometry": {"type": "Polygon", "coordinates": [[[23.4668, 48.07943], [23.50937, 47.9961], [23.50371, 47.99289], [23.49937, 47.98622], [23.49431, 47.98054], [23.48852, 47.97586], [23.48548, 47.97423], [23.48159, 47.97216], [23.46082, 47.97134], [23.39602, 47.99307], [23.39447, 47.99345], [23.39302, 47.99358], [23.39157, 47.99345], [23.39013, 47.99307], [23.38217, 47.99113], [23.37473, 47.99056], [23.36729, 47.99121], [23.36005, 47.99314], [23.33752, 48.01087], [23.28977, 48.03821], [23.24864, 48.07123], [23.23138, 48.07973], [23.16172, 48.0959], [23.13908, 48.09813], [23.11862, 48.09154], [23.09898, 48.07123], [23.07655, 48.02451], [23.06312, 48.00746], [23.02033, 47.98472], [23.00442, 47.98307], [22.98819, 47.98637], [22.97248, 47.99289], [22.95708, 48.00012], [22.9393, 48.00565], [22.92411, 48.00482], [22.91574, 47.99299], [22.92421, 47.97273], [22.91584, 47.95919], [22.89786, 47.95098], [22.8776, 47.94674], [22.84081, 47.96679], [22.83244, 47.97893], [22.84949, 47.99314], [22.85135, 48.0088], [22.85796, 48.01803], [22.86158, 48.02839], [22.85476, 48.0473], [22.84432, 48.06105], [22.83099, 48.07244], [22.80143, 48.09097], [22.76557, 48.10453], [22.76205, 48.10926], [22.74572, 48.11629], [22.72857, 48.11314], [22.71162, 48.10582], [22.69322, 48.10177], [22.62118, 48.10177], [22.60806, 48.09683], [22.60547, 48.09704], [22.6001, 48.10112], [22.58304, 48.12482], [22.56889, 48.15652], [22.55576, 48.17716], [22.48145, 48.24259], [22.47742, 48.24393], [22.47328, 48.2445], [22.46905, 48.24414], [22.44972, 48.23768], [22.43422, 48.23675], [22.4184, 48.23897], [22.39877, 48.24434], [22.39453, 48.24476], [22.3905, 48.24434], [22.38647, 48.24305], [22.37861, 48.23886], [22.37086, 48.23739], [22.36363, 48.23871], [22.35712, 48.2431], [22.30813, 48.29369], [22.29738, 48.314], [22.29645, 48.3278], [22.29872, 48.33932], [22.29872, 48.34914], [22.29128, 48.35757], [22.28436, 48.35839], [22.25676, 48.35728], [22.25697, 48.37322], [22.27185, 48.40346], [22.23609, 48.41529], [22.20198, 48.41816], [22.16922, 48.40953], [22.1593, 48.40232], [22.15826, 48.40222], [22.15651, 48.40206], [22.13284, 48.4048], [22.13377, 48.47684], [22.14483, 48.49311], [22.14834, 48.50882], [22.13666, 48.54934], [22.13873, 48.56959], [22.15372, 48.58587], [22.21904, 48.62094], [22.22524, 48.62822], [22.23568, 48.64416], [22.24322, 48.65119], [22.25552, 48.65677], [22.28218, 48.6624], [22.29428, 48.66763], [22.3103, 48.68168], [22.32249, 48.70034], [22.3289, 48.72158], [22.32878, 48.72357], [23.4668, 48.07943]]]}, "properties": {"id": "NPC1", "status": "validé", "pieces": [{"kind": "polygon", "ring": [[22.26929, 48.75724], [23.4668, 48.07943], [23.60962, 47.79987], [21.67603, 47.77773], [21.86279, 48.75724]]}, {"kind": "clip"}]}}, {"type": "Feature", "geometry": {"type": "Polygon", "coordinates": [[[33.52615, 47.78663], [33.52615, 48.02772], [33.25562, 48.02772], [33.25562, 47.78663], [33.52615, 47.78663]]]}, "properties": {"id": "QxHe", "status": "validé", "pieces": [{"kind": "rect", "bounds": [33.25562, 47.78663, 33.52615, 48.02772]}]}}, {"type": "Feature", "geometry": null, "properties": {"id": "TCLY", "status": "rejeté", "pieces": []}}, {"type": "Feature", "geometry": null, "properties": {"id": "VZe4", "status": "rejeté", "pieces": []}}, {"type": "Feature", "geometry": {"type": "Polygon", "coordinates": [[[30.95673, 46.29987], [30.95673, 46.61572], [30.52002, 46.61572], [30.52002, 46.29987], [30.95673, 46.29987]]]}, "properties": {"id": "Vcd1", "status": "validé", "pieces": [{"kind": "rect", "bounds": [30.52002, 46.29987, 30.95673, 46.61572]}]}}, {"type": "Feature", "geometry": null, "properties": {"id": "Wve0", "status": "validé", "pieces": [{"kind": "admin1", "code": "UKR-293"}]}}, {"type": "Feature", "geometry": null, "properties": {"id": "XFpl", "status": "rejeté", "pieces": []}}, {"type": "Feature", "geometry": null, "properties": {"id": "YsNh", "status": "validé", "pieces": [{"kind": "country"}]}}, {"type": "Feature", "geometry": {"type": "Polygon", "coordinates": [[[30.10529, 51.11316], [30.11627, 51.22764], [30.16846, 51.25857], [30.17807, 51.24655], [30.15884, 51.22764], [30.13412, 51.11058], [30.10529, 51.11316]]]}, "properties": {"id": "a4Vs", "status": "validé", "pieces": [{"kind": "polygon", "ring": [[30.10529, 51.11316], [30.11627, 51.22764], [30.16846, 51.25857], [30.17807, 51.24655], [30.15884, 51.22764], [30.13412, 51.11058]]}]}}, {"type": "Feature", "geometry": null, "properties": {"id": "aOBs", "status": "validé", "pieces": [{"kind": "country"}]}}, {"type": "Feature", "geometry": null, "properties": {"id": "c205", "status": "validé", "pieces": [{"kind": "country"}]}}, {"type": "Feature", "geometry": {"type": "Polygon", "coordinates": [[[33.11279, 51.85162], [32.40967, 51.37427], [31.1792, 50.97494], [30.6958, 50.43245], [29.88281, 50.29234], [28.93799, 50.15181], [25.81787, 50.13774], [25.75195, 50.44644], [29.55322, 50.46043], [29.729, 50.71144], [28.52051, 50.80869], [26.19141, 51.08545], [24.71924, 51.30567], [23.62868, 51.32601], [23.63404, 51.3393], [23.64779, 51.354], [23.66556, 51.36581], [23.68386, 51.37028], [23.67766, 51.38379], [23.6789, 51.39407], [23.68603, 51.40105], [23.6976, 51.40443], [23.68944, 51.41642], [23.64872, 51.45397], [23.64717, 51.46019], [23.66277, 51.48019], [23.64861, 51.48621], [23.63053, 51.49042], [23.61482, 51.49722], [23.6081, 51.51122], [23.60624, 51.5174], [23.61544, 51.51311], [23.62412, 51.5159], [23.62867, 51.53122], [23.62629, 51.54089], [23.59911, 51.58897], [23.59332, 51.59696], [23.59435, 51.60496], [23.60645, 51.61812], [23.61668, 51.62478], [23.62898, 51.62905], [23.72623, 51.64486], [23.74969, 51.64447], [23.82028, 51.63127], [23.84529, 51.62982], [23.88488, 51.61987], [23.91289, 51.59858], [23.94131, 51.58192], [23.98131, 51.586], [24.13075, 51.66979], [24.24413, 51.71821], [24.27235, 51.74289], [24.29612, 51.80813], [24.31152, 51.82756], [24.3479, 51.86115], [24.3696, 51.8751], [24.39079, 51.88001], [24.63977, 51.89213], [24.70106, 51.88291], [24.72183, 51.88234], [25.00274, 51.91048], [25.09266, 51.93975], [25.13803, 51.94895], [25.1833, 51.94975], [25.35197, 51.92148], [25.5474, 51.91944], [25.68348, 51.91802], [25.76791, 51.92851], [25.98113, 51.90347], [26.05059, 51.90482], [26.08076, 51.90066], [26.14536, 51.86485], [26.17533, 51.85671], [26.40777, 51.85061], [26.41976, 51.84686], [26.41997, 51.83973], [26.41697, 51.83064], [26.41925, 51.82092], [26.43154, 51.81022], [26.4456, 51.8056], [26.66574, 51.80139], [26.85477, 51.74935], [26.92082, 51.74253], [27.02159, 51.76454], [27.10995, 51.76242], [27.15109, 51.75676], [27.17786, 51.74708], [27.18416, 51.73144], [27.18147, 51.71013], [27.18106, 51.68341], [27.18902, 51.66377], [27.20359, 51.65514], [27.22364, 51.6537], [27.24793, 51.65566], [27.27749, 51.65114], [27.27449, 51.6338], [27.25971, 51.6123], [27.25403, 51.59538], [27.26746, 51.5875], [27.28927, 51.58897], [27.32906, 51.59696], [27.38838, 51.59073], [27.409, 51.59171], [27.43097, 51.59843], [27.45877, 51.6175], [27.47727, 51.62367], [27.51231, 51.62313], [27.51243, 51.6231], [27.62062, 51.5959], [27.67684, 51.59481], [27.69265, 51.58923], [27.70516, 51.56835], [27.69731, 51.54319], [27.66413, 51.49285], [27.66618, 51.49019], [27.67033, 51.48482], [27.68377, 51.47552], [27.70004, 51.46753], [27.71426, 51.46371], [27.73012, 51.46515], [27.74056, 51.47141], [27.78733, 51.51091], [27.79255, 51.5173], [27.79715, 51.5306], [27.79627, 51.54153], [27.79374, 51.55231], [27.79322, 51.56502], [27.79952, 51.5852], [27.81255, 51.60202], [27.83125, 51.61292], [27.8542, 51.61533], [27.87559, 51.60804], [27.93605, 51.56701], [27.95476, 51.56078], [27.97315, 51.55781], [28.07082, 51.55763], [28.09015, 51.56205], [28.11423, 51.57561], [28.14669, 51.6144], [28.16622, 51.6331], [28.18761, 51.6452], [28.21004, 51.65196], [28.2304, 51.65114], [28.24513, 51.64062], [28.2489, 51.6306], [28.24838, 51.6221], [28.24937, 51.61308], [28.25779, 51.60176], [28.26973, 51.59427], [28.29851, 51.58298], [28.31091, 51.57445], [28.31742, 51.56396], [28.32817, 51.53636], [28.33386, 51.52838], [28.34688, 51.52515], [28.35964, 51.52936], [28.38553, 51.54505], [28.43535, 51.56613], [28.46124, 51.57166], [28.48837, 51.57202], [28.57808, 51.56011], [28.60392, 51.55355], [28.6127, 51.53993], [28.61518, 51.51957], [28.63089, 51.46363], [28.6373, 51.44963], [28.64702, 51.43901], [28.66355, 51.43399], [28.67792, 51.43808], [28.69115, 51.44342], [28.70396, 51.44262], [28.7111, 51.43025], [28.71823, 51.41162], [28.72877, 51.40126], [28.74675, 51.41399], [28.75161, 51.42875], [28.74944, 51.46686], [28.75223, 51.48371], [28.77187, 51.51128], [28.79988, 51.53262], [28.83191, 51.54828], [28.86364, 51.55892], [28.89289, 51.56287], [28.95459, 51.56326], [28.98085, 51.56946], [28.99997, 51.58241], [29.02363, 51.61403], [29.04358, 51.62618], [29.06322, 51.6306], [29.08368, 51.63122], [29.12389, 51.62504], [29.14797, 51.61564], [29.16042, 51.60331], [29.18145, 51.56701], [29.21484, 51.53546], [29.22651, 51.51905], [29.23044, 51.49288], [29.22104, 51.46696], [29.22776, 51.45562], [29.2444, 51.44789], [29.26486, 51.43291], [29.27613, 51.41358], [29.2846, 51.39175], [29.297, 51.37371], [29.31995, 51.36557], [29.34057, 51.3701], [29.35326, 51.37705], [29.37968, 51.39154], [29.40273, 51.39614], [29.4464, 51.3849], [29.46629, 51.38506], [29.48087, 51.40126], [29.49554, 51.42565], [29.50547, 51.43746], [29.519, 51.4418], [29.54505, 51.44366], [29.5682, 51.44963], [29.58319, 51.46081], [29.59735, 51.47396], [29.61802, 51.48564], [29.63776, 51.49089], [29.6608, 51.49314], [29.68272, 51.4912], [29.69997, 51.48371], [29.71651, 51.46567], [29.7253, 51.45045], [29.73791, 51.4395], [29.82865, 51.42996], [29.84663, 51.43291], [29.85676, 51.43986], [29.87361, 51.45919], [29.88627, 51.46479], [29.89655, 51.4642], [29.91257, 51.45743], [29.92508, 51.45787], [29.98575, 51.47787], [30.00869, 51.48208], [30.14863, 51.48443], [30.17731, 51.4795], [30.20537, 51.4665], [30.24278, 51.43441], [30.25689, 51.42505], [30.30738, 51.4096], [30.32019, 51.40208], [30.32619, 51.39526], [30.32903, 51.38862], [30.33012, 51.38072], [30.33001, 51.37035], [30.32826, 51.36247], [30.31988, 51.3416], [30.31709, 51.34059], [30.32454, 51.32997], [30.35513, 51.30527], [30.36846, 51.29767], [30.38376, 51.29392], [30.41352, 51.29405], [30.4281, 51.29175], [30.44277, 51.28305], [30.46504, 51.26194], [30.4807, 51.25886], [30.49466, 51.25992], [30.50809, 51.25767], [30.5208, 51.2524], [30.53202, 51.24462], [30.53961, 51.23517], [30.55067, 51.2368], [30.55466, 51.24251], [30.55532, 51.24346], [30.55662, 51.26731], [30.55935, 51.26933], [30.57723, 51.28901], [30.57992, 51.30367], [30.61046, 51.31754], [30.63831, 51.33586], [30.63242, 51.3641], [30.64555, 51.36746], [30.64452, 51.37268], [30.63749, 51.3786], [30.63242, 51.38397], [30.62261, 51.41211], [30.61816, 51.41872], [30.60602, 51.42456], [30.59558, 51.42495], [30.58788, 51.42735], [30.584, 51.43921], [30.58602, 51.45185], [30.59356, 51.4589], [30.60483, 51.46123], [30.61816, 51.45965], [30.61816, 51.46714], [30.60762, 51.46983], [30.59728, 51.47427], [30.58891, 51.48182], [30.584, 51.49383], [30.58974, 51.50197], [30.5854, 51.50939], [30.57506, 51.51606], [30.56287, 51.52177], [30.57145, 51.52642], [30.57641, 51.53112], [30.584, 51.54226], [30.56742, 51.54727], [30.53414, 51.55326], [30.52256, 51.56272], [30.52256, 51.56892], [30.52773, 51.5713], [30.53109, 51.57331], [30.53527, 51.57502], [30.54313, 51.57639], [30.54313, 51.58259], [30.53455, 51.58584], [30.51512, 51.59626], [30.51512, 51.60367], [30.54385, 51.62013], [30.55662, 51.62362], [30.55284, 51.63334], [30.54995, 51.63719], [30.55532, 51.63977], [30.56349, 51.64731], [30.57031, 51.6515], [30.56432, 51.6653], [30.57599, 51.68641], [30.57031, 51.69992], [30.58282, 51.7023], [30.61382, 51.70292], [30.62498, 51.7061], [30.63056, 51.7156], [30.63201, 51.72798], [30.63506, 51.73969], [30.64617, 51.74708], [30.64617, 51.75454], [30.63811, 51.75511], [30.61816, 51.76134], [30.63046, 51.77002], [30.65279, 51.77914], [30.67056, 51.79053], [30.66963, 51.80606], [30.66229, 51.8156], [30.66198, 51.81942], [30.66632, 51.82239], [30.67273, 51.8296], [30.69454, 51.84728], [30.69733, 51.85074], [30.70281, 51.85376], [30.70756, 51.86038], [30.71397, 51.86696], [30.73454, 51.87373], [30.73722, 51.88224], [30.73784, 51.89159], [30.74167, 51.89792], [30.74973, 51.89962], [30.7795, 51.89792], [30.78818, 51.90061], [30.79706, 51.90673], [30.8106, 51.91838], [30.8106, 51.92518], [30.80523, 51.92934], [30.80254, 51.93554], [30.80306, 51.93913], [30.83138, 51.9459], [30.84564, 51.95135], [30.85804, 51.95763], [30.8691, 51.96502], [30.87933, 51.97365], [30.87964, 51.97688], [30.87902, 51.98202], [30.88088, 51.98817], [30.88874, 51.99435], [30.8969, 51.99833], [30.9028, 51.99998], [30.90838, 51.99835], [30.9152, 51.99259], [30.94124, 51.9938], [30.95013, 52.00677], [30.94052, 52.02008], [30.91127, 52.02256], [30.91463, 52.02757], [30.91685, 52.03236], [30.91974, 52.03726], [30.92471, 52.04228], [30.91881, 52.05918], [30.93442, 52.06972], [30.95933, 52.07468], [31.09632, 52.07961], [31.13482, 52.07667], [31.15921, 52.06811], [31.2049, 52.04393], [31.22898, 52.03822], [31.25244, 52.0445], [31.26887, 52.06124], [31.28427, 52.08124], [31.30442, 52.09749], [31.38308, 52.11749], [31.47485, 52.11778], [31.64993, 52.09685], [31.76434, 52.10057], [31.82584, 52.10406], [31.85871, 52.09987], [31.88206, 52.08641], [31.88749, 52.07003], [31.88775, 52.05155], [31.89204, 52.03618], [31.91038, 52.02907], [31.92723, 52.03109], [31.98056, 52.04762], [32.01694, 52.0498], [32.07714, 52.03995], [32.09559, 52.04073], [32.23331, 52.08085], [32.2777, 52.10266], [32.30674, 52.14119], [32.31883, 52.20141], [32.32824, 52.21916], [32.33785, 52.22547], [32.35015, 52.22989], [32.36131, 52.23591], [32.367, 52.2472], [32.36328, 52.25573], [32.34446, 52.27653], [32.3395, 52.28725], [32.35356, 52.32159], [32.39428, 52.32681], [32.48058, 52.30714], [32.52843, 52.31621], [32.72542, 52.25208], [32.7556, 52.25239], [32.81482, 52.26201], [32.84418, 52.26234], [32.86102, 52.2572], [32.89079, 52.24232], [32.90898, 52.2411], [32.92686, 52.24692], [33.03011, 52.3036], [33.04825, 52.30908], [33.05729, 52.30864], [33.07041, 52.30417], [33.07961, 52.30559], [33.08736, 52.31076], [33.09904, 52.32477], [33.10886, 52.32833], [33.12798, 52.33272], [33.14085, 52.34037], [33.16664, 52.36006], [33.18286, 52.3673], [33.19651, 52.36895], [33.29433, 52.3573], [33.31159, 52.35737], [33.11279, 51.85162]]]}, "properties": {"id": "clFO", "status": "validé", "pieces": [{"kind": "polygon", "ring": [[23.24707, 51.33312], [24.71924, 51.30567], [26.19141, 51.08545], [28.52051, 50.80869], [29.729, 50.71144], [29.55322, 50.46043], [25.75195, 50.44644], [25.81787, 50.13774], [28.93799, 50.15181], [29.88281, 50.29234], [30.6958, 50.43245], [31.1792, 50.97494], [32.40967, 51.37427], [33.11279, 51.85162], [33.39844, 52.57829], [22.9834, 52.28368]]}, {"kind": "clip"}]}}, {"type": "Feature", "geometry": null, "properties": {"id": "dZuO", "status": "validé", "pieces": [{"kind": "country"}]}}, {"type": "Feature", "geometry": null, "properties": {"id": "ffx5", "status": "validé", "pieces": [{"kind": "country"}]}}, {"type": "Feature", "geometry": null, "properties": {"id": "fmwm", "status": "rejeté", "pieces": []}}, {"type": "Feature", "geometry": null, "properties": {"id": "ftY0", "status": "validé", "pieces": [{"kind": "country"}]}}, {"type": "Feature", "geometry": null, "properties": {"id": "iXrj", "status": "validé", "pieces": [{"kind": "country"}]}}, {"type": "Feature", "geometry": null, "properties": {"id": "mASo", "status": "validé", "pieces": [{"kind": "country"}]}}, {"type": "Feature", "geometry": null, "properties": {"id": "nLtW", "status": "validé", "pieces": [{"kind": "country"}]}}, {"type": "Feature", "geometry": {"type": "Polygon", "coordinates": [[[24.85245, 48.86128], [24.85245, 48.97584], [24.62723, 48.97584], [24.62723, 48.86128], [24.85245, 48.86128]]]}, "properties": {"id": "p0kA", "status": "validé", "pieces": [{"kind": "rect", "bounds": [24.62723, 48.86128, 24.85245, 48.97584]}]}}, {"type": "Feature", "geometry": null, "properties": {"id": "pjlN", "status": "rejeté", "pieces": []}}, {"type": "Feature", "geometry": null, "properties": {"id": "qHQH", "status": "rejeté", "pieces": []}}, {"type": "Feature", "geometry": {"type": "Polygon", "coordinates": [[[33.36411, 47.95513], [33.4726, 48.07818], [33.51929, 48.06717], [33.45886, 47.97719], [33.43826, 47.96249], [33.36411, 47.95513]]]}, "properties": {"id": "rOmV", "status": "validé", "pieces": [{"kind": "polygon", "ring": [[33.36411, 47.95513], [33.4726, 48.07818], [33.51929, 48.06717], [33.45886, 47.97719], [33.43826, 47.96249]]}]}}, {"type": "Feature", "geometry": null, "properties": {"id": "sSrn", "status": "validé", "pieces": [{"kind": "country"}]}}, {"type": "Feature", "geometry": {"type": "Polygon", "coordinates": [[[26.85059, 50.9046], [27.97119, 50.76589], [29.81689, 50.87689], [30.76172, 50.752], [31.46484, 50.62677], [31.46484, 50.19286], [31.15723, 49.79752], [30.36621, 49.79752], [29.75098, 50.08023], [29.75098, 49.74077], [29.75098, 49.31309], [29.42139, 48.67903], [28.78418, 48.5338], [27.90527, 48.56288], [27.44385, 48.70803], [27.04834, 49.04028], [26.74072, 48.78044], [26.34521, 48.50471], [25.90576, 48.22746], [25.29053, 48.28595], [25.09277, 48.09561], [24.49951, 48.18355], [24.65332, 48.62099], [24.32373, 49.15533], [22.86908, 49.74721], [22.88825, 49.76973], [22.89796, 49.77743], [22.90675, 49.7812], [22.92442, 49.78544], [22.9331, 49.79107], [22.93775, 49.7982], [22.94592, 49.81836], [22.95119, 49.82662], [22.99305, 49.85443], [23.10146, 49.95711], [23.14125, 49.98548], [23.17784, 50.00398], [23.20792, 50.03395], [23.43643, 50.19347], [23.48159, 50.21595], [23.53606, 50.24277], [23.53617, 50.24277], [23.53627, 50.24283], [23.53637, 50.24283], [23.56531, 50.25781], [23.64417, 50.31269], [23.65802, 50.32561], [23.65868, 50.327], [23.67125, 50.35357], [23.6822, 50.36825], [23.69574, 50.37677], [23.713, 50.3824], [23.74752, 50.38938], [23.9287, 50.39083], [23.98131, 50.40478], [24.00322, 50.4377], [24.00776, 50.4485], [24.00942, 50.46147], [24.00787, 50.48074], [24.01066, 50.49278], [24.07505, 50.51428], [24.09396, 50.52715], [24.10647, 50.53862], [24.10771, 50.54084], [24.10254, 50.54363], [24.09541, 50.55686], [24.09147, 50.57536], [24.52148, 50.41731], [24.89502, 50.7381], [24.56543, 50.86303], [24.06678, 50.8911], [24.04694, 50.89803], [23.97934, 50.93751], [23.96436, 50.95322], [23.95888, 50.96635], [23.95784, 50.97534], [23.95505, 50.98356], [23.944, 50.9942], [23.9318, 50.99947], [23.91909, 51.00273], [23.91175, 51.00681], [23.91599, 51.01467], [23.91599, 51.02087], [23.90421, 51.06272], [23.89552, 51.07611], [23.86927, 51.10174], [23.85449, 51.12153], [23.85821, 51.13073], [23.87475, 51.13613], [23.86359, 51.14827], [23.81604, 51.17879], [23.76519, 51.19902], [23.74266, 51.21625], [23.71164, 51.2589], [24.43359, 51.34571], [24.71924, 51.46902], [25.06046, 51.92927], [25.09266, 51.93975], [25.13803, 51.94895], [25.1833, 51.94975], [25.35197, 51.92148], [25.5474, 51.91944], [25.68348, 51.91802], [25.76791, 51.92851], [25.98113, 51.90347], [26.05059, 51.90482], [26.08076, 51.90066], [26.14536, 51.86485], [26.17533, 51.85671], [26.40777, 51.85061], [26.41976, 51.84686], [26.41997, 51.83973], [26.41697, 51.83064], [26.41925, 51.82092], [26.43154, 51.81022], [26.4456, 51.8056], [26.66574, 51.80139], [26.80068, 51.76424], [26.85059, 50.9046]]]}, "properties": {"id": "t7jl", "status": "validé", "pieces": [{"kind": "clip"}, {"kind": "polygon", "ring": [[22.67578, 49.82586], [24.32373, 49.15533], [24.65332, 48.62099], [24.49951, 48.18355], [25.09277, 48.09561], [25.29053, 48.28595], [25.90576, 48.22746], [26.34521, 48.50471], [26.74072, 48.78044], [27.04834, 49.04028], [27.44385, 48.70803], [27.90527, 48.56288], [28.78418, 48.5338], [29.42139, 48.67903], [29.75098, 49.31309], [29.75098, 49.74077], [29.75098, 50.08023], [30.36621, 49.79752], [31.15723, 49.79752], [31.46484, 50.19286], [31.46484, 50.62677], [30.76172, 50.752], [29.81689, 50.87689], [27.97119, 50.76589], [26.85059, 50.9046], [26.78467, 52.04005], [25.20264, 52.12103], [24.71924, 51.46902], [24.43359, 51.34571], [23.29102, 51.20832], [23.33496, 50.93229], [24.56543, 50.86303], [24.89502, 50.7381], [24.52148, 50.41731], [23.68652, 50.7242]]}]}}, {"type": "Feature", "geometry": null, "properties": {"id": "tc2U", "status": "rejeté", "pieces": []}}, {"type": "Feature", "geometry": null, "properties": {"id": "uPIf", "status": "rejeté", "pieces": []}}, {"type": "Feature", "geometry": null, "properties": {"id": "ugIv", "status": "validé", "pieces": [{"kind": "country"}]}}, {"type": "Feature", "geometry": null, "properties": {"id": "wdxm", "status": "validé", "pieces": [{"kind": "country"}]}}, {"type": "Feature", "geometry": {"type": "MultiPolygon", "coordinates": [[[[30.23438, 46.89322], [29.92676, 47.77145], [30.01465, 48.09519], [30.60791, 48.15383], [31.20117, 48.10986], [32.10205, 47.81572], [32.87109, 47.94829], [33.20068, 48.21241], [33.57422, 48.62058], [34.16748, 48.80897], [35.50781, 48.75108], [35.79346, 48.12452], [35.17822, 47.38623], [34.25537, 46.65254], [33.61816, 46.42592], [33.24463, 46.62238], [32.4168, 46.52525], [32.43572, 46.54316], [32.50571, 46.58413], [32.52475, 46.59272], [32.57097, 46.59642], [32.58839, 46.60431], [32.60377, 46.61571], [32.61939, 46.62352], [32.6338, 46.63312], [32.64552, 46.6496], [32.62184, 46.64179], [32.59457, 46.62832], [32.56739, 46.61848], [32.54371, 46.62173], [32.40903, 46.56891], [32.33579, 46.56216], [32.2693, 46.58759], [32.25375, 46.60472], [32.24822, 46.60741], [32.23683, 46.60444], [32.22006, 46.59072], [32.21095, 46.58759], [32.19972, 46.58649], [32.18019, 46.58177], [32.16993, 46.58076], [32.14633, 46.56025], [32.13209, 46.5703], [32.11793, 46.60688], [32.10108, 46.61489], [32.03956, 46.62348], [32.0228, 46.62914], [32.00896, 46.6398], [31.99293, 46.65742], [31.97983, 46.67707], [31.97446, 46.694], [31.97071, 46.71288], [31.96144, 46.72761], [31.95021, 46.74177], [31.94028, 46.75886], [31.93621, 46.80036], [31.95476, 46.83145], [31.9817, 46.86034], [32.00245, 46.89545], [32.0075, 46.91523], [32.00668, 46.93049], [31.99594, 46.94038], [31.94606, 46.94668], [31.93588, 46.95482], [31.93922, 46.96796], [31.96892, 46.99868], [31.9769, 47.00935], [31.97096, 47.01634], [31.9437, 47.01895], [31.90016, 47.01362], [31.88111, 47.01504], [31.86525, 47.02635], [31.89324, 47.06843], [31.89682, 47.09272], [31.88234, 47.1186], [31.86818, 47.12735], [31.85572, 47.12962], [31.84555, 47.13402], [31.8379, 47.14924], [31.83473, 47.1682], [31.83448, 47.17894], [31.83058, 47.18675], [31.81674, 47.19709], [31.75766, 47.21621], [31.74855, 47.22846], [31.75327, 47.24852], [31.75213, 47.25585], [31.74171, 47.2591], [31.7378, 47.25536], [31.72381, 47.23749], [31.72055, 47.23188], [31.72682, 47.22053], [31.74244, 47.20917], [31.76173, 47.20051], [31.80616, 47.19269], [31.81625, 47.18085], [31.8156, 47.12263], [31.82, 47.11709], [31.84474, 47.11298], [31.85157, 47.10834], [31.85662, 47.10366], [31.86183, 47.10151], [31.87428, 47.09382], [31.86647, 47.07705], [31.85231, 47.06053], [31.84474, 47.0537], [31.83741, 47.00845], [31.86899, 46.99885], [31.91407, 47.00308], [31.94711, 46.99909], [31.91774, 46.97626], [31.90431, 46.96052], [31.89943, 46.94383], [31.90772, 46.92646], [31.92563, 46.92292], [31.9476, 46.92817], [31.96827, 46.937], [31.97283, 46.91535], [31.96339, 46.88569], [31.94508, 46.85952], [31.92319, 46.84829], [31.89861, 46.84292], [31.87745, 46.82827], [31.86476, 46.80659], [31.86525, 46.77998], [31.90284, 46.74518], [31.90675, 46.73823], [31.89943, 46.694], [31.90235, 46.67699], [31.90748, 46.66918], [31.90854, 46.66275], [31.89943, 46.6496], [31.8921, 46.64362], [31.87013, 46.63312], [31.85841, 46.62914], [31.81471, 46.62303], [31.7715, 46.62751], [31.67408, 46.65322], [31.61443, 46.6496], [31.59718, 46.64321], [31.58872, 46.62958], [31.57887, 46.61734], [31.55681, 46.61489], [31.54851, 46.61807], [31.53452, 46.62718], [31.5254, 46.62914], [31.50416, 46.628], [31.49301, 46.62873], [31.48504, 46.63227], [31.48097, 46.64643], [31.4909, 46.6634], [31.54615, 46.72761], [31.56023, 46.74909], [31.55983, 46.75886], [31.57211, 46.7663], [31.61818, 46.81346], [31.60613, 46.8264], [31.59783, 46.82046], [31.59132, 46.80598], [31.584, 46.79365], [31.57667, 46.78937], [31.55738, 46.78364], [31.54933, 46.77998], [31.54347, 46.77485], [31.52418, 46.75406], [31.52296, 46.75031], [31.51954, 46.74746], [31.50831, 46.74518], [31.49562, 46.75072], [31.48162, 46.75886], [31.46681, 46.7836], [31.45606, 46.79605], [31.44068, 46.80048], [31.45191, 46.77546], [31.45379, 46.76911], [31.45582, 46.75458], [31.46193, 46.74868], [31.47071, 46.74535], [31.50213, 46.72773], [31.50587, 46.7204], [31.4983, 46.70767], [31.47967, 46.6872], [31.4782, 46.68378], [31.46266, 46.67524], [31.42856, 46.63764], [31.41619, 46.62914], [31.39666, 46.62604], [31.35222, 46.60932], [31.33766, 46.60126], [31.3239, 46.60615], [31.29575, 46.60887], [31.28297, 46.61489], [31.27556, 46.60741], [31.25668, 46.6164], [31.18686, 46.62914], [31.15952, 46.62897], [31.10816, 46.61774], [31.05454, 46.61274], [31.01303, 46.60334], [30.99138, 46.60126], [30.98243, 46.5974], [30.95924, 46.5834], [30.95045, 46.58413], [30.93914, 46.58771], [30.92604, 46.5843], [30.86695, 46.55581], [30.8545, 46.55341], [30.81251, 46.56005], [30.80258, 46.56025], [30.7907, 46.55292], [30.76092, 46.52436], [30.75489, 46.51586], [30.75831, 46.50259], [30.77524, 46.47769], [30.78207, 46.45722], [30.7859, 46.45726], [30.79347, 46.45234], [30.79819, 46.44644], [30.79298, 46.44355], [30.79038, 46.44147], [30.78679, 46.43651], [30.78354, 46.43085], [30.77823, 46.41258], [30.23438, 46.89322]]], [[[32.06004, 46.39645], [32.05356, 46.40599], [32.00782, 46.44896], [31.99171, 46.45356], [31.9546, 46.45099], [31.91065, 46.45588], [31.77166, 46.49584], [31.74855, 46.49994], [31.72641, 46.50088], [31.7107, 46.49543], [31.69597, 46.48412], [31.69028, 46.47858], [31.68653, 46.47089], [31.68507, 46.46137], [31.68653, 46.42988], [31.66359, 46.47211], [31.65577, 46.47834], [31.64145, 46.48208], [31.52443, 46.56419], [31.50831, 46.58759], [31.54029, 46.57005], [31.56666, 46.55036], [31.58155, 46.54523], [31.75636, 46.55427], [31.79021, 46.54727], [31.84791, 46.52302], [31.85174, 46.52196], [31.86183, 46.51927], [31.94711, 46.51927], [32.03346, 46.50629], [32.09116, 46.51284], [32.11166, 46.51244], [32.22153, 46.49543], [32.25651, 46.47971], [32.06004, 46.39645]]], [[[31.52971, 46.30441], [31.52198, 46.31322], [31.51401, 46.32941], [31.50506, 46.35493], [31.5044, 46.37336], [31.52198, 46.36848], [31.53842, 46.32583], [31.54827, 46.30762], [31.52971, 46.30441]]]]}, "properties": {"id": "wjAJ", "status": "validé", "pieces": [{"kind": "clip"}, {"kind": "polygon", "ring": [[31.00342, 46.21356], [30.23438, 46.89322], [29.92676, 47.77145], [30.01465, 48.09519], [30.60791, 48.15383], [31.20117, 48.10986], [32.10205, 47.81572], [32.87109, 47.94829], [33.20068, 48.21241], [33.57422, 48.62058], [34.16748, 48.80897], [35.50781, 48.75108], [35.79346, 48.12452], [35.17822, 47.38623], [34.25537, 46.65254], [33.61816, 46.42592], [33.24463, 46.62238], [32.34375, 46.51668], [32.05811, 46.39563]]}]}}]}