{"type": "FeatureCollection", "features": [{"type": "Feature", "geometry": null, "properties": {"id": "07Np", "status": "validé", "pieces": [{"kind": "country"}]}}, {"type": "Feature", "geometry": null, "properties": {"id": "0wFk", "status": "validé", "pieces": [{"kind": "country"}]}}, {"type": "Feature", "geometry": null, "properties": {"id": "3qgY", "status": "validé", "pieces": [{"kind": "country"}]}}, {"type": "Feature", "geometry": null, "properties": {"id": "8hZX", "status": "rejeté", "pieces": []}}, {"type": "Feature", "geometry": null, "properties": {"id": "B0c6", "status": "validé", "pieces": [{"kind": "country"}]}}, {"type": "Feature", "geometry": {"type": "Polygon", "coordinates": [[[-54.84718, -34.99161], [-54.84718, -34.87964], [-55.00648, -34.87964], [-55.00648, -34.99161], [-54.84718, -34.99161]]]}, "properties": {"id": "CX3t", "status": "validé", "pieces": [{"kind": "rect", "bounds": [-55.00648, -34.99161, -54.84718, -34.87964]}]}}, {"type": "Feature", "geometry": {"type": "Polygon", "coordinates": [[[-54.12415, -34.1882], [-54.20654, -33.9608], [-54.4043, -33.90613], [-54.45923, -33.67796], [-54.26697, -33.41253], [-54.12415, -33.41253], [-53.84399, -32.91612], [-53.55835, -32.62525], [-53.43357, -32.54716], [-53.41562, -32.56416], [-53.35909, -32.58028], [-53.31604, -32.60271], [-53.29909, -32.60716], [-53.2669, -32.60736], [-53.23372, -32.62462], [-53.20148, -32.63723], [-53.18613, -32.64674], [-53.11978, -32.70741], [-53.11084, -32.72239], [-53.11404, -32.74058], [-53.12686, -32.75485], [-53.16308, -32.77872], [-53.18284, -32.7999], [-53.20385, -32.82244], [-53.27083, -32.86378], [-53.29883, -32.8891], [-53.307, -32.90719], [-53.30958, -32.9444], [-53.3163, -32.96269], [-53.32731, -32.97364], [-53.44911, -33.04207], [-53.48332, -33.06728], [-53.51154, -33.09922], [-53.51159, -33.09932], [-53.51164, -33.09943], [-53.52066, -33.12498], [-53.53686, -33.17084], [-53.53613, -33.24464], [-53.51402, -33.39491], [-53.53681, -33.55986], [-53.53965, -33.64926], [-53.51154, -33.69029], [-53.49107, -33.69029], [-53.47319, -33.6874], [-53.45671, -33.6875], [-53.44043, -33.69711], [-53.43082, -33.71345], [-53.42363, -33.73101], [-53.41128, -33.74228], [-53.37909, -33.74068], [-53.39635, -33.75058], [-53.41478, -33.76442], [-53.45092, -33.80153], [-53.47305, -33.83457], [-53.48559, -33.86932], [-53.50552, -33.95233], [-53.52465, -34.00237], [-53.52994, -34.04811], [-53.53946, -34.06243], [-53.57445, -34.0827], [-53.59122, -34.09547], [-53.63996, -34.14764], [-53.69359, -34.18174], [-53.71101, -34.19883], [-53.74665, -34.25742], [-53.75597, -34.26767], [-53.75829, -34.2785], [-53.76064, -34.28475], [-54.12415, -34.1882]]]}, "properties": {"id": "D8A0", "status": "validé", "pieces": [{"kind": "polygon", "ring": [[-53.66272, -34.31075], [-54.12415, -34.1882], [-54.20654, -33.9608], [-54.4043, -33.90613], [-54.45923, -33.67796], [-54.26697, -33.41253], [-54.12415, -33.41253], [-53.84399, -32.91612], [-53.55835, -32.62525], [-53.1958, -32.39836], [-52.4707, -33.58653]]}, {"kind": "clip"}]}}, {"type": "Feature", "geometry": null, "properties": {"id": "E7Gs", "status": "rejeté", "pieces": []}}, {"type": "Feature", "geometry": null, "properties": {"id": "FChw", "status": "validé", "pieces": [{"kind": "country"}]}}, {"type": "Feature", "geometry": null, "properties": {"id": "HRMl", "status": "validé", "pieces": [{"kind": "country"}]}}, {"type": "Feature", "geometry": {"type": "MultiPolygon", "coordinates": [[[[-57.37061, -31.97877], [-57.20581, -32.05326], [-57.04102, -32.12769], [-57.00806, -32.27637], [-57.00806, -32.53597], [-56.84326, -32.69323], [-56.88721, -32.91476], [-57.06299, -33.02532], [-57.2937, -32.85943], [-57.44751, -32.59151], [-57.56836, -32.58225], [-57.79907, -32.42481], [-57.86499, -32.09978], [-57.98584, -31.80161], [-57.82104, -31.55862], [-57.52441, -31.69888], [-57.37061, -31.97877]]], [[[-55.5249, -31.59605], [-55.67871, -31.93218], [-55.72266, -32.13699], [-56.06323, -32.21135], [-56.22803, -32.15559], [-56.10718, -31.79227], [-55.98633, -31.53055], [-55.97534, -31.36191], [-55.72266, -31.08017], [-55.49967, -30.91846], [-55.48909, -30.92969], [-55.44258, -30.96555], [-55.36858, -31.03738], [-55.35385, -31.05629], [-55.34843, -31.07273], [-55.34496, -31.10849], [-55.33804, -31.12564], [-55.32693, -31.13495], [-55.2937, -31.15365], [-55.28223, -31.16905], [-55.26874, -31.2106], [-55.25998, -31.22869], [-55.24435, -31.2446], [-55.22755, -31.25349], [-55.18828, -31.26651], [-55.16963, -31.27644], [-55.15395, -31.28871], [-55.5249, -31.59605]]]]}, "properties": {"id": "MSWj", "status": "validé", "pieces": [{"kind": "polygon", "ring": [[-57.82104, -31.55862], [-57.98584, -31.80161], [-57.86499, -32.09978], [-57.79907, -32.42481], [-57.56836, -32.58225], [-57.44751, -32.59151], [-57.2937, -32.85943], [-57.06299, -33.02532], [-56.88721, -32.91476], [-56.84326, -32.69323], [-57.00806, -32.53597], [-57.00806, -32.27637], [-57.04102, -32.12769], [-57.20581, -32.05326], [-57.37061, -31.97877], [-57.52441, -31.69888]]}, {"kind": "polygon", "ring": [[-55.43701, -30.87302], [-55.72266, -31.08017], [-55.97534, -31.36191], [-55.98633, -31.53055], [-56.10718, -31.79227], [-56.22803, -32.15559], [-56.06323, -32.21135], [-55.72266, -32.13699], [-55.67871, -31.93218], [-55.5249, -31.59605], [-55.14038, -31.27747], [-55.14038, -30.9484]]}, {"kind": "clip"}]}}, {"type": "Feature", "geometry": null, "properties": {"id": "Pveh", "status": "validé", "pieces": [{"kind": "country"}]}}, {"type": "Feature", "geometry": null, "properties": {"id": "Ql63", "status": "rejeté", "pieces": []}}, {"type": "Feature", "geometry": {"type": "Polygon", "coordinates": [[[-55.59082, -31.29661], [-55.95337, -31.4841], [-56.1676, -31.49815], [-56.27197, -31.41852], [-56.1676, -31.11345], [-55.99731, -30.86868], [-55.9907, -30.86633], [-55.99386, -30.88545], [-56.01136, -30.91263], [-56.01552, -30.93434], [-56.01634, -30.99986], [-56.02239, -31.04555], [-56.02218, -31.06715], [-56.01702, -31.0743], [-56.01136, -31.08213], [-56.00987, -31.08195], [-55.98516, -31.07882], [-55.91935, -31.08244], [-55.88819, -31.07697], [-55.86426, -31.07676], [-55.8546, -31.07459], [-55.84659, -31.06932], [-55.84214, -31.06394], [-55.8384, -31.05815], [-55.83248, -31.05175], [-55.81673, -31.04267], [-55.81652, -31.04255], [-55.77814, -31.02043], [-55.76359, -31.00844], [-55.75551, -30.99294], [-55.74489, -30.95863], [-55.73189, -30.9454], [-55.71274, -30.94343], [-55.6883, -30.94777], [-55.66582, -30.94932], [-55.65275, -30.93899], [-55.65107, -30.91997], [-55.65458, -30.87873], [-55.64967, -30.86096], [-55.63404, -30.84763], [-55.61291, -30.84339], [-55.59187, -30.84835], [-55.56386, -30.87646], [-55.52748, -30.89455], [-55.51131, -30.90612], [-55.48909, -30.92969], [-55.44258, -30.96555], [-55.42393, -30.98365], [-55.59082, -31.29661]]]}, "properties": {"id": "RpLA", "status": "validé", "pieces": [{"kind": "polygon", "ring": [[-55.99731, -30.86868], [-56.1676, -31.11345], [-56.27197, -31.41852], [-56.1676, -31.49815], [-55.95337, -31.4841], [-55.59082, -31.29661], [-55.36011, -30.86397], [-55.58533, -30.72246]]}, {"kind": "clip"}]}}, {"type": "Feature", "geometry": null, "properties": {"id": "VOt5", "status": "validé", "pieces": [{"kind": "country"}]}}, {"type": "Feature", "geometry": null, "properties": {"id": "Z9bh", "status": "validé", "pieces": [{"kind": "country"}]}}, {"type": "Feature", "geometry": null, "properties": {"id": "ZQG4", "status": "validé", "pieces": [{"kind": "country"}]}}, {"type": "Feature", "geometry": {"type": "Polygon", "coordinates": [[[-55.93277, -34.9814], [-55.93277, -34.74712], [-56.38458, -34.74712], [-56.38458, -34.9814], [-55.93277, -34.9814]]]}, "properties": {"id": "Zjpu", "status": "validé", "pieces": [{"kind": "rect", "bounds": [-56.38458, -34.9814, -55.93277, -34.74712]}]}}, {"type": "Feature", "geometry": null, "properties": {"id": "cpJZ", "status": "validé", "pieces": [{"kind": "country"}]}}, {"type": "Feature", "geometry": null, "properties": {"id": "grPh", "status": "validé", "pieces": [{"kind": "country"}]}}, {"type": "Feature", "geometry": null, "properties": {"id": "gxV0", "status": "validé", "pieces": [{"kind": "country"}]}}, {"type": "Feature", "geometry": null, "properties": {"id": "hQj8", "status": "validé", "pieces": [{"kind": "country"}]}}, {"type": "Feature", "geometry": null, "properties": {"id": "lQlm", "status": "validé", "pieces": [{"kind": "country"}]}}, {"type": "Feature", "geometry": null, "properties": {"id": "mVth", "status": "validé", "pieces": [{"kind": "country"}]}}, {"type": "Feature", "geometry": null, "properties": {"id": "mv5R", "status": "validé", "pieces": [{"kind": "country"}]}}, {"type": "Feature", "geometry": {"type": "MultiPolygon", "coordinates": [[[[-55.03944, -34.90888], [-55.05455, -34.88467], [-55.15343, -34.86891], [-55.21797, -34.83568], [-55.24132, -34.79792], [-55.28732, -34.79736], [-55.34157, -34.79172], [-55.3759, -34.79059], [-55.39856, -34.78552], [-55.47752, -34.78552], [-55.5249, -34.79116], [-55.60799, -34.76522], [-55.6739, -34.75564], [-55.74806, -34.7703], [-55.81604, -34.77425], [-55.87234, -34.78608], [-55.9259, -34.79736], [-55.95543, -34.8075], [-55.99319, -34.83004], [-56.00899, -34.83399], [-56.00418, -34.82215], [-55.94513, -34.79229], [-55.9108, -34.78439], [-55.89432, -34.78383], [-55.82085, -34.76804], [-55.77553, -34.76071], [-55.76042, -34.76297], [-55.7103, -34.74662], [-55.59975, -34.74774], [-55.56885, -34.76353], [-55.5201, -34.77876], [-55.46516, -34.77086], [-55.41229, -34.77763], [-55.39169, -34.77425], [-55.37041, -34.78157], [-55.35805, -34.77537], [-55.32921, -34.78157], [-55.27222, -34.78157], [-55.23376, -34.78608], [-55.21866, -34.80581], [-55.20561, -34.8306], [-55.16785, -34.84356], [-55.15274, -34.85652], [-55.1033, -34.85877], [-55.0573, -34.87172], [-55.0312, -34.88524], [-55.0312, -34.89537], [-54.97902, -34.90663], [-54.98314, -34.92014], [-55.03944, -34.90888]]], [[[-56.25275, -34.69172], [-56.28159, -34.58103], [-56.29669, -34.50301], [-56.28021, -34.43383], [-56.25412, -34.43398], [-56.27197, -34.49962], [-56.26236, -34.51319], [-56.26099, -34.54373], [-56.24176, -34.61154], [-56.22803, -34.65446], [-56.2294, -34.69059], [-56.26099, -34.78309], [-56.24451, -34.81804], [-56.24451, -34.86648], [-56.27609, -34.85308], [-56.27609, -34.86532], [-56.45874, -34.74358], [-56.64276, -34.6533], [-57.06848, -34.37958], [-57.20581, -34.36371], [-57.19345, -34.32518], [-57.02316, -34.36145], [-56.8721, -34.43394], [-56.72241, -34.5403], [-56.42441, -34.73569], [-56.37222, -34.76276], [-56.33926, -34.78869], [-56.28354, -34.83741], [-56.28021, -34.78647], [-56.25275, -34.69172]]]]}, "properties": {"id": "nX58", "status": "validé", "pieces": [{"kind": "polygon", "ring": [[-57.20581, -34.36371], [-57.06848, -34.37958], [-56.64276, -34.6533], [-56.45874, -34.74358], [-56.27609, -34.86532], [-56.27609, -34.84391], [-56.33926, -34.78869], [-56.37222, -34.76276], [-56.42441, -34.73569], [-56.72241, -34.5403], [-56.8721, -34.43394], [-57.02316, -34.36145], [-57.19345, -34.32518]]}, {"kind": "polygon", "ring": [[-56.28021, -34.43383], [-56.29669, -34.50301], [-56.28159, -34.58103], [-56.25275, -34.69172], [-56.28021, -34.78647], [-56.28433, -34.84959], [-56.24451, -34.86648], [-56.24451, -34.81804], [-56.26099, -34.78309], [-56.2294, -34.69059], [-56.22803, -34.65446], [-56.24176, -34.61154], [-56.26099, -34.54373], [-56.26236, -34.51319], [-56.27197, -34.49962], [-56.25412, -34.43398]]}, {"kind": "polygon", "ring": [[-54.98314, -34.92014], [-55.03944, -34.90888], [-55.05455, -34.88467], [-55.15343, -34.86891], [-55.21797, -34.83568], [-55.24132, -34.79792], [-55.28732, -34.79736], [-55.34157, -34.79172], [-55.3759, -34.79059], [-55.39856, -34.78552], [-55.47752, -34.78552], [-55.5249, -34.79116], [-55.60799, -34.76522], [-55.6739, -34.75564], [-55.74806, -34.7703], [-55.81604, -34.77425], [-55.87234, -34.78608], [-55.9259, -34.79736], [-55.95543, -34.8075], [-55.99319, -34.83004], [-56.00899, -34.83399], [-56.00418, -34.82215], [-55.94513, -34.79229], [-55.9108, -34.78439], [-55.89432, -34.78383], [-55.82085, -34.76804], [-55.77553, -34.76071], [-55.76042, -34.76297], [-55.7103, -34.74662], [-55.59975, -34.74774], [-55.56885, -34.76353], [-55.5201, -34.77876], [-55.46516, -34.77086], [-55.41229, -34.77763], [-55.39169, -34.77425], [-55.37041, -34.78157], [-55.35805, -34.77537], [-55.32921, -34.78157], [-55.27222, -34.78157], [-55.23376, -34.78608], [-55.21866, -34.80581], [-55.20561, -34.8306], [-55.16785, -34.84356], [-55.15274, -34.85652], [-55.1033, -34.85877], [-55.0573, -34.87172], [-55.0312, -34.88524], [-55.0312, -34.89537], [-54.97902, -34.90663]]}]}}, {"type": "Feature", "geometry": null, "properties": {"id": "prxs", "status": "validé", "pieces": [{"kind": "admin1", "code": "URY-22"}]}}, {"type": "Feature", "geometry": null, "properties": {"id": "qHa3", "status": "rejeté", "pieces": []}}, {"type": "Feature", "geometry": null, "properties": {"id": "rYkI", "status": "validé", "pieces": [{"kind": "country"}]}}, {"type": "Feature", "geometry": {"type": "Polygon", "coordinates": [[[-55.3656, -34.28364], [-55.53589, -34.47398], [-55.49744, -34.5735], [-55.448, -34.76318], [-55.39856, -34.76769], [-55.25574, -34.73611], [-55.06897, -34.63226], [-54.57458, -34.59159], [-54.37683, -34.48756], [-54.36584, -34.37433], [-54.37683, -34.24734], [-54.59106, -34.19286], [-54.68445, -34.08378], [-54.75586, -33.91991], [-54.87671, -33.93358], [-54.90417, -34.05194], [-55.01953, -34.14288], [-55.05798, -34.23826], [-55.3656, -34.28364]]]}, "properties": {"id": "sGGa", "status": "validé", "pieces": [{"kind": "polygon", "ring": [[-55.3656, -34.28364], [-55.53589, -34.47398], [-55.49744, -34.5735], [-55.448, -34.76318], [-55.39856, -34.76769], [-55.25574, -34.73611], [-55.06897, -34.63226], [-54.57458, -34.59159], [-54.37683, -34.48756], [-54.36584, -34.37433], [-54.37683, -34.24734], [-54.59106, -34.19286], [-54.68445, -34.08378], [-54.75586, -33.91991], [-54.87671, -33.93358], [-54.90417, -34.05194], [-55.01953, -34.14288], [-55.05798, -34.23826]]}]}}, {"type": "Feature", "geometry": {"type": "Polygon", "coordinates": [[[-55.91079711914063, -34.9511792682424], [-55.91079711914063, -34.9343003851919], [-55.940666198730476, -34.9343003851919], [-55.940666198730476, -34.9511792682424], [-55.91079711914063, -34.9511792682424]]]}, "properties": {"id": "xQPs", "status": "validé", "pieces": [{"kind": "rect", "bounds": [-55.94067, -34.95118, -55.9108, -34.9343]}]}}]}