{"type": "FeatureCollection", "features": [{"type": "Feature", "geometry": {"type": "MultiPolygon", "coordinates": [[[[-64.58519, 17.74897], [-64.60668, 17.74226], [-64.64879, 17.7237], [-64.67052, 17.71723], [-64.87637, 17.68911], [-64.89517, 17.68277], [-64.88785, 17.6999], [-64.88663, 17.71442], [-64.88769, 17.75528], [-64.88463, 17.76789], [-64.87645, 17.77586], [-64.83869, 17.76484], [-64.81745, 17.77411], [-64.79548, 17.78754], [-64.77164, 17.79263], [-64.76915, 17.79002], [-64.73078, 17.76529], [-64.70971, 17.75821], [-64.69904, 17.75283], [-64.68977, 17.74478], [-64.6669, 17.76289], [-64.63097, 17.77033], [-64.59179, 17.7683], [-64.5594, 17.75845], [-64.5594, 17.75161], [-64.58519, 17.74897]]], [[[-64.69742, 18.32654], [-64.704, 18.30331], [-64.73623, 18.31975], [-64.78637, 18.31522], [-64.80128, 18.32825], [-64.78637, 18.34977], [-64.76965, 18.35659], [-64.75174, 18.36169], [-64.75591, 18.36906], [-64.74695, 18.37359], [-64.71352, 18.36508], [-64.6974, 18.36224], [-64.68247, 18.356], [-64.66456, 18.34693], [-64.66039, 18.33672], [-64.67413, 18.33446], [-64.70099, 18.34298], [-64.70816, 18.34014], [-64.69742, 18.32654]]], [[[-64.9105, 18.31576], [-64.92186, 18.32256], [-64.93083, 18.33955], [-64.93502, 18.33049], [-64.94459, 18.33671], [-64.96609, 18.33273], [-64.98164, 18.33556], [-64.99362, 18.34802], [-65.02531, 18.33893], [-65.04149, 18.35366], [-65.01187, 18.3686], [-64.98664, 18.37482], [-64.95, 18.37355], [-64.93498, 18.36332], [-64.92602, 18.36615], [-64.94225, 18.3781], [-64.95003, 18.3866], [-64.92851, 18.38037], [-64.89144, 18.35997], [-64.85498, 18.34013], [-64.84008, 18.31749], [-64.85141, 18.31578], [-64.86031, 18.31859], [-64.87164, 18.31462], [-64.87884, 18.30444], [-64.9105, 18.31576]]]]}, "properties": {"id": "GTl0", "status": "validé", "pieces": [{"kind": "country"}]}}, {"type": "Feature", "geometry": {"type": "Polygon", "coordinates": [[[-64.5594, 17.75161], [-64.58519, 17.74897], [-64.60668, 17.74226], [-64.64879, 17.7237], [-64.67052, 17.71723], [-64.87637, 17.68911], [-64.89517, 17.68277], [-64.88785, 17.6999], [-64.88663, 17.71442], [-64.88769, 17.75528], [-64.88463, 17.76789], [-64.87645, 17.77586], [-64.83869, 17.76484], [-64.81745, 17.77411], [-64.79548, 17.78754], [-64.77164, 17.79263], [-64.76915, 17.79002], [-64.73078, 17.76529], [-64.70971, 17.75821], [-64.69904, 17.75283], [-64.68977, 17.74478], [-64.6669, 17.76289], [-64.63097, 17.77033], [-64.59179, 17.7683], [-64.5594, 17.75845], [-64.5594, 17.75161]]]}, "properties": {"id": "Ij8c", "status": "validé", "pieces": [{"kind": "admin1", "code": "VIR-4870"}]}}, {"type": "Feature", "geometry": null, "properties": {"id": "LB6O", "status": "rejeté", "pieces": []}}, {"type": "Feature", "geometry": {"type": "MultiPolygon", "coordinates": [[[[-64.58519, 17.74897], [-64.60668, 17.74226], [-64.64879, 17.7237], [-64.67052, 17.71723], [-64.87637, 17.68911], [-64.89517, 17.68277], [-64.88785, 17.6999], [-64.88663, 17.71442], [-64.88769, 17.75528], [-64.88463, 17.76789], [-64.87645, 17.77586], [-64.83869, 17.76484], [-64.81745, 17.77411], [-64.79548, 17.78754], [-64.77164, 17.79263], [-64.76915, 17.79002], [-64.73078, 17.76529], [-64.70971, 17.75821], [-64.69904, 17.75283], [-64.68977, 17.74478], [-64.6669, 17.76289], [-64.63097, 17.77033], [-64.59179, 17.7683], [-64.5594, 17.75845], [-64.5594, 17.75161], [-64.58519, 17.74897]]], [[[-64.69742, 18.32654], [-64.704, 18.30331], [-64.73623, 18.31975], [-64.78637, 18.31522], [-64.80128, 18.32825], [-64.78637, 18.34977], [-64.76965, 18.35659], [-64.75174, 18.36169], [-64.75591, 18.36906], [-64.74695, 18.37359], [-64.71352, 18.36508], [-64.6974, 18.36224], [-64.68247, 18.356], [-64.66456, 18.34693], [-64.66039, 18.33672], [-64.67413, 18.33446], [-64.70099, 18.34298], [-64.70816, 18.34014], [-64.69742, 18.32654]]], [[[-64.9105, 18.31576], [-64.92186, 18.32256], [-64.93083, 18.33955], [-64.93502, 18.33049], [-64.94459, 18.33671], [-64.96609, 18.33273], [-64.98164, 18.33556], [-64.99362, 18.34802], [-65.02531, 18.33893], [-65.04149, 18.35366], [-65.01187, 18.3686], [-64.98664, 18.37482], [-64.95, 18.37355], [-64.93498, 18.36332], [-64.92602, 18.36615], [-64.94225, 18.3781], [-64.95003, 18.3866], [-64.92851, 18.38037], [-64.89144, 18.35997], [-64.85498, 18.34013], [-64.84008, 18.31749], [-64.85141, 18.31578], [-64.86031, 18.31859], [-64.87164, 18.31462], [-64.87884, 18.30444], [-64.9105, 18.31576]]]]}, "properties": {"id": "Nfmm", "status": "validé", "pieces": [{"kind": "country"}]}}, {"type": "Feature", "geometry": {"type": "Polygon", "coordinates": [[[-64.5594, 17.75161], [-64.58519, 17.74897], [-64.60668, 17.74226], [-64.64879, 17.7237], [-64.67052, 17.71723], [-64.87637, 17.68911], [-64.89517, 17.68277], [-64.88785, 17.6999], [-64.88663, 17.71442], [-64.88769, 17.75528], [-64.88463, 17.76789], [-64.87645, 17.77586], [-64.83869, 17.76484], [-64.81745, 17.77411], [-64.79548, 17.78754], [-64.77164, 17.79263], [-64.76915, 17.79002], [-64.73078, 17.76529], [-64.70971, 17.75821], [-64.69904, 17.75283], [-64.68977, 17.74478], [-64.6669, 17.76289], [-64.63097, 17.77033], [-64.59179, 17.7683], [-64.5594, 17.75845], [-64.5594, 17.75161]]]}, "properties": {"id": "OgDE", "status": "validé", "pieces": [{"kind": "admin1", "code": "VIR-4870"}]}}, {"type": "Feature", "geometry": null, "properties": {"id": "QKxC", "status": "rejeté", "pieces": []}}, {"type": "Feature", "geometry": {"type": "MultiPolygon", "coordinates": [[[[-64.58519, 17.74897], [-64.60668, 17.74226], [-64.64879, 17.7237], [-64.67052, 17.71723], [-64.87637, 17.68911], [-64.89517, 17.68277], [-64.88785, 17.6999], [-64.88663, 17.71442], [-64.88769, 17.75528], [-64.88463, 17.76789], [-64.87645, 17.77586], [-64.83869, 17.76484], [-64.81745, 17.77411], [-64.79548, 17.78754], [-64.77164, 17.79263], [-64.76915, 17.79002], [-64.73078, 17.76529], [-64.70971, 17.75821], [-64.69904, 17.75283], [-64.68977, 17.74478], [-64.6669, 17.76289], [-64.63097, 17.77033], [-64.59179, 17.7683], [-64.5594, 17.75845], [-64.5594, 17.75161], [-64.58519, 17.74897]]], [[[-64.69742, 18.32654], [-64.704, 18.30331], [-64.73623, 18.31975], [-64.78637, 18.31522], [-64.80128, 18.32825], [-64.78637, 18.34977], [-64.76965, 18.35659], [-64.75174, 18.36169], [-64.75591, 18.36906], [-64.74695, 18.37359], [-64.71352, 18.36508], [-64.6974, 18.36224], [-64.68247, 18.356], [-64.66456, 18.34693], [-64.66039, 18.33672], [-64.67413, 18.33446], [-64.70099, 18.34298], [-64.70816, 18.34014], [-64.69742, 18.32654]]], [[[-64.9105, 18.31576], [-64.92186, 18.32256], [-64.93083, 18.33955], [-64.93502, 18.33049], [-64.94459, 18.33671], [-64.96609, 18.33273], [-64.98164, 18.33556], [-64.99362, 18.34802], [-65.02531, 18.33893], [-65.04149, 18.35366], [-65.01187, 18.3686], [-64.98664, 18.37482], [-64.95, 18.37355], [-64.93498, 18.36332], [-64.92602, 18.36615], [-64.94225, 18.3781], [-64.95003, 18.3866], [-64.92851, 18.38037], [-64.89144, 18.35997], [-64.85498, 18.34013], [-64.84008, 18.31749], [-64.85141, 18.31578], [-64.86031, 18.31859], [-64.87164, 18.31462], [-64.87884, 18.30444], [-64.9105, 18.31576]]]]}, "properties": {"id": "abU4", "status": "validé", "pieces": [{"kind": "country"}]}}, {"type": "Feature", "geometry": {"type": "MultiPolygon", "coordinates": [[[[-64.70816, 18.34014], [-64.69742, 18.32654], [-64.704, 18.30331], [-64.73623, 18.31975], [-64.78637, 18.31522], [-64.80128, 18.32825], [-64.78637, 18.34977], [-64.76965, 18.35659], [-64.75174, 18.36169], [-64.75591, 18.36906], [-64.74695, 18.37359], [-64.71352, 18.36508], [-64.6974, 18.36224], [-64.68247, 18.356], [-64.66456, 18.34693], [-64.66039, 18.33672], [-64.67413, 18.33446], [-64.70099, 18.34298], [-64.70816, 18.34014]]], [[[-64.87884, 18.30444], [-64.9105, 18.31576], [-64.92186, 18.32256], [-64.93083, 18.33955], [-64.93502, 18.33049], [-64.94459, 18.33671], [-64.96609, 18.33273], [-64.98164, 18.33556], [-64.99362, 18.34802], [-65.02531, 18.33893], [-65.04149, 18.35366], [-65.01187, 18.3686], [-64.98664, 18.37482], [-64.95, 18.37355], [-64.93498, 18.36332], [-64.92602, 18.36615], [-64.94225, 18.3781], [-64.95003, 18.3866], [-64.92851, 18.38037], [-64.89144, 18.35997], [-64.85498, 18.34013], [-64.84008, 18.31749], [-64.85141, 18.31578], [-64.86031, 18.31859], [-64.87164, 18.31462], [-64.87884, 18.30444]]]]}, "properties": {"id": "hBRi", "status": "validé", "pieces": [{"kind": "admin1", "code": "VIR-4869"}, {"kind": "admin1", "code": "VIR-4868"}]}}, {"type": "Feature", "geometry": {"type": "Polygon", "coordinates": [[[-64.5594, 17.75161], [-64.58519, 17.74897], [-64.60668, 17.74226], [-64.64879, 17.7237], [-64.67052, 17.71723], [-64.87637, 17.68911], [-64.89517, 17.68277], [-64.88785, 17.6999], [-64.88663, 17.71442], [-64.88769, 17.75528], [-64.88463, 17.76789], [-64.87645, 17.77586], [-64.83869, 17.76484], [-64.81745, 17.77411], [-64.79548, 17.78754], [-64.77164, 17.79263], [-64.76915, 17.79002], [-64.73078, 17.76529], [-64.70971, 17.75821], [-64.69904, 17.75283], [-64.68977, 17.74478], [-64.6669, 17.76289], [-64.63097, 17.77033], [-64.59179, 17.7683], [-64.5594, 17.75845], [-64.5594, 17.75161]]]}, "properties": {"id": "x3lV", "status": "validé", "pieces": [{"kind": "admin1", "code": "VIR-4870"}]}}, {"type": "Feature", "geometry": {"type": "MultiPolygon", "coordinates": [[[[-64.585194, 17.748969], [-64.606679, 17.742255], [-64.648793, 17.7237], [-64.670522, 17.717231], [-64.876373, 17.689114], [-64.895172, 17.682766], [-64.887847, 17.699897], [-64.886627, 17.714423], [-64.887685, 17.755276], [-64.884633, 17.76789], [-64.876454, 17.775865], [-64.838694, 17.764838], [-64.817454, 17.774115], [-64.795481, 17.787543], [-64.771637, 17.792629], [-64.769154, 17.790025], [-64.730784, 17.765286], [-64.709706, 17.758205], [-64.699045, 17.752834], [-64.689768, 17.744778], [-64.6669, 17.762885], [-64.630971, 17.770331], [-64.591786, 17.768297], [-64.559397, 17.75845], [-64.559397, 17.751614], [-64.585194, 17.748969]]], [[[-64.697423, 18.32654], [-64.704005, 18.30331], [-64.73623, 18.319753], [-64.786367, 18.315222], [-64.801285, 18.328253], [-64.786365, 18.349772], [-64.769649, 18.356589], [-64.751736, 18.361689], [-64.755913, 18.369057], [-64.746955, 18.37359], [-64.713519, 18.365083], [-64.697397, 18.362244], [-64.682472, 18.356003], [-64.664561, 18.346927], [-64.66039, 18.336723], [-64.67413, 18.334463], [-64.700994, 18.342976], [-64.708161, 18.340145], [-64.697423, 18.32654]]], [[[-64.910498, 18.315758], [-64.921859, 18.322555], [-64.930834, 18.33955], [-64.935023, 18.330486], [-64.944586, 18.336714], [-64.966095, 18.332735], [-64.981643, 18.335558], [-64.993621, 18.348024], [-65.025309, 18.338926], [-65.041493, 18.353658], [-65.011871, 18.368598], [-64.986643, 18.374823], [-64.950002, 18.373554], [-64.93498, 18.36332], [-64.926019, 18.366154], [-64.942251, 18.378099], [-64.950028, 18.386599], [-64.928505, 18.38037], [-64.891436, 18.359968], [-64.854984, 18.340129], [-64.84008, 18.317489], [-64.851408, 18.315782], [-64.860312, 18.318591], [-64.871637, 18.314623], [-64.878839, 18.304441], [-64.910498, 18.315758]]]]}, "properties": {"id": "yUX7", "status": "validé", "pieces": [{"kind": "country"}]}}]}